{
  "type": "Feature",
  "id": "1081c96b-5dcd-481d-a080-b3d065ce617e",
  "properties": {
    "id": "1081c96b-5dcd-481d-a080-b3d065ce617e",
    "name": "Кубинка - Звенигород",
    "color": "#ff3300",
    "routeType": "Twiter Gravel V1",
    "isSelected": false
  },
  "geometry": {
    "type": "MultiLineString",
    "coordinates": [
      [
        [
          36.691229939460754,
          55.578449964523315
        ],
        [
          36.69185992330313,
          55.5785199534148
        ],
        [
          36.69307999312878,
          55.57841995730996
        ],
        [
          36.69345994479954,
          55.578319961205125
        ],
        [
          36.69361995533109,
          55.578169925138354
        ],
        [
          36.69403997249901,
          55.57739996351302
        ],
        [
          36.695179995149374,
          55.57456998154521
        ],
        [
          36.69559992849827,
          55.57373992167413
        ],
        [
          36.695609986782074,
          55.57330993004143
        ],
        [
          36.695529939606786,
          55.57315997779369
        ],
        [
          36.69534998014569,
          55.57308998890221
        ],
        [
          36.69345994479954,
          55.572839956730604
        ],
        [
          36.69274999760091,
          55.57286996394396
        ],
        [
          36.691379975527525,
          55.572779942303896
        ],
        [
          36.69085996225476,
          55.572689920663834
        ],
        [
          36.686159977689385,
          55.57228993624449
        ],
        [
          36.68234998360276,
          55.5721599329263
        ],
        [
          36.68182997033,
          55.57201995514333
        ],
        [
          36.68031997047365,
          55.57205993682146
        ],
        [
          36.67497994378209,
          55.57199992239475
        ],
        [
          36.664009960368276,
          55.572389932349324
        ],
        [
          36.66303992271423,
          55.57250996120274
        ],
        [
          36.65904996916652,
          55.573419984430075
        ],
        [
          36.65834999643266,
          55.573509922251105
        ],
        [
          36.653609946370125,
          55.5730299744755
        ],
        [
          36.65245994925499,
          55.57297993451357
        ],
        [
          36.64717993699014,
          55.572969960048795
        ],
        [
          36.64158996194601,
          55.57334999553859
        ],
        [
          36.63713992573321,
          55.57342995889485
        ],
        [
          36.63432997651398,
          55.573289981111884
        ],
        [
          36.63069994188845,
          55.57289997115731
        ],
        [
          36.629589926451445,
          55.57271992787719
        ],
        [
          36.62676991894841,
          55.57204996235669
        ],
        [
          36.62491994909942,
          55.571529949083924
        ],
        [
          36.62396994419396,
          55.57117992080748
        ],
        [
          36.622459944337606,
          55.57040995918214
        ],
        [
          36.617279928177595,
          55.56670993566513
        ],
        [
          36.61167997866869,
          55.56417994201183
        ],
        [
          36.61072997376323,
          55.56379999034107
        ],
        [
          36.60991994664073,
          55.56356999091804
        ],
        [
          36.6049999371171,
          55.56260992772877
        ],
        [
          36.60348993726075,
          55.562399961054325
        ],
        [
          36.589689971879125,
          55.5613599345088
        ],
        [
          36.57240992411971,
          55.55847999639809
        ],
        [
          36.57118993811309,
          55.55836994200945
        ],
        [
          36.57044998370111,
          55.558359967544675
        ],
        [
          36.56948992051184,
          55.55847999639809
        ],
        [
          36.5650799497962,
          55.55957995355129
        ],
        [
          36.56432993710041,
          55.55970995686948
        ],
        [
          36.56355997547507,
          55.55972998961806
        ],
        [
          36.561519987881184,
          55.55962999351323
        ],
        [
          36.56075991690159,
          55.55952999740839
        ],
        [
          36.55996992252767,
          55.55924995802343
        ],
        [
          36.55854994431138,
          55.5592599324882
        ],
        [
          36.558109978213906,
          55.55933997966349
        ],
        [
          36.557249994948506,
          55.5596899241209
        ],
        [
          36.55472997575998,
          55.5600699596107
        ],
        [
          36.5514999255538,
          55.560509925708175
        ],
        [
          36.54736999422312,
          55.56090999394655
        ],
        [
          36.54008997604251,
          55.56223995052278
        ],
        [
          36.53507994487882,
          55.563709968701005
        ],
        [
          36.53418995440006,
          55.56404993869364
        ],
        [
          36.52101997286081,
          55.566589990630746
        ],
        [
          36.51782998815179,
          55.56730999611318
        ],
        [
          36.516919964924455,
          55.567429941147566
        ],
        [
          36.51612997055054,
          55.567429941147566
        ],
        [
          36.515499986708164,
          55.5673399195075
        ],
        [
          36.51247998699546,
          55.566589990630746
        ],
        [
          36.5113399643451,
          55.56639997288585
        ],
        [
          36.510929921641946,
          55.56624993681908
        ],
        [
          36.50280995294452,
          55.56438999250531
        ],
        [
          36.494639944285154,
          55.563409980386496
        ],
        [
          36.4936999976635,
          55.56323999539018
        ],
        [
          36.49271998554468,
          55.56292994879186
        ],
        [
          36.49151994846761,
          55.56242996826768
        ],
        [
          36.48768992163241,
          55.56074998341501
        ],
        [
          36.48744994774461,
          55.56057999841869
        ],
        [
          36.485229916870594,
          55.55957995355129
        ],
        [
          36.484499936923385,
          55.55930997245014
        ],
        [
          36.47814997471869,
          55.557479951530695
        ],
        [
          36.47421995177865,
          55.55645995773375
        ],
        [
          36.47082997485995,
          55.55544993840158
        ],
        [
          36.459489930421114,
          55.55226992815733
        ],
        [
          36.457859985530376,
          55.551849994808435
        ],
        [
          36.45693998783827,
          55.551699958741665
        ],
        [
          36.447469945997,
          55.55059991776943
        ],
        [
          36.44565995782614,
          55.5503199622035
        ],
        [
          36.44211994484067,
          55.549249928444624
        ],
        [
          36.4379099663347,
          55.54785995744169
        ],
        [
          36.43614993430674,
          55.54743994027376
        ],
        [
          36.43191992305219,
          55.54682998917997
        ],
        [
          36.424639988690615,
          55.54673996753991
        ],
        [
          36.41451993025839,
          55.54595994763076
        ],
        [
          36.40769999474287,
          55.54557999596
        ],
        [
          36.40507997944951,
          55.54515997879207
        ],
        [
          36.3960799947381,
          55.5435299500823
        ],
        [
          36.394759928807616,
          55.54349994286895
        ],
        [
          36.393829956650734,
          55.54315997287631
        ],
        [
          36.39356995001435,
          55.543189980089664
        ],
        [
          36.39269999228418,
          55.543039944022894
        ],
        [
          36.38998995535076,
          55.54281991906464
        ],
        [
          36.38204994611442,
          55.542549937963486
        ],
        [
          36.36750994250178,
          55.541429948061705
        ],
        [
          36.36328998953104,
          55.540569964796305
        ],
        [
          36.35945996269584,
          55.53960998542607
        ],
        [
          36.35121996514499,
          55.538589991629124
        ],
        [
          36.34884998202324,
          55.53844993002713
        ],
        [
          36.34564993903041,
          55.53849996998906
        ],
        [
          36.3389899302274,
          55.539689948782325
        ],
        [
          36.33803992532194,
          55.539799919351935
        ],
        [
          36.33730994537473,
          55.53965994156897
        ],
        [
          36.331589967012405,
          55.537929916754365
        ],
        [
          36.33065999485552,
          55.53780997171998
        ],
        [
          36.329569928348064,
          55.53786998614669
        ],
        [
          36.322439946234226,
          55.53916993550956
        ],
        [
          36.312599927186966,
          55.540009969845414
        ],
        [
          36.30877995863557,
          55.540549932047725
        ],
        [
          36.30856999196112,
          55.540679935365915
        ],
        [
          36.30980992689729,
          55.54237995296717
        ],
        [
          36.31013992242515,
          55.543429953977466
        ],
        [
          36.31023991852999,
          55.54418994113803
        ],
        [
          36.31013992242515,
          55.54478991776705
        ],
        [
          36.30896997638047,
          55.54747992195189
        ],
        [
          36.30884994752705,
          55.54817997850478
        ],
        [
          36.30892999470234,
          55.54854995571077
        ],
        [
          36.309139961376786,
          55.54895999841392
        ],
        [
          36.30995996296406,
          55.55009993724525
        ],
        [
          36.31449993699789,
          55.55548992007971
        ],
        [
          36.31492992863059,
          55.556489964947104
        ],
        [
          36.31550995633006,
          55.55701995268464
        ],
        [
          36.315669966861606,
          55.557239977642894
        ],
        [
          36.31591999903321,
          55.557759990915656
        ],
        [
          36.316209929063916,
          55.558659955859184
        ],
        [
          36.31696991622448,
          55.55958992801607
        ],
        [
          36.317129926756024,
          55.56002997793257
        ],
        [
          36.31769997999072,
          55.56311996653676
        ],
        [
          36.31812997162342,
          55.56507999077439
        ],
        [
          36.31833993829787,
          55.56554996408522
        ],
        [
          36.31849994882941,
          55.56575993075967
        ],
        [
          36.318889958783984,
          55.56674991734326
        ],
        [
          36.31994993425906,
          55.56878998875618
        ],
        [
          36.32039995864034,
          55.569509994238615
        ],
        [
          36.32065996527672,
          55.57012991979718
        ],
        [
          36.32213995791972,
          55.572969960048795
        ],
        [
          36.322649996727705,
          55.57383991777897
        ],
        [
          36.3228299561888,
          55.57403999380767
        ],
        [
          36.32259995676577,
          55.57417997159064
        ],
        [
          36.31736998446286,
          55.57592994533479
        ],
        [
          36.31673991680145,
          55.576319955289364
        ],
        [
          36.31629995070398,
          55.576839968562126
        ],
        [
          36.31614999845624,
          55.577329974621534
        ],
        [
          36.31616994738579,
          55.58034997433424
        ],
        [
          36.31602996960282,
          55.58171999640763
        ],
        [
          36.31515992805362,
          55.58859994634986
        ],
        [
          36.31504995748401,
          55.58900998905301
        ],
        [
          36.314869998022914,
          55.58930997736752
        ],
        [
          36.314509995281696,
          55.589749943464994
        ],
        [
          36.31354993209243,
          55.59063993394375
        ],
        [
          36.30538998171687,
          55.597119983285666
        ],
        [
          36.30406999960542,
          55.59792992658913
        ],
        [
          36.2877899967134,
          55.60578997246921
        ],
        [
          36.272869957610965,
          55.61564994044602
        ],
        [
          36.27218993380666,
          55.61616995371878
        ],
        [
          36.27162993885577,
          55.616709999740124
        ],
        [
          36.270139971747994,
          55.61839995905757
        ],
        [
          36.26971995458007,
          55.61895995400846
        ],
        [
          36.269949954003096,
          55.61915994621813
        ],
        [
          36.2701999861747,
          55.61917997896671
        ],
        [
          36.270569963380694,
          55.618929946795106
        ],
        [
          36.27068999223411,
          55.61867999844253
        ],
        [
          36.27076995559037,
          55.61864999122918
        ],
        [
          36.29261998459697,
          55.62224993482232
        ],
        [
          36.29386997781694,
          55.62221992760897
        ],
        [
          36.29491997882724,
          55.62234993092716
        ],
        [
          36.2978299241513,
          55.62294999137521
        ],
        [
          36.30029998719692,
          55.623589949682355
        ],
        [
          36.30171996541321,
          55.62368994578719
        ],
        [
          36.30663997493684,
          55.62378994189203
        ],
        [
          36.30764999426901,
          55.62391994521022
        ],
        [
          36.30974999628961,
          55.624359995126724
        ],
        [
          36.31053999066353,
          55.62443995848298
        ],
        [
          36.31169996224344,
          55.624339962378144
        ],
        [
          36.313669960945845,
          55.62385993078351
        ],
        [
          36.31447998806834,
          55.62376999296248
        ],
        [
          36.32384994998574,
          55.6239899341017
        ],
        [
          36.32592991925776,
          55.6239899341017
        ],
        [
          36.32776999846101,
          55.623909970745444
        ],
        [
          36.33336994796991,
          55.62318996526301
        ],
        [
          36.338809970766306,
          55.62236996367574
        ],
        [
          36.34078994393349,
          55.62232998199761
        ],
        [
          36.34272993542254,
          55.62254992313683
        ],
        [
          36.34283998981118,
          55.622489992529154
        ],
        [
          36.342999916523695,
          55.622169971466064
        ],
        [
          36.34321994148195,
          55.62190996482968
        ],
        [
          36.34335991926491,
          55.62194994650781
        ],
        [
          36.343339970335364,
          55.622079949826
        ],
        [
          36.341299982741475,
          55.624749921262264
        ],
        [
          36.34121993556619,
          55.62497992068529
        ],
        [
          36.34136997163296,
          55.62512995675206
        ],
        [
          36.3417699560523,
          55.62514998950064
        ],
        [
          36.34323997423053,
          55.62467993237078
        ],
        [
          36.343319937586784,
          55.62471999786794
        ],
        [
          36.34156996384263,
          55.62527999281883
        ],
        [
          36.341429986059666,
          55.62535995617509
        ],
        [
          36.341519923880696,
          55.62544997781515
        ],
        [
          36.34291995316744,
          55.625649970024824
        ],
        [
          36.34714996442199,
          55.626469971612096
        ],
        [
          36.348799942061305,
          55.62672997824848
        ],
        [
          36.35228999890387,
          55.62697992660105
        ],
        [
          36.35340998880565,
          55.62686995603144
        ],
        [
          36.35594995692372,
          55.62615992501378
        ],
        [
          36.357199950143695,
          55.6258999183774
        ],
        [
          36.36010997928679,
          55.62557998113334
        ],
        [
          36.36032992042601,
          55.62561996281147
        ],
        [
          36.36010997928679,
          55.62555994838476
        ],
        [
          36.359629947692156,
          55.62561996281147
        ],
        [
          36.36014996096492,
          55.625589955598116
        ],
        [
          36.360399993136525,
          55.62566991895437
        ],
        [
          36.36068992316723,
          55.6258999183774
        ],
        [
          36.36101991869509,
          55.625889943912625
        ],
        [
          36.36324992403388,
          55.62471999786794
        ],
        [
          36.36750994250178,
          55.62228991650045
        ],
        [
          36.36754992417991,
          55.622079949826
        ],
        [
          36.36736996471882,
          55.621979953721166
        ],
        [
          36.36732998304069,
          55.6218899320811
        ],
        [
          36.36769996024668,
          55.621419958770275
        ],
        [
          36.367709934711456,
          55.62104998156428
        ],
        [
          36.36782996356487,
          55.62076994217932
        ],
        [
          36.367789981886744,
          55.62043994665146
        ],
        [
          36.37010992504656,
          55.62051999382675
        ],
        [
          36.37086999602616,
          55.62043994665146
        ],
        [
          36.37207992374897,
          55.62044992111623
        ],
        [
          36.372989946976304,
          55.620369957759976
        ],
        [
          36.37316999025643,
          55.62046995386481
        ],
        [
          36.37327996082604,
          55.62084998935461
        ],
        [
          36.37359998188913,
          55.62236996367574
        ],
        [
          36.37414991855621,
          55.62449997290969
        ],
        [
          36.37421999126673,
          55.6249899789691
        ],
        [
          36.3746599573642,
          55.62516993843019
        ],
        [
          36.37547995895147,
          55.62507991679013
        ],
        [
          36.37604992836714,
          55.62512995675206
        ],
        [
          36.38165993615985,
          55.62638992443681
        ],
        [
          36.38185992836952,
          55.62656996771693
        ],
        [
          36.38288998045027,
          55.62871992588043
        ],
        [
          36.38307999819517,
          55.628919918090105
        ],
        [
          36.3837399892509,
          55.62920993193984
        ],
        [
          36.38489996083081,
          55.62950992025435
        ],
        [
          36.388589926064014,
          55.62987998127937
        ],
        [
          36.39207998290658,
          55.6303499545902
        ],
        [
          36.39312998391688,
          55.630379961803555
        ],
        [
          36.39652993530035,
          55.63021995127201
        ],
        [
          36.397849917411804,
          55.630059940740466
        ],
        [
          36.400299947708845,
          55.62926994636655
        ],
        [
          36.40325993299484,
          55.62854994088411
        ],
        [
          36.40857992693782,
          55.626209964975715
        ],
        [
          36.408869940787554,
          55.626019947230816
        ],
        [
          36.40915995463729,
          55.62570998445153
        ],
        [
          36.409299932420254,
          55.625439919531345
        ],
        [
          36.409389954060316,
          55.62458999454975
        ],
        [
          36.409579971805215,
          55.62430995516479
        ],
        [
          36.40980997122824,
          55.624149944633245
        ],
        [
          36.416499987244606,
          55.62089994549751
        ],
        [
          36.41813999041915,
          55.61998992227018
        ],
        [
          36.41929996199906,
          55.61865996569395
        ],
        [
          36.41998996026814,
          55.617489935830235
        ],
        [
          36.419999934732914,
          55.61736999079585
        ],
        [
          36.419679997488856,
          55.61706991866231
        ],
        [
          36.41961998306215,
          55.6169099919498
        ],
        [
          36.41968997195363,
          55.616369945928454
        ],
        [
          36.41986993141472,
          55.61597993597388
        ],
        [
          36.421569949015975,
          55.61452995054424
        ],
        [
          36.423519998788834,
          55.61315992847085
        ],
        [
          36.42377992160618,
          55.61282993294299
        ],
        [
          36.42423992045224,
          55.61195997521281
        ],
        [
          36.424209997057915,
          55.61173995025456
        ],
        [
          36.4238499943167,
          55.61154993250966
        ],
        [
          36.42066998407245,
          55.61074996367097
        ],
        [
          36.42037997022271,
          55.61051996424794
        ],
        [
          36.42033998854458,
          55.610139928758144
        ],
        [
          36.4209399651736,
          55.61001998372376
        ],
        [
          36.42127993516624,
          55.61005996540189
        ],
        [
          36.42166994512081,
          55.609859973192215
        ],
        [
          36.421889970079064,
          55.609649922698736
        ],
        [
          36.422859923914075,
          55.609559984877706
        ],
        [
          36.423029992729425,
          55.60948999598622
        ],
        [
          36.42301993444562,
          55.609429981559515
        ],
        [
          36.42397999763489,
          55.6091199349612
        ],
        [
          36.42505992203951,
          55.608679968863726
        ],
        [
          36.42658995464444,
          55.60769995674491
        ],
        [
          36.427499977871776,
          55.60719997622073
        ],
        [
          36.42750995233655,
          55.60709998011589
        ],
        [
          36.42730996012688,
          55.60692999511957
        ],
        [
          36.42740995623171,
          55.606809966266155
        ],
        [
          36.42900997772813,
          55.60620998963714
        ],
        [
          36.429649936035275,
          55.606249971315265
        ],
        [
          36.430609999224544,
          55.605949983000755
        ],
        [
          36.43156997859478,
          55.60578997246921
        ],
        [
          36.43403995782137,
          55.60554999858141
        ],
        [
          36.43521996214986,
          55.60554999858141
        ],
        [
          36.43627993762493,
          55.60569995082915
        ],
        [
          36.4370999392122,
          55.605949983000755
        ],
        [
          36.4379599224776,
          55.6061099935323
        ],
        [
          36.43994995392859,
          55.606939969584346
        ],
        [
          36.44106994383037,
          55.6076399423182
        ],
        [
          36.44189991988242,
          55.60831996612251
        ],
        [
          36.44224994815886,
          55.60877996496856
        ],
        [
          36.44286995753646,
          55.60926997102797
        ],
        [
          36.44351997412741,
          55.609969943761826
        ],
        [
          36.44463996402919,
          55.61077997088432
        ],
        [
          36.44491991959512,
          55.61109999194741
        ],
        [
          36.445159977301955,
          55.61123996973038
        ],
        [
          36.445439932867885,
          55.611279951408505
        ],
        [
          36.44678992219269,
          55.61077997088432
        ],
        [
          36.4483299292624,
          55.61168999411166
        ],
        [
          36.44873997196555,
          55.61201998963952
        ],
        [
          36.44988996908069,
          55.61229994520545
        ],
        [
          36.450549960136414,
          55.61231997795403
        ],
        [
          36.45247997716069,
          55.61193994246423
        ],
        [
          36.4536399487406,
          55.61152998358011
        ],
        [
          36.454269932582974,
          55.61151992529631
        ],
        [
          36.454699924215674,
          55.61132999137044
        ],
        [
          36.45479992032051,
          55.611339965835214
        ],
        [
          36.45479992032051,
          55.611389921978116
        ],
        [
          36.4544499758631,
          55.61156996525824
        ],
        [
          36.45432994700968,
          55.611579939723015
        ],
        [
          36.45429993979633,
          55.61149997636676
        ],
        [
          36.45523997023702,
          55.610999995842576
        ],
        [
          36.45564992912114,
          55.61068994924426
        ],
        [
          36.45728993229568,
          55.60903997160494
        ],
        [
          36.458869921043515,
          55.60756995342672
        ],
        [
          36.4597599953413,
          55.60643998906016
        ],
        [
          36.460089990869164,
          55.60544991865754
        ],
        [
          36.46057999692857,
          55.60496997088194
        ],
        [
          36.46240993402898,
          55.603889962658286
        ],
        [
          36.4623399451375,
          55.60387998819351
        ],
        [
          36.462479922920465,
          55.60387998819351
        ],
        [
          36.46366998553276,
          55.60316995717585
        ],
        [
          36.4644399471581,
          55.60183991678059
        ],
        [
          36.46460993215442,
          55.60136994346976
        ],
        [
          36.46460993215442,
          55.60106995515525
        ],
        [
          36.46465997211635,
          55.601009940728545
        ],
        [
          36.46825999952853,
          55.60082998126745
        ],
        [
          36.47140991874039,
          55.60034994967282
        ],
        [
          36.47185994312167,
          55.60034994967282
        ],
        [
          36.47230996750295,
          55.60043997131288
        ],
        [
          36.47378996014595,
          55.601199958473444
        ],
        [
          36.474619936197996,
          55.60154998674989
        ],
        [
          36.476739970967174,
          55.6020899489522
        ],
        [
          36.478689936921,
          55.60225993394852
        ],
        [
          36.482349978759885,
          55.60224995948374
        ],
        [
          36.48353995755315,
          55.60241994448006
        ],
        [
          36.485699974000454,
          55.602919925004244
        ],
        [
          36.48703998886049,
          55.60326995328069
        ],
        [
          36.48869994096458,
          55.60393991880119
        ],
        [
          36.48937996476889,
          55.604299921542406
        ],
        [
          36.49079994298518,
          55.605199970304966
        ],
        [
          36.48988991975784,
          55.60454995371401
        ],
        [
          36.49046994745731,
          55.604229932650924
        ],
        [
          36.49050992913544,
          55.604169918224216
        ],
        [
          36.490409933030605,
          55.60401996597648
        ],
        [
          36.49046994745731,
          55.60395995154977
        ],
        [
          36.493239998817444,
          55.60451994650066
        ],
        [
          36.495329942554235,
          55.60503995977342
        ],
        [
          36.49712995626032,
          55.6052999664098
        ],
        [
          36.498959977179766,
          55.60598996467888
        ],
        [
          36.50162994861603,
          55.60647997073829
        ],
        [
          36.503429962322116,
          55.60647997073829
        ],
        [
          36.50622993707657,
          55.607369961217046
        ],
        [
          36.50788997299969,
          55.60761999338865
        ],
        [
          36.50833999738097,
          55.60760993510485
        ],
        [
          36.50839992798865,
          55.607499964535236
        ],
        [
          36.508689941838384,
          55.60733995400369
        ],
        [
          36.50884995236993,
          55.607049940153956
        ],
        [
          36.50895992293954,
          55.606979951262474
        ],
        [
          36.50903997011483,
          55.606809966266155
        ],
        [
          36.50900996290147,
          55.606539985165
        ],
        [
          36.50916997343302,
          55.60544991865754
        ],
        [
          36.50960993953049,
          55.604959996417165
        ],
        [
          36.51034997776151,
          55.60432992875576
        ],
        [
          36.51080997660756,
          55.6040099915117
        ],
        [
          36.511489916592836,
          55.60367999598384
        ],
        [
          36.512109925970435,
          55.60355996713042
        ],
        [
          36.51288994587958,
          55.60325997881591
        ],
        [
          36.513869957998395,
          55.60314992442727
        ],
        [
          36.51512992568314,
          55.60310994274914
        ],
        [
          36.51609996333718,
          55.60316995717585
        ],
        [
          36.51920998468995,
          55.603629956021905
        ],
        [
          36.521669989451766,
          55.60414996929467
        ],
        [
          36.522569954395294,
          55.60439991764724
        ],
        [
          36.523579973727465,
          55.60456998646259
        ],
        [
          36.52412999421358,
          55.604749945923686
        ],
        [
          36.52490993030369,
          55.60483996756375
        ],
        [
          36.526869954541326,
          55.60567991808057
        ],
        [
          36.52850995771587,
          55.60625994578004
        ],
        [
          36.53018994256854,
          55.606529926881194
        ],
        [
          36.53129995800555,
          55.60659999959171
        ],
        [
          36.531769931316376,
          55.60674995183945
        ],
        [
          36.533999936655164,
          55.60681994073093
        ],
        [
          36.53607998974621,
          55.60675992630422
        ],
        [
          36.53764992021024,
          55.60662992298603
        ],
        [
          36.540809981524944,
          55.60606992803514
        ],
        [
          36.5416999720037,
          55.60583992861211
        ],
        [
          36.54181991703808,
          55.60575996525586
        ],
        [
          36.54184992425144,
          55.605499958619475
        ],
        [
          36.542659951373935,
          55.60556994751096
        ],
        [
          36.543539967387915,
          55.60543994419277
        ],
        [
          36.546439938247204,
          55.60446999035776
        ],
        [
          36.54736999422312,
          55.60428994707763
        ],
        [
          36.54803995974362,
          55.604059947654605
        ],
        [
          36.55055997893214,
          55.603579999879
        ],
        [
          36.551039926707745,
          55.60340993106365
        ],
        [
          36.551619954407215,
          55.60307993553579
        ],
        [
          36.55439998023212,
          55.602469984441996
        ],
        [
          36.555529944598675,
          55.60253997333348
        ],
        [
          36.55773991718888,
          55.60230997391045
        ],
        [
          36.559829944744706,
          55.602319948375225
        ],
        [
          36.56265992671251,
          55.60260996222496
        ],
        [
          36.564379977062345,
          55.60264994390309
        ],
        [
          36.57153996638954,
          55.60339995659888
        ],
        [
          36.57570996321738,
          55.60402994044125
        ],
        [
          36.57845998182893,
          55.60459999367595
        ],
        [
          36.579309990629554,
          55.604919930920005
        ],
        [
          36.5807599760592,
          55.60528999194503
        ],
        [
          36.58119994215667,
          55.605479925870895
        ],
        [
          36.5816199593246,
          55.60552996583283
        ],
        [
          36.58179991878569,
          55.60571998357773
        ],
        [
          36.58248991705477,
          55.605929950252175
        ],
        [
          36.58288998529315,
          55.60593992471695
        ],
        [
          36.583179999142885,
          55.60580992139876
        ],
        [
          36.58336993306875,
          55.60584998689592
        ],
        [
          36.583829931914806,
          55.6061099935323
        ],
        [
          36.583849964663386,
          55.60616992413998
        ],
        [
          36.58374996855855,
          55.60630998574197
        ],
        [
          36.58387997187674,
          55.6065899413079
        ],
        [
          36.58404995687306,
          55.60668993741274
        ],
        [
          36.587199959903955,
          55.607949988916516
        ],
        [
          36.58789993263781,
          55.60816993005574
        ],
        [
          36.588399996981025,
          55.608419962227345
        ],
        [
          36.589219998568296,
          55.60866999439895
        ],
        [
          36.58980991691351,
          55.608979957178235
        ],
        [
          36.590229934081435,
          55.609089927747846
        ],
        [
          36.59092999063432,
          55.609619999304414
        ],
        [
          36.5916199889034,
          55.60979995876551
        ],
        [
          36.59302999265492,
          55.61048995703459
        ],
        [
          36.594009920954704,
          55.61110996641219
        ],
        [
          36.594479978084564,
          55.61152998358011
        ],
        [
          36.595449931919575,
          55.61212996020913
        ],
        [
          36.59818997606635,
          55.613449942320585
        ],
        [
          36.5988299343735,
          55.61381991952658
        ],
        [
          36.599319940432906,
          55.61416994780302
        ],
        [
          36.59966996870935,
          55.614739917218685
        ],
        [
          36.599749932065606,
          55.615049963817
        ],
        [
          36.5996899176389,
          55.61579997651279
        ],
        [
          36.59928993321955,
          55.61655996367335
        ],
        [
          36.599099999293685,
          55.616759955883026
        ],
        [
          36.59810992889106,
          55.61740997247398
        ],
        [
          36.594739984720945,
          55.61805998906493
        ],
        [
          36.59149996004999,
          55.61914997175336
        ],
        [
          36.59111992456019,
          55.61945993453264
        ],
        [
          36.59096997231245,
          55.61950997449458
        ],
        [
          36.58929996192455,
          55.619679959490895
        ],
        [
          36.587629951536655,
          55.619999980553985
        ],
        [
          36.58688999712467,
          55.61989998444915
        ],
        [
          36.58623998053372,
          55.62007994391024
        ],
        [
          36.585459960624576,
          55.62017994001508
        ],
        [
          36.58451993018389,
          55.620109951123595
        ],
        [
          36.58337999135256,
          55.62039996497333
        ],
        [
          36.58281999640167,
          55.62067992053926
        ],
        [
          36.58183998428285,
          55.62073993496597
        ],
        [
          36.580859972164035,
          55.62105995602906
        ],
        [
          36.579979956150055,
          55.62175992876291
        ],
        [
          36.57962992787361,
          55.62218992039561
        ],
        [
          36.578989969566464,
          55.62265997752547
        ],
        [
          36.57559999264777,
          55.623699920251966
        ],
        [
          36.57547996379435,
          55.623759934678674
        ],
        [
          36.57549999654293,
          55.623889937996864
        ],
        [
          36.57543998211622,
          55.62391994521022
        ],
        [
          36.574459969997406,
          55.624189926311374
        ],
        [
          36.573129929602146,
          55.62466995790601
        ],
        [
          36.57153996638954,
          55.6254699267447
        ],
        [
          36.57070999033749,
          55.62619999051094
        ],
        [
          36.57031998038292,
          55.626769959926605
        ],
        [
          36.569949919357896,
          55.627009933814406
        ],
        [
          36.568999998271465,
          55.62780998647213
        ],
        [
          36.567649925127625,
          55.62866996973753
        ],
        [
          36.56653999350965,
          55.62961997464299
        ],
        [
          36.56540994532406,
          55.630359929054976
        ],
        [
          36.56490996479988,
          55.63079997897148
        ],
        [
          36.564659932628274,
          55.63124991953373
        ],
        [
          36.56462992541492,
          55.631559966132045
        ],
        [
          36.56471994705498,
          55.631799940019846
        ],
        [
          36.564749954268336,
          55.63216991722584
        ],
        [
          36.565109957009554,
          55.632719937711954
        ],
        [
          36.5658899769187,
          55.63322997651994
        ],
        [
          36.56644997186959,
          55.63343994319439
        ],
        [
          36.56733996234834,
          55.6339299492538
        ],
        [
          36.567649925127625,
          55.633969930931926
        ],
        [
          36.568249985575676,
          55.633879993110895
        ],
        [
          36.56844997778535,
          55.63395995646715
        ],
        [
          36.56845995225012,
          55.634529925882816
        ],
        [
          36.568829929456115,
          55.63485992141068
        ],
        [
          36.56902992166579,
          55.63524993136525
        ],
        [
          36.56948992051184,
          55.635729962959886
        ],
        [
          36.56980994157493,
          55.636219969019294
        ],
        [
          36.57003994099796,
          55.63636992126703
        ],
        [
          36.570439925417304,
          55.63640998676419
        ],
        [
          36.57061996869743,
          55.63650998286903
        ],
        [
          36.570419976487756,
          55.63699998892844
        ],
        [
          36.5714399702847,
          55.63856991939247
        ],
        [
          36.57169997692108,
          55.63887996599078
        ],
        [
          36.57179997302592,
          55.63891994766891
        ],
        [
          36.57171992585063,
          55.63891994766891
        ],
        [
          36.57160995528102,
          55.63873998820782
        ],
        [
          36.57188999466598,
          55.63900996930897
        ],
        [
          36.57182998023927,
          55.63900996930897
        ],
        [
          36.57177994027734,
          55.63891994766891
        ],
        [
          36.5720599796623,
          55.63910996541381
        ],
        [
          36.57255996018648,
          55.63967993482947
        ],
        [
          36.57407993450761,
          55.64037999138236
        ],
        [
          36.57503999769688,
          55.64144994132221
        ],
        [
          36.57536999322474,
          55.642089983448386
        ],
        [
          36.57555992715061,
          55.64276992343366
        ],
        [
          36.57577995210886,
          55.64315993338823
        ],
        [
          36.57579998485744,
          55.64329999499023
        ],
        [
          36.57573997043073,
          55.643419940024614
        ],
        [
          36.576049933210015,
          55.643869964405894
        ],
        [
          36.57672995701432,
          55.64432996325195
        ],
        [
          36.57704997807741,
          55.64443993382156
        ],
        [
          36.57910999841988,
          55.64464998431504
        ],
        [
          36.580279944464564,
          55.64471997320652
        ],
        [
          36.582019943743944,
          55.64464998431504
        ],
        [
          36.5827199164778,
          55.644729947671294
        ],
        [
          36.583719961345196,
          55.64460991881788
        ],
        [
          36.5901299379766,
          55.645119957625866
        ],
        [
          36.59124992787838,
          55.645139990374446
        ],
        [
          36.591709926724434,
          55.64491996541619
        ],
        [
          36.59189994446933,
          55.64489993266761
        ],
        [
          36.59245993942022,
          55.645099924877286
        ],
        [
          36.59339996986091,
          55.645139990374446
        ],
        [
          36.59416993148625,
          55.64510998316109
        ],
        [
          36.59453999251127,
          55.6449799798429
        ],
        [
          36.59463998861611,
          55.644709998741746
        ],
        [
          36.594609981402755,
          55.643789917230606
        ],
        [
          36.59468994475901,
          55.64363996498287
        ],
        [
          36.594849955290556,
          55.64359998330474
        ],
        [
          36.598309921100736,
          55.643569976091385
        ],
        [
          36.59913998097181,
          55.64364993944764
        ],
        [
          36.60312993451953,
          55.64360995776951
        ],
        [
          36.60306992009282,
          55.64417992718518
        ],
        [
          36.6032799705863,
          55.64428998157382
        ],
        [
          36.61361997015774,
          55.64551994204521
        ],
        [
          36.613929932937026,
          55.64566997811198
        ],
        [
          36.61399992182851,
          55.64585999585688
        ],
        [
          36.61420997232199,
          55.6460299808532
        ],
        [
          36.61545996554196,
          55.64632996916771
        ],
        [
          36.61612993106246,
          55.64665996469557
        ],
        [
          36.617129975929856,
          55.646989960223436
        ],
        [
          36.62242993712425,
          55.649179983884096
        ],
        [
          36.623359993100166,
          55.649669989943504
        ],
        [
          36.62518993020058,
          55.650849994271994
        ],
        [
          36.62613993510604,
          55.651329942047596
        ],
        [
          36.626859940588474,
          55.65155994147062
        ],
        [
          36.62742999382317,
          55.65160998143256
        ],
        [
          36.62983995862305,
          55.65122994594276
        ],
        [
          36.630019918084145,
          55.6511499825865
        ],
        [
          36.63006995804608,
          55.65102995373309
        ],
        [
          36.630299957469106,
          55.65083993598819
        ],
        [
          36.63052995689213,
          55.65077992156148
        ],
        [
          36.63092994131148,
          55.65077992156148
        ],
        [
          36.63116999901831,
          55.650899950414896
        ],
        [
          36.6315299179405,
          55.650959964841604
        ],
        [
          36.632469948381186,
          55.65094999037683
        ],
        [
          36.63456995040178,
          55.65120999701321
        ],
        [
          36.63472996093333,
          55.65120999701321
        ],
        [
          36.63533999584615,
          55.65077992156148
        ],
        [
          36.635409984737635,
          55.65085996873677
        ],
        [
          36.63529993034899,
          55.651069935411215
        ],
        [
          36.6353099886328,
          55.65139993093908
        ],
        [
          36.63600996136665,
          55.65206998027861
        ],
        [
          36.63675997406244,
          55.653089974075556
        ],
        [
          36.637019980698824,
          55.65359992906451
        ],
        [
          36.63716993294656,
          55.6537299323827
        ],
        [
          36.637089969590306,
          55.65363999456167
        ],
        [
          36.6376499645412,
          55.6536799762398
        ],
        [
          36.63815991953015,
          55.6543499417603
        ],
        [
          36.63857993669808,
          55.65464993007481
        ],
        [
          36.63905996829271,
          55.65485998056829
        ],
        [
          36.6393799893558,
          55.65526993945241
        ],
        [
          36.63956992328167,
          55.655709989368916
        ],
        [
          36.63924998603761,
          55.65594996325672
        ],
        [
          36.639109924435616,
          55.65627995878458
        ],
        [
          36.639189971610904,
          55.65655999816954
        ],
        [
          36.6397999227047,
          55.65751997753978
        ],
        [
          36.640759985893965,
          55.65829999744892
        ],
        [
          36.64158996194601,
          55.65872998908162
        ],
        [
          36.64248992688954,
          55.65913994796574
        ],
        [
          36.64401995949447,
          55.65964998677373
        ],
        [
          36.64604997262359,
          55.65993991680443
        ],
        [
          36.64790991693735,
          55.65996992401779
        ],
        [
          36.6512299887836,
          55.65937992185354
        ],
        [
          36.651889979839325,
          55.65934999845922
        ],
        [
          36.65395997464657,
          55.65988996066153
        ],
        [
          36.65511994622648,
          55.6605199445039
        ],
        [
          36.655479948967695,
          55.66091992892325
        ],
        [
          36.655909940600395,
          55.66225994378328
        ],
        [
          36.65586995892227,
          55.66270996816456
        ],
        [
          36.65601999498904,
          55.66310995258391
        ],
        [
          36.656059976667166,
          55.66368998028338
        ],
        [
          36.65597992949188,
          55.66430998966098
        ],
        [
          36.65617992170155,
          55.664539989084005
        ],
        [
          36.65617992170155,
          55.664949947968125
        ],
        [
          36.655929973348975,
          55.66538999788463
        ],
        [
          36.65586995892227,
          55.66578998230398
        ],
        [
          36.655929973348975,
          55.66609994508326
        ],
        [
          36.65613994002342,
          55.66656991839409
        ],
        [
          36.656209928914905,
          55.666989935562015
        ],
        [
          36.65630992501974,
          55.66716997884214
        ],
        [
          36.65666992776096,
          55.66744993440807
        ],
        [
          36.65758992545307,
          55.66777992993593
        ],
        [
          36.65875995531678,
          55.667979922145605
        ],
        [
          36.66014992631972,
          55.6683599576354
        ],
        [
          36.66087999008596,
          55.668449979275465
        ],
        [
          36.661729998886585,
          55.66883998923004
        ],
        [
          36.66382991708815,
          55.66963995806873
        ],
        [
          36.66420995257795,
          55.669929971918464
        ],
        [
          36.6650499869138,
          55.67133997566998
        ],
        [
          36.66557997465134,
          55.672039948403835
        ],
        [
          36.66658999398351,
          55.67296992056072
        ],
        [
          36.667079916223884,
          55.67303999327123
        ],
        [
          36.66771995835006,
          55.67292993888259
        ],
        [
          36.66820996440947,
          55.673179971054196
        ],
        [
          36.669959938153625,
          55.673459926620126
        ],
        [
          36.67153992690146,
          55.673629995435476
        ],
        [
          36.6716499812901,
          55.67370995879173
        ],
        [
          36.67161997407675,
          55.67382998764515
        ],
        [
          36.67088999412954,
          55.67468997091055
        ],
        [
          36.67086996138096,
          55.67486993037164
        ],
        [
          36.67104992084205,
          55.67501996643841
        ],
        [
          36.67512997984886,
          55.676119923591614
        ],
        [
          36.67806993238628,
          55.67670992575586
        ],
        [
          36.67853998951614,
          55.67661998793483
        ],
        [
          36.67940994724631,
          55.67569999024272
        ],
        [
          36.68028996326029,
          55.674919970333576
        ],
        [
          36.68047998100519,
          55.67483992315829
        ],
        [
          36.68057997711003,
          55.674469945952296
        ],
        [
          36.68084995821118,
          55.67430993542075
        ],
        [
          36.68878996744752,
          55.67585991695523
        ],
        [
          36.68889993801713,
          55.67598992027342
        ],
        [
          36.68889993801713,
          55.67614993080497
        ],
        [
          36.688499953597784,
          55.67992991767824
        ],
        [
          36.68848997913301,
          55.68048999644816
        ],
        [
          36.688569942489266,
          55.68093993701041
        ],
        [
          36.68896992690861,
          55.681619960814714
        ],
        [
          36.69029996730387,
          55.683039939031005
        ],
        [
          36.69087999500334,
          55.683809984475374
        ],
        [
          36.69106992892921,
          55.68484992720187
        ],
        [
          36.691249972209334,
          55.686519937589765
        ],
        [
          36.6911499761045,
          55.68695998750627
        ],
        [
          36.69044991955161,
          55.68860996514559
        ],
        [
          36.68953998014331,
          55.68983992561698
        ],
        [
          36.689449958503246,
          55.69007998332381
        ],
        [
          36.68945993296802,
          55.69077995605767
        ],
        [
          36.68962991796434,
          55.69204998202622
        ],
        [
          36.689809961244464,
          55.69240998476744
        ],
        [
          36.69055997394025,
          55.69329997524619
        ],
        [
          36.69063993729651,
          55.693479934707284
        ],
        [
          36.690609930083156,
          55.69366995245218
        ],
        [
          36.69040993787348,
          55.69389995187521
        ],
        [
          36.68852996081114,
          55.69511993788183
        ],
        [
          36.68777994811535,
          55.69570994004607
        ],
        [
          36.68765991926193,
          55.69586995057762
        ],
        [
          36.687599988654256,
          55.69628996774554
        ],
        [
          36.68797994032502,
          55.698209926486015
        ],
        [
          36.688159983605146,
          55.69870999082923
        ],
        [
          36.691119968891144,
          55.701879942789674
        ],
        [
          36.69175992719829,
          55.70297998376191
        ],
        [
          36.69190996326506,
          55.70308995433152
        ],
        [
          36.69214993715286,
          55.70309992879629
        ],
        [
          36.69536992907524,
          55.7025399338454
        ],
        [
          36.698299990966916,
          55.701899975538254
        ],
        [
          36.69886996038258,
          55.70174993947148
        ],
        [
          36.69929995201528,
          55.70152999833226
        ],
        [
          36.69938997365534,
          55.70139999501407
        ],
        [
          36.69935996644199,
          55.70119991898537
        ],
        [
          36.6987999714911,
          55.70048997178674
        ],
        [
          36.698639960959554,
          55.700079929083586
        ],
        [
          36.698729982599616,
          55.6967999227345
        ],
        [
          36.69881992042065,
          55.69651996716857
        ],
        [
          36.699159974232316,
          55.69628996774554
        ],
        [
          36.701199961826205,
          55.69613993167877
        ],
        [
          36.702809957787395,
          55.69613993167877
        ],
        [
          36.7128599435091,
          55.695819994434714
        ],
        [
          36.716929944232106,
          55.69576995447278
        ],
        [
          36.733169965445995,
          55.695799961686134
        ],
        [
          36.73506997525692,
          55.695819994434714
        ],
        [
          36.73684995621443,
          55.69600992836058
        ],
        [
          36.737209958955646,
          55.69598997943103
        ],
        [
          36.73869992606342,
          55.69628996774554
        ],
        [
          36.7393399681896,
          55.696549974381924
        ],
        [
          36.74193995073438,
          55.69800993427634
        ],
        [
          36.74463992938399,
          55.69978999905288
        ],
        [
          36.7455599270761,
          55.700289979577065
        ],
        [
          36.74658997915685,
          55.700569935142994
        ],
        [
          36.75247994251549,
          55.70184993557632
        ],
        [
          36.76030998118222,
          55.70375991985202
        ],
        [
          36.76087995059788,
          55.7039699703455
        ],
        [
          36.761289993301034,
          55.70424992591143
        ],
        [
          36.7624799720943,
          55.705489944666624
        ],
        [
          36.76276998594403,
          55.70562992244959
        ],
        [
          36.76312998868525,
          55.70566998794675
        ],
        [
          36.76512999460101,
          55.705509977415204
        ],
        [
          36.77320998162031,
          55.70441999472678
        ],
        [
          36.77477999590337,
          55.70405999198556
        ],
        [
          36.77736992016435,
          55.703189950436354
        ],
        [
          36.77868998609483,
          55.70292994379997
        ],
        [
          36.78059997037053,
          55.70276993326843
        ],
        [
          36.78639999590814,
          55.702569941058755
        ],
        [
          36.79027997888625,
          55.70204992778599
        ],
        [
          36.7909299954772,
          55.701879942789674
        ],
        [
          36.791949989274144,
          55.70132992230356
        ],
        [
          36.79341992363334,
          55.700719971209764
        ],
        [
          36.793759977445006,
          55.70047999732196
        ],
        [
          36.79482992738485,
          55.700139943510294
        ],
        [
          36.79561992175877,
          55.699799973517656
        ],
        [
          36.795929968357086,
          55.699559999629855
        ],
        [
          36.796229956671596,
          55.69892993196845
        ],
        [
          36.79642994888127,
          55.69868995808065
        ],
        [
          36.79662994109094,
          55.69856992922723
        ],
        [
          36.7970999982208,
          55.6984799914062
        ],
        [
          36.797669967636466,
          55.69855995476246
        ],
        [
          36.79909992031753,
          55.69907996803522
        ],
        [
          36.8005399312824,
          55.69947995245457
        ],
        [
          36.8036899343133,
          55.69988999515772
        ],
        [
          36.80499994195998,
          55.69999996572733
        ],
        [
          36.80599998682737,
          55.6999599840492
        ],
        [
          36.8113399296999,
          55.69916998967528
        ],
        [
          36.81236998178065,
          55.69909991696477
        ],
        [
          36.8134499900043,
          55.69916998967528
        ],
        [
          36.817989964038134,
          55.69992997683585
        ],
        [
          36.82298993691802,
          55.700679989531636
        ],
        [
          36.82637999765575,
          55.701279966160655
        ],
        [
          36.84097993187606,
          55.70349999703467
        ],
        [
          36.84158996678889,
          55.70367995649576
        ],
        [
          36.84204996563494,
          55.703899981454015
        ],
        [
          36.84408995322883,
          55.705209989100695
        ],
        [
          36.84537992812693,
          55.70592999458313
        ],
        [
          36.84612994082272,
          55.70625999011099
        ],
        [
          36.84677995741367,
          55.70637993514538
        ],
        [
          36.84754991903901,
          55.70629997178912
        ],
        [
          36.84990992769599,
          55.70522993803024
        ],
        [
          36.850519962608814,
          55.705019971355796
        ],
        [
          36.85164992697537,
          55.70490991696715
        ],
        [
          36.857739966362715,
          55.70513991639018
        ],
        [
          36.85869994573295,
          55.70511996746063
        ],
        [
          36.862189918756485,
          55.70421991869807
        ],
        [
          36.865579979494214,
          55.70356998592615
        ],
        [
          36.86840996146202,
          55.70274998433888
        ],
        [
          36.86939994804561,
          55.70270991884172
        ],
        [
          36.869409922510386,
          55.70264998823404
        ],
        [
          36.869559958577156,
          55.70261998102069
        ],
        [
          36.869919961318374,
          55.702829947695136
        ],
        [
          36.87068992294371,
          55.70302993990481
        ],
        [
          36.87107993289828,
          55.70336999371648
        ],
        [
          36.871319990605116,
          55.703469989821315
        ],
        [
          36.87220998108387,
          55.70328994654119
        ],
        [
          36.87331999652088,
          55.702909994870424
        ],
        [
          36.873789969831705,
          55.702869929373264
        ],
        [
          36.87460997141898,
          55.7029699254781
        ],
        [
          36.87515999190509,
          55.703189950436354
        ],
        [
          36.87658994458616,
          55.70397994481027
        ],
        [
          36.877159997820854,
          55.703619942069054
        ],
        [
          36.8775599822402,
          55.70364994928241
        ],
        [
          36.880299942567945,
          55.701819928362966
        ],
        [
          36.88041997142136,
          55.7016299944371
        ],
        [
          36.881199991330504,
          55.70106999948621
        ],
        [
          36.88159997574985,
          55.70106999948621
        ],
        [
          36.88164993189275,
          55.701019959524274
        ],
        [
          36.88167993910611,
          55.70076992735267
        ],
        [
          36.88152998685837,
          55.70070999674499
        ],
        [
          36.881629982963204,
          55.70053992792964
        ],
        [
          36.881479946896434,
          55.70045996457338
        ],
        [
          36.88127995468676,
          55.700589967891574
        ],
        [
          36.8809499591589,
          55.70061997510493
        ],
        [
          36.87751991674304,
          55.699859987944365
        ]
      ],
      [
        [
          37.323256,
          55.815594
        ],
        [
          37.323176000000004,
          55.815624
        ],
        [
          37.323041,
          55.815512
        ],
        [
          37.322632000000006,
          55.815187
        ],
        [
          37.322239,
          55.814884
        ],
        [
          37.322172,
          55.814845999999996
        ],
        [
          37.322038,
          55.814749
        ],
        [
          37.321847,
          55.814572999999996
        ],
        [
          37.321683,
          55.814423
        ],
        [
          37.321374,
          55.814161999999996
        ],
        [
          37.321256,
          55.81406199999999
        ],
        [
          37.321188,
          55.81401499999999
        ],
        [
          37.321067,
          55.81393099999999
        ],
        [
          37.321011999999996,
          55.81390899999999
        ],
        [
          37.320797,
          55.81389199999999
        ],
        [
          37.320736,
          55.813875999999986
        ],
        [
          37.320705999999994,
          55.81384899999998
        ],
        [
          37.32069599999999,
          55.81381599999998
        ],
        [
          37.32069699999999,
          55.81372899999998
        ],
        [
          37.32069699999999,
          55.81368999999998
        ],
        [
          37.32068899999999,
          55.81366999999998
        ],
        [
          37.32065999999999,
          55.81363599999998
        ],
        [
          37.320618999999986,
          55.81359499999998
        ],
        [
          37.32054499999999,
          55.813547999999976
        ],
        [
          37.32036399999999,
          55.813395999999976
        ],
        [
          37.32042299999999,
          55.813350999999976
        ],
        [
          37.32023199999999,
          55.81319999999997
        ],
        [
          37.32019999999999,
          55.81323499999997
        ],
        [
          37.320148999999994,
          55.81321199999997
        ],
        [
          37.320069,
          55.81315599999997
        ],
        [
          37.319551,
          55.81273599999997
        ],
        [
          37.319230999999995,
          55.81247999999997
        ],
        [
          37.319188999999994,
          55.812470999999974
        ],
        [
          37.319230999999995,
          55.81247999999997
        ],
        [
          37.31903499999999,
          55.812320999999976
        ],
        [
          37.31899299999999,
          55.812295999999975
        ],
        [
          37.31893899999999,
          55.81226999999998
        ],
        [
          37.318878999999995,
          55.812247999999975
        ],
        [
          37.31881799999999,
          55.812227999999976
        ],
        [
          37.31871699999999,
          55.81220499999998
        ],
        [
          37.31854299999999,
          55.812177999999975
        ],
        [
          37.31717799999999,
          55.81199099999998
        ],
        [
          37.31692399999999,
          55.81195099999998
        ],
        [
          37.31678699999999,
          55.81191699999998
        ],
        [
          37.31663199999999,
          55.81189599999998
        ],
        [
          37.31652999999999,
          55.81189299999998
        ],
        [
          37.31531799999999,
          55.81173299999998
        ],
        [
          37.31524099999999,
          55.811725999999986
        ],
        [
          37.31510699999999,
          55.81171999999999
        ],
        [
          37.314919999999994,
          55.81172499999999
        ],
        [
          37.31472399999999,
          55.81173799999999
        ],
        [
          37.31433299999999,
          55.81177099999999
        ],
        [
          37.31403499999999,
          55.81179699999999
        ],
        [
          37.31374099999999,
          55.811823999999994
        ],
        [
          37.313483999999995,
          55.811848
        ],
        [
          37.31341499999999,
          55.811853
        ],
        [
          37.313430999999994,
          55.81191
        ],
        [
          37.313441999999995,
          55.811958999999995
        ],
        [
          37.313342999999996,
          55.811964999999994
        ],
        [
          37.312461,
          55.811992999999994
        ],
        [
          37.312025,
          55.81201299999999
        ],
        [
          37.311997999999996,
          55.812020999999994
        ],
        [
          37.311969,
          55.812037999999994
        ],
        [
          37.311871,
          55.812048
        ],
        [
          37.311195,
          55.812101
        ],
        [
          37.31108,
          55.812113
        ],
        [
          37.310863999999995,
          55.812141
        ],
        [
          37.310652,
          55.812166
        ],
        [
          37.310401999999996,
          55.812199
        ],
        [
          37.31036099999999,
          55.812205
        ],
        [
          37.310325999999996,
          55.812211999999995
        ],
        [
          37.30969699999999,
          55.812366
        ],
        [
          37.309515999999995,
          55.81241
        ],
        [
          37.30848399999999,
          55.812768
        ],
        [
          37.308254999999996,
          55.812867
        ],
        [
          37.308144999999996,
          55.812920999999996
        ],
        [
          37.308105999999995,
          55.81294
        ],
        [
          37.308105,
          55.812957999999995
        ],
        [
          37.308001,
          55.812965999999996
        ],
        [
          37.307952,
          55.812988
        ],
        [
          37.307929,
          55.812999
        ],
        [
          37.307888,
          55.812971
        ],
        [
          37.307825,
          55.812931
        ],
        [
          37.307103,
          55.813285
        ],
        [
          37.306905,
          55.813383
        ],
        [
          37.3068,
          55.813435
        ],
        [
          37.306726000000005,
          55.813472
        ],
        [
          37.306583,
          55.813544
        ],
        [
          37.30654800000001,
          55.813562
        ],
        [
          37.306250000000006,
          55.813708999999996
        ],
        [
          37.30582400000001,
          55.813917
        ],
        [
          37.305642000000006,
          55.814006
        ],
        [
          37.30556200000001,
          55.814045
        ],
        [
          37.30545000000001,
          55.8141
        ],
        [
          37.30519900000001,
          55.814222
        ],
        [
          37.30518300000001,
          55.814228
        ],
        [
          37.305175000000006,
          55.814228
        ],
        [
          37.305167000000004,
          55.814228
        ],
        [
          37.305154,
          55.814221
        ],
        [
          37.304826,
          55.814015000000005
        ],
        [
          37.304758,
          55.81405
        ],
        [
          37.304748,
          55.814043000000005
        ],
        [
          37.304725,
          55.814029000000005
        ],
        [
          37.304812,
          55.813984000000005
        ],
        [
          37.304677,
          55.813908000000005
        ],
        [
          37.304655,
          55.813895
        ],
        [
          37.304758,
          55.813841000000004
        ],
        [
          37.304735,
          55.813827
        ],
        [
          37.304594,
          55.813900000000004
        ],
        [
          37.304527,
          55.813914000000004
        ],
        [
          37.304486,
          55.813934
        ],
        [
          37.304429,
          55.813964000000006
        ],
        [
          37.304362,
          55.81400000000001
        ],
        [
          37.304355,
          55.81400500000001
        ],
        [
          37.304351000000004,
          55.814012000000005
        ],
        [
          37.304353000000006,
          55.814020000000006
        ],
        [
          37.304359000000005,
          55.814024
        ],
        [
          37.304384000000006,
          55.814040000000006
        ],
        [
          37.30417500000001,
          55.814147000000006
        ],
        [
          37.304170000000006,
          55.814144000000006
        ]
      ],
      [
        [
          37.30418,
          55.81443
        ],
        [
          37.304198,
          55.814442
        ],
        [
          37.304391,
          55.814347
        ],
        [
          37.304675,
          55.814206999999996
        ],
        [
          37.304816,
          55.814136
        ],
        [
          37.304855,
          55.814125999999995
        ],
        [
          37.30489600000001,
          55.814128
        ],
        [
          37.304931,
          55.814142
        ],
        [
          37.305177,
          55.814313
        ],
        [
          37.305273,
          55.814265999999996
        ],
        [
          37.305414999999996,
          55.81419699999999
        ],
        [
          37.305521,
          55.814142999999994
        ],
        [
          37.305631999999996,
          55.814086999999994
        ],
        [
          37.306149,
          55.81382299999999
        ],
        [
          37.306307,
          55.813745999999995
        ],
        [
          37.306602999999996,
          55.813596999999994
        ],
        [
          37.306656999999994,
          55.81356999999999
        ],
        [
          37.306650999999995,
          55.813565999999994
        ],
        [
          37.306656999999994,
          55.81356999999999
        ],
        [
          37.306704999999994,
          55.81354499999999
        ],
        [
          37.306816999999995,
          55.81349099999999
        ],
        [
          37.30696699999999,
          55.81341799999999
        ],
        [
          37.30701499999999,
          55.813447999999994
        ],
        [
          37.307061999999995,
          55.813477999999996
        ],
        [
          37.307410999999995,
          55.813314
        ],
        [
          37.30745699999999,
          55.813269999999996
        ],
        [
          37.30752299999999,
          55.813204999999996
        ],
        [
          37.30792899999999,
          55.812999
        ],
        [
          37.307951999999986,
          55.812988
        ],
        [
          37.30800099999998,
          55.812965999999996
        ],
        [
          37.30810499999998,
          55.812957999999995
        ],
        [
          37.30810599999998,
          55.81294
        ],
        [
          37.30814499999998,
          55.812920999999996
        ],
        [
          37.30825499999998,
          55.812867
        ],
        [
          37.30848399999998,
          55.812768
        ],
        [
          37.30951599999998,
          55.81241
        ],
        [
          37.30969699999998,
          55.812366
        ],
        [
          37.31032599999998,
          55.812211999999995
        ],
        [
          37.31036099999998,
          55.812205
        ],
        [
          37.31040199999998,
          55.812199
        ],
        [
          37.31065199999998,
          55.812166
        ],
        [
          37.31086399999998,
          55.812141
        ],
        [
          37.31107999999998,
          55.812113
        ],
        [
          37.311194999999984,
          55.812101
        ],
        [
          37.31187099999998,
          55.812048
        ],
        [
          37.31196899999998,
          55.812037999999994
        ],
        [
          37.31199799999998,
          55.812020999999994
        ],
        [
          37.312024999999984,
          55.81201299999999
        ],
        [
          37.312460999999985,
          55.811992999999994
        ],
        [
          37.31334299999998,
          55.811964999999994
        ],
        [
          37.31344199999998,
          55.811958999999995
        ],
        [
          37.31343099999998,
          55.81191
        ],
        [
          37.31341499999998,
          55.811853
        ],
        [
          37.31348399999998,
          55.811848
        ],
        [
          37.31374099999998,
          55.811823999999994
        ],
        [
          37.314034999999976,
          55.81179699999999
        ],
        [
          37.314332999999976,
          55.81177099999999
        ],
        [
          37.31472399999998,
          55.81173799999999
        ],
        [
          37.31491999999998,
          55.81172499999999
        ],
        [
          37.315106999999976,
          55.81171999999999
        ],
        [
          37.31524099999998,
          55.811725999999986
        ],
        [
          37.31531799999998,
          55.81173299999998
        ],
        [
          37.31652999999998,
          55.81189299999998
        ],
        [
          37.31663199999998,
          55.81189599999998
        ],
        [
          37.31678699999998,
          55.81191699999998
        ],
        [
          37.31692399999998,
          55.81195099999998
        ],
        [
          37.31717799999998,
          55.81199099999998
        ],
        [
          37.31854299999998,
          55.812177999999975
        ],
        [
          37.31871699999998,
          55.81220499999998
        ],
        [
          37.31881799999998,
          55.812227999999976
        ],
        [
          37.31887899999998,
          55.812247999999975
        ],
        [
          37.31893899999998,
          55.81226999999998
        ],
        [
          37.31899299999998,
          55.812295999999975
        ],
        [
          37.31903499999998,
          55.812320999999976
        ],
        [
          37.31920999999998,
          55.81246299999997
        ],
        [
          37.31918899999998,
          55.812470999999974
        ],
        [
          37.31920999999998,
          55.81246299999997
        ],
        [
          37.319230999999974,
          55.81247999999997
        ],
        [
          37.319550999999976,
          55.81273599999997
        ],
        [
          37.320068999999975,
          55.81315599999997
        ],
        [
          37.32014899999997,
          55.81321199999997
        ],
        [
          37.32019999999997,
          55.81323499999997
        ],
        [
          37.32023199999997,
          55.81319999999997
        ],
        [
          37.32042299999997,
          55.813350999999976
        ],
        [
          37.32036399999997,
          55.813395999999976
        ],
        [
          37.32054499999997,
          55.813547999999976
        ],
        [
          37.320618999999965,
          55.81359499999998
        ],
        [
          37.32065999999997,
          55.81363599999998
        ],
        [
          37.320688999999966,
          55.81366999999998
        ],
        [
          37.32069699999997,
          55.81368999999998
        ],
        [
          37.32069699999997,
          55.81372899999998
        ],
        [
          37.32069599999997,
          55.81381599999998
        ],
        [
          37.32070599999997,
          55.81384899999998
        ],
        [
          37.320735999999975,
          55.813875999999986
        ],
        [
          37.32079699999998,
          55.81389199999999
        ],
        [
          37.321011999999975,
          55.81390899999999
        ],
        [
          37.32106699999998,
          55.81393099999999
        ],
        [
          37.32118799999998,
          55.81401499999999
        ],
        [
          37.32125599999998,
          55.81406199999999
        ],
        [
          37.32137399999998,
          55.814161999999996
        ],
        [
          37.32168299999998,
          55.814423
        ],
        [
          37.32184699999998,
          55.814572999999996
        ],
        [
          37.32203799999998,
          55.814749
        ],
        [
          37.32217199999998,
          55.814845999999996
        ],
        [
          37.32223899999998,
          55.814884
        ],
        [
          37.322631999999984,
          55.815187
        ],
        [
          37.32304099999998,
          55.815512
        ],
        [
          37.32316599999998,
          55.815616
        ],
        [
          37.32317499999998,
          55.815612
        ]
      ]
    ]
  }
}
