{
  "type": "Feature",
  "id": "1f4c9bef-e707-4b27-b561-4aa784618344",
  "properties": {
    "id": "1f4c9bef-e707-4b27-b561-4aa784618344",
    "name": "Санкт П. - Выборг",
    "color": "#a3a3a3",
    "routeType": "Train",
    "isSelected": false
  },
  "geometry": {
    "type": "LineString",
    "coordinates": [
      [
        28.749781,
        60.710496
      ],
      [
        28.749789,
        60.710493
      ],
      [
        28.749943,
        60.710593
      ],
      [
        28.749519999999997,
        60.710749
      ],
      [
        28.749906999999997,
        60.710998
      ],
      [
        28.749985999999996,
        60.711059999999996
      ],
      [
        28.749990999999998,
        60.711073999999996
      ],
      [
        28.749985999999996,
        60.711088999999994
      ],
      [
        28.750029999999995,
        60.711110999999995
      ],
      [
        28.750094999999995,
        60.711149999999996
      ],
      [
        28.750190999999994,
        60.711206999999995
      ],
      [
        28.750155999999993,
        60.71124699999999
      ],
      [
        28.750063999999995,
        60.71128099999999
      ],
      [
        28.749983999999994,
        60.71130699999999
      ],
      [
        28.749999999999993,
        60.71131399999999
      ],
      [
        28.75027499999999,
        60.71149399999999
      ],
      [
        28.750659999999993,
        60.71174399999999
      ],
      [
        28.751381999999992,
        60.71221299999999
      ],
      [
        28.751514999999994,
        60.712298999999994
      ],
      [
        28.751529999999995,
        60.712315
      ],
      [
        28.751531999999994,
        60.712331999999996
      ],
      [
        28.751452999999994,
        60.712604
      ],
      [
        28.751614999999994,
        60.712612
      ],
      [
        28.751739999999995,
        60.712618
      ],
      [
        28.751735999999994,
        60.712728
      ],
      [
        28.751728999999994,
        60.712782
      ],
      [
        28.751724999999993,
        60.712818
      ],
      [
        28.75171999999999,
        60.712829
      ],
      [
        28.75169199999999,
        60.712842
      ],
      [
        28.75168199999999,
        60.712853
      ],
      [
        28.75160499999999,
        60.713337
      ],
      [
        28.751578999999992,
        60.713496
      ],
      [
        28.75156099999999,
        60.713614
      ],
      [
        28.751543999999992,
        60.713696999999996
      ],
      [
        28.751534999999993,
        60.713741999999996
      ],
      [
        28.751529999999992,
        60.713781
      ],
      [
        28.75144199999999,
        60.7142
      ],
      [
        28.75142099999999,
        60.714464
      ],
      [
        28.75159299999999,
        60.714572
      ],
      [
        28.75164799999999,
        60.714656
      ],
      [
        28.75169999999999,
        60.714746999999996
      ],
      [
        28.75168899999999,
        60.71480999999999
      ],
      [
        28.751690999999987,
        60.71484399999999
      ],
      [
        28.75177199999999,
        60.715146999999995
      ],
      [
        28.751781999999988,
        60.71517899999999
      ],
      [
        28.751767999999988,
        60.715188999999995
      ],
      [
        28.75174099999999,
        60.715197999999994
      ],
      [
        28.751283999999988,
        60.715250999999995
      ],
      [
        28.751337999999986,
        60.71536999999999
      ],
      [
        28.751371999999986,
        60.71544599999999
      ],
      [
        28.751422999999985,
        60.715546999999994
      ],
      [
        28.751426999999985,
        60.715554999999995
      ],
      [
        28.751485999999986,
        60.71566599999999
      ],
      [
        28.751559999999987,
        60.71580999999999
      ],
      [
        28.751870999999987,
        60.71577299999999
      ],
      [
        28.75287099999999,
        60.71567799999999
      ],
      [
        28.752939999999988,
        60.71566999999999
      ],
      [
        28.753834999999988,
        60.715569999999985
      ],
      [
        28.75382599999999,
        60.715549999999986
      ],
      [
        28.75382599999999,
        60.715549999999986
      ],
      [
        28.75393699999999,
        60.71579099999999
      ],
      [
        28.75436899999999,
        60.71574299999999
      ],
      [
        28.75532099999999,
        60.71563699999999
      ],
      [
        28.756241999999993,
        60.71550199999999
      ],
      [
        28.757753999999995,
        60.715231999999986
      ],
      [
        28.759705999999994,
        60.71495599999999
      ],
      [
        28.761050999999995,
        60.714711999999984
      ],
      [
        28.761974999999996,
        60.714584999999985
      ],
      [
        28.764550999999997,
        60.71410599999999
      ],
      [
        28.764882999999998,
        60.71404399999999
      ],
      [
        28.766154999999998,
        60.713720999999985
      ],
      [
        28.768164999999996,
        60.713124999999984
      ],
      [
        28.770461999999995,
        60.712380999999986
      ],
      [
        28.771078999999993,
        60.71218099999999
      ],
      [
        28.773127999999993,
        60.71127999999999
      ],
      [
        28.775176999999992,
        60.71037999999999
      ],
      [
        28.777039999999992,
        60.70956099999999
      ],
      [
        28.777800999999993,
        60.709170999999984
      ],
      [
        28.779107999999994,
        60.708573999999984
      ],
      [
        28.780781999999995,
        60.707503999999986
      ],
      [
        28.780865999999996,
        60.707450999999985
      ],
      [
        28.782333999999995,
        60.70638499999998
      ],
      [
        28.784214999999996,
        60.705401999999985
      ],
      [
        28.784480999999996,
        60.705263999999985
      ],
      [
        28.785945999999996,
        60.70459899999999
      ],
      [
        28.787763999999996,
        60.703586999999985
      ],
      [
        28.789580999999995,
        60.70257499999998
      ],
      [
        28.791398999999995,
        60.70156299999998
      ],
      [
        28.793216999999995,
        60.700550999999976
      ],
      [
        28.795034999999995,
        60.69953899999997
      ],
      [
        28.795651999999993,
        60.699194999999975
      ],
      [
        28.796650999999994,
        60.69869799999997
      ],
      [
        28.796958999999994,
        60.69851199999997
      ],
      [
        28.798988999999995,
        60.697601999999975
      ],
      [
        28.800583999999994,
        60.69688599999998
      ],
      [
        28.802749999999993,
        60.696053999999975
      ],
      [
        28.803822999999994,
        60.69564199999998
      ],
      [
        28.804378999999994,
        60.69546099999998
      ],
      [
        28.806440999999992,
        60.69456899999998
      ],
      [
        28.808504999999993,
        60.69367699999998
      ],
      [
        28.808778999999994,
        60.69355799999998
      ],
      [
        28.810859999999995,
        60.692675999999985
      ],
      [
        28.812938999999993,
        60.69179299999998
      ],
      [
        28.815018999999992,
        60.69091199999998
      ],
      [
        28.81550499999999,
        60.69070499999998
      ],
      [
        28.81750599999999,
        60.68989099999998
      ],
      [
        28.81750599999999,
        60.68989099999998
      ],
      [
        28.81752399999999,
        60.689883999999985
      ],
      [
        28.81960399999999,
        60.68900199999999
      ],
      [
        28.821190999999992,
        60.68832699999999
      ],
      [
        28.82318699999999,
        60.687398999999985
      ],
      [
        28.82518199999999,
        60.68647099999998
      ],
      [
        28.827176999999992,
        60.68554299999998
      ],
      [
        28.82917299999999,
        60.68461499999998
      ],
      [
        28.83116699999999,
        60.68368699999998
      ],
      [
        28.83315999999999,
        60.68275799999998
      ],
      [
        28.83515499999999,
        60.68182999999998
      ],
      [
        28.83714999999999,
        60.680901999999975
      ],
      [
        28.83880199999999,
        60.68013299999998
      ],
      [
        28.83973499999999,
        60.67965099999998
      ],
      [
        28.84172699999999,
        60.67872299999998
      ],
      [
        28.84371999999999,
        60.67779399999998
      ],
      [
        28.845711999999992,
        60.67686399999998
      ],
      [
        28.847703999999993,
        60.675933999999984
      ],
      [
        28.849695999999994,
        60.675004999999985
      ],
      [
        28.851688999999993,
        60.674075999999985
      ],
      [
        28.852561999999992,
        60.67366899999998
      ],
      [
        28.85459399999999,
        60.67275999999998
      ],
      [
        28.85662499999999,
        60.67185099999998
      ],
      [
        28.85865799999999,
        60.67094299999998
      ],
      [
        28.86068899999999,
        60.67003399999998
      ],
      [
        28.86128799999999,
        60.66976599999998
      ],
      [
        28.863303999999992,
        60.66884899999998
      ],
      [
        28.865318999999992,
        60.66793199999998
      ],
      [
        28.867333999999992,
        60.66701399999998
      ],
      [
        28.86934799999999,
        60.66609699999998
      ],
      [
        28.871363999999993,
        60.66517999999998
      ],
      [
        28.87337799999999,
        60.66426299999998
      ],
      [
        28.875392999999992,
        60.663345999999976
      ],
      [
        28.87740699999999,
        60.66242799999998
      ],
      [
        28.87942199999999,
        60.661510999999976
      ],
      [
        28.88143599999999,
        60.66059299999998
      ],
      [
        28.88174299999999,
        60.660452999999976
      ],
      [
        28.88178399999999,
        60.660432999999976
      ],
      [
        28.88178399999999,
        60.660432999999976
      ],
      [
        28.88378499999999,
        60.65950899999998
      ],
      [
        28.88578599999999,
        60.65858499999998
      ],
      [
        28.887785999999988,
        60.65765999999998
      ],
      [
        28.889785999999987,
        60.65673599999998
      ],
      [
        28.891744999999986,
        60.65583099999998
      ],
      [
        28.893770999999987,
        60.654919999999976
      ],
      [
        28.895797999999985,
        60.654008999999974
      ],
      [
        28.896021999999984,
        60.653906999999975
      ],
      [
        28.898069999999983,
        60.65300799999998
      ],
      [
        28.900116999999984,
        60.65210899999998
      ],
      [
        28.902164999999982,
        60.65120899999998
      ],
      [
        28.90421299999998,
        60.65031099999998
      ],
      [
        28.906259999999982,
        60.64941099999998
      ],
      [
        28.908306999999983,
        60.64851199999998
      ],
      [
        28.910353999999984,
        60.647612999999986
      ],
      [
        28.912400999999985,
        60.646712999999984
      ],
      [
        28.914446999999985,
        60.645814999999985
      ],
      [
        28.916493999999986,
        60.64491499999998
      ],
      [
        28.918305999999987,
        60.644117999999985
      ],
      [
        28.918305999999987,
        60.644117999999985
      ],
      [
        28.91834899999999,
        60.64409899999998
      ],
      [
        28.92041899999999,
        60.64321299999998
      ],
      [
        28.922488999999988,
        60.64232499999998
      ],
      [
        28.924557999999987,
        60.64143899999998
      ],
      [
        28.926626999999986,
        60.640552999999976
      ],
      [
        28.928697999999986,
        60.63966599999998
      ],
      [
        28.930765999999988,
        60.63877899999998
      ],
      [
        28.93283399999999,
        60.63789199999998
      ],
      [
        28.93490399999999,
        60.63700599999998
      ],
      [
        28.93575899999999,
        60.63663999999998
      ],
      [
        28.93781899999999,
        60.63574699999998
      ],
      [
        28.93987999999999,
        60.63485599999998
      ],
      [
        28.941937999999993,
        60.63396399999998
      ],
      [
        28.943997999999993,
        60.633072999999975
      ],
      [
        28.946058999999995,
        60.63218199999997
      ],
      [
        28.948117999999994,
        60.63128999999997
      ],
      [
        28.950176999999993,
        60.63039799999997
      ],
      [
        28.952236999999993,
        60.62950599999997
      ],
      [
        28.954295999999992,
        60.62861399999997
      ],
      [
        28.95635499999999,
        60.62772299999997
      ],
      [
        28.95638599999999,
        60.62770799999997
      ],
      [
        28.95638599999999,
        60.62770799999997
      ],
      [
        28.956404999999993,
        60.62769999999997
      ],
      [
        28.958474999999993,
        60.62681499999997
      ],
      [
        28.960545999999994,
        60.62592899999997
      ],
      [
        28.962616999999995,
        60.62504299999997
      ],
      [
        28.964686999999994,
        60.62415799999997
      ],
      [
        28.966756999999994,
        60.623272999999976
      ],
      [
        28.967885999999993,
        60.622788999999976
      ],
      [
        28.969946999999994,
        60.62189799999997
      ],
      [
        28.972007999999995,
        60.62100899999997
      ],
      [
        28.974067999999995,
        60.62011799999997
      ],
      [
        28.976128999999997,
        60.61922699999997
      ],
      [
        28.978189999999998,
        60.61833699999997
      ],
      [
        28.980249999999998,
        60.617445999999966
      ],
      [
        28.982311,
        60.61655499999996
      ],
      [
        28.984372,
        60.61566399999996
      ],
      [
        28.986432,
        60.61477299999996
      ],
      [
        28.988492,
        60.613881999999954
      ],
      [
        28.988962,
        60.613678999999955
      ],
      [
        28.991020000000002,
        60.612786999999955
      ],
      [
        28.993078000000004,
        60.611894999999954
      ],
      [
        28.995135000000005,
        60.611002999999954
      ],
      [
        28.996885000000006,
        60.610244999999956
      ],
      [
        28.998908000000007,
        60.609333999999954
      ],
      [
        28.999446000000006,
        60.60909099999996
      ],
      [
        29.001501000000005,
        60.608196999999954
      ],
      [
        29.003555000000006,
        60.60730299999995
      ],
      [
        29.004812000000005,
        60.60675499999995
      ],
      [
        29.006881000000003,
        60.60586899999995
      ],
      [
        29.008951000000003,
        60.60498399999995
      ],
      [
        29.011019000000005,
        60.60409799999995
      ],
      [
        29.013088000000003,
        60.60321199999995
      ],
      [
        29.015003000000004,
        60.60239199999995
      ],
      [
        29.016285000000003,
        60.60179899999995
      ],
      [
        29.018344000000003,
        60.60090799999995
      ],
      [
        29.020402000000004,
        60.600016999999944
      ],
      [
        29.022461000000003,
        60.599124999999944
      ],
      [
        29.024520000000003,
        60.59823399999994
      ],
      [
        29.024597000000004,
        60.59819999999994
      ],
      [
        29.026714000000002,
        60.59734299999994
      ],
      [
        29.027066,
        60.59720099999994
      ],
      [
        29.02899,
        60.59650899999994
      ],
      [
        29.03124,
        60.59573799999994
      ],
      [
        29.033491,
        60.59496599999994
      ],
      [
        29.034849,
        60.59449999999994
      ],
      [
        29.035333,
        60.59437799999994
      ],
      [
        29.037592,
        60.593613999999945
      ],
      [
        29.038698,
        60.59324099999994
      ],
      [
        29.040945,
        60.59246699999994
      ],
      [
        29.043191,
        60.59169399999994
      ],
      [
        29.0446,
        60.59120799999994
      ],
      [
        29.0446,
        60.59120799999994
      ],
      [
        29.04467,
        60.59118499999994
      ],
      [
        29.046905,
        60.59040299999994
      ],
      [
        29.049139,
        60.58962099999994
      ],
      [
        29.049758,
        60.58940399999994
      ],
      [
        29.052023000000002,
        60.58864399999994
      ],
      [
        29.054288000000003,
        60.58788299999994
      ],
      [
        29.054416000000003,
        60.58784099999994
      ],
      [
        29.056667000000004,
        60.58706999999994
      ],
      [
        29.058918000000006,
        60.58629899999994
      ],
      [
        29.061169000000007,
        60.58552899999994
      ],
      [
        29.063420000000008,
        60.58475799999994
      ],
      [
        29.065670000000008,
        60.58398699999994
      ],
      [
        29.06792100000001,
        60.583216999999934
      ],
      [
        29.070170000000008,
        60.58244599999993
      ],
      [
        29.072420000000008,
        60.58167499999993
      ],
      [
        29.07467000000001,
        60.58090399999993
      ],
      [
        29.07692000000001,
        60.58013299999993
      ],
      [
        29.07917000000001,
        60.57936299999993
      ],
      [
        29.08142000000001,
        60.57859199999993
      ],
      [
        29.08367000000001,
        60.57782199999993
      ],
      [
        29.085919000000008,
        60.577050999999926
      ],
      [
        29.086061000000008,
        60.577000999999925
      ],
      [
        29.08830200000001,
        60.576223999999925
      ],
      [
        29.09054200000001,
        60.575446999999926
      ],
      [
        29.09278300000001,
        60.57466999999993
      ],
      [
        29.095023000000012,
        60.57389299999993
      ],
      [
        29.095933000000013,
        60.573575999999925
      ],
      [
        29.098151000000012,
        60.57278399999993
      ],
      [
        29.09917000000001,
        60.57241799999993
      ],
      [
        29.101432000000013,
        60.571655999999926
      ],
      [
        29.103694000000015,
        60.57089499999993
      ],
      [
        29.105956000000017,
        60.57013399999993
      ],
      [
        29.10821800000002,
        60.56937199999993
      ],
      [
        29.109972000000017,
        60.56878099999993
      ],
      [
        29.112207000000016,
        60.56799999999993
      ],
      [
        29.114441000000017,
        60.56721899999992
      ],
      [
        29.11667500000002,
        60.56643699999992
      ],
      [
        29.11890900000002,
        60.56565699999992
      ],
      [
        29.12050000000002,
        60.56509999999992
      ],
      [
        29.12275200000002,
        60.564330999999925
      ],
      [
        29.12500200000002,
        60.56356099999992
      ],
      [
        29.12725300000002,
        60.562791999999924
      ],
      [
        29.129504000000022,
        60.56202199999992
      ],
      [
        29.131755000000023,
        60.56125299999992
      ],
      [
        29.134005000000023,
        60.560483999999924
      ],
      [
        29.136256000000024,
        60.55971399999992
      ],
      [
        29.138506000000024,
        60.55894399999992
      ],
      [
        29.140756000000025,
        60.558173999999916
      ],
      [
        29.143006000000025,
        60.55740399999991
      ],
      [
        29.143751000000023,
        60.557149999999915
      ],
      [
        29.145917000000022,
        60.556324999999916
      ],
      [
        29.146273000000022,
        60.55618899999992
      ],
      [
        29.14755800000002,
        60.55564299999992
      ],
      [
        29.148451000000023,
        60.55525099999992
      ],
      [
        29.15008100000002,
        60.55444999999992
      ],
      [
        29.15144600000002,
        60.55372299999992
      ],
      [
        29.15315700000002,
        60.55266999999992
      ],
      [
        29.15364700000002,
        60.55236899999992
      ],
      [
        29.15452000000002,
        60.55174699999992
      ],
      [
        29.15618900000002,
        60.55067799999992
      ],
      [
        29.15619200000002,
        60.55067599999992
      ],
      [
        29.15620000000002,
        60.550670999999916
      ],
      [
        29.15620000000002,
        60.550670999999916
      ],
      [
        29.15787100000002,
        60.54960399999992
      ],
      [
        29.159542000000023,
        60.548534999999916
      ],
      [
        29.161212000000024,
        60.54746699999992
      ],
      [
        29.162883000000026,
        60.54639899999992
      ],
      [
        29.164553000000026,
        60.545330999999926
      ],
      [
        29.166224000000028,
        60.54426299999993
      ],
      [
        29.16789400000003,
        60.54319499999993
      ],
      [
        29.16956500000003,
        60.54212599999993
      ],
      [
        29.17123500000003,
        60.54105899999993
      ],
      [
        29.172905000000032,
        60.53998999999993
      ],
      [
        29.174575000000033,
        60.538921999999936
      ],
      [
        29.176244000000032,
        60.537852999999934
      ],
      [
        29.177914000000033,
        60.536785999999935
      ],
      [
        29.179583000000033,
        60.535716999999934
      ],
      [
        29.181253000000034,
        60.53464899999994
      ],
      [
        29.182923000000034,
        60.53357999999994
      ],
      [
        29.184592000000034,
        60.53251199999994
      ],
      [
        29.184859000000035,
        60.53234099999994
      ],
      [
        29.186523000000037,
        60.53127099999994
      ],
      [
        29.18818700000004,
        60.53019999999994
      ],
      [
        29.18985000000004,
        60.529130999999936
      ],
      [
        29.19151400000004,
        60.52805999999993
      ],
      [
        29.193178000000042,
        60.52698899999993
      ],
      [
        29.194842000000044,
        60.52591899999993
      ],
      [
        29.196505000000045,
        60.52484899999993
      ],
      [
        29.198169000000046,
        60.523778999999934
      ],
      [
        29.199832000000047,
        60.52270799999993
      ],
      [
        29.201495000000047,
        60.52163699999993
      ],
      [
        29.203158000000048,
        60.520565999999924
      ],
      [
        29.20412000000005,
        60.519946999999924
      ],
      [
        29.20576600000005,
        60.51886999999992
      ],
      [
        29.20741200000005,
        60.51779299999992
      ],
      [
        29.209058000000052,
        60.51671599999992
      ],
      [
        29.210703000000052,
        60.515638999999915
      ],
      [
        29.212348000000052,
        60.51456199999991
      ],
      [
        29.213993000000052,
        60.51348499999991
      ],
      [
        29.21563800000005,
        60.51240799999991
      ],
      [
        29.21728200000005,
        60.511330999999906
      ],
      [
        29.217612000000052,
        60.511114999999904
      ],
      [
        29.219292000000053,
        60.510050999999905
      ],
      [
        29.219946000000053,
        60.50963599999991
      ],
      [
        29.221572000000055,
        60.50855299999991
      ],
      [
        29.223197000000056,
        60.50746899999991
      ],
      [
        29.224823000000058,
        60.506383999999905
      ],
      [
        29.22539400000006,
        60.506003999999905
      ],
      [
        29.227039000000058,
        60.50492799999991
      ],
      [
        29.228684000000058,
        60.503850999999905
      ],
      [
        29.230331000000056,
        60.5027739999999
      ],
      [
        29.231976000000056,
        60.5016969999999
      ],
      [
        29.233621000000056,
        60.5006209999999
      ],
      [
        29.235266000000056,
        60.4995439999999
      ],
      [
        29.236910000000055,
        60.4984669999999
      ],
      [
        29.238555000000055,
        60.497389999999896
      ],
      [
        29.240200000000055,
        60.496312999999894
      ],
      [
        29.241844000000054,
        60.49523599999989
      ],
      [
        29.242122000000055,
        60.495054999999894
      ],
      [
        29.243779000000057,
        60.493981999999896
      ],
      [
        29.245435000000057,
        60.4929089999999
      ],
      [
        29.24709200000006,
        60.491837999999895
      ],
      [
        29.24734900000006,
        60.4916709999999
      ],
      [
        29.24898900000006,
        60.4905919999999
      ],
      [
        29.250629000000057,
        60.4895129999999
      ],
      [
        29.252269000000055,
        60.4884349999999
      ],
      [
        29.253909000000053,
        60.4873569999999
      ],
      [
        29.25554900000005,
        60.486277999999906
      ],
      [
        29.257188000000053,
        60.48519899999991
      ],
      [
        29.257314000000054,
        60.48511699999991
      ],
      [
        29.258964000000056,
        60.48404199999991
      ],
      [
        29.260613000000056,
        60.48296699999991
      ],
      [
        29.262262000000057,
        60.48189199999991
      ],
      [
        29.263911000000057,
        60.48081699999991
      ],
      [
        29.26556100000006,
        60.47974199999991
      ],
      [
        29.26721000000006,
        60.47866699999991
      ],
      [
        29.26885900000006,
        60.47759199999991
      ],
      [
        29.27050800000006,
        60.476517999999906
      ],
      [
        29.27215600000006,
        60.47544199999991
      ],
      [
        29.27380500000006,
        60.47436699999991
      ],
      [
        29.27545300000006,
        60.47329199999991
      ],
      [
        29.27692900000006,
        60.47232999999991
      ],
      [
        29.27859500000006,
        60.47126199999991
      ],
      [
        29.28026100000006,
        60.47019299999991
      ],
      [
        29.28192700000006,
        60.46912399999991
      ],
      [
        29.28359300000006,
        60.46805599999991
      ],
      [
        29.28392400000006,
        60.46784299999991
      ],
      [
        29.28396500000006,
        60.46781599999991
      ],
      [
        29.28396500000006,
        60.46781599999991
      ],
      [
        29.28563100000006,
        60.46674899999991
      ],
      [
        29.28729700000006,
        60.46567999999991
      ],
      [
        29.28896200000006,
        60.46461199999991
      ],
      [
        29.290627000000057,
        60.46354299999991
      ],
      [
        29.292293000000058,
        60.46247399999991
      ],
      [
        29.29326900000006,
        60.461846999999906
      ],
      [
        29.29491700000006,
        60.460772999999904
      ],
      [
        29.296565000000058,
        60.459696999999906
      ],
      [
        29.298212000000056,
        60.458621999999906
      ],
      [
        29.299859000000055,
        60.4575479999999
      ],
      [
        29.301507000000054,
        60.456471999999906
      ],
      [
        29.303154000000053,
        60.455396999999905
      ],
      [
        29.304800000000053,
        60.454321999999905
      ],
      [
        29.305145000000053,
        60.4540949999999
      ],
      [
        29.306816000000055,
        60.4530289999999
      ],
      [
        29.308487000000056,
        60.451963999999904
      ],
      [
        29.310158000000058,
        60.450896999999905
      ],
      [
        29.31182800000006,
        60.449830999999904
      ],
      [
        29.31349900000006,
        60.44876599999991
      ],
      [
        29.315170000000062,
        60.44769899999991
      ],
      [
        29.316840000000063,
        60.446632999999906
      ],
      [
        29.318511000000065,
        60.445566999999905
      ],
      [
        29.320180000000065,
        60.444499999999906
      ],
      [
        29.321851000000066,
        60.443433999999904
      ],
      [
        29.323521000000067,
        60.4423679999999
      ],
      [
        29.325191000000068,
        60.4413019999999
      ],
      [
        29.32686100000007,
        60.4402349999999
      ],
      [
        29.327372000000068,
        60.4399069999999
      ],
      [
        29.328996000000068,
        60.4388249999999
      ],
      [
        29.330619000000066,
        60.4377399999999
      ],
      [
        29.330639000000065,
        60.4377259999999
      ],
      [
        29.332068000000067,
        60.4365779999999
      ],
      [
        29.332575000000066,
        60.4361689999999
      ],
      [
        29.333077000000067,
        60.4357419999999
      ],
      [
        29.334220000000066,
        60.434639999999895
      ],
      [
        29.334904000000066,
        60.43393199999989
      ],
      [
        29.335982000000065,
        60.43269399999989
      ],
      [
        29.336099000000065,
        60.43255999999989
      ],
      [
        29.337030000000066,
        60.43129299999989
      ],
      [
        29.337450000000064,
        60.43072299999989
      ],
      [
        29.338329000000066,
        60.42944699999989
      ],
      [
        29.339207000000066,
        60.42817099999989
      ],
      [
        29.340086000000067,
        60.426894999999895
      ],
      [
        29.340462000000066,
        60.42634999999989
      ],
      [
        29.341363000000065,
        60.425076999999895
      ],
      [
        29.342263000000067,
        60.423804999999895
      ],
      [
        29.343161000000066,
        60.422532999999895
      ],
      [
        29.344061000000067,
        60.4212599999999
      ],
      [
        29.34496100000007,
        60.419988999999894
      ],
      [
        29.34586100000007,
        60.418716999999894
      ],
      [
        29.34595200000007,
        60.41858799999989
      ],
      [
        29.34686300000007,
        60.417317999999895
      ],
      [
        29.34777500000007,
        60.4160479999999
      ],
      [
        29.348686000000068,
        60.414776999999894
      ],
      [
        29.349598000000068,
        60.413507999999894
      ],
      [
        29.350510000000067,
        60.412237999999896
      ],
      [
        29.351421000000066,
        60.41096699999989
      ],
      [
        29.352219000000066,
        60.409854999999894
      ],
      [
        29.352219000000066,
        60.409854999999894
      ],
      [
        29.352221000000064,
        60.40985299999989
      ],
      [
        29.353141000000065,
        60.40858399999989
      ],
      [
        29.353414000000065,
        60.40820899999989
      ],
      [
        29.354292000000065,
        60.406932999999896
      ],
      [
        29.355171000000066,
        60.4056569999999
      ],
      [
        29.355342000000068,
        60.4054099999999
      ],
      [
        29.356250000000067,
        60.404138999999894
      ],
      [
        29.357158000000066,
        60.40286799999989
      ],
      [
        29.358067000000066,
        60.40159699999989
      ],
      [
        29.358974000000067,
        60.40032699999989
      ],
      [
        29.359882000000066,
        60.39905699999989
      ],
      [
        29.360790000000065,
        60.39778599999989
      ],
      [
        29.361698000000064,
        60.39651499999989
      ],
      [
        29.362606000000063,
        60.395243999999884
      ],
      [
        29.363513000000065,
        60.393973999999886
      ],
      [
        29.364422000000065,
        60.392702999999884
      ],
      [
        29.365328000000066,
        60.39143199999988
      ],
      [
        29.366235000000067,
        60.39016099999988
      ],
      [
        29.367143000000066,
        60.38889199999988
      ],
      [
        29.368051000000065,
        60.38762199999988
      ],
      [
        29.368958000000067,
        60.38635099999988
      ],
      [
        29.36986500000007,
        60.385079999999874
      ],
      [
        29.370773000000067,
        60.38380899999987
      ],
      [
        29.371582000000068,
        60.38267499999987
      ],
      [
        29.37245100000007,
        60.38139699999987
      ],
      [
        29.37331900000007,
        60.380120999999875
      ],
      [
        29.37418800000007,
        60.378842999999875
      ],
      [
        29.375057000000073,
        60.377565999999874
      ],
      [
        29.375925000000073,
        60.37628899999987
      ],
      [
        29.376794000000075,
        60.37501099999987
      ],
      [
        29.377662000000075,
        60.37373399999987
      ],
      [
        29.378530000000076,
        60.37245599999987
      ],
      [
        29.379398000000077,
        60.37117899999987
      ],
      [
        29.380266000000077,
        60.36990299999987
      ],
      [
        29.381134000000078,
        60.368624999999874
      ],
      [
        29.382002000000078,
        60.36734799999987
      ],
      [
        29.382869000000078,
        60.36606999999987
      ],
      [
        29.38373800000008,
        60.36479299999987
      ],
      [
        29.38409500000008,
        60.36426599999987
      ],
      [
        29.38431500000008,
        60.36379399999987
      ],
      [
        29.38519900000008,
        60.36252099999987
      ],
      [
        29.38566700000008,
        60.361844999999875
      ],
      [
        29.38659600000008,
        60.360577999999876
      ],
      [
        29.38752600000008,
        60.35931099999988
      ],
      [
        29.38802800000008,
        60.358627999999875
      ],
      [
        29.38889900000008,
        60.35735199999988
      ],
      [
        29.38905900000008,
        60.357116999999874
      ],
      [
        29.38909700000008,
        60.357060999999874
      ],
      [
        29.38909700000008,
        60.357060999999874
      ],
      [
        29.389979000000082,
        60.35578699999987
      ],
      [
        29.39079000000008,
        60.35461299999987
      ],
      [
        29.39165400000008,
        60.35357199999987
      ],
      [
        29.392734000000083,
        60.352495999999874
      ],
      [
        29.393456000000082,
        60.35185799999987
      ],
      [
        29.394912000000083,
        60.35071899999987
      ],
      [
        29.39561900000008,
        60.350165999999874
      ],
      [
        29.39651700000008,
        60.34949699999987
      ],
      [
        29.397127000000083,
        60.34913099999987
      ],
      [
        29.398640000000082,
        60.348009999999874
      ],
      [
        29.39874200000008,
        60.347933999999874
      ],
      [
        29.39989200000008,
        60.347181999999876
      ],
      [
        29.40169600000008,
        60.346171999999875
      ],
      [
        29.403499000000078,
        60.34516299999987
      ],
      [
        29.405303000000078,
        60.34415299999987
      ],
      [
        29.407106000000077,
        60.34314299999987
      ],
      [
        29.408909000000076,
        60.34213399999987
      ],
      [
        29.410712000000075,
        60.34112499999986
      ],
      [
        29.412516000000075,
        60.34011499999986
      ],
      [
        29.414318000000076,
        60.33910599999986
      ],
      [
        29.416120000000078,
        60.33809599999986
      ],
      [
        29.416796000000076,
        60.33771599999986
      ],
      [
        29.416796000000076,
        60.33771599999986
      ],
      [
        29.416892000000075,
        60.33766399999986
      ],
      [
        29.418685000000075,
        60.336649999999864
      ],
      [
        29.420478000000074,
        60.33563499999986
      ],
      [
        29.422270000000072,
        60.33462099999986
      ],
      [
        29.42406300000007,
        60.33360799999986
      ],
      [
        29.42460400000007,
        60.33330199999986
      ],
      [
        29.42641300000007,
        60.33229499999986
      ],
      [
        29.42822100000007,
        60.33128699999986
      ],
      [
        29.430029000000072,
        60.330280999999864
      ],
      [
        29.430172000000073,
        60.33020099999987
      ],
      [
        29.430140000000073,
        60.330218999999865
      ],
      [
        29.431931000000073,
        60.32920399999986
      ],
      [
        29.433720000000072,
        60.32818899999986
      ],
      [
        29.435510000000072,
        60.32717399999986
      ],
      [
        29.43730000000007,
        60.326158999999855
      ],
      [
        29.43909000000007,
        60.325142999999855
      ],
      [
        29.44087900000007,
        60.32412899999986
      ],
      [
        29.44257300000007,
        60.323166999999856
      ],
      [
        29.44437600000007,
        60.32215799999985
      ],
      [
        29.44618000000007,
        60.32114799999985
      ],
      [
        29.447983000000068,
        60.32013999999985
      ],
      [
        29.44978500000007,
        60.31912999999985
      ],
      [
        29.45158800000007,
        60.31811999999985
      ],
      [
        29.452071000000068,
        60.31784999999985
      ],
      [
        29.45385900000007,
        60.31683299999985
      ],
      [
        29.45564600000007,
        60.31581799999985
      ],
      [
        29.45743200000007,
        60.31480199999985
      ],
      [
        29.45896100000007,
        60.31393199999985
      ],
      [
        29.46077300000007,
        60.31292699999985
      ],
      [
        29.46258400000007,
        60.31192199999985
      ],
      [
        29.46439400000007,
        60.31091599999986
      ],
      [
        29.46620500000007,
        60.30990999999986
      ],
      [
        29.46801600000007,
        60.30890399999986
      ],
      [
        29.46982700000007,
        60.307898999999864
      ],
      [
        29.47163800000007,
        60.30689299999987
      ],
      [
        29.47344800000007,
        60.30588699999987
      ],
      [
        29.475254000000067,
        60.30488399999987
      ],
      [
        29.477051000000067,
        60.303872999999875
      ],
      [
        29.478848000000067,
        60.30286099999987
      ],
      [
        29.480644000000066,
        60.30184899999987
      ],
      [
        29.482441000000065,
        60.30083799999987
      ],
      [
        29.484237000000064,
        60.29982699999987
      ],
      [
        29.486034000000064,
        60.29881499999987
      ],
      [
        29.487830000000063,
        60.29780299999987
      ],
      [
        29.48962600000006,
        60.296790999999864
      ],
      [
        29.49142200000006,
        60.295779999999866
      ],
      [
        29.49321700000006,
        60.29476899999987
      ],
      [
        29.49501300000006,
        60.293756999999864
      ],
      [
        29.496808000000062,
        60.29274499999986
      ],
      [
        29.49860400000006,
        60.29173399999986
      ],
      [
        29.49960900000006,
        60.29116599999986
      ],
      [
        29.49960900000006,
        60.29116599999986
      ],
      [
        29.49961400000006,
        60.29116399999986
      ],
      [
        29.50141800000006,
        60.29015499999986
      ],
      [
        29.503223000000062,
        60.289147999999855
      ],
      [
        29.505028000000063,
        60.288139999999856
      ],
      [
        29.506831000000062,
        60.28713199999986
      ],
      [
        29.507830000000062,
        60.28657399999986
      ],
      [
        29.50961200000006,
        60.28555699999986
      ],
      [
        29.511393000000062,
        60.28453799999986
      ],
      [
        29.513174000000063,
        60.283520999999865
      ],
      [
        29.514956000000062,
        60.28250299999986
      ],
      [
        29.515333000000062,
        60.28228699999986
      ],
      [
        29.517138000000063,
        60.28127999999986
      ],
      [
        29.51894400000006,
        60.28027299999986
      ],
      [
        29.52075000000006,
        60.27926499999986
      ],
      [
        29.52255400000006,
        60.27825799999986
      ],
      [
        29.52436000000006,
        60.27725099999986
      ],
      [
        29.52616500000006,
        60.276243999999856
      ],
      [
        29.52797000000006,
        60.27523599999986
      ],
      [
        29.52977300000006,
        60.27422999999986
      ],
      [
        29.531223000000058,
        60.27341999999986
      ],
      [
        29.531223000000058,
        60.27341999999986
      ],
      [
        29.531230000000058,
        60.27341599999986
      ],
      [
        29.533044000000057,
        60.272412999999865
      ],
      [
        29.534859000000058,
        60.271410999999866
      ],
      [
        29.536672000000056,
        60.27040799999987
      ],
      [
        29.536964000000058,
        60.27024799999987
      ],
      [
        29.53874500000006,
        60.269229999999865
      ],
      [
        29.54052600000006,
        60.268213999999865
      ],
      [
        29.54230700000006,
        60.26719599999986
      ],
      [
        29.543138000000063,
        60.26672199999987
      ],
      [
        29.544604000000064,
        60.265815999999866
      ],
      [
        29.545660000000062,
        60.26521499999986
      ],
      [
        29.54746700000006,
        60.264208999999866
      ],
      [
        29.54927300000006,
        60.263201999999865
      ],
      [
        29.55107900000006,
        60.26219599999987
      ],
      [
        29.551428000000058,
        60.26200099999987
      ],
      [
        29.55321200000006,
        60.26098599999987
      ],
      [
        29.55499600000006,
        60.25996899999987
      ],
      [
        29.55592000000006,
        60.25944299999987
      ],
      [
        29.55772500000006,
        60.25843599999987
      ],
      [
        29.558241000000063,
        60.25814899999987
      ],
      [
        29.55863000000006,
        60.25797499999987
      ],
      [
        29.56039900000006,
        60.25695299999987
      ],
      [
        29.56216900000006,
        60.25593099999987
      ],
      [
        29.56265900000006,
        60.255647999999866
      ],
      [
        29.56330600000006,
        60.25532299999987
      ],
      [
        29.565080000000062,
        60.25430299999987
      ],
      [
        29.566328000000063,
        60.253583999999876
      ],
      [
        29.568136000000063,
        60.252578999999876
      ],
      [
        29.569943000000062,
        60.25157299999988
      ],
      [
        29.57122700000006,
        60.25085899999988
      ],
      [
        29.57298600000006,
        60.24983199999988
      ],
      [
        29.57341400000006,
        60.24958299999988
      ],
      [
        29.57464000000006,
        60.248908999999884
      ],
      [
        29.57467900000006,
        60.24888699999988
      ],
      [
        29.57467900000006,
        60.24888699999988
      ],
      [
        29.57647600000006,
        60.24787699999988
      ],
      [
        29.57827100000006,
        60.24686599999988
      ],
      [
        29.58006700000006,
        60.245854999999885
      ],
      [
        29.58186200000006,
        60.244844999999884
      ],
      [
        29.58365800000006,
        60.243833999999886
      ],
      [
        29.58545300000006,
        60.242823999999885
      ],
      [
        29.587248000000063,
        60.24181199999988
      ],
      [
        29.58904400000006,
        60.240800999999884
      ],
      [
        29.590839000000063,
        60.23979099999988
      ],
      [
        29.592633000000063,
        60.238779999999885
      ],
      [
        29.594428000000065,
        60.237768999999886
      ],
      [
        29.596223000000066,
        60.23675799999989
      ],
      [
        29.598018000000067,
        60.23574699999989
      ],
      [
        29.599812000000068,
        60.23473599999989
      ],
      [
        29.60160700000007,
        60.23372499999989
      ],
      [
        29.60340100000007,
        60.232713999999895
      ],
      [
        29.60519500000007,
        60.2317029999999
      ],
      [
        29.60698800000007,
        60.2306919999999
      ],
      [
        29.60878300000007,
        60.229679999999895
      ],
      [
        29.61057700000007,
        60.228669999999894
      ],
      [
        29.61237000000007,
        60.227658999999896
      ],
      [
        29.61416400000007,
        60.2266479999999
      ],
      [
        29.61595700000007,
        60.225635999999895
      ],
      [
        29.61775100000007,
        60.2246249999999
      ],
      [
        29.61954400000007,
        60.223612999999894
      ],
      [
        29.62079200000007,
        60.22290999999989
      ],
      [
        29.62258900000007,
        60.22193199999989
      ],
      [
        29.62459800000007,
        60.22102599999989
      ],
      [
        29.62462600000007,
        60.221012999999886
      ],
      [
        29.62462600000007,
        60.221012999999886
      ],
      [
        29.62462800000007,
        60.22101199999989
      ],
      [
        29.62538500000007,
        60.22070199999989
      ],
      [
        29.62759400000007,
        60.21991899999989
      ],
      [
        29.62773700000007,
        60.21986799999989
      ],
      [
        29.62977100000007,
        60.219278999999894
      ],
      [
        29.63200500000007,
        60.218776999999896
      ],
      [
        29.63452900000007,
        60.21828299999989
      ],
      [
        29.63705200000007,
        60.21778899999989
      ],
      [
        29.63957500000007,
        60.21729399999989
      ],
      [
        29.642099000000073,
        60.21679899999989
      ],
      [
        29.644622000000073,
        60.216304999999885
      ],
      [
        29.645262000000073,
        60.21617899999988
      ],
      [
        29.647792000000074,
        60.215690999999886
      ],
      [
        29.650320000000075,
        60.21520299999989
      ],
      [
        29.652849000000074,
        60.21471599999989
      ],
      [
        29.655378000000074,
        60.21422799999989
      ],
      [
        29.657906000000075,
        60.213739999999895
      ],
      [
        29.660434000000077,
        60.21325399999989
      ],
      [
        29.662963000000076,
        60.21276499999989
      ],
      [
        29.665491000000078,
        60.21227799999989
      ],
      [
        29.66801900000008,
        60.211789999999894
      ],
      [
        29.67054700000008,
        60.21130099999989
      ],
      [
        29.67278000000008,
        60.21087099999989
      ],
      [
        29.673901000000082,
        60.21069199999989
      ],
      [
        29.67643000000008,
        60.21020499999989
      ],
      [
        29.67895900000008,
        60.209718999999886
      ],
      [
        29.68148800000008,
        60.20923099999989
      ],
      [
        29.68401600000008,
        60.20874399999989
      ],
      [
        29.68617800000008,
        60.20832799999989
      ],
      [
        29.688720000000078,
        60.207858999999885
      ],
      [
        29.691262000000076,
        60.20739099999989
      ],
      [
        29.693805000000076,
        60.206921999999885
      ],
      [
        29.696348000000075,
        60.20645299999988
      ],
      [
        29.698134000000074,
        60.20612399999988
      ],
      [
        29.700649000000073,
        60.20561799999988
      ],
      [
        29.701137000000074,
        60.20551899999988
      ],
      [
        29.701137000000074,
        60.20551899999988
      ],
      [
        29.703467000000074,
        60.204996999999885
      ],
      [
        29.705995000000076,
        60.204509999999885
      ],
      [
        29.708524000000075,
        60.204020999999884
      ],
      [
        29.711051000000076,
        60.20353299999989
      ],
      [
        29.713579000000077,
        60.20304499999989
      ],
      [
        29.716105000000077,
        60.20255799999989
      ],
      [
        29.71863300000008,
        60.20206899999989
      ],
      [
        29.72116000000008,
        60.20158099999989
      ],
      [
        29.72368800000008,
        60.201092999999894
      ],
      [
        29.72621300000008,
        60.2006049999999
      ],
      [
        29.72874100000008,
        60.200115999999895
      ],
      [
        29.73126800000008,
        60.19962699999989
      ],
      [
        29.733795000000082,
        60.19913999999989
      ],
      [
        29.736322000000083,
        60.19865099999989
      ],
      [
        29.738848000000083,
        60.19816199999989
      ],
      [
        29.741375000000083,
        60.19767399999989
      ],
      [
        29.743902000000084,
        60.197185999999896
      ],
      [
        29.746429000000084,
        60.196696999999894
      ],
      [
        29.748954000000083,
        60.19620799999989
      ],
      [
        29.751481000000084,
        60.195719999999895
      ],
      [
        29.754007000000083,
        60.19523099999989
      ],
      [
        29.756534000000084,
        60.194740999999894
      ],
      [
        29.759060000000083,
        60.19425199999989
      ],
      [
        29.761586000000083,
        60.193763999999895
      ],
      [
        29.764112000000083,
        60.19327499999989
      ],
      [
        29.766638000000082,
        60.19278599999989
      ],
      [
        29.76916400000008,
        60.19229699999989
      ],
      [
        29.77168900000008,
        60.19180799999989
      ],
      [
        29.77421600000008,
        60.19131799999989
      ],
      [
        29.77674100000008,
        60.19082899999989
      ],
      [
        29.77926700000008,
        60.190339999999885
      ],
      [
        29.78179300000008,
        60.189850999999884
      ],
      [
        29.784318000000077,
        60.189360999999884
      ],
      [
        29.786843000000076,
        60.18887199999988
      ],
      [
        29.789368000000074,
        60.18838299999988
      ],
      [
        29.791894000000074,
        60.18789299999988
      ],
      [
        29.794418000000075,
        60.18740299999988
      ],
      [
        29.796944000000074,
        60.18691399999988
      ],
      [
        29.799468000000076,
        60.18642399999988
      ],
      [
        29.801994000000075,
        60.18593399999988
      ],
      [
        29.804519000000074,
        60.18544499999988
      ],
      [
        29.807043000000075,
        60.18495499999988
      ],
      [
        29.808919000000074,
        60.18458999999988
      ],
      [
        29.808919000000074,
        60.18458999999988
      ],
      [
        29.811443000000075,
        60.18410099999988
      ],
      [
        29.813967000000076,
        60.18360999999988
      ],
      [
        29.816492000000075,
        60.183118999999884
      ],
      [
        29.819016000000076,
        60.182628999999885
      ],
      [
        29.821540000000077,
        60.18213799999989
      ],
      [
        29.824062000000076,
        60.18164799999989
      ],
      [
        29.826586000000077,
        60.18115699999989
      ],
      [
        29.829110000000078,
        60.18066699999989
      ],
      [
        29.83163400000008,
        60.180175999999896
      ],
      [
        29.83415700000008,
        60.1796849999999
      ],
      [
        29.83668100000008,
        60.1791939999999
      ],
      [
        29.83920400000008,
        60.178702999999906
      ],
      [
        29.84172700000008,
        60.17821299999991
      ],
      [
        29.84425100000008,
        60.177720999999906
      ],
      [
        29.84677400000008,
        60.17723099999991
      ],
      [
        29.84929700000008,
        60.176738999999905
      ],
      [
        29.85182000000008,
        60.17624799999991
      ],
      [
        29.854343000000082,
        60.17575699999991
      ],
      [
        29.856866000000082,
        60.17526499999991
      ],
      [
        29.859389000000082,
        60.17477499999991
      ],
      [
        29.861912000000082,
        60.17428299999991
      ],
      [
        29.86443400000008,
        60.173791999999914
      ],
      [
        29.86695700000008,
        60.17329999999991
      ],
      [
        29.868942000000082,
        60.17291199999991
      ],
      [
        29.868942000000082,
        60.17291199999991
      ],
      [
        29.871465000000082,
        60.17242199999991
      ],
      [
        29.873988000000082,
        60.17193199999991
      ],
      [
        29.87651000000008,
        60.171440999999916
      ],
      [
        29.87903300000008,
        60.17094999999992
      ],
      [
        29.88155600000008,
        60.17045799999992
      ],
      [
        29.88407900000008,
        60.16996699999992
      ],
      [
        29.88660100000008,
        60.169475999999925
      ],
      [
        29.88912400000008,
        60.16898499999993
      ],
      [
        29.89164600000008,
        60.16849399999993
      ],
      [
        29.89416800000008,
        60.168002999999935
      ],
      [
        29.896690000000078,
        60.167510999999934
      ],
      [
        29.899212000000077,
        60.16701999999994
      ],
      [
        29.901734000000076,
        60.166527999999936
      ],
      [
        29.904257000000076,
        60.16603699999994
      ],
      [
        29.906779000000075,
        60.16554599999994
      ],
      [
        29.909300000000076,
        60.16505299999994
      ],
      [
        29.911822000000075,
        60.16456199999995
      ],
      [
        29.914343000000077,
        60.16407099999995
      ],
      [
        29.916865000000076,
        60.16357899999995
      ],
      [
        29.919386000000078,
        60.16308699999995
      ],
      [
        29.921908000000077,
        60.162594999999946
      ],
      [
        29.924430000000076,
        60.162102999999945
      ],
      [
        29.926951000000077,
        60.161610999999944
      ],
      [
        29.92947200000008,
        60.16111999999995
      ],
      [
        29.93199300000008,
        60.160627999999946
      ],
      [
        29.934514000000082,
        60.16013499999995
      ],
      [
        29.937035000000083,
        60.159642999999946
      ],
      [
        29.939556000000085,
        60.159150999999945
      ],
      [
        29.942077000000086,
        60.15865899999994
      ],
      [
        29.944597000000087,
        60.15816699999994
      ],
      [
        29.944834000000085,
        60.15811999999994
      ],
      [
        29.944834000000085,
        60.15811999999994
      ],
      [
        29.947355000000087,
        60.15762899999994
      ],
      [
        29.949875000000088,
        60.157135999999944
      ],
      [
        29.95239600000009,
        60.15664399999994
      ],
      [
        29.95491700000009,
        60.15615199999994
      ],
      [
        29.95743700000009,
        60.15565899999994
      ],
      [
        29.95995700000009,
        60.15516699999994
      ],
      [
        29.962478000000093,
        60.15467399999994
      ],
      [
        29.964998000000094,
        60.15418199999994
      ],
      [
        29.967518000000094,
        60.15368899999994
      ],
      [
        29.970038000000095,
        60.153195999999944
      ],
      [
        29.972558000000095,
        60.15270399999994
      ],
      [
        29.975078000000096,
        60.15221199999994
      ],
      [
        29.977598000000096,
        60.15171899999994
      ],
      [
        29.980118000000097,
        60.151225999999944
      ],
      [
        29.982637000000096,
        60.150732999999946
      ],
      [
        29.985157000000097,
        60.15023999999995
      ],
      [
        29.987676000000096,
        60.14974699999995
      ],
      [
        29.990196000000097,
        60.14925399999995
      ],
      [
        29.992715000000096,
        60.14876199999995
      ],
      [
        29.995235000000097,
        60.148267999999945
      ],
      [
        29.997754000000096,
        60.147774999999946
      ],
      [
        30.000274000000097,
        60.14728099999994
      ],
      [
        30.002793000000096,
        60.14678899999994
      ],
      [
        30.005312000000096,
        60.14629499999994
      ],
      [
        30.007831000000095,
        60.14580199999994
      ],
      [
        30.010350000000095,
        60.14530899999994
      ],
      [
        30.012869000000094,
        60.14481499999994
      ],
      [
        30.014947000000095,
        60.14440699999994
      ],
      [
        30.014947000000095,
        60.14440699999994
      ],
      [
        30.017465000000094,
        60.14391399999994
      ],
      [
        30.019983000000092,
        60.143419999999935
      ],
      [
        30.02250100000009,
        60.14292599999993
      ],
      [
        30.02403800000009,
        60.14262299999993
      ],
      [
        30.02484400000009,
        60.14240599999993
      ],
      [
        30.02736400000009,
        60.14191299999993
      ],
      [
        30.02988200000009,
        60.14142099999993
      ],
      [
        30.03240200000009,
        60.14092799999993
      ],
      [
        30.03492000000009,
        60.14043499999993
      ],
      [
        30.03744000000009,
        60.139941999999934
      ],
      [
        30.039958000000087,
        60.13944999999993
      ],
      [
        30.04247500000009,
        60.138956999999934
      ],
      [
        30.044994000000088,
        60.138463999999935
      ],
      [
        30.047512000000086,
        60.137970999999936
      ],
      [
        30.050031000000086,
        60.13747699999993
      ],
      [
        30.052549000000084,
        60.136983999999934
      ],
      [
        30.055068000000084,
        60.136490999999936
      ],
      [
        30.057586000000082,
        60.13599699999993
      ],
      [
        30.058727000000083,
        60.135773999999934
      ],
      [
        30.061253000000082,
        60.135291999999936
      ],
      [
        30.063780000000083,
        60.13480899999993
      ],
      [
        30.063954000000084,
        60.134774999999934
      ],
      [
        30.066470000000084,
        60.13427999999993
      ],
      [
        30.068986000000084,
        60.133783999999935
      ],
      [
        30.071502000000084,
        60.133287999999936
      ],
      [
        30.074018000000084,
        60.13279199999994
      ],
      [
        30.076534000000084,
        60.13229599999994
      ],
      [
        30.079048000000085,
        60.13180099999994
      ],
      [
        30.081564000000085,
        60.131303999999936
      ],
      [
        30.084079000000084,
        60.13080799999994
      ],
      [
        30.084244000000083,
        60.130774999999936
      ],
      [
        30.086743000000084,
        60.13025899999994
      ],
      [
        30.087624000000083,
        60.130076999999936
      ],
      [
        30.090156000000082,
        60.12960099999994
      ],
      [
        30.092071000000082,
        60.129240999999936
      ],
      [
        30.094587000000082,
        60.12874499999994
      ],
      [
        30.097101000000084,
        60.12824899999994
      ],
      [
        30.099616000000083,
        60.12775199999994
      ],
      [
        30.102130000000084,
        60.127254999999934
      ],
      [
        30.104646000000084,
        60.12675799999993
      ],
      [
        30.107160000000086,
        60.12625999999993
      ],
      [
        30.109674000000087,
        60.12576299999993
      ],
      [
        30.11218800000009,
        60.125265999999925
      ],
      [
        30.114703000000087,
        60.12476899999992
      ],
      [
        30.11721700000009,
        60.12427099999992
      ],
      [
        30.11973100000009,
        60.12377399999992
      ],
      [
        30.122245000000092,
        60.123276999999916
      ],
      [
        30.124758000000092,
        60.12277999999991
      ],
      [
        30.12688600000009,
        60.12235799999991
      ],
      [
        30.12688600000009,
        60.12235799999991
      ],
      [
        30.126887000000092,
        60.122356999999916
      ],
      [
        30.129408000000094,
        60.12186899999992
      ],
      [
        30.131928000000094,
        60.12137899999992
      ],
      [
        30.134449000000096,
        60.12088999999992
      ],
      [
        30.136968000000095,
        60.12039999999992
      ],
      [
        30.139103000000095,
        60.11998599999992
      ],
      [
        30.141616000000095,
        60.11948799999992
      ],
      [
        30.144129000000095,
        60.118990999999916
      ],
      [
        30.146642000000096,
        60.118492999999916
      ],
      [
        30.149155000000096,
        60.117994999999915
      ],
      [
        30.151668000000097,
        60.117496999999915
      ],
      [
        30.152108000000098,
        60.11740799999991
      ],
      [
        30.152108000000098,
        60.11740799999991
      ],
      [
        30.152110000000096,
        60.11740799999991
      ],
      [
        30.154626000000096,
        60.11691299999991
      ],
      [
        30.157141000000095,
        60.11641799999991
      ],
      [
        30.159656000000094,
        60.11592299999991
      ],
      [
        30.162172000000094,
        60.11542799999991
      ],
      [
        30.164687000000093,
        60.11493299999991
      ],
      [
        30.167202000000092,
        60.11443799999991
      ],
      [
        30.16971700000009,
        60.11394299999991
      ],
      [
        30.17223200000009,
        60.113447999999906
      ],
      [
        30.17474700000009,
        60.112952999999905
      ],
      [
        30.177262000000088,
        60.11245699999991
      ],
      [
        30.179777000000087,
        60.111961999999906
      ],
      [
        30.182292000000086,
        60.111466999999905
      ],
      [
        30.184806000000087,
        60.11097099999991
      ],
      [
        30.18732000000009,
        60.110475999999906
      ],
      [
        30.18983600000009,
        60.10997999999991
      ],
      [
        30.19234900000009,
        60.10948499999991
      ],
      [
        30.19466100000009,
        60.10902899999991
      ],
      [
        30.197172000000087,
        60.108531999999904
      ],
      [
        30.199684000000087,
        60.108033999999904
      ],
      [
        30.202196000000086,
        60.107535999999904
      ],
      [
        30.204708000000085,
        60.107036999999906
      ],
      [
        30.207220000000085,
        60.106538999999906
      ],
      [
        30.209733000000085,
        60.106040999999905
      ],
      [
        30.212244000000084,
        60.10554199999991
      ],
      [
        30.214756000000083,
        60.10504399999991
      ],
      [
        30.21726700000008,
        60.10454499999991
      ],
      [
        30.218336000000082,
        60.10433199999991
      ],
      [
        30.218336000000082,
        60.10433199999991
      ],
      [
        30.218337000000083,
        60.10433199999991
      ],
      [
        30.220852000000082,
        60.10383899999991
      ],
      [
        30.22336700000008,
        60.103344999999905
      ],
      [
        30.22508300000008,
        60.1030079999999
      ],
      [
        30.22659300000008,
        60.102640999999906
      ],
      [
        30.22858300000008,
        60.10209199999991
      ],
      [
        30.23081700000008,
        60.10133199999991
      ],
      [
        30.23092000000008,
        60.10129799999991
      ],
      [
        30.23257600000008,
        60.10064699999991
      ],
      [
        30.234064000000078,
        60.09996399999991
      ],
      [
        30.235922000000077,
        60.09898499999991
      ],
      [
        30.236121000000075,
        60.09887999999991
      ],
      [
        30.237516000000074,
        60.09803899999991
      ],
      [
        30.238757000000074,
        60.09715999999991
      ],
      [
        30.240176000000073,
        60.09601299999991
      ],
      [
        30.24159500000007,
        60.094865999999904
      ],
      [
        30.243013000000072,
        60.0937189999999
      ],
      [
        30.24443200000007,
        60.0925719999999
      ],
      [
        30.245850000000072,
        60.091424999999894
      ],
      [
        30.247268000000073,
        60.09027799999989
      ],
      [
        30.24868700000007,
        60.08913199999989
      ],
      [
        30.250105000000072,
        60.08798499999989
      ],
      [
        30.25152400000007,
        60.08683799999989
      ],
      [
        30.25294100000007,
        60.08569099999988
      ],
      [
        30.254359000000072,
        60.08454399999988
      ],
      [
        30.255777000000073,
        60.08339799999988
      ],
      [
        30.257194000000073,
        60.08225099999988
      ],
      [
        30.258524000000072,
        60.08117499999988
      ],
      [
        30.258541000000072,
        60.08115999999988
      ],
      [
        30.258541000000072,
        60.08115999999988
      ],
      [
        30.259941000000072,
        60.080007999999886
      ],
      [
        30.26134000000007,
        60.07885599999989
      ],
      [
        30.26205400000007,
        60.07826699999989
      ],
      [
        30.26357200000007,
        60.07715299999989
      ],
      [
        30.26369300000007,
        60.077063999999886
      ],
      [
        30.265111000000072,
        60.07591699999988
      ],
      [
        30.26653000000007,
        60.074770999999885
      ],
      [
        30.26794900000007,
        60.073624999999886
      ],
      [
        30.26936700000007,
        60.07247799999988
      ],
      [
        30.27078600000007,
        60.071331999999884
      ],
      [
        30.27220400000007,
        60.07018499999988
      ],
      [
        30.27362200000007,
        60.06903799999988
      ],
      [
        30.27504000000007,
        60.06789199999988
      ],
      [
        30.275355000000072,
        60.06763699999988
      ],
      [
        30.276782000000072,
        60.06649299999988
      ],
      [
        30.27820900000007,
        60.065348999999884
      ],
      [
        30.27963500000007,
        60.06420499999989
      ],
      [
        30.28106200000007,
        60.06306099999989
      ],
      [
        30.28248900000007,
        60.061916999999895
      ],
      [
        30.28349800000007,
        60.0611079999999
      ],
      [
        30.284900000000068,
        60.0599559999999
      ],
      [
        30.28589300000007,
        60.0591409999999
      ],
      [
        30.287343000000067,
        60.0580039999999
      ],
      [
        30.288151000000067,
        60.0573699999999
      ],
      [
        30.289555000000068,
        60.0562189999999
      ],
      [
        30.29095900000007,
        60.0550679999999
      ],
      [
        30.292364000000067,
        60.0539169999999
      ],
      [
        30.293182000000066,
        60.0532459999999
      ],
      [
        30.293976000000065,
        60.0524799999999
      ],
      [
        30.294497000000064,
        60.051924999999905
      ],
      [
        30.295079000000065,
        60.0511629999999
      ],
      [
        30.295872000000067,
        60.049875999999905
      ],
      [
        30.295897000000068,
        60.04983599999991
      ],
      [
        30.296535000000066,
        60.04852599999991
      ],
      [
        30.296684000000067,
        60.04822099999991
      ],
      [
        30.297375000000066,
        60.04691899999991
      ],
      [
        30.297607000000067,
        60.04647699999991
      ],
      [
        30.297607000000067,
        60.04647699999991
      ],
      [
        30.298028000000066,
        60.04571899999991
      ],
      [
        30.298661000000067,
        60.04475699999991
      ],
      [
        30.298992000000066,
        60.04417799999991
      ],
      [
        30.299707000000065,
        60.04287799999991
      ],
      [
        30.300421000000064,
        60.04157999999991
      ],
      [
        30.301104000000063,
        60.04033699999991
      ],
      [
        30.301782000000063,
        60.03903299999991
      ],
      [
        30.301827000000063,
        60.03894699999991
      ],
      [
        30.301827000000063,
        60.03894699999991
      ],
      [
        30.302533000000064,
        60.037647999999905
      ],
      [
        30.303240000000063,
        60.03634699999991
      ],
      [
        30.303946000000064,
        60.035046999999906
      ],
      [
        30.304651000000064,
        60.03374599999991
      ],
      [
        30.305333000000065,
        60.03249099999991
      ],
      [
        30.306028000000065,
        60.031188999999905
      ],
      [
        30.306722000000065,
        60.0298869999999
      ],
      [
        30.307418000000066,
        60.0285849999999
      ],
      [
        30.308112000000065,
        60.0272829999999
      ],
      [
        30.308806000000065,
        60.025980999999895
      ],
      [
        30.309062000000065,
        60.0255039999999
      ],
      [
        30.309612000000065,
        60.0245729999999
      ],
      [
        30.310309000000064,
        60.0232719999999
      ],
      [
        30.311007000000064,
        60.0219709999999
      ],
      [
        30.311704000000063,
        60.0206689999999
      ],
      [
        30.31240100000006,
        60.0193679999999
      ],
      [
        30.31309900000006,
        60.0180659999999
      ],
      [
        30.313605000000063,
        60.0171209999999
      ],
      [
        30.313605000000063,
        60.0171209999999
      ],
      [
        30.31430500000006,
        60.015820999999896
      ],
      [
        30.31500600000006,
        60.01451899999989
      ],
      [
        30.31570600000006,
        60.013217999999895
      ],
      [
        30.31640500000006,
        60.0119169999999
      ],
      [
        30.31710600000006,
        60.010614999999895
      ],
      [
        30.317806000000058,
        60.0093139999999
      ],
      [
        30.318171000000056,
        60.0086379999999
      ],
      [
        30.318905000000058,
        60.0073409999999
      ],
      [
        30.319638000000058,
        60.006043999999896
      ],
      [
        30.31996100000006,
        60.005472999999895
      ],
      [
        30.32063400000006,
        60.00416799999989
      ],
      [
        30.32118500000006,
        60.0030999999999
      ],
      [
        30.32196100000006,
        60.0018099999999
      ],
      [
        30.32209400000006,
        60.001588999999896
      ],
      [
        30.32279400000006,
        60.000286999999894
      ],
      [
        30.32328200000006,
        59.99937899999989
      ],
      [
        30.32391900000006,
        59.99829799999989
      ],
      [
        30.32476900000006,
        59.99723499999989
      ],
      [
        30.32601600000006,
        59.996073999999886
      ],
      [
        30.32683900000006,
        59.995466999999884
      ],
      [
        30.32796500000006,
        59.99477799999988
      ],
      [
        30.32796500000006,
        59.99477799999988
      ],
      [
        30.327967000000058,
        59.994776999999885
      ],
      [
        30.32985200000006,
        59.993814999999884
      ],
      [
        30.33155700000006,
        59.99294599999988
      ],
      [
        30.33154200000006,
        59.992910999999886
      ],
      [
        30.33344100000006,
        59.99195599999989
      ],
      [
        30.33388900000006,
        59.99172999999989
      ],
      [
        30.33455000000006,
        59.99131999999989
      ],
      [
        30.33502600000006,
        59.99096299999989
      ],
      [
        30.33591900000006,
        59.990169999999885
      ],
      [
        30.336297000000062,
        59.989753999999884
      ],
      [
        30.337207000000063,
        59.98848599999988
      ],
      [
        30.337284000000064,
        59.98837899999988
      ],
      [
        30.337635000000063,
        59.98780499999988
      ],
      [
        30.337619000000064,
        59.98783699999988
      ],
      [
        30.337934000000065,
        59.987083999999875
      ],
      [
        30.338336000000066,
        59.985752999999875
      ],
      [
        30.338469000000067,
        59.98531199999987
      ],
      [
        30.339005000000068,
        59.98401299999987
      ],
      [
        30.33964500000007,
        59.98270399999987
      ],
      [
        30.339982000000067,
        59.98201399999987
      ],
      [
        30.340455000000066,
        59.98126199999987
      ],
      [
        30.341374000000066,
        59.97999599999987
      ],
      [
        30.341470000000065,
        59.97986199999987
      ],
      [
        30.341754000000066,
        59.979550999999866
      ],
      [
        30.342421000000066,
        59.978923999999864
      ],
      [
        30.343769000000066,
        59.977758999999864
      ],
      [
        30.344206000000067,
        59.977378999999864
      ],
      [
        30.34514400000007,
        59.97648199999986
      ],
      [
        30.34631200000007,
        59.97526699999986
      ],
      [
        30.347258000000068,
        59.97428199999986
      ],
      [
        30.347903000000066,
        59.97355199999986
      ],
      [
        30.348279000000066,
        59.97304099999986
      ],
      [
        30.348576000000065,
        59.97256299999986
      ],
      [
        30.349185000000066,
        59.971249999999856
      ],
      [
        30.349347000000066,
        59.970900999999856
      ],
      [
        30.349751000000065,
        59.970273999999854
      ],
      [
        30.350145000000065,
        59.96989799999985
      ],
      [
        30.350575000000067,
        59.969609999999854
      ],
      [
        30.350990000000067,
        59.96938299999985
      ],
      [
        30.351660000000066,
        59.96910099999985
      ],
      [
        30.351625000000066,
        59.96911499999985
      ],
      [
        30.353849000000064,
        59.96835599999985
      ],
      [
        30.353986000000063,
        59.96830899999985
      ],
      [
        30.354799000000064,
        59.96789699999985
      ],
      [
        30.355469000000063,
        59.96739399999985
      ],
      [
        30.356459000000065,
        59.96654299999985
      ],
      [
        30.357743000000063,
        59.96541699999985
      ],
      [
        30.358241000000064,
        59.96488799999985
      ],
      [
        30.358559000000064,
        59.96443899999985
      ],
      [
        30.358781000000064,
        59.96402699999985
      ],
      [
        30.358893000000066,
        59.96372399999985
      ],
      [
        30.359017000000065,
        59.96316199999985
      ],
      [
        30.359127000000065,
        59.962208999999845
      ],
      [
        30.359138000000065,
        59.96159199999985
      ],
      [
        30.358931000000066,
        59.960247999999844
      ],
      [
        30.358803000000066,
        59.95942699999984
      ],
      [
        30.358492000000066,
        59.95870699999984
      ],
      [
        30.357766000000066,
        59.95740899999984
      ],
      [
        30.357121000000067,
        59.956256999999844
      ],
      [
        30.357114000000067,
        59.95625799999984
      ],
      [
        30.357114000000067,
        59.95625799999984
      ],
      [
        30.356983000000067,
        59.95623299999984
      ],
      [
        30.356906000000066,
        59.95609699999984
      ],
      [
        30.356878000000066,
        59.95610099999984
      ],
      [
        30.356797000000064,
        59.95611199999984
      ],
      [
        30.356754000000063,
        59.95611799999984
      ],
      [
        30.356691000000062,
        59.95600799999984
      ],
      [
        30.356651000000063,
        59.95592899999984
      ],
      [
        30.356657000000062,
        59.95589899999984
      ],
      [
        30.35669400000006,
        59.95585999999984
      ],
      [
        30.35670000000006,
        59.95582899999984
      ],
      [
        30.35664000000006,
        59.95571299999984
      ],
      [
        30.35652600000006,
        59.95572799999984
      ]
    ]
  }
}
