{
  "type": "Feature",
  "id": "21714ab0-e9f5-4bbd-bbb1-33176145152b",
  "properties": {
    "id": "21714ab0-e9f5-4bbd-bbb1-33176145152b",
    "name": "Москва - Петрозаводск",
    "color": "#949494",
    "routeType": "airplane",
    "isSelected": false
  },
  "geometry": {
    "type": "LineString",
    "coordinates": [
      [
        37.389936684182445,
        55.97242689718294
      ],
      [
        37.35079789023712,
        55.97030905235382
      ],
      [
        37.265653847268325,
        55.96973143809727
      ],
      [
        37.20007920127225,
        55.98782590301686
      ],
      [
        37.0095350728542,
        56.16753724750663
      ],
      [
        36.76783585410416,
        56.79067617902107
      ],
      [
        36.49317765097915,
        57.38579642593064
      ],
      [
        35.16932511191652,
        59.89611276896056
      ],
      [
        34.02674698691653,
        61.31101409858463
      ],
      [
        33.88598465781489,
        61.837388542833665
      ],
      [
        33.90795731406488,
        61.91842257774463
      ],
      [
        33.94297623496334,
        61.927808609418946
      ],
      [
        34.09403824668205,
        61.94689540660818
      ],
      [
        34.15102982383046,
        61.944631496746986
      ],
      [
        34.17849564414297,
        61.922792296944664
      ],
      [
        34.17815232138908,
        61.9100050566668
      ],
      [
        34.15926956992418,
        61.8924340893959
      ],
      [
        34.13987183432849,
        61.88052542401067
      ]
    ]
  }
}
