{
  "type": "Feature",
  "id": "27d63f3b-0ca3-4bbc-a47e-bfea2e740386",
  "properties": {
    "id": "27d63f3b-0ca3-4bbc-a47e-bfea2e740386",
    "name": "Санкт П. - Москва",
    "color": "#a3a3a3",
    "routeType": "Train",
    "isSelected": false
  },
  "geometry": {
    "type": "LineString",
    "coordinates": [
      [
        30.36232288911866,
        59.92957666048727
      ],
      [
        30.365584455280768,
        59.92078728590348
      ],
      [
        30.36730106905031,
        59.91259900230104
      ],
      [
        30.388243757038595,
        59.896906312831476
      ],
      [
        30.531752668171375,
        59.795068358863304
      ],
      [
        30.58668430879636,
        59.75836822305667
      ],
      [
        30.62376316621823,
        59.74658790300684
      ],
      [
        30.803664289265114,
        59.59515282462918
      ],
      [
        30.89979466035886,
        59.53522338245491
      ],
      [
        31.532881818561997,
        59.20228443738608
      ],
      [
        31.94898899629633,
        58.976135598189444
      ],
      [
        32.35548313692133,
        58.78201742647434
      ],
      [
        32.50517185762446,
        58.7056359392987
      ],
      [
        32.646620832233836,
        58.671316616042404
      ],
      [
        32.85536106660882,
        58.59827537515311
      ],
      [
        33.1835776193432,
        58.42364688033654
      ],
      [
        33.334639631061904,
        58.35802637006693
      ],
      [
        33.617537580280654,
        58.150265351976515
      ],
      [
        33.72190769746816,
        58.09867928176178
      ],
      [
        33.970473371296286,
        57.94931243062158
      ],
      [
        34.06248386934316,
        57.88280730931414
      ],
      [
        34.12153538301504,
        57.872564778748696
      ],
      [
        34.20118626192129,
        57.82423912009419
      ],
      [
        34.28633030489003,
        57.77658202004284
      ],
      [
        34.327529035358786,
        57.72445356480917
      ],
      [
        34.43464573457754,
        57.66709866038133
      ],
      [
        34.514296613483786,
        57.610389623356994
      ],
      [
        34.631026349811904,
        57.58679606875431
      ],
      [
        34.7903281076244,
        57.55654436324256
      ],
      [
        34.961989484577494,
        57.44269040729359
      ],
      [
        35.35749729707746,
        57.18782311275018
      ],
      [
        35.43302830293684,
        57.14455051237687
      ],
      [
        35.527785383014965,
        57.09375234126716
      ],
      [
        35.61704929903057,
        57.01892201821486
      ],
      [
        35.835402570514944,
        56.88008637233559
      ],
      [
        35.85600193574933,
        56.8515044819506
      ],
      [
        36.008437238483694,
        56.789753017822584
      ],
      [
        36.052382550983694,
        56.75280395579696
      ],
      [
        36.16087254121807,
        56.70826579307756
      ],
      [
        36.24327000215559,
        56.69920069896523
      ],
      [
        36.28034885957746,
        56.6833315078031
      ],
      [
        36.29408176973371,
        56.65005999149536
      ],
      [
        36.31330784395245,
        56.62584399538177
      ],
      [
        36.43690403535871,
        56.55461920613778
      ],
      [
        36.55088718965557,
        56.46805925370967
      ],
      [
        36.64289768770242,
        56.38434822694685
      ],
      [
        36.71568211153053,
        56.33708407871145
      ],
      [
        36.734908185749276,
        56.30503299145408
      ],
      [
        36.76237400606178,
        56.263784741592666
      ],
      [
        36.82279881074928,
        56.23855547531522
      ],
      [
        36.93128880098366,
        56.20642134758458
      ],
      [
        36.99308689668679,
        56.17349408451678
      ],
      [
        37.02329929903054,
        56.132103366939376
      ],
      [
        37.0603781564524,
        56.08145388950512
      ],
      [
        37.148268781452366,
        56.004584669914394
      ],
      [
        37.19358738496799,
        55.97379390745838
      ],
      [
        37.31718357637424,
        55.94683178589865
      ],
      [
        37.381728254108616,
        55.927561577969385
      ],
      [
        37.55064304903049,
        55.85192949528287
      ],
      [
        37.610381208210185,
        55.813284649729376
      ],
      [
        37.642138562946506,
        55.79249710757358
      ],
      [
        37.655528150348864,
        55.776536317340664
      ]
    ]
  }
}
