{
  "type": "Feature",
  "id": "3068cdc9-59ba-41b2-a776-18cde6270eee",
  "properties": {
    "id": "3068cdc9-59ba-41b2-a776-18cde6270eee",
    "name": "Калининград - Балтийск",
    "color": "#a3a3a3",
    "routeType": "Train",
    "isSelected": false
  },
  "geometry": {
    "type": "LineString",
    "coordinates": [
      [
        20.498188100605557,
        54.693944721300696
      ],
      [
        20.493982396870216,
        54.695436203411454
      ],
      [
        20.491450391560154,
        54.69831957933988
      ],
      [
        20.49076374605234,
        54.70137672725483
      ],
      [
        20.490162931233005,
        54.70460760765023
      ],
      [
        20.487115941792077,
        54.70850917246077
      ],
      [
        20.48441227510507,
        54.7105964790749
      ],
      [
        20.47432716920903,
        54.71196310946228
      ],
      [
        20.452268682270567,
        54.7101243596373
      ],
      [
        20.442569814472684,
        54.70922980240798
      ],
      [
        20.436132512836934,
        54.70995041950227
      ],
      [
        20.419009290485864,
        54.714472619329115
      ],
      [
        20.36789711549801,
        54.72801134191918
      ],
      [
        20.328243337421846,
        54.73844175418275
      ],
      [
        20.234859548359346,
        54.7320844905236
      ],
      [
        20.16104515626951,
        54.74598970340539
      ],
      [
        20.058048330097623,
        54.739236341682954
      ],
      [
        20.014961324482403,
        54.73625655780873
      ],
      [
        19.99865349367185,
        54.72970025830611
      ],
      [
        19.992473684101547,
        54.72761393952861
      ],
      [
        19.980285726337865,
        54.726620416475264
      ],
      [
        19.97204598024413,
        54.723739061260986
      ],
      [
        19.961574636249985,
        54.713404233173236
      ],
      [
        19.958141408710876,
        54.709378896616165
      ],
      [
        19.948356710224544,
        54.70460760760145
      ],
      [
        19.945009313373962,
        54.70157555806995
      ],
      [
        19.943721853046814,
        54.69645535112251
      ],
      [
        19.939945302753838,
        54.69272663666664
      ],
      [
        19.93539627626455,
        54.688848408502515
      ],
      [
        19.91711433961904,
        54.65756037074814
      ],
      [
        19.91428192689932,
        54.65412666365534
      ],
      [
        19.89677246645009,
        54.64432157699437
      ]
    ]
  }
}
