{
  "type": "Feature",
  "id": "3a673ad0-3499-43fa-92c8-53b0560cce50",
  "properties": {
    "id": "3a673ad0-3499-43fa-92c8-53b0560cce50",
    "name": "Петрозаводск - Кемь",
    "color": "#a3a3a3",
    "routeType": "Train",
    "isSelected": false
  },
  "geometry": {
    "type": "LineString",
    "coordinates": [
      [
        34.34397721152551,
        61.784070379580285
      ],
      [
        34.340973137428826,
        61.78750439576695
      ],
      [
        34.33891320090534,
        61.791994451754164
      ],
      [
        34.33410668235066,
        61.79431033202671
      ],
      [
        34.30226349692586,
        61.801906815398524
      ],
      [
        34.28775811057328,
        61.80803949948682
      ],
      [
        34.27814507346392,
        61.81502357733192
      ],
      [
        34.2638971791768,
        61.82078830150362
      ],
      [
        34.246044395973676,
        61.82833763581794
      ],
      [
        34.24055123191116,
        61.83304487983485
      ],
      [
        34.24346947531938,
        61.83913075945082
      ],
      [
        34.254970787575196,
        61.867272336333656
      ],
      [
        34.25153756003612,
        61.89741263369425
      ],
      [
        34.244671104958,
        61.928170392839476
      ],
      [
        34.25085091452831,
        61.94240557942424
      ],
      [
        34.252910851051766,
        61.96051346897321
      ],
      [
        34.24398445945019,
        61.98216411364861
      ],
      [
        34.231624840309564,
        61.997342682395995
      ],
      [
        34.22338509421583,
        62.01380446887955
      ],
      [
        34.21308541159863,
        62.03122487121637
      ],
      [
        34.21651863913769,
        62.053147452163884
      ],
      [
        34.22956490378613,
        62.0621697909518
      ],
      [
        34.23986458640332,
        62.09823229039875
      ],
      [
        34.245357750465814,
        62.10788459541277
      ],
      [
        34.23917794089546,
        62.12975175096794
      ],
      [
        34.228878258278264,
        62.14646302062168
      ],
      [
        34.21720528464547,
        62.16252282998331
      ],
      [
        34.198665855934536,
        62.17729030773185
      ],
      [
        34.22475838523137,
        62.19461681754049
      ],
      [
        34.22819161277043,
        62.20520033733106
      ],
      [
        34.23437142234073,
        62.212895107134855
      ],
      [
        34.252910851051666,
        62.211612782060925
      ],
      [
        34.278316734840736,
        62.20808610645917
      ],
      [
        34.299602745582916,
        62.20487967924522
      ],
      [
        34.30440926413762,
        62.21097159904093
      ],
      [
        34.303722618629806,
        62.219305913237704
      ],
      [
        34.31333565573914,
        62.22347220504653
      ],
      [
        34.366894005348506,
        62.22379266514161
      ],
      [
        34.434185265114124,
        62.23949102958372
      ],
      [
        34.45753121237976,
        62.240451887804994
      ],
      [
        34.46096443991882,
        62.24845784570482
      ],
      [
        34.45341133933289,
        62.25550132525976
      ],
      [
        34.44448494773132,
        62.266063449911954
      ],
      [
        34.44311165671569,
        62.272462930571315
      ],
      [
        34.45478463034851,
        62.274382508872854
      ],
      [
        34.46783089499696,
        62.27534225200657
      ],
      [
        34.47538399558288,
        62.28110006661581
      ],
      [
        34.48156380515321,
        62.28525780154029
      ],
      [
        34.5200159535907,
        62.29197292603539
      ],
      [
        34.52066563471032,
        62.29482498389835
      ],
      [
        34.51894902094078,
        62.29682305275047
      ],
      [
        34.515944946844115,
        62.300299375327846
      ],
      [
        34.51173924310875,
        62.304374550820924
      ],
      [
        34.505988586980834,
        62.30721086572565
      ],
      [
        34.50616024835778,
        62.31076586747584
      ],
      [
        34.50779103143883,
        62.3132021982589
      ],
      [
        34.50658940180012,
        62.3155584609736
      ],
      [
        34.504701126653636,
        62.318114197558565
      ],
      [
        34.504701126653636,
        62.32242650890242
      ],
      [
        34.50384281976888,
        62.32653859813122
      ],
      [
        34.50126789911453,
        62.33196728835454
      ],
      [
        34.50212620599931,
        62.33535972020633
      ],
      [
        34.50264119013015,
        62.33851234177565
      ],
      [
        34.50770520075027,
        62.34274192021185
      ],
      [
        34.509250153142844,
        62.346731540859345
      ],
      [
        34.50719021661941,
        62.35223634431178
      ],
      [
        34.48453091486161,
        62.36451877642896
      ],
      [
        34.47402707329803,
        62.369693579280465
      ],
      [
        34.47334042779022,
        62.373520177057635
      ],
      [
        34.473855411921086,
        62.37710716776817
      ],
      [
        34.47419873467498,
        62.382287616879026
      ],
      [
        34.471108829889815,
        62.38746716827325
      ],
      [
        34.46767560235076,
        62.393920429959586
      ],
      [
        34.46080914727265,
        62.39774392737745
      ],
      [
        34.45754758111053,
        62.39957584646563
      ],
      [
        34.45291272393275,
        62.40554871516239
      ],
      [
        34.4443296550851,
        62.4071412784055
      ],
      [
        34.43780652276087,
        62.40921148363833
      ],
      [
        34.4340299724679,
        62.415500841980396
      ],
      [
        34.42493191948935,
        62.4237784833311
      ],
      [
        34.384591495905305,
        62.4427924404659
      ],
      [
        34.37841168633497,
        62.45153956137106
      ],
      [
        34.36536542168653,
        62.4704563668894
      ],
      [
        34.354035770807634,
        62.48396101781568
      ],
      [
        34.349229252252954,
        62.49587179955116
      ],
      [
        34.349229252252954,
        62.502222267076036
      ],
      [
        34.33961621514354,
        62.5169818637258
      ],
      [
        34.33824292412792,
        62.52491410225614
      ],
      [
        34.33618298760446,
        62.53189272072825
      ],
      [
        34.337899601374,
        62.53696704993063
      ],
      [
        34.32931653252635,
        62.544259879276666
      ],
      [
        34.31455365410839,
        62.55313568871283
      ],
      [
        34.30803052178417,
        62.56866196923675
      ],
      [
        34.29464093438181,
        62.58433843151554
      ],
      [
        34.27541486016306,
        62.59747493670626
      ],
      [
        34.274384891901335,
        62.604752901081355
      ],
      [
        34.27095166436228,
        62.61076378352698
      ],
      [
        34.26374188653025,
        62.61835473287243
      ],
      [
        34.263055241022435,
        62.622623786351106
      ],
      [
        34.25412884942089,
        62.62768260775342
      ],
      [
        34.25618878594432,
        62.6321083668907
      ],
      [
        34.25756207695994,
        62.636533463821145
      ],
      [
        34.25412884942089,
        62.64474974435299
      ],
      [
        34.260308658991185,
        62.65359549305222
      ],
      [
        34.26854840508495,
        62.65991226409507
      ],
      [
        34.26923505059276,
        62.66891132947267
      ],
      [
        34.26854840508495,
        62.67617173394954
      ],
      [
        34.27541486016306,
        62.68485030894778
      ],
      [
        34.28468457451853,
        62.68721675015966
      ],
      [
        34.29258099785837,
        62.68800552172222
      ],
      [
        34.303519993733445,
        62.6938337956436
      ],
      [
        34.30283334822563,
        62.69903813080109
      ],
      [
        34.31072977156548,
        62.70376854772288
      ],
      [
        34.32274606795222,
        62.70660643363724
      ],
      [
        34.32961252303033,
        62.70660643363724
      ],
      [
        34.338195591877984,
        62.70534518473264
      ],
      [
        34.34643533797175,
        62.7069217374326
      ],
      [
        34.34643533797175,
        62.713069487444805
      ],
      [
        34.34162881941702,
        62.72252506093306
      ],
      [
        34.35295847029576,
        62.735285272756265
      ],
      [
        34.37218454451451,
        62.74567839561085
      ],
      [
        34.39965036482701,
        62.75071616478684
      ],
      [
        34.39690378279577,
        62.75858595279207
      ],
      [
        34.41612985701451,
        62.76078911621482
      ],
      [
        34.426429539631684,
        62.77148784859512
      ],
      [
        34.429176121662955,
        62.77935208053297
      ],
      [
        34.43947580428012,
        62.78752865003446
      ],
      [
        34.45595529646762,
        62.789100806413536
      ],
      [
        34.459388524006705,
        62.799160615147656
      ],
      [
        34.45732858748325,
        62.81078797439273
      ],
      [
        34.44496896834264,
        62.81895579644575
      ],
      [
        34.44702890486607,
        62.82555122396768
      ],
      [
        34.438789158772316,
        62.834970691302075
      ],
      [
        34.44359567732702,
        62.848780437994954
      ],
      [
        34.43741586775669,
        62.85505544494082
      ],
      [
        34.43899559594304,
        62.87208969167071
      ],
      [
        34.451614132806974,
        62.874598612323204
      ],
      [
        34.4481809052679,
        62.88400232461534
      ],
      [
        34.43925451366635,
        62.89528279113893
      ],
      [
        34.44543432323665,
        62.909064121250005
      ],
      [
        34.47015356151791,
        62.92534277384822
      ],
      [
        34.49761938183039,
        62.92409089179606
      ],
      [
        34.507919064447584,
        62.928472244230335
      ],
      [
        34.50723241893977,
        62.93723297741318
      ],
      [
        34.50723241893977,
        62.947242025465584
      ],
      [
        34.50242590038509,
        62.960686279296766
      ],
      [
        34.50448583690853,
        62.97443677723153
      ],
      [
        34.505859127924154,
        62.98193431559116
      ],
      [
        34.49154390137313,
        62.98667945119383
      ],
      [
        34.48296083252547,
        62.99464217511155
      ],
      [
        34.4688845996153,
        63.00822062158496
      ],
      [
        34.469914567877034,
        63.01742538988885
      ],
      [
        34.44759858887312,
        63.02771879914942
      ],
      [
        34.44141877930279,
        63.04439885999342
      ],
      [
        34.42150605957624,
        63.05686368124234
      ],
      [
        34.42837251465438,
        63.08084340836795
      ],
      [
        34.42150605957624,
        63.093603753770864
      ],
      [
        34.38305391113875,
        63.10511436905734
      ],
      [
        34.36588777344344,
        63.11879671993218
      ],
      [
        34.32125581543563,
        63.12563547262485
      ],
      [
        34.30752290527937,
        63.141172087441774
      ],
      [
        34.29653657715436,
        63.159805020104194
      ],
      [
        34.27937043945906,
        63.18121805790444
      ],
      [
        34.29310334961531,
        63.18742177009986
      ],
      [
        34.313702714849676,
        63.18649129821534
      ],
      [
        34.32949556152936,
        63.18990288189818
      ],
      [
        34.3425418261778,
        63.19920515272909
      ],
      [
        34.35490144531843,
        63.20633486406397
      ],
      [
        34.362454545904356,
        63.215321989829896
      ],
      [
        34.341855180669995,
        63.22461607073788
      ],
      [
        34.32880891602155,
        63.23204917906212
      ],
      [
        34.31438936035749,
        63.24009955048971
      ],
      [
        34.31988252442,
        63.24660013197573
      ],
      [
        34.32880891602155,
        63.252789798375616
      ],
      [
        34.320569169927815,
        63.259596895147574
      ],
      [
        34.325375688482495,
        63.26825814561092
      ],
      [
        34.3150760058653,
        63.278153526645866
      ],
      [
        34.30546296875594,
        63.29020892159131
      ],
      [
        34.313702714849676,
        63.299478863955635
      ],
      [
        34.32880891602155,
        63.30164142038523
      ],
      [
        34.337048662115315,
        63.305657164887265
      ],
      [
        34.34460176270124,
        63.30998118520957
      ],
      [
        34.35833467285749,
        63.31523090642807
      ],
      [
        34.355588090826245,
        63.32202323911437
      ],
      [
        34.34048188965432,
        63.33035708812608
      ],
      [
        34.32674897949809,
        63.334368819255886
      ],
      [
        34.325375688482445,
        63.34393299215952
      ],
      [
        34.324689042974605,
        63.35472742042664
      ],
      [
        34.31026948731054,
        63.35842743198994
      ],
      [
        34.29996980469335,
        63.36705893540057
      ],
      [
        34.29173005859961,
        63.37044917200705
      ],
      [
        34.28211702149022,
        63.38339002250346
      ],
      [
        34.266324174810535,
        63.38893431168866
      ],
      [
        34.2580844287168,
        63.401866811880204
      ],
      [
        34.25602449219331,
        63.40863864669825
      ],
      [
        34.242978227544874,
        63.417255027448874
      ],
      [
        34.2443515185605,
        63.42863697792474
      ],
      [
        34.2443515185605,
        63.43724733378329
      ],
      [
        34.24915803711517,
        63.454152980260695
      ],
      [
        34.264264238287055,
        63.459376337412756
      ],
      [
        34.27044404785738,
        63.468284564382856
      ],
      [
        34.26495088379486,
        63.47811110505528
      ],
      [
        34.26907075684176,
        63.488855008209214
      ],
      [
        34.26289094727143,
        63.50634355780867
      ],
      [
        34.25877107422456,
        63.51677021410313
      ],
      [
        34.28623689453707,
        63.54527068815495
      ],
      [
        34.28143037598236,
        63.560887862817744
      ],
      [
        34.27250398438081,
        63.57986189434355
      ],
      [
        34.291730058599555,
        63.58322693102433
      ],
      [
        34.29928315918551,
        63.58934415772044
      ],
      [
        34.29722322266205,
        63.60402012359582
      ],
      [
        34.28074373047455,
        63.618688499135935
      ],
      [
        34.27868379395112,
        63.63853983093715
      ],
      [
        34.28280366699796,
        63.664783300373635
      ],
      [
        34.2793704394589,
        63.67423719008429
      ],
      [
        34.29173005859953,
        63.68368791984489
      ],
      [
        34.28761018555264,
        63.69709643492626
      ],
      [
        34.28829683106045,
        63.71263016229654
      ],
      [
        34.27731050293547,
        63.72389438139013
      ],
      [
        34.296536577154214,
        63.7296769630595
      ],
      [
        34.30820955078703,
        63.74336782366839
      ],
      [
        34.30683625977141,
        63.754011675826064
      ],
      [
        34.31576265137296,
        63.76009207238409
      ],
      [
        34.30752290527922,
        63.77589496277904
      ],
      [
        34.29035676758389,
        63.78500798134772
      ],
      [
        34.27044404785733,
        63.78986705144678
      ],
      [
        34.242978227544825,
        63.82688987570917
      ],
      [
        34.250531328130776,
        63.8365927098503
      ],
      [
        34.24366487305264,
        63.842958372876055
      ],
      [
        34.25259126465421,
        63.85053466110521
      ],
      [
        34.26769746582608,
        63.85962350722937
      ],
      [
        34.26701082031827,
        63.86810377367862
      ],
      [
        34.275937211919846,
        63.880213991761856
      ],
      [
        34.273190629888575,
        63.88929322192646
      ],
      [
        34.25259126465416,
        63.90532600550447
      ],
      [
        34.24847139160729,
        63.917722428084254
      ],
      [
        34.26014436524011,
        63.926789502318314
      ],
      [
        34.25121797363853,
        63.938874362869505
      ],
      [
        34.2374850634823,
        63.94491483430749
      ],
      [
        34.23473848145103,
        63.95457687304593
      ],
      [
        34.21551240723229,
        63.96755497595258
      ],
      [
        34.19079316895105,
        63.98414608430293
      ],
      [
        34.18804658691978,
        64.00012454808584
      ],
      [
        34.20933259766199,
        64.01006877806239
      ],
      [
        34.23885835449793,
        64.03054873124061
      ],
      [
        34.24847139160729,
        64.04168590928147
      ],
      [
        34.24847139160729,
        64.05281863082965
      ],
      [
        34.24435151856042,
        64.06154116302788
      ],
      [
        34.254651201177616,
        64.0771747141623
      ],
      [
        34.24435151856042,
        64.09099706368923
      ],
      [
        34.23473848145103,
        64.11111731094276
      ],
      [
        34.24572480957604,
        64.15551035605223
      ],
      [
        34.25808442871667,
        64.19025521315417
      ],
      [
        34.2869235400448,
        64.2085087118321
      ],
      [
        34.29447664063073,
        64.2219666793992
      ],
      [
        34.3713809375056,
        64.26319689221182
      ],
      [
        34.395413530279,
        64.2757329854918
      ],
      [
        34.41807283203683,
        64.29393000933321
      ],
      [
        34.4331790332087,
        64.3183726319003
      ],
      [
        34.42287935059151,
        64.3332660095231
      ],
      [
        34.426999223638376,
        64.34785368808689
      ],
      [
        34.43729890625557,
        64.3921645440653
      ],
      [
        34.426999223638376,
        64.40196867470225
      ],
      [
        34.45995820801337,
        64.429876360312
      ],
      [
        34.4929171923884,
        64.43788713686057
      ],
      [
        34.50321687500556,
        64.44589556658883
      ],
      [
        34.50871003906808,
        64.46368367759199
      ],
      [
        34.53068269531807,
        64.46812889562922
      ],
      [
        34.55265535156806,
        64.47138826223159
      ],
      [
        34.567074907232126,
        64.48116402725456
      ],
      [
        34.58424104492743,
        64.49419293414199
      ],
      [
        34.60484041016183,
        64.50751151641458
      ],
      [
        34.66114534180244,
        64.54683730537985
      ],
      [
        34.678998125005585,
        64.57312135115924
      ],
      [
        34.73324312012276,
        64.6017390800261
      ],
      [
        34.79435457031807,
        64.61706812848558
      ],
      [
        34.80396760742746,
        64.63268305477442
      ],
      [
        34.79435457031807,
        64.65476428337024
      ],
      [
        34.81152070801338,
        64.67917986607902
      ],
      [
        34.81495393555244,
        64.70327965753243
      ],
      [
        34.78954805176334,
        64.72677094713497
      ],
      [
        34.75178254883367,
        64.73850892891844
      ],
      [
        34.73598970215398,
        64.73909569395126
      ],
      [
        34.71951020996648,
        64.7382155416148
      ],
      [
        34.68449128906802,
        64.74173597862706
      ],
      [
        34.646039140630535,
        64.74994854468076
      ],
      [
        34.64535249512272,
        64.76665925458406
      ],
      [
        34.65839875977117,
        64.78043046721857
      ],
      [
        34.66389192383365,
        64.7924379022273
      ],
      [
        34.65221895020084,
        64.80473264752824
      ],
      [
        34.652905595708646,
        64.81409630100417
      ],
      [
        34.678998125005535,
        64.84216769981923
      ],
      [
        34.6769381884821,
        64.85210262049813
      ],
      [
        34.66801179688053,
        64.85736079566095
      ],
      [
        34.67213166992737,
        64.88042615860728
      ],
      [
        34.6467257861383,
        64.90930285202624
      ],
      [
        34.60758699219299,
        64.92154416611567
      ],
      [
        34.57874788086487,
        64.93319735443751
      ],
      [
        34.56020845215394,
        64.94135156516693
      ],
      [
        34.55763353149963,
        64.9489938787464
      ],
      [
        34.56381334106994,
        64.95219572220502
      ],
      [
        34.56930650513235,
        64.95510615595859
      ]
    ]
  }
}
