{
  "type": "Feature",
  "id": "48333346-324d-4570-918c-4b5521eea236",
  "properties": {
    "id": "48333346-324d-4570-918c-4b5521eea236",
    "name": "Крылатское Трек",
    "color": "#ff3300",
    "routeType": "Twiter Gravel V1",
    "isSelected": false
  },
  "geometry": {
    "type": "MultiLineString",
    "coordinates": [
      [
        [
          37.461293,
          55.810746
        ],
        [
          37.461446,
          55.810827
        ],
        [
          37.461004,
          55.810807
        ],
        [
          37.460836,
          55.810799
        ],
        [
          37.459642,
          55.810518
        ],
        [
          37.459266,
          55.810503
        ],
        [
          37.45928,
          55.810368
        ],
        [
          37.459275,
          55.810281
        ],
        [
          37.45926,
          55.810215
        ],
        [
          37.459249,
          55.81013
        ],
        [
          37.459195,
          55.809779
        ],
        [
          37.459177,
          55.809682
        ],
        [
          37.459309,
          55.809652
        ],
        [
          37.459431,
          55.809577
        ],
        [
          37.45968,
          55.809374
        ],
        [
          37.45987,
          55.809212
        ],
        [
          37.459899,
          55.809186
        ],
        [
          37.46031,
          55.808821
        ],
        [
          37.460221,
          55.808746
        ],
        [
          37.458439,
          55.807232
        ],
        [
          37.45781,
          55.806723
        ],
        [
          37.45778,
          55.806699
        ],
        [
          37.457636,
          55.806607
        ],
        [
          37.457376,
          55.806472
        ],
        [
          37.456787,
          55.806236
        ],
        [
          37.455949,
          55.806008
        ],
        [
          37.455453,
          55.805919
        ],
        [
          37.454863,
          55.80584
        ],
        [
          37.454611,
          55.805818
        ],
        [
          37.453414,
          55.805718
        ],
        [
          37.45099,
          55.805553
        ],
        [
          37.450686,
          55.805538
        ],
        [
          37.449672,
          55.805489
        ],
        [
          37.443876,
          55.805246
        ],
        [
          37.440513,
          55.805135
        ],
        [
          37.437402,
          55.805039
        ],
        [
          37.437398,
          55.805102
        ],
        [
          37.437432,
          55.805231
        ],
        [
          37.437746,
          55.805331
        ],
        [
          37.437713,
          55.805357
        ],
        [
          37.437613,
          55.805369
        ],
        [
          37.43694,
          55.805276
        ],
        [
          37.436195,
          55.805258
        ],
        [
          37.434698,
          55.805295
        ],
        [
          37.433794,
          55.805219
        ],
        [
          37.433525,
          55.805153
        ],
        [
          37.433136,
          55.804905
        ],
        [
          37.432949,
          55.804839
        ],
        [
          37.432691,
          55.804783
        ],
        [
          37.431337,
          55.804563
        ],
        [
          37.430414,
          55.804413
        ],
        [
          37.429262,
          55.804192
        ],
        [
          37.428714,
          55.804128
        ],
        [
          37.428332,
          55.804059
        ],
        [
          37.42807,
          55.804018
        ],
        [
          37.427486,
          55.803971
        ],
        [
          37.426397,
          55.803978
        ],
        [
          37.426404,
          55.80391
        ],
        [
          37.426258,
          55.803913
        ],
        [
          37.426254,
          55.80384
        ],
        [
          37.425613,
          55.803851
        ],
        [
          37.425435,
          55.803855
        ],
        [
          37.42465,
          55.803895
        ],
        [
          37.423447,
          55.804034
        ],
        [
          37.422396,
          55.804162
        ],
        [
          37.421711,
          55.804246
        ],
        [
          37.42112,
          55.804319
        ],
        [
          37.420115,
          55.804445
        ],
        [
          37.419603,
          55.804509
        ],
        [
          37.418682,
          55.804626
        ],
        [
          37.417497,
          55.804774
        ],
        [
          37.416144,
          55.804942
        ],
        [
          37.41583,
          55.804986
        ],
        [
          37.41533,
          55.805057
        ],
        [
          37.413755,
          55.805285
        ],
        [
          37.413385,
          55.805338
        ],
        [
          37.412299,
          55.805499
        ],
        [
          37.411434,
          55.805734
        ],
        [
          37.411049,
          55.80587
        ],
        [
          37.410826,
          55.805951
        ],
        [
          37.410021,
          55.806286
        ],
        [
          37.409586,
          55.806504
        ],
        [
          37.409273,
          55.806693
        ],
        [
          37.409086,
          55.806811
        ],
        [
          37.409254,
          55.806889
        ],
        [
          37.409293,
          55.806865
        ],
        [
          37.409744,
          55.806598
        ],
        [
          37.410067,
          55.806431
        ],
        [
          37.41037,
          55.806275
        ],
        [
          37.411156,
          55.805975
        ],
        [
          37.411292,
          55.805926
        ],
        [
          37.411459,
          55.805875
        ],
        [
          37.412035,
          55.805695
        ],
        [
          37.412361,
          55.805594
        ],
        [
          37.413254,
          55.805468
        ],
        [
          37.413431,
          55.805443
        ],
        [
          37.413385,
          55.805338
        ],
        [
          37.413371,
          55.805301
        ],
        [
          37.413337,
          55.805224
        ],
        [
          37.413317,
          55.805182
        ],
        [
          37.413474,
          55.805159
        ],
        [
          37.415134,
          55.804917
        ],
        [
          37.41537,
          55.804771
        ],
        [
          37.415589,
          55.804573
        ],
        [
          37.415311,
          55.804332
        ],
        [
          37.415136,
          55.804106
        ],
        [
          37.414429,
          55.803206
        ],
        [
          37.414344,
          55.803094
        ],
        [
          37.414067,
          55.802725
        ],
        [
          37.414063,
          55.802582
        ],
        [
          37.414062,
          55.802554
        ],
        [
          37.414078,
          55.802346
        ],
        [
          37.414074,
          55.802277
        ],
        [
          37.413739,
          55.802289
        ],
        [
          37.413359,
          55.801718
        ],
        [
          37.413057,
          55.80128
        ],
        [
          37.412944,
          55.801116
        ],
        [
          37.413491,
          55.801012
        ],
        [
          37.413328,
          55.800923
        ],
        [
          37.41327,
          55.800702
        ],
        [
          37.413292,
          55.800188
        ],
        [
          37.413532,
          55.80012
        ],
        [
          37.414108,
          55.800003
        ],
        [
          37.414506,
          55.799751
        ],
        [
          37.414868,
          55.799292
        ],
        [
          37.414459,
          55.798983
        ],
        [
          37.41345,
          55.798213
        ],
        [
          37.41286,
          55.797768
        ],
        [
          37.41273,
          55.79767
        ],
        [
          37.412413,
          55.797414
        ],
        [
          37.412358,
          55.797368
        ],
        [
          37.412267,
          55.797294
        ],
        [
          37.41211,
          55.797178
        ],
        [
          37.411434,
          55.796663
        ],
        [
          37.411135,
          55.79638
        ],
        [
          37.4107,
          55.795852
        ],
        [
          37.410136,
          55.795002
        ],
        [
          37.410088,
          55.794928
        ],
        [
          37.409906,
          55.794594
        ],
        [
          37.410151,
          55.794266
        ],
        [
          37.410061,
          55.794139
        ],
        [
          37.409892,
          55.793911
        ],
        [
          37.409523,
          55.793405
        ],
        [
          37.40929,
          55.793113
        ],
        [
          37.409214,
          55.792928
        ],
        [
          37.409105,
          55.792379
        ],
        [
          37.409167,
          55.792325
        ],
        [
          37.409246,
          55.792265
        ],
        [
          37.409229,
          55.792164
        ],
        [
          37.409137,
          55.792024
        ],
        [
          37.408921,
          55.791824
        ],
        [
          37.408289,
          55.790433
        ],
        [
          37.407617,
          55.788645
        ],
        [
          37.40704,
          55.787798
        ],
        [
          37.405906,
          55.786448
        ],
        [
          37.4058,
          55.786321
        ],
        [
          37.404877,
          55.785291
        ],
        [
          37.403895,
          55.784269
        ],
        [
          37.403064,
          55.784003
        ],
        [
          37.402644,
          55.783892
        ],
        [
          37.402261,
          55.783941
        ],
        [
          37.401086,
          55.7842
        ],
        [
          37.40049,
          55.784373
        ],
        [
          37.39995,
          55.784635
        ],
        [
          37.399803,
          55.784716
        ],
        [
          37.399514,
          55.784717
        ],
        [
          37.399328,
          55.784692
        ],
        [
          37.398286,
          55.783975
        ],
        [
          37.397245,
          55.783345
        ],
        [
          37.397039,
          55.78308
        ],
        [
          37.396071,
          55.781741
        ],
        [
          37.395822,
          55.781396
        ],
        [
          37.395369,
          55.78078
        ],
        [
          37.395344,
          55.780746
        ],
        [
          37.39477,
          55.780109
        ],
        [
          37.394112,
          55.779616
        ],
        [
          37.392276,
          55.778314
        ],
        [
          37.391123,
          55.777105
        ],
        [
          37.390454,
          55.776369
        ],
        [
          37.389682,
          55.775646
        ],
        [
          37.389291,
          55.775383
        ],
        [
          37.387395,
          55.774523
        ],
        [
          37.387237,
          55.77443
        ],
        [
          37.387179,
          55.773795
        ],
        [
          37.387515,
          55.773515
        ],
        [
          37.387703,
          55.773328
        ],
        [
          37.388443,
          55.77294
        ],
        [
          37.389007,
          55.772403
        ],
        [
          37.389286,
          55.77224
        ],
        [
          37.390197,
          55.771356
        ],
        [
          37.390259,
          55.771221
        ],
        [
          37.390279,
          55.771165
        ],
        [
          37.390543,
          55.771005
        ],
        [
          37.390712,
          55.771011
        ],
        [
          37.393934,
          55.771134
        ],
        [
          37.394975,
          55.77118
        ],
        [
          37.396231,
          55.7712
        ],
        [
          37.396214,
          55.771126
        ],
        [
          37.396266,
          55.771125
        ],
        [
          37.398144,
          55.77113
        ],
        [
          37.400031,
          55.771281
        ],
        [
          37.401329,
          55.771399
        ],
        [
          37.401722,
          55.771435
        ],
        [
          37.403423,
          55.771543
        ],
        [
          37.404381,
          55.77157
        ],
        [
          37.404691,
          55.771577
        ],
        [
          37.404683,
          55.771707
        ],
        [
          37.404974,
          55.771727
        ],
        [
          37.406518,
          55.771785
        ],
        [
          37.407311,
          55.771811
        ],
        [
          37.407985,
          55.771826
        ],
        [
          37.409787,
          55.771822
        ],
        [
          37.41186,
          55.771852
        ],
        [
          37.411867,
          55.771731
        ],
        [
          37.412649,
          55.771747
        ],
        [
          37.412663,
          55.771616
        ],
        [
          37.412649,
          55.771747
        ],
        [
          37.413917,
          55.771784
        ],
        [
          37.414147,
          55.771792
        ],
        [
          37.41489,
          55.771828
        ],
        [
          37.415855,
          55.771863
        ],
        [
          37.416085,
          55.771872
        ],
        [
          37.417551,
          55.771923
        ],
        [
          37.418434,
          55.771953
        ],
        [
          37.418623,
          55.77196
        ],
        [
          37.419567,
          55.771993
        ],
        [
          37.420022,
          55.772009
        ],
        [
          37.420646,
          55.77203
        ],
        [
          37.420861,
          55.772038
        ],
        [
          37.421105,
          55.772047
        ],
        [
          37.423012,
          55.771861
        ],
        [
          37.423844,
          55.771717
        ],
        [
          37.424125,
          55.77171
        ],
        [
          37.424339,
          55.771731
        ],
        [
          37.424492,
          55.771679
        ],
        [
          37.424565,
          55.771653
        ],
        [
          37.425267,
          55.771406
        ],
        [
          37.426103,
          55.771112
        ],
        [
          37.426645,
          55.770873
        ],
        [
          37.427114,
          55.77059
        ],
        [
          37.427437,
          55.770362
        ],
        [
          37.427791,
          55.770028
        ],
        [
          37.428029,
          55.769704
        ],
        [
          37.428189,
          55.769404
        ],
        [
          37.428359,
          55.768941
        ],
        [
          37.428397,
          55.768833
        ],
        [
          37.428216,
          55.768813
        ],
        [
          37.4285,
          55.768051
        ],
        [
          37.428782,
          55.767293
        ],
        [
          37.428645,
          55.767274
        ],
        [
          37.427995,
          55.767853
        ],
        [
          37.427791,
          55.767991
        ],
        [
          37.427322,
          55.768213
        ],
        [
          37.427368,
          55.768066
        ],
        [
          37.427565,
          55.767448
        ],
        [
          37.427542,
          55.76737
        ],
        [
          37.427644,
          55.767164
        ],
        [
          37.42779,
          55.766981
        ],
        [
          37.42785,
          55.766809
        ],
        [
          37.427829,
          55.766671
        ],
        [
          37.427736,
          55.766537
        ],
        [
          37.427614,
          55.76643
        ],
        [
          37.427445,
          55.766332
        ],
        [
          37.425944,
          55.765692
        ],
        [
          37.425387,
          55.765556
        ],
        [
          37.424829,
          55.765556
        ],
        [
          37.423412,
          55.76574
        ],
        [
          37.423113,
          55.765758
        ],
        [
          37.422222,
          55.765794
        ],
        [
          37.422152,
          55.76568
        ],
        [
          37.421837,
          55.765504
        ],
        [
          37.421546,
          55.765341
        ],
        [
          37.421416,
          55.765064
        ],
        [
          37.421263,
          55.76454
        ],
        [
          37.421161,
          55.764063
        ],
        [
          37.419785,
          55.763362
        ],
        [
          37.419121,
          55.7632
        ],
        [
          37.416733,
          55.762698
        ],
        [
          37.416438,
          55.762582
        ],
        [
          37.416355,
          55.762516
        ],
        [
          37.416348,
          55.762496
        ],
        [
          37.416348,
          55.762496
        ],
        [
          37.416348,
          55.762496
        ],
        [
          37.41625,
          55.762116
        ],
        [
          37.41625,
          55.762116
        ],
        [
          37.416931,
          55.761664
        ],
        [
          37.416986,
          55.761646
        ],
        [
          37.417601,
          55.761512
        ],
        [
          37.417701,
          55.761493
        ],
        [
          37.418567,
          55.761298
        ],
        [
          37.419123,
          55.761134
        ],
        [
          37.419463,
          55.76099
        ],
        [
          37.419904,
          55.760706
        ],
        [
          37.420142,
          55.760499
        ],
        [
          37.420346,
          55.760217
        ],
        [
          37.420449,
          55.760007
        ],
        [
          37.420471,
          55.759952
        ],
        [
          37.420307,
          55.759944
        ],
        [
          37.420273,
          55.759959
        ],
        [
          37.420262,
          55.760006
        ],
        [
          37.420227,
          55.760053
        ],
        [
          37.419963,
          55.76004
        ],
        [
          37.420227,
          55.760053
        ],
        [
          37.420262,
          55.760006
        ],
        [
          37.420449,
          55.760007
        ],
        [
          37.420471,
          55.759952
        ],
        [
          37.420487,
          55.759791
        ],
        [
          37.420452,
          55.759572
        ],
        [
          37.420117,
          55.758504
        ],
        [
          37.420109,
          55.758476
        ],
        [
          37.420066,
          55.758347
        ],
        [
          37.420369,
          55.758323
        ],
        [
          37.420388,
          55.75832
        ],
        [
          37.420411,
          55.758396
        ],
        [
          37.420464,
          55.758391
        ],
        [
          37.420676,
          55.75837
        ],
        [
          37.420672,
          55.758334
        ],
        [
          37.420781,
          55.758328
        ],
        [
          37.420927,
          55.758357
        ],
        [
          37.420967,
          55.758325
        ],
        [
          37.421107,
          55.758384
        ],
        [
          37.421096,
          55.758571
        ],
        [
          37.421298,
          55.758919
        ],
        [
          37.421303,
          55.758929
        ],
        [
          37.421424,
          55.759037
        ],
        [
          37.421796,
          55.759253
        ],
        [
          37.421908,
          55.759391
        ],
        [
          37.421934,
          55.759474
        ],
        [
          37.421893,
          55.759813
        ],
        [
          37.421998,
          55.759968
        ],
        [
          37.422135,
          55.760057
        ],
        [
          37.42232,
          55.760134
        ],
        [
          37.42268,
          55.760186
        ],
        [
          37.423258,
          55.760199
        ],
        [
          37.423389,
          55.760235
        ],
        [
          37.423471,
          55.760283
        ],
        [
          37.423544,
          55.760419
        ],
        [
          37.423484,
          55.760697
        ],
        [
          37.423506,
          55.760768
        ],
        [
          37.423674,
          55.760869
        ],
        [
          37.423782,
          55.760886
        ],
        [
          37.424008,
          55.760855
        ],
        [
          37.425749,
          55.760045
        ],
        [
          37.425962,
          55.759897
        ],
        [
          37.426212,
          55.759443
        ],
        [
          37.426331,
          55.759327
        ],
        [
          37.42743,
          55.7588
        ],
        [
          37.427601,
          55.75868
        ],
        [
          37.427768,
          55.758489
        ],
        [
          37.427859,
          55.758315
        ],
        [
          37.427893,
          55.758131
        ],
        [
          37.427936,
          55.757997
        ],
        [
          37.428033,
          55.757898
        ],
        [
          37.428547,
          55.757647
        ],
        [
          37.428854,
          55.757538
        ],
        [
          37.430162,
          55.757274
        ],
        [
          37.430685,
          55.757245
        ],
        [
          37.43096,
          55.757251
        ],
        [
          37.431187,
          55.757283
        ],
        [
          37.431517,
          55.757405
        ],
        [
          37.431634,
          55.757474
        ],
        [
          37.43199,
          55.757408
        ],
        [
          37.432004,
          55.757467
        ],
        [
          37.432102,
          55.75778
        ],
        [
          37.432166,
          55.757929
        ],
        [
          37.432273,
          55.757941
        ],
        [
          37.432496,
          55.757337
        ],
        [
          37.433082,
          55.755738
        ],
        [
          37.432915,
          55.755758
        ],
        [
          37.432985,
          55.755527
        ],
        [
          37.432915,
          55.755758
        ],
        [
          37.433082,
          55.755738
        ],
        [
          37.433178,
          55.755171
        ],
        [
          37.433086,
          55.754843
        ],
        [
          37.432831,
          55.754222
        ],
        [
          37.432789,
          55.754114
        ],
        [
          37.432721,
          55.753953
        ],
        [
          37.432642,
          55.753767
        ],
        [
          37.432592,
          55.753651
        ],
        [
          37.432437,
          55.75331
        ],
        [
          37.432058,
          55.752484
        ],
        [
          37.431976,
          55.752305
        ],
        [
          37.431915,
          55.752171
        ],
        [
          37.432086,
          55.752145
        ],
        [
          37.432455,
          55.752092
        ],
        [
          37.432858,
          55.752034
        ],
        [
          37.433018,
          55.752011
        ],
        [
          37.432966,
          55.751885
        ],
        [
          37.432484,
          55.750717
        ],
        [
          37.432479,
          55.750694
        ],
        [
          37.432708,
          55.750663
        ],
        [
          37.432787,
          55.750621
        ],
        [
          37.435409,
          55.750079
        ],
        [
          37.435661,
          55.750088
        ],
        [
          37.435761,
          55.750118
        ],
        [
          37.435872,
          55.750067
        ],
        [
          37.435899,
          55.750087
        ],
        [
          37.43651,
          55.750497
        ],
        [
          37.437253,
          55.750875
        ],
        [
          37.438864,
          55.751495
        ],
        [
          37.438965,
          55.751531
        ],
        [
          37.439011,
          55.751485
        ],
        [
          37.439005,
          55.751448
        ],
        [
          37.439002,
          55.751428
        ],
        [
          37.437941,
          55.750792
        ],
        [
          37.437641,
          55.750648
        ],
        [
          37.436451,
          55.750032
        ],
        [
          37.43589,
          55.749688
        ],
        [
          37.435592,
          55.749349
        ],
        [
          37.435402,
          55.748994
        ],
        [
          37.435373,
          55.748932
        ],
        [
          37.435335,
          55.748829
        ],
        [
          37.435124,
          55.748245
        ],
        [
          37.435017,
          55.747798
        ],
        [
          37.435014,
          55.74756
        ],
        [
          37.435128,
          55.747275
        ],
        [
          37.435367,
          55.747013
        ],
        [
          37.435994,
          55.746584
        ],
        [
          37.438596,
          55.745073
        ],
        [
          37.44067,
          55.743954
        ],
        [
          37.441678,
          55.743386
        ],
        [
          37.442382,
          55.742989
        ],
        [
          37.445113,
          55.741824
        ],
        [
          37.445503,
          55.741709
        ],
        [
          37.448895,
          55.74071
        ],
        [
          37.451171,
          55.740227
        ],
        [
          37.452072,
          55.740139
        ],
        [
          37.452571,
          55.740142
        ],
        [
          37.453249,
          55.740145
        ],
        [
          37.454904,
          55.740153
        ],
        [
          37.455705,
          55.74022
        ],
        [
          37.456342,
          55.740277
        ],
        [
          37.456858,
          55.740321
        ],
        [
          37.457189,
          55.74038
        ],
        [
          37.457541,
          55.740443
        ],
        [
          37.45796,
          55.740538
        ],
        [
          37.459407,
          55.740871
        ],
        [
          37.460195,
          55.741052
        ],
        [
          37.463146,
          55.741768
        ],
        [
          37.464001,
          55.742015
        ],
        [
          37.464929,
          55.742373
        ],
        [
          37.465213,
          55.742501
        ],
        [
          37.465956,
          55.742835
        ],
        [
          37.46803,
          55.743856
        ],
        [
          37.469073,
          55.744381
        ],
        [
          37.471841,
          55.74592
        ],
        [
          37.47228,
          55.746218
        ],
        [
          37.473008,
          55.746714
        ],
        [
          37.474073,
          55.747678
        ],
        [
          37.474448,
          55.748037
        ],
        [
          37.474587,
          55.74817
        ],
        [
          37.474597,
          55.74818
        ],
        [
          37.474832,
          55.748405
        ],
        [
          37.475638,
          55.749319
        ],
        [
          37.475684,
          55.749377
        ],
        [
          37.475703,
          55.749417
        ],
        [
          37.475684,
          55.749377
        ],
        [
          37.475766,
          55.749339
        ],
        [
          37.475853,
          55.74919
        ],
        [
          37.475828,
          55.749101
        ],
        [
          37.475606,
          55.74888
        ],
        [
          37.47561,
          55.748749
        ],
        [
          37.475919,
          55.748435
        ],
        [
          37.47595,
          55.748197
        ],
        [
          37.475958,
          55.74814
        ],
        [
          37.476038,
          55.747954
        ],
        [
          37.476083,
          55.747849
        ],
        [
          37.476104,
          55.74758
        ],
        [
          37.476138,
          55.747143
        ],
        [
          37.476065,
          55.747035
        ],
        [
          37.475945,
          55.746918
        ],
        [
          37.475749,
          55.746727
        ],
        [
          37.475672,
          55.746547
        ],
        [
          37.475755,
          55.746404
        ],
        [
          37.476087,
          55.746324
        ],
        [
          37.476314,
          55.74621
        ],
        [
          37.476512,
          55.746335
        ],
        [
          37.477046,
          55.746671
        ],
        [
          37.477544,
          55.74713
        ],
        [
          37.477691,
          55.747293
        ],
        [
          37.47779,
          55.747519
        ],
        [
          37.478152,
          55.747942
        ],
        [
          37.479289,
          55.748857
        ],
        [
          37.479412,
          55.749033
        ],
        [
          37.4796,
          55.749194
        ],
        [
          37.47977,
          55.74929
        ],
        [
          37.480482,
          55.749534
        ],
        [
          37.480845,
          55.749712
        ],
        [
          37.480889,
          55.749786
        ],
        [
          37.480915,
          55.750102
        ],
        [
          37.480801,
          55.750528
        ],
        [
          37.480689,
          55.750833
        ],
        [
          37.48063,
          55.751125
        ],
        [
          37.480453,
          55.751443
        ],
        [
          37.480084,
          55.752121
        ],
        [
          37.480112,
          55.752157
        ],
        [
          37.480621,
          55.75231
        ],
        [
          37.480864,
          55.752344
        ],
        [
          37.481109,
          55.752342
        ],
        [
          37.481937,
          55.752275
        ],
        [
          37.482723,
          55.752306
        ],
        [
          37.483358,
          55.7524
        ],
        [
          37.483702,
          55.752476
        ],
        [
          37.484375,
          55.752607
        ],
        [
          37.484938,
          55.752626
        ],
        [
          37.485589,
          55.752566
        ],
        [
          37.486197,
          55.752554
        ],
        [
          37.487152,
          55.752371
        ],
        [
          37.487272,
          55.752364
        ],
        [
          37.487716,
          55.752429
        ],
        [
          37.488027,
          55.752436
        ],
        [
          37.489221,
          55.75234
        ],
        [
          37.489579,
          55.752331
        ],
        [
          37.489997,
          55.75239
        ],
        [
          37.49049,
          55.752412
        ],
        [
          37.490922,
          55.752591
        ],
        [
          37.49123,
          55.75267
        ],
        [
          37.491493,
          55.752664
        ],
        [
          37.491621,
          55.752662
        ],
        [
          37.491827,
          55.752629
        ],
        [
          37.492019,
          55.752672
        ],
        [
          37.492059,
          55.752934
        ],
        [
          37.492346,
          55.752935
        ],
        [
          37.492599,
          55.752935
        ],
        [
          37.493636,
          55.752935
        ],
        [
          37.493752,
          55.752935
        ],
        [
          37.494522,
          55.752922
        ],
        [
          37.494629,
          55.752918
        ],
        [
          37.494799,
          55.752915
        ],
        [
          37.495788,
          55.752899
        ],
        [
          37.496345,
          55.752898
        ],
        [
          37.496701,
          55.752895
        ],
        [
          37.496808,
          55.752894
        ],
        [
          37.496974,
          55.752892
        ],
        [
          37.497098,
          55.752892
        ],
        [
          37.497333,
          55.75289
        ],
        [
          37.497605,
          55.752891
        ],
        [
          37.498424,
          55.752899
        ],
        [
          37.49887,
          55.752904
        ],
        [
          37.499863,
          55.752915
        ],
        [
          37.49996,
          55.752915
        ],
        [
          37.50054,
          55.75292
        ],
        [
          37.501028,
          55.752923
        ],
        [
          37.501178,
          55.752924
        ],
        [
          37.501756,
          55.752932
        ],
        [
          37.502124,
          55.752937
        ],
        [
          37.502788,
          55.752942
        ],
        [
          37.503311,
          55.752942
        ],
        [
          37.503571,
          55.752889
        ],
        [
          37.503987,
          55.752761
        ],
        [
          37.504497,
          55.752611
        ],
        [
          37.50465,
          55.752567
        ],
        [
          37.504673,
          55.752561
        ],
        [
          37.50481,
          55.752521
        ],
        [
          37.504972,
          55.752473
        ],
        [
          37.5052,
          55.752402
        ],
        [
          37.505452,
          55.752327
        ],
        [
          37.505966,
          55.752175
        ],
        [
          37.50681,
          55.751905
        ],
        [
          37.507298,
          55.751679
        ],
        [
          37.507948,
          55.751368
        ],
        [
          37.507995,
          55.751342
        ],
        [
          37.507948,
          55.751368
        ],
        [
          37.508408,
          55.751497
        ],
        [
          37.509737,
          55.751885
        ],
        [
          37.509924,
          55.75194
        ],
        [
          37.510289,
          55.752074
        ],
        [
          37.510389,
          55.752111
        ],
        [
          37.510987,
          55.752282
        ],
        [
          37.51125,
          55.752357
        ],
        [
          37.51129,
          55.752317
        ],
        [
          37.511097,
          55.752262
        ],
        [
          37.510441,
          55.752071
        ],
        [
          37.510376,
          55.752012
        ],
        [
          37.51039,
          55.751957
        ],
        [
          37.510484,
          55.751909
        ],
        [
          37.510582,
          55.751907
        ],
        [
          37.51127,
          55.752097
        ],
        [
          37.513551,
          55.752733
        ],
        [
          37.513878,
          55.752824
        ],
        [
          37.514613,
          55.753029
        ],
        [
          37.515636,
          55.753314
        ],
        [
          37.515926,
          55.753396
        ],
        [
          37.516677,
          55.753605
        ],
        [
          37.519383,
          55.75436
        ],
        [
          37.519785,
          55.754472
        ],
        [
          37.521256,
          55.754886
        ],
        [
          37.521315,
          55.754899
        ],
        [
          37.521518,
          55.754969
        ],
        [
          37.521518,
          55.754969
        ],
        [
          37.522758,
          55.755291
        ],
        [
          37.523892,
          55.755522
        ],
        [
          37.524597,
          55.75568
        ],
        [
          37.526347,
          55.756056
        ]
      ],
      [
        [
          37.323256,
          55.815594
        ],
        [
          37.323176000000004,
          55.815624
        ],
        [
          37.323041,
          55.815512
        ],
        [
          37.322632000000006,
          55.815187
        ],
        [
          37.322239,
          55.814884
        ],
        [
          37.322172,
          55.814845999999996
        ],
        [
          37.322038,
          55.814749
        ],
        [
          37.321847,
          55.814572999999996
        ],
        [
          37.321683,
          55.814423
        ],
        [
          37.321374,
          55.814161999999996
        ],
        [
          37.321256,
          55.81406199999999
        ],
        [
          37.321188,
          55.81401499999999
        ],
        [
          37.321067,
          55.81393099999999
        ],
        [
          37.321011999999996,
          55.81390899999999
        ],
        [
          37.320797,
          55.81389199999999
        ],
        [
          37.320736,
          55.813875999999986
        ],
        [
          37.320705999999994,
          55.81384899999998
        ],
        [
          37.32069599999999,
          55.81381599999998
        ],
        [
          37.32069699999999,
          55.81372899999998
        ],
        [
          37.32069699999999,
          55.81368999999998
        ],
        [
          37.32068899999999,
          55.81366999999998
        ],
        [
          37.32065999999999,
          55.81363599999998
        ],
        [
          37.320618999999986,
          55.81359499999998
        ],
        [
          37.32054499999999,
          55.813547999999976
        ],
        [
          37.32036399999999,
          55.813395999999976
        ],
        [
          37.32042299999999,
          55.813350999999976
        ],
        [
          37.32023199999999,
          55.81319999999997
        ],
        [
          37.32019999999999,
          55.81323499999997
        ],
        [
          37.320148999999994,
          55.81321199999997
        ],
        [
          37.320069,
          55.81315599999997
        ],
        [
          37.319551,
          55.81273599999997
        ],
        [
          37.319230999999995,
          55.81247999999997
        ],
        [
          37.319188999999994,
          55.812470999999974
        ],
        [
          37.319230999999995,
          55.81247999999997
        ],
        [
          37.31903499999999,
          55.812320999999976
        ],
        [
          37.31899299999999,
          55.812295999999975
        ],
        [
          37.31893899999999,
          55.81226999999998
        ],
        [
          37.318878999999995,
          55.812247999999975
        ],
        [
          37.31881799999999,
          55.812227999999976
        ],
        [
          37.31871699999999,
          55.81220499999998
        ],
        [
          37.31854299999999,
          55.812177999999975
        ],
        [
          37.31717799999999,
          55.81199099999998
        ],
        [
          37.31692399999999,
          55.81195099999998
        ],
        [
          37.31678699999999,
          55.81191699999998
        ],
        [
          37.31663199999999,
          55.81189599999998
        ],
        [
          37.31652999999999,
          55.81189299999998
        ],
        [
          37.31531799999999,
          55.81173299999998
        ],
        [
          37.31524099999999,
          55.811725999999986
        ],
        [
          37.31510699999999,
          55.81171999999999
        ],
        [
          37.314919999999994,
          55.81172499999999
        ],
        [
          37.31472399999999,
          55.81173799999999
        ],
        [
          37.31433299999999,
          55.81177099999999
        ],
        [
          37.31403499999999,
          55.81179699999999
        ],
        [
          37.31374099999999,
          55.811823999999994
        ],
        [
          37.313483999999995,
          55.811848
        ],
        [
          37.31341499999999,
          55.811853
        ],
        [
          37.313430999999994,
          55.81191
        ],
        [
          37.313441999999995,
          55.811958999999995
        ],
        [
          37.313342999999996,
          55.811964999999994
        ],
        [
          37.312461,
          55.811992999999994
        ],
        [
          37.312025,
          55.81201299999999
        ],
        [
          37.311997999999996,
          55.812020999999994
        ],
        [
          37.311969,
          55.812037999999994
        ],
        [
          37.311871,
          55.812048
        ],
        [
          37.311195,
          55.812101
        ],
        [
          37.31108,
          55.812113
        ],
        [
          37.310863999999995,
          55.812141
        ],
        [
          37.310652,
          55.812166
        ],
        [
          37.310401999999996,
          55.812199
        ],
        [
          37.31036099999999,
          55.812205
        ],
        [
          37.310325999999996,
          55.812211999999995
        ],
        [
          37.30969699999999,
          55.812366
        ],
        [
          37.309515999999995,
          55.81241
        ],
        [
          37.30848399999999,
          55.812768
        ],
        [
          37.308254999999996,
          55.812867
        ],
        [
          37.308144999999996,
          55.812920999999996
        ],
        [
          37.308105999999995,
          55.81294
        ],
        [
          37.308105,
          55.812957999999995
        ],
        [
          37.308001,
          55.812965999999996
        ],
        [
          37.307952,
          55.812988
        ],
        [
          37.307929,
          55.812999
        ],
        [
          37.307888,
          55.812971
        ],
        [
          37.307825,
          55.812931
        ],
        [
          37.307103,
          55.813285
        ],
        [
          37.306905,
          55.813383
        ],
        [
          37.3068,
          55.813435
        ],
        [
          37.306726000000005,
          55.813472
        ],
        [
          37.306583,
          55.813544
        ],
        [
          37.30654800000001,
          55.813562
        ],
        [
          37.306250000000006,
          55.813708999999996
        ],
        [
          37.30582400000001,
          55.813917
        ],
        [
          37.305642000000006,
          55.814006
        ],
        [
          37.30556200000001,
          55.814045
        ],
        [
          37.30545000000001,
          55.8141
        ],
        [
          37.30519900000001,
          55.814222
        ],
        [
          37.30518300000001,
          55.814228
        ],
        [
          37.305175000000006,
          55.814228
        ],
        [
          37.305167000000004,
          55.814228
        ],
        [
          37.305154,
          55.814221
        ],
        [
          37.304826,
          55.814015000000005
        ],
        [
          37.304758,
          55.81405
        ],
        [
          37.304748,
          55.814043000000005
        ],
        [
          37.304725,
          55.814029000000005
        ],
        [
          37.304812,
          55.813984000000005
        ],
        [
          37.304677,
          55.813908000000005
        ],
        [
          37.304655,
          55.813895
        ],
        [
          37.304758,
          55.813841000000004
        ],
        [
          37.304735,
          55.813827
        ],
        [
          37.304594,
          55.813900000000004
        ],
        [
          37.304527,
          55.813914000000004
        ],
        [
          37.304486,
          55.813934
        ],
        [
          37.304429,
          55.813964000000006
        ],
        [
          37.304362,
          55.81400000000001
        ],
        [
          37.304355,
          55.81400500000001
        ],
        [
          37.304351000000004,
          55.814012000000005
        ],
        [
          37.304353000000006,
          55.814020000000006
        ],
        [
          37.304359000000005,
          55.814024
        ],
        [
          37.304384000000006,
          55.814040000000006
        ],
        [
          37.30417500000001,
          55.814147000000006
        ],
        [
          37.304170000000006,
          55.814144000000006
        ]
      ],
      [
        [
          37.30418,
          55.81443
        ],
        [
          37.304198,
          55.814442
        ],
        [
          37.304391,
          55.814347
        ],
        [
          37.304675,
          55.814206999999996
        ],
        [
          37.304816,
          55.814136
        ],
        [
          37.304855,
          55.814125999999995
        ],
        [
          37.30489600000001,
          55.814128
        ],
        [
          37.304931,
          55.814142
        ],
        [
          37.305177,
          55.814313
        ],
        [
          37.305273,
          55.814265999999996
        ],
        [
          37.305414999999996,
          55.81419699999999
        ],
        [
          37.305521,
          55.814142999999994
        ],
        [
          37.305631999999996,
          55.814086999999994
        ],
        [
          37.306149,
          55.81382299999999
        ],
        [
          37.306307,
          55.813745999999995
        ],
        [
          37.306602999999996,
          55.813596999999994
        ],
        [
          37.306656999999994,
          55.81356999999999
        ],
        [
          37.306650999999995,
          55.813565999999994
        ],
        [
          37.306656999999994,
          55.81356999999999
        ],
        [
          37.306704999999994,
          55.81354499999999
        ],
        [
          37.306816999999995,
          55.81349099999999
        ],
        [
          37.30696699999999,
          55.81341799999999
        ],
        [
          37.30701499999999,
          55.813447999999994
        ],
        [
          37.307061999999995,
          55.813477999999996
        ],
        [
          37.307410999999995,
          55.813314
        ],
        [
          37.30745699999999,
          55.813269999999996
        ],
        [
          37.30752299999999,
          55.813204999999996
        ],
        [
          37.30792899999999,
          55.812999
        ],
        [
          37.307951999999986,
          55.812988
        ],
        [
          37.30800099999998,
          55.812965999999996
        ],
        [
          37.30810499999998,
          55.812957999999995
        ],
        [
          37.30810599999998,
          55.81294
        ],
        [
          37.30814499999998,
          55.812920999999996
        ],
        [
          37.30825499999998,
          55.812867
        ],
        [
          37.30848399999998,
          55.812768
        ],
        [
          37.30951599999998,
          55.81241
        ],
        [
          37.30969699999998,
          55.812366
        ],
        [
          37.31032599999998,
          55.812211999999995
        ],
        [
          37.31036099999998,
          55.812205
        ],
        [
          37.31040199999998,
          55.812199
        ],
        [
          37.31065199999998,
          55.812166
        ],
        [
          37.31086399999998,
          55.812141
        ],
        [
          37.31107999999998,
          55.812113
        ],
        [
          37.311194999999984,
          55.812101
        ],
        [
          37.31187099999998,
          55.812048
        ],
        [
          37.31196899999998,
          55.812037999999994
        ],
        [
          37.31199799999998,
          55.812020999999994
        ],
        [
          37.312024999999984,
          55.81201299999999
        ],
        [
          37.312460999999985,
          55.811992999999994
        ],
        [
          37.31334299999998,
          55.811964999999994
        ],
        [
          37.31344199999998,
          55.811958999999995
        ],
        [
          37.31343099999998,
          55.81191
        ],
        [
          37.31341499999998,
          55.811853
        ],
        [
          37.31348399999998,
          55.811848
        ],
        [
          37.31374099999998,
          55.811823999999994
        ],
        [
          37.314034999999976,
          55.81179699999999
        ],
        [
          37.314332999999976,
          55.81177099999999
        ],
        [
          37.31472399999998,
          55.81173799999999
        ],
        [
          37.31491999999998,
          55.81172499999999
        ],
        [
          37.315106999999976,
          55.81171999999999
        ],
        [
          37.31524099999998,
          55.811725999999986
        ],
        [
          37.31531799999998,
          55.81173299999998
        ],
        [
          37.31652999999998,
          55.81189299999998
        ],
        [
          37.31663199999998,
          55.81189599999998
        ],
        [
          37.31678699999998,
          55.81191699999998
        ],
        [
          37.31692399999998,
          55.81195099999998
        ],
        [
          37.31717799999998,
          55.81199099999998
        ],
        [
          37.31854299999998,
          55.812177999999975
        ],
        [
          37.31871699999998,
          55.81220499999998
        ],
        [
          37.31881799999998,
          55.812227999999976
        ],
        [
          37.31887899999998,
          55.812247999999975
        ],
        [
          37.31893899999998,
          55.81226999999998
        ],
        [
          37.31899299999998,
          55.812295999999975
        ],
        [
          37.31903499999998,
          55.812320999999976
        ],
        [
          37.31920999999998,
          55.81246299999997
        ],
        [
          37.31918899999998,
          55.812470999999974
        ],
        [
          37.31920999999998,
          55.81246299999997
        ],
        [
          37.319230999999974,
          55.81247999999997
        ],
        [
          37.319550999999976,
          55.81273599999997
        ],
        [
          37.320068999999975,
          55.81315599999997
        ],
        [
          37.32014899999997,
          55.81321199999997
        ],
        [
          37.32019999999997,
          55.81323499999997
        ],
        [
          37.32023199999997,
          55.81319999999997
        ],
        [
          37.32042299999997,
          55.813350999999976
        ],
        [
          37.32036399999997,
          55.813395999999976
        ],
        [
          37.32054499999997,
          55.813547999999976
        ],
        [
          37.320618999999965,
          55.81359499999998
        ],
        [
          37.32065999999997,
          55.81363599999998
        ],
        [
          37.320688999999966,
          55.81366999999998
        ],
        [
          37.32069699999997,
          55.81368999999998
        ],
        [
          37.32069699999997,
          55.81372899999998
        ],
        [
          37.32069599999997,
          55.81381599999998
        ],
        [
          37.32070599999997,
          55.81384899999998
        ],
        [
          37.320735999999975,
          55.813875999999986
        ],
        [
          37.32079699999998,
          55.81389199999999
        ],
        [
          37.321011999999975,
          55.81390899999999
        ],
        [
          37.32106699999998,
          55.81393099999999
        ],
        [
          37.32118799999998,
          55.81401499999999
        ],
        [
          37.32125599999998,
          55.81406199999999
        ],
        [
          37.32137399999998,
          55.814161999999996
        ],
        [
          37.32168299999998,
          55.814423
        ],
        [
          37.32184699999998,
          55.814572999999996
        ],
        [
          37.32203799999998,
          55.814749
        ],
        [
          37.32217199999998,
          55.814845999999996
        ],
        [
          37.32223899999998,
          55.814884
        ],
        [
          37.322631999999984,
          55.815187
        ],
        [
          37.32304099999998,
          55.815512
        ],
        [
          37.32316599999998,
          55.815616
        ],
        [
          37.32317499999998,
          55.815612
        ]
      ]
    ]
  }
}
