{
  "type": "Feature",
  "id": "4bd85247-838d-4837-bd33-28f5f935ce84",
  "properties": {
    "id": "4bd85247-838d-4837-bd33-28f5f935ce84",
    "name": "Дом - Рублево парк",
    "color": "#ff3300",
    "routeType": "Twiter Gravel V1",
    "isSelected": false
  },
  "geometry": {
    "type": "LineString",
    "coordinates": [
      [
        37.322945341847074,
        55.81557645132175
      ],
      [
        37.32278440930618,
        55.81550698075464
      ],
      [
        37.32223723866713,
        55.81564592175163
      ],
      [
        37.322028026363974,
        55.81567008535242
      ],
      [
        37.32175980546248,
        55.815799964448566
      ],
      [
        37.319195613644254,
        55.81580298488746
      ],
      [
        37.31897567250502,
        55.81584225057196
      ],
      [
        37.31893275716078,
        55.81598723121619
      ],
      [
        37.31806372143995,
        55.81599025164051
      ],
      [
        37.31796716191542,
        55.81611408883492
      ],
      [
        37.31736098267805,
        55.81634061926402
      ],
      [
        37.316840634129164,
        55.8163678028265
      ],
      [
        37.3168835494734,
        55.81694469392761
      ],
      [
        37.31678162553085,
        55.81704436534306
      ],
      [
        37.316652879498115,
        55.81707154841186
      ],
      [
        37.31545124985941,
        55.816826900099755
      ],
      [
        37.314732417843416,
        55.81691147005915
      ],
      [
        37.31067155339486,
        55.817467210908504
      ],
      [
        37.30975960232981,
        55.81747325152619
      ],
      [
        37.30869208314188,
        55.81679971685298
      ],
      [
        37.308439955494485,
        55.816585270620934
      ],
      [
        37.3076031062818,
        55.81611408880953
      ],
      [
        37.30690036751989,
        55.81579996442316
      ],
      [
        37.30637465455297,
        55.815534164870186
      ],
      [
        37.305457339069875,
        55.81486965802723
      ],
      [
        37.304969177029136,
        55.814455845729434
      ],
      [
        37.304872617504586,
        55.814356167655774
      ],
      [
        37.30464731194735,
        55.8142142014719
      ],
      [
        37.30479751565217,
        55.814153790172064
      ],
      [
        37.305215940258456,
        55.81430179768299
      ],
      [
        37.3055190298771,
        55.814138687313324
      ],
      [
        37.306025967380926,
        55.81389402049065
      ],
      [
        37.30600450970879,
        55.81383964987583
      ],
      [
        37.30595622994653,
        55.81389553078442
      ],
      [
        37.30549220778697,
        55.81419154722642
      ],
      [
        37.30520789363139,
        55.81432898266303
      ],
      [
        37.30490212180368,
        55.81411905361297
      ],
      [
        37.30473046042673,
        55.81403598784747
      ],
      [
        37.30481629111521,
        55.81397255568849
      ],
      [
        37.30467681624642,
        55.81391516459803
      ],
      [
        37.304746553680815,
        55.813847201354676
      ],
      [
        37.30470632054559,
        55.81382907780298
      ],
      [
        37.304558799049765,
        55.813907613132436
      ],
      [
        37.30449442603342,
        55.813904592545775
      ],
      [
        37.30459366776696,
        55.81385475283205
      ],
      [
        37.30452124812355,
        55.81383360869171
      ],
      [
        37.304244980595044,
        55.813987658592886
      ],
      [
        37.30422888734093,
        55.81394990132084
      ],
      [
        37.30470095612756,
        55.813706743607376
      ],
      [
        37.30421279408681,
        55.813282346669524
      ],
      [
        37.30430130698429,
        55.81313584557572
      ],
      [
        37.30478678681601,
        55.81264196669534
      ],
      [
        37.30510060527074,
        55.81249093213556
      ],
      [
        37.305151567242035,
        55.812296096692265
      ],
      [
        37.30484847762329,
        55.811998555391575
      ],
      [
        37.30329547860368,
        55.81084008606562
      ],
      [
        37.30195973851427,
        55.80996101583987
      ],
      [
        37.30179880597338,
        55.80957736038529
      ],
      [
        37.301310643932666,
        55.80957736038529
      ],
      [
        37.30105851628525,
        55.80917255444337
      ],
      [
        37.30084393956407,
        55.80887045770681
      ],
      [
        37.30027531125291,
        55.80864690460591
      ],
      [
        37.29934726693376,
        55.80840522412751
      ],
      [
        37.29878400304055,
        55.808196773466456
      ],
      [
        37.29859088399148,
        55.80793998492607
      ],
      [
        37.29856942631935,
        55.80780101630068
      ],
      [
        37.2986659858439,
        55.80758954134954
      ],
      [
        37.298848376056895,
        55.807223989063985
      ],
      [
        37.298714265606165,
        55.80645964134034
      ],
      [
        37.298419222614484,
        55.805133326316984
      ],
      [
        37.29808662869664,
        55.80487953877249
      ],
      [
        37.29818318822117,
        55.804788899961096
      ],
      [
        37.29864989258977,
        55.80471638875939
      ],
      [
        37.2993043515894,
        55.80463481349536
      ],
      [
        37.29978178479405,
        55.804589493830065
      ],
      [
        37.30154131390778,
        55.80483724068053
      ],
      [
        37.3018148992273,
        55.80471638875303
      ],
      [
        37.30248545148103,
        55.80452000356097
      ],
      [
        37.303070173046265,
        55.804387065332165
      ],
      [
        37.303359851619874,
        55.804362894696126
      ],
      [
        37.303799733898316,
        55.80431153204451
      ],
      [
        37.30397675969331,
        55.80428131868824
      ],
      [
        37.30408941247192,
        55.804163486367486
      ],
      [
        37.30348323323455,
        55.80367402522773
      ],
      [
        37.30309699513643,
        55.803583383591416
      ],
      [
        37.30228696801393,
        55.803528998511716
      ],
      [
        37.30190072991577,
        55.80341720671941
      ],
      [
        37.30184708573543,
        55.80324498629409
      ],
      [
        37.30184708573543,
        55.803142257960594
      ],
      [
        37.30183099248136,
        55.80291565038009
      ],
      [
        37.302404985210536,
        55.802918671823214
      ],
      [
        37.30279122330864,
        55.80276759937246
      ],
      [
        37.3029092405053,
        55.802667891236666
      ],
      [
        37.30289314725117,
        55.802102873617116
      ],
      [
        37.30283950307088,
        55.80145928737395
      ],
      [
        37.302732214710275,
        55.80073712858219
      ],
      [
        37.303021893283876,
        55.80068273950976
      ],
      [
        37.30283950307088,
        55.799857829224116
      ],
      [
        37.303064808628086,
        55.79937133543759
      ],
      [
        37.30322574116898,
        55.79870655145885
      ],
      [
        37.30342422463609,
        55.798600789320474
      ],
      [
        37.303735360881795,
        55.79868842082705
      ],
      [
        37.30424498059463,
        55.798766986836974
      ],
      [
        37.304588303348524,
        55.79873676915969
      ],
      [
        37.304550752422344,
        55.79885763972757
      ],
      [
        37.30644439198686,
        55.799250466471044
      ],
      [
        37.3064175698967,
        55.79935622683737
      ],
      [
        37.306369290134434,
        55.799271618567374
      ],
      [
        37.306186899921414,
        55.799235357823726
      ],
      [
        37.30634783246231,
        55.7990268578896
      ],
      [
        37.30742071606827,
        55.79928370546805
      ],
      [
        37.30852578618239,
        55.79953752964507
      ],
      [
        37.30936263539505,
        55.79968257127958
      ],
      [
        37.31234525181961,
        55.799909197757245
      ],
      [
        37.3139706704826,
        55.8000361079998
      ],
      [
        37.31539224126048,
        55.800235537551686
      ],
      [
        37.31584821679301,
        55.80035338180473
      ],
      [
        37.31655095555492,
        55.80045007425769
      ],
      [
        37.31539224126048,
        55.800271797360004
      ],
      [
        37.31483970620341,
        55.800175104462475
      ],
      [
        37.31496308781809,
        55.799806460578495
      ],
      [
        37.31505964734264,
        55.79959494201344
      ],
      [
        37.315258130809745,
        55.7994257263306
      ],
      [
        37.31547807194896,
        55.7993501833766
      ],
      [
        37.316229090473136,
        55.7994257263306
      ],
      [
        37.31682990529247,
        55.799579833500346
      ],
      [
        37.318433866283385,
        55.80021136432096
      ],
      [
        37.318911299488015,
        55.800350360155356
      ],
      [
        37.319431648036904,
        55.80055583134564
      ],
      [
        37.31978033520885,
        55.800631371950686
      ],
      [
        37.3202202174873,
        55.800528636685485
      ],
      [
        37.320402607700295,
        55.800583025974085
      ],
      [
        37.320644006511635,
        55.80072504209019
      ],
      [
        37.32106243111797,
        55.80062230707953
      ],
      [
        37.321164355060525,
        55.80042287951068
      ],
      [
        37.3211589906425,
        55.80036546835555
      ],
      [
        37.3216256950111,
        55.80037755492159
      ],
      [
        37.321706719479785,
        55.80045284617873
      ],
      [
        37.32177645691418,
        55.800579754648204
      ],
      [
        37.32266963251613,
        55.800579754648204
      ],
      [
        37.32270181902432,
        55.800756519324175
      ],
      [
        37.32287079819223,
        55.80080184346391
      ],
      [
        37.3245981407978,
        55.80061903575061
      ],
      [
        37.328294224820326,
        55.80023075533857
      ],
      [
        37.32851416595956,
        55.80026701515135
      ],
      [
        37.331271476826856,
        55.799892328784004
      ],
      [
        37.33167917259712,
        55.7999406756155
      ],
      [
        37.331947393498616,
        55.80007665075591
      ],
      [
        37.33158261307259,
        55.79987419870665
      ],
      [
        37.33157724865451,
        55.79974124453433
      ],
      [
        37.33179718979375,
        55.799816786726424
      ],
      [
        37.33205468185917,
        55.799943697277804
      ],
      [
        37.33216197021977,
        55.80007362907862
      ],
      [
        37.332414097867165,
        55.80056615730034
      ],
      [
        37.33264476784245,
        55.800977096304884
      ],
      [
        37.332848615727585,
        55.8011553699596
      ],
      [
        37.33230144508853,
        55.80124903883951
      ],
      [
        37.331979580006745,
        55.801094938304075
      ],
      [
        37.33187229164614,
        55.80078673539573
      ],
      [
        37.331984944424775,
        55.80062658978004
      ],
      [
        37.33218342789188,
        55.80050270309528
      ],
      [
        37.332033224187036,
        55.80019449547919
      ],
      [
        37.331829376301904,
        55.799967870669064
      ],
      [
        37.33167917259709,
        55.79989837212855
      ],
      [
        37.33137340076938,
        55.80000110905743
      ],
      [
        37.33128220566288,
        55.800167300571914
      ],
      [
        37.33446866997252,
        55.799783548173714
      ],
      [
        37.33701676853669,
        55.79950857365164
      ],
      [
        37.33720452316771,
        55.79946929141152
      ],
      [
        37.33697921761048,
        55.79936957479322
      ],
      [
        37.336829013905636,
        55.79934237930103
      ],
      [
        37.336587615094295,
        55.79957202947099
      ],
      [
        37.33679682739746,
        55.79990139378784
      ],
      [
        37.3369470311023,
        55.800100824032604
      ],
      [
        37.337311811528316,
        55.80013104064689
      ],
      [
        37.33773560055266,
        55.80002226071895
      ],
      [
        37.33797163494597,
        55.7999618272973
      ],
      [
        37.33756930359374,
        55.80012499731956
      ],
      [
        37.337558574757686,
        55.80021262538143
      ],
      [
        37.33776242264282,
        55.800297231598094
      ],
      [
        37.33808965214263,
        55.8003274480593
      ],
      [
        37.33771414288055,
        55.80023679860503
      ],
      [
        37.337617583356,
        55.800158235573235
      ],
      [
        37.33805210121642,
        55.7999618272973
      ],
      [
        37.339806265912124,
        55.7997170709701
      ],
      [
        37.34107763298519,
        55.799499508498926
      ],
      [
        37.34154433735377,
        55.79952066045942
      ],
      [
        37.344607420048746,
        55.79885587903452
      ],
      [
        37.34498829372885,
        55.79883774847255
      ],
      [
        37.34539062508109,
        55.798614137511024
      ],
      [
        37.34767586716178,
        55.79785264185468
      ],
      [
        37.34804064758781,
        55.79768946226978
      ],
      [
        37.349220819554326,
        55.79721805071002
      ],
      [
        37.34969825275898,
        55.79698838659817
      ],
      [
        37.35019177921772,
        55.79690981697815
      ],
      [
        37.350942797741844,
        55.79682520335733
      ],
      [
        37.351237840733475,
        55.796933992248206
      ],
      [
        37.351699180683994,
        55.797266400850724
      ],
      [
        37.3519888592576,
        55.79701860560628
      ],
      [
        37.35243410595407,
        55.79660762464731
      ],
      [
        37.35292226799478,
        55.79593070533736
      ],
      [
        37.35340506561746,
        55.79548647061857
      ],
      [
        37.35413999088756,
        55.79505734108568
      ],
      [
        37.35500366219034,
        55.79463727307669
      ],
      [
        37.355990715107836,
        55.79423835535956
      ],
      [
        37.35683829315649,
        55.793890810057995
      ],
      [
        37.35836715229498,
        55.79340726359658
      ],
      [
        37.358764119229185,
        55.79367623705981
      ],
      [
        37.35894650944219,
        55.79369134787319
      ],
      [
        37.35993892677766,
        55.794156758035626
      ],
      [
        37.360201783261125,
        55.79427159864673
      ],
      [
        37.360496826252756,
        55.794353195716376
      ],
      [
        37.3606470299576,
        55.79421720050491
      ],
      [
        37.3612961245392,
        55.794446881029074
      ],
      [
        37.36170918472749,
        55.79452545563297
      ],
      [
        37.361886210522485,
        55.79429577557415
      ],
      [
        37.36219198235014,
        55.793981474329314
      ],
      [
        37.362470932087696,
        55.79376387967644
      ],
      [
        37.36302346714474,
        55.79349490682104
      ],
      [
        37.36336678989866,
        55.79346166285544
      ],
      [
        37.363753027996815,
        55.79350095117536
      ],
      [
        37.36391396053771,
        55.79356441683883
      ],
      [
        37.364187545857185,
        55.79347375156717
      ],
      [
        37.36443430908655,
        55.793540239449115
      ],
      [
        37.36484200485681,
        55.793582549860105
      ],
      [
        37.365099496922234,
        55.79367623703447
      ],
      [
        37.36541599758599,
        55.79375179104248
      ],
      [
        37.36592561729883,
        55.793993562879
      ],
      [
        37.366161651692146,
        55.794344129364745
      ],
      [
        37.366494245609985,
        55.79446199150415
      ],
      [
        37.36674637325738,
        55.794316930335256
      ],
      [
        37.36739546783898,
        55.79390289859791
      ],
      [
        37.36919254787889,
        55.79254290920699
      ],
      [
        37.36967534550157,
        55.79335890854915
      ],
      [
        37.37038344868149,
        55.793782012560136
      ],
      [
        37.37132758625474,
        55.794241377402884
      ],
      [
        37.372014231762556,
        55.7944831461873
      ],
      [
        37.37276525028673,
        55.7949425027253
      ],
      [
        37.37328023441758,
        55.794972723359415
      ],
      [
        37.373891778072995,
        55.79479139920149
      ],
      [
        37.3742029143187,
        55.794882061386424
      ],
      [
        37.37463206776109,
        55.79521448758452
      ],
      [
        37.37486810215441,
        55.79553482286123
      ],
      [
        37.37551183231798,
        55.79616339759422
      ],
      [
        37.37590879925219,
        55.796374934878585
      ],
      [
        37.37596244343248,
        55.796997452192194
      ],
      [
        37.3752114249083,
        55.7973479915241
      ],
      [
        37.37478227146593,
        55.797051846434165
      ],
      [
        37.374170727810515,
        55.79679196214507
      ],
      [
        37.37332314976181,
        55.79648372503266
      ],
      [
        37.37285108097521,
        55.79627823226321
      ],
      [
        37.37237901218858,
        55.7960243867505
      ],
      [
        37.371670909008635,
        55.79575845157399
      ],
      [
        37.371295399746565,
        55.795528778817555
      ],
      [
        37.36995429523907,
        55.79493645858301
      ],
      [
        37.36913890369855,
        55.79475513425551
      ],
      [
        37.36794800289593,
        55.794640295076256
      ],
      [
        37.367154069027535,
        55.79444688095306
      ],
      [
        37.367014594158746,
        55.7943199524105
      ],
      [
        37.367636866650216,
        55.79418697920603
      ],
      [
        37.369364209255814,
        55.79418697920603
      ],
      [
        37.37020105846844,
        55.79413862520046
      ],
      [
        37.37109155186138,
        55.79404796127751
      ],
      [
        37.37204641827069,
        55.793896854268276
      ],
      [
        37.37295836933576,
        55.794162802204454
      ],
      [
        37.37372011669599,
        55.794465013561755
      ],
      [
        37.374213643154725,
        55.79506942921135
      ],
      [
        37.374782271465854,
        55.79531723689847
      ],
      [
        37.37495393284281,
        55.79572218752601
      ],
      [
        37.37554938324411,
        55.79612108997992
      ],
      [
        37.3757854176374,
        55.79622383691713
      ],
      [
        37.37600535877659,
        55.79644443970916
      ],
      [
        37.375892705997984,
        55.796894707279456
      ],
      [
        37.37622529991582,
        55.79710926247039
      ],
      [
        37.37663299568609,
        55.79732986023177
      ],
      [
        37.377244539341476,
        55.79773781168965
      ],
      [
        37.377818532070656,
        55.79807625704926
      ],
      [
        37.37823159225897,
        55.79840865586004
      ],
      [
        37.37907380588962,
        55.799009988298074
      ],
      [
        37.37921328075841,
        55.799158053635836
      ],
      [
        37.37908989914373,
        55.79989535022837
      ],
      [
        37.37895578869299,
        55.800058520530364
      ],
      [
        37.3792830181928,
        55.80021564683886
      ],
      [
        37.37874121197178,
        55.80069004355432
      ],
      [
        37.377571768841285,
        55.801357815091265
      ],
      [
        37.37617702015351,
        55.80218269345786
      ],
      [
        37.375892705997934,
        55.80236398305555
      ],
      [
        37.37510950096557,
        55.80246973492939
      ],
      [
        37.37389714249084,
        55.802575486514776
      ],
      [
        37.373489446720576,
        55.802575486514776
      ],
      [
        37.37339825161408,
        55.80270238803647
      ],
      [
        37.374117083630026,
        55.804397389956044
      ],
      [
        37.37450332172818,
        55.805373266538794
      ],
      [
        37.374599881252706,
        55.80642162669704
      ],
      [
        37.374830551227994,
        55.80784155058866
      ],
      [
        37.37499148376889,
        55.80996831800324
      ],
      [
        37.37514705189175,
        55.810578533700955
      ],
      [
        37.37537326120203,
        55.810666930332246
      ],
      [
        37.375915067423044,
        55.81058234674457
      ],
      [
        37.37700404428309,
        55.810310469670476
      ],
      [
        37.37801255487269,
        55.81009598752688
      ],
      [
        37.378624098528086,
        55.80994192215603
      ],
      [
        37.37892987035579,
        55.80980598161436
      ],
      [
        37.37998129628963,
        55.80960660128445
      ],
      [
        37.38054992460078,
        55.80953712002162
      ],
      [
        37.38079132341212,
        55.80944347116595
      ],
      [
        37.38076450132196,
        55.80961566404868
      ],
      [
        37.38089324735467,
        55.809657956914045
      ],
      [
        37.38083960317439,
        55.80992681766224
      ],
      [
        37.381016628969356,
        55.81033463658545
      ],
      [
        37.381252663362645,
        55.81065484693574
      ],
      [
        37.3811212351209,
        55.810722815771186
      ],
      [
        37.381089048612736,
        55.81096146098289
      ],
      [
        37.38119633697332,
        55.81127109339657
      ],
      [
        37.381204383600284,
        55.81180728023497
      ],
      [
        37.38113464616591,
        55.81228757654699
      ],
      [
        37.38126339219862,
        55.81248392237555
      ],
      [
        37.38164426587873,
        55.81269234994263
      ],
      [
        37.38212706350141,
        55.812647039697325
      ],
      [
        37.38258303903395,
        55.812656101750626
      ],
      [
        37.383178489435245,
        55.81281317700449
      ],
      [
        37.383607642877635,
        55.81310316040966
      ],
      [
        37.38377393983655,
        55.813317625911964
      ],
      [
        37.383639829385814,
        55.813649894064675
      ],
      [
        37.383178489435245,
        55.814178496611895
      ],
      [
        37.38289093997713,
        55.81437135367665
      ],
      [
        37.38227403190371,
        55.8146190380169
      ],
      [
        37.381855607297375,
        55.81465226384456
      ],
      [
        37.381270885732135,
        55.814570709489445
      ],
      [
        37.38101339366669,
        55.81446499062554
      ],
      [
        37.38072371509309,
        55.814404579716665
      ],
      [
        37.38014972236391,
        55.8144378057282
      ],
      [
        37.37999951865907,
        55.814712674360955
      ],
      [
        37.379838586118176,
        55.814984520547945
      ],
      [
        37.37943089034791,
        55.815032848559326
      ],
      [
        37.379210949208705,
        55.81510231997009
      ],
      [
        37.379109025266125,
        55.81504191005475
      ],
      [
        37.37898564365145,
        55.815177832231825
      ],
      [
        37.37909293201205,
        55.81527750819202
      ],
      [
        37.3791733982825,
        55.81536208153294
      ],
      [
        37.379076838757946,
        55.8154375932885
      ],
      [
        37.37871742274994,
        55.815537268580535
      ],
      [
        37.37840628650424,
        55.81574265928292
      ],
      [
        37.37802004840608,
        55.81583629291833
      ],
      [
        37.37750506427522,
        55.81591482418002
      ],
      [
        37.37731730964419,
        55.81591180374982
      ],
      [
        37.37659311321017,
        55.81494223348856
      ],
      [
        37.37591987874727,
        55.81403154016653
      ],
      [
        37.3750079276822,
        55.81271454627156
      ],
      [
        37.375426352288514,
        55.81328847113165
      ],
      [
        37.375726759698196,
        55.81317368683959
      ],
      [
        37.37576967504243,
        55.812974323840066
      ],
      [
        37.3760218026898,
        55.81304984022936
      ],
      [
        37.376338303353535,
        55.812998489087676
      ],
      [
        37.37654751565672,
        55.81306494349336
      ],
      [
        37.37678355005001,
        55.813131397785114
      ],
      [
        37.376869380738505,
        55.81310723260128
      ],
      [
        37.37684792306637,
        55.81296526184211
      ],
      [
        37.377062499787556,
        55.81298640645622
      ],
      [
        37.377502382066,
        55.81292599324243
      ],
      [
        37.37803345945064,
        55.812868600500366
      ],
      [
        37.37877374913874,
        55.81289880716377
      ],
      [
        37.37931019094174,
        55.81321899634838
      ],
      [
        37.37990027692499,
        55.812935055128776
      ],
      [
        37.3805654647607,
        55.81283839381341
      ],
      [
        37.38109117772762,
        55.81269340138832
      ],
      [
        37.381016075875195,
        55.81130990470456
      ],
      [
        37.38116091516201,
        55.81086282535302
      ],
      [
        37.381311118866826,
        55.81065136710652
      ],
      [
        37.382029950882824,
        55.81143375685593
      ],
      [
        37.38297408845603,
        55.81231581438322
      ],
      [
        37.38353735234916,
        55.8128686004813
      ],
      [
        37.383945048119415,
        55.813282429715386
      ],
      [
        37.384433210160125,
        55.81320087247748
      ],
      [
        37.38459950711884,
        55.81421881528955
      ],
      [
        37.38481944825808,
        55.815251833813285
      ],
      [
        37.38506621148744,
        55.815964660952034
      ],
      [
        37.3851842286841,
        55.816293886008935
      ],
      [
        37.38500183847108,
        55.81642980379465
      ],
      [
        37.38468533780734,
        55.816526456152225
      ],
      [
        37.38467460897126,
        55.81669257682853
      ],
      [
        37.38490527894655,
        55.81850777634892
      ],
      [
        37.384755075241706,
        55.81871919172361
      ],
      [
        37.38485699918429,
        55.820168866118195
      ],
      [
        37.38487845685637,
        55.8203440314282
      ],
      [
        37.379750073219796,
        55.82114736564022
      ],
      [
        37.37731462743424,
        55.821564126451506
      ],
      [
        37.37702494886063,
        55.82164264610485
      ],
      [
        37.376429498459295,
        55.82157318641328
      ],
      [
        37.37576967504162,
        55.82065811893332
      ],
      [
        37.37583941247601,
        55.82088462279758
      ],
      [
        37.375426352287725,
        55.82096918390077
      ],
      [
        37.3745304944767,
        55.8198245733035
      ],
      [
        37.373876035477075,
        55.81904235294802
      ],
      [
        37.37356489923134,
        55.81906349424636
      ],
      [
        37.373876035477075,
        55.81899705012704
      ],
      [
        37.373162567879106,
        55.81815138773965
      ],
      [
        37.37360781457558,
        55.81802453679056
      ],
      [
        37.37390822198526,
        55.817876543491764
      ],
      [
        37.374128163124446,
        55.81757149429026
      ],
      [
        37.37446612146031,
        55.81741141800926
      ],
      [
        37.374932825828914,
        55.81734195073179
      ],
      [
        37.37561947133673,
        55.81733591009365
      ],
      [
        37.37566775109899,
        55.81725436138638
      ],
      [
        37.375989616180775,
        55.81730268656059
      ],
      [
        37.37569457318912,
        55.817000653193205
      ],
      [
        37.37518495347631,
        55.81630294711405
      ],
      [
        37.37453049447668,
        55.81537265278712
      ],
      [
        37.37423008706692,
        55.814976968871235
      ],
      [
        37.37408256557109,
        55.814963376604524
      ],
      [
        37.37422204043988,
        55.81494374332198
      ],
      [
        37.37446075704221,
        55.815265425851614
      ],
      [
        37.37448489692333,
        55.81525183368608
      ],
      [
        37.374315917755396,
        55.81500717389129
      ],
      [
        37.37436956193568,
        55.81500113288917
      ],
      [
        37.3744795325053,
        55.815177831812335
      ],
      [
        37.37451976564052,
        55.815165749860334
      ],
      [
        37.37436419751766,
        55.81496186635236
      ],
      [
        37.37440443065288,
        55.81495582534319
      ],
      [
        37.37454926993969,
        55.81513856545459
      ],
      [
        37.374589503074915,
        55.8151310142274
      ],
      [
        37.37396991279249,
        55.81429583941119
      ],
      [
        37.37321084764127,
        55.81320540324894
      ],
      [
        37.37298554208401,
        55.81290182761269
      ],
      [
        37.37275755431773,
        55.81272058728685
      ],
      [
        37.37247324016216,
        55.812441173467064
      ],
      [
        37.372494697834284,
        55.81229466919976
      ],
      [
        37.37239277389171,
        55.8121179571302
      ],
      [
        37.37212187078117,
        55.81187176717085
      ],
      [
        37.37170612838387,
        55.81167239747396
      ],
      [
        37.371448636318426,
        55.81162104450714
      ],
      [
        37.37122869517922,
        55.8116739078543
      ],
      [
        37.37114286449074,
        55.81181286259441
      ],
      [
        37.37116968658088,
        55.81198655531898
      ],
      [
        37.37123137738823,
        55.81216477834894
      ],
      [
        37.37114822890877,
        55.81224180669296
      ],
      [
        37.371014118458035,
        55.81228862776845
      ],
      [
        37.3709363343966,
        55.81237320763238
      ],
      [
        37.37085318591714,
        55.8124290906555
      ],
      [
        37.37060642268775,
        55.81248044255164
      ],
      [
        37.370386481548536,
        55.81245174591218
      ],
      [
        37.37025505330681,
        55.81232789701394
      ],
      [
        37.37016117599128,
        55.81212550893815
      ],
      [
        37.370145082737196,
        55.81198051384597
      ],
      [
        37.37025505330681,
        55.81185666344183
      ],
      [
        37.370324790741186,
        55.81175999943678
      ],
      [
        37.37073248651147,
        55.81153495260965
      ],
      [
        37.37126892831444,
        55.81129329013898
      ],
      [
        37.37153178479789,
        55.811202666304915
      ],
      [
        37.37163370874047,
        55.81108787583508
      ],
      [
        37.37170612838387,
        55.81092626236046
      ],
      [
        37.37168198850273,
        55.81066345022441
      ],
      [
        37.37146472957253,
        55.810414230166984
      ],
      [
        37.371134817863705,
        55.810140841479914
      ],
      [
        37.37066006686801,
        55.809902191196294
      ],
      [
        37.37015849378224,
        55.809669581296475
      ],
      [
        37.36959791209812,
        55.80948530493028
      ],
      [
        37.36890321996322,
        55.809340299947905
      ],
      [
        37.36885494020096,
        55.809231545864655
      ],
      [
        37.368683278824015,
        55.809190763004786
      ],
      [
        37.36849284198395,
        55.80921644110675
      ],
      [
        37.36841774013153,
        55.809252692515855
      ],
      [
        37.36791348483671,
        55.809175658224625
      ],
      [
        37.36714637305846,
        55.80911826003045
      ],
      [
        37.36643826987854,
        55.80912128098382
      ],
      [
        37.365512907768405,
        55.80924362965409
      ],
      [
        37.3643327358018,
        55.80952910837647
      ],
      [
        37.36418521430598,
        55.80957593272914
      ],
      [
        37.364222765232185,
        55.80965749759547
      ],
      [
        37.36441320207225,
        55.81002906870336
      ],
      [
        37.36425763394936,
        55.810101569961276
      ],
      [
        37.36429786708458,
        55.810208811166
      ],
      [
        37.364102065826366,
        55.810223160293425
      ],
      [
        37.36291554760474,
        55.81030719333793
      ],
      [
        37.36291286539568,
        55.81057453907702
      ],
      [
        37.36283239912523,
        55.81072558109879
      ],
      [
        37.36252662729752,
        55.81086453923894
      ],
      [
        37.362322779412395,
        55.81123609877533
      ],
      [
        37.3623388726665,
        55.811402242130946
      ],
      [
        37.36195799898637,
        55.81150494857638
      ],
      [
        37.35907730650439,
        55.81193087533596
      ],
      [
        37.35890028070936,
        55.81155932245395
      ],
      [
        37.35870179724226,
        55.81132370171157
      ],
      [
        37.3583852965785,
        55.81111526678385
      ],
      [
        37.35834238123426,
        55.8108433934544
      ],
      [
        37.35808488916884,
        55.81040839216046
      ],
      [
        37.35844430517681,
        55.81104578822552
      ],
      [
        37.35825118612776,
        55.81112130839173
      ],
      [
        37.356357546563245,
        55.81085849757829
      ],
      [
        37.35557434153088,
        55.81071953941647
      ],
      [
        37.35398647379403,
        55.81029964106776
      ],
      [
        37.353718252892556,
        55.810628914253556
      ],
      [
        37.35355195593361,
        55.81078599772358
      ],
      [
        37.353332014794404,
        55.81123609875621
      ],
      [
        37.35216257166391,
        55.810937038914936
      ],
      [
        37.351937266106646,
        55.810813185176265
      ],
      [
        37.35079464506631,
        55.81051714292258
      ],
      [
        37.3501079995585,
        55.81036610008851
      ],
      [
        37.348906369919824,
        55.81003984555809
      ],
      [
        37.347854943985986,
        55.80977098558757
      ],
      [
        37.34431979250435,
        55.809052002588736
      ],
      [
        37.34388527464396,
        55.809085233189364
      ],
      [
        37.34385308813578,
        55.80929065808811
      ],
      [
        37.34332201075083,
        55.81011234678944
      ],
      [
        37.34245297503,
        55.811169641182765
      ],
      [
        37.341991635079424,
        55.81160161316669
      ],
      [
        37.34221694063668,
        55.811438491444825
      ],
      [
        37.34193799089913,
        55.81144453300233
      ],
      [
        37.34060225080972,
        55.810813185150835
      ],
      [
        37.33965811323644,
        55.81041745468637
      ],
      [
        37.33903047632694,
        55.81026036972267
      ],
      [
        37.33873543333531,
        55.8104990177818
      ],
      [
        37.33849403452397,
        55.81038724608895
      ],
      [
        37.3365896661234,
        55.809559521352355
      ],
      [
        37.33437416147705,
        55.80858677115033
      ],
      [
        37.33081218790529,
        55.80708832556169
      ],
      [
        37.32958373617645,
        55.80655056281491
      ],
      [
        37.32943353247164,
        55.806638176354376
      ],
      [
        37.32917604040619,
        55.80653545701224
      ],
      [
        37.32749697756289,
        55.80791308199838
      ],
      [
        37.327282400841675,
        55.80781942921251
      ],
      [
        37.32552287172793,
        55.80704905098197
      ],
      [
        37.32396182608125,
        55.806372313942845
      ],
      [
        37.32316789221281,
        55.80601279258243
      ],
      [
        37.322577806229525,
        55.805731819791234
      ],
      [
        37.321966262574136,
        55.80577411690077
      ],
      [
        37.32159611773008,
        55.80581943518119
      ],
      [
        37.32167121958248,
        55.80598862296002
      ],
      [
        37.32149419378751,
        55.80581037152934
      ],
      [
        37.320651980156825,
        55.8059553897046
      ],
      [
        37.32051786970609,
        55.805891944319676
      ],
      [
        37.319750757927835,
        55.80585871097501
      ],
      [
        37.31939670633786,
        55.80586173218876
      ],
      [
        37.3193591554116,
        55.80567139525626
      ],
      [
        37.31899437498558,
        55.80568348016824
      ],
      [
        37.318441839928525,
        55.80596445330981
      ],
      [
        37.317862482781294,
        55.80619104306326
      ],
      [
        37.31696662497033,
        55.80642065266875
      ],
      [
        37.31629070829857,
        55.8067016204672
      ],
      [
        37.3155986983727,
        55.8070007129762
      ],
      [
        37.31528756212697,
        55.80742064705759
      ],
      [
        37.314976425881184,
        55.807861723993405
      ],
      [
        37.31508907865982,
        55.808127576164416
      ],
      [
        37.31542703699571,
        55.808320922052616
      ],
      [
        37.315990300888835,
        55.80866531702072
      ],
      [
        37.31618878435594,
        55.80886168120656
      ],
      [
        37.3163899656912,
        55.80923386511599
      ],
      [
        37.316448974289514,
        55.80937887048384
      ],
      [
        37.31487719980679,
        55.80946345669789
      ],
      [
        37.31357364622556,
        55.80955408457955
      ],
      [
        37.31326250997982,
        55.80961752397061
      ],
      [
        37.31331078974211,
        55.81039993458335
      ],
      [
        37.31332688299604,
        55.81051699268442
      ],
      [
        37.31340064374394,
        55.810606862891746
      ],
      [
        37.31333895293661,
        55.8104482682613
      ],
      [
        37.3132906731743,
        55.8096039297479
      ],
      [
        37.313615220465095,
        55.80953746940122
      ],
      [
        37.31361656156959,
        55.80990375508759
      ],
      [
        37.31364472476414,
        55.81036292891723
      ],
      [
        37.31385393706725,
        55.81085532642185
      ],
      [
        37.31383247939514,
        55.81097313839584
      ],
      [
        37.313792246259865,
        55.8111679804836
      ],
      [
        37.31361253825588,
        55.81124047961744
      ],
      [
        37.31362058488292,
        55.81132506176883
      ],
      [
        37.31361253825588,
        55.81144891387175
      ],
      [
        37.31359644500178,
        55.81152443325248
      ],
      [
        37.313338952936334,
        55.81176609423743
      ],
      [
        37.31312974063315,
        55.81188088269854
      ],
      [
        37.311944204248526,
        55.81194129753518
      ],
      [
        37.31187446681411,
        55.81201379520974
      ],
      [
        37.31063528624922,
        55.81215274873125
      ],
      [
        37.309621411241594,
        55.8123853437284
      ],
      [
        37.30830712882429,
        55.81282938484029
      ],
      [
        37.30677826968577,
        55.81357548328385
      ],
      [
        37.30524404612925,
        55.814345731790205
      ],
      [
        37.30490608779336,
        55.81414788510396
      ],
      [
        37.30523868171123,
        55.814374427027225
      ],
      [
        37.30520917741206,
        55.814469574240086
      ],
      [
        37.30529232589152,
        55.81458284442698
      ],
      [
        37.305737572587994,
        55.81502686036063
      ],
      [
        37.30644031134985,
        55.815549403209054
      ],
      [
        37.307180601037956,
        55.815913366744084
      ],
      [
        37.30790479747198,
        55.81631357167191
      ],
      [
        37.30836613742255,
        55.8166186307702
      ],
      [
        37.309216397680274,
        55.81721212994989
      ],
      [
        37.309559720434166,
        55.81745375551341
      ],
      [
        37.30979307261847,
        55.817545874862795
      ],
      [
        37.310109573282226,
        55.817585138774824
      ],
      [
        37.31050654021644,
        55.81757154742294
      ],
      [
        37.31194420424843,
        55.81737975783191
      ],
      [
        37.31525941459075,
        55.81689952461598
      ],
      [
        37.315720754541296,
        55.81691764673169
      ],
      [
        37.31655760375395,
        55.81709886742286
      ],
      [
        37.31672390071287,
        55.81709433690956
      ],
      [
        37.31686069337262,
        55.81701278769389
      ],
      [
        37.316868739999634,
        55.816340755208884
      ],
      [
        37.3175714787615,
        55.81628336761924
      ],
      [
        37.31809182731039,
        55.816058347064946
      ],
      [
        37.3181508359087,
        55.81597226503083
      ],
      [
        37.31897963849432,
        55.815987367149575
      ],
      [
        37.31899036733037,
        55.815827284324286
      ],
      [
        37.31905742255575,
        55.81580916169862
      ],
      [
        37.321838873304145,
        55.81579707993709
      ],
      [
        37.32193006841067,
        55.81575630398566
      ],
      [
        37.32200248805405,
        55.81570948709958
      ],
      [
        37.32203735677125,
        55.815640016777316
      ],
      [
        37.3222599801195,
        55.81562944519561
      ],
      [
        37.32282592622164,
        55.815501075759144
      ],
      [
        37.322992223180556,
        55.815581117928275
      ],
      [
        37.32313974467638,
        55.81556299518748
      ]
    ]
  }
}
