{
  "type": "Feature",
  "id": "506a7c2a-bb62-487e-9e54-a6845cbd06ab",
  "properties": {
    "id": "506a7c2a-bb62-487e-9e54-a6845cbd06ab",
    "name": "Лес НД - Кутузовский пр",
    "color": "#ff3300",
    "routeType": "Twiter Gravel V1",
    "isSelected": false
  },
  "geometry": {
    "type": "MultiLineString",
    "coordinates": [
      [
        [
          37.4615665922032,
          55.810889852105284
        ],
        [
          37.461502219186855,
          55.81084453975261
        ],
        [
          37.46129300688369,
          55.810838498101575
        ],
        [
          37.461212540613246,
          55.810675373167875
        ],
        [
          37.46126618479354,
          55.80986275910282
        ],
        [
          37.460820938097065,
          55.80979629920626
        ],
        [
          37.460879946695385,
          55.80960900252108
        ],
        [
          37.46090676878554,
          55.809391495557314
        ],
        [
          37.460643912302096,
          55.80927972067059
        ],
        [
          37.46026840303999,
          55.80911961013615
        ],
        [
          37.45998945330244,
          55.809216280726616
        ],
        [
          37.45975878332718,
          55.809412642121245
        ],
        [
          37.459549571024,
          55.80932201390887
        ],
        [
          37.45951738451579,
          55.808932310174654
        ],
        [
          37.45946910475345,
          55.80848822439333
        ],
        [
          37.45939400290103,
          55.8081619540558
        ],
        [
          37.45859470461458,
          55.80753659489907
        ],
        [
          37.45772030447572,
          55.80677225332684
        ],
        [
          37.45731797312349,
          55.80654264580396
        ],
        [
          37.45671179388613,
          55.8062858463054
        ],
        [
          37.455815936075155,
          55.806068320687075
        ],
        [
          37.455059553132955,
          55.80592330293429
        ],
        [
          37.451588774667634,
          55.80564535071874
        ],
        [
          37.447801495538606,
          55.80547314019792
        ],
        [
          37.441154981599674,
          55.8052163336079
        ],
        [
          37.43633773420889,
          55.80506527011057
        ],
        [
          37.435248757348845,
          55.80501390838954
        ],
        [
          37.43444945906241,
          55.804923269886
        ],
        [
          37.429487372384855,
          55.80415887679638
        ],
        [
          37.428382302270684,
          55.80397759558541
        ],
        [
          37.427604461656344,
          55.803899040133466
        ],
        [
          37.42630090807512,
          55.803911125597985
        ],
        [
          37.42632236574725,
          55.80357575255966
        ],
        [
          37.4264242896898,
          55.803560645597756
        ],
        [
          37.426354552255404,
          55.80344885389669
        ],
        [
          37.425930763231065,
          55.80333706187327
        ],
        [
          37.42546942328047,
          55.803288719270455
        ],
        [
          37.42431607340405,
          55.8032947620983
        ],
        [
          37.423329020486584,
          55.803373318774696
        ],
        [
          37.42211666201185,
          55.8034971962871
        ],
        [
          37.421016956315704,
          55.803533453038796
        ],
        [
          37.42014792059487,
          55.80350021767858
        ],
        [
          37.419348622308426,
          55.803397490021396
        ],
        [
          37.41894092653817,
          55.80331289056991
        ],
        [
          37.417701745973254,
          55.80178402580583
        ],
        [
          37.417235041604656,
          55.80112532635897
        ],
        [
          37.416746879563924,
          55.800684172759524
        ],
        [
          37.41518046949922,
          55.79952083270728
        ],
        [
          37.41258945559079,
          55.79754156357436
        ],
        [
          37.41137709711601,
          55.79660779695242
        ],
        [
          37.41085674856712,
          55.79604571300301
        ],
        [
          37.41002526377247,
          55.79478854951422
        ],
        [
          37.40990724657581,
          55.794564915202066
        ],
        [
          37.41013255213307,
          55.79431105847413
        ],
        [
          37.41013255213307,
          55.79416901886563
        ],
        [
          37.40922596548603,
          55.79299943890138
        ],
        [
          37.40908112619924,
          55.79232547887668
        ],
        [
          37.409199143395846,
          55.79226805572592
        ],
        [
          37.40924742315811,
          55.792129030918886
        ],
        [
          37.40897383783858,
          55.791860046725205
        ],
        [
          37.40858759974045,
          55.79116491038769
        ],
        [
          37.40762736891307,
          55.78863511343535
        ],
        [
          37.40720357988867,
          55.78803362010431
        ],
        [
          37.40667786692176,
          55.78730818861185
        ],
        [
          37.40540113543064,
          55.78580589775447
        ],
        [
          37.403995657906826,
          55.78432168608248
        ],
        [
          37.40364160631686,
          55.784185655695616
        ],
        [
          37.40285840128452,
          55.78395893732426
        ],
        [
          37.40263309572726,
          55.78387429545932
        ],
        [
          37.40210201834231,
          55.78400730402133
        ],
        [
          37.400299573884276,
          55.78446678462975
        ],
        [
          37.39921059702423,
          55.78506228759277
        ],
        [
          37.398287917123106,
          55.78534038736819
        ],
        [
          37.397649551377555,
          55.78445771597971
        ],
        [
          37.397606636033316,
          55.78417658697356
        ],
        [
          37.397461796746505,
          55.783671758805944
        ],
        [
          37.3968180665829,
          55.78276486535235
        ],
        [
          37.39583637808344,
          55.781377277342585
        ],
        [
          37.39479568098568,
          55.780125684812994
        ],
        [
          37.39417340849418,
          55.77966917603416
        ],
        [
          37.39276793097038,
          55.77871986244985
        ],
        [
          37.39234950636401,
          55.77842962180754
        ],
        [
          37.39174869154468,
          55.77771912775594
        ],
        [
          37.39133563135639,
          55.77728980164087
        ],
        [
          37.39104595278276,
          55.777102347903764
        ],
        [
          37.39126052950397,
          55.77712653553363
        ],
        [
          37.390439773545395,
          55.77637973550242
        ],
        [
          37.38973167036548,
          55.775654086084394
        ],
        [
          37.38940444086567,
          55.77541219992981
        ],
        [
          37.387226487145526,
          55.774411379935614
        ],
        [
          37.387140656457,
          55.773870140240724
        ],
        [
          37.38709237669474,
          55.772890446965455
        ],
        [
          37.38710846994884,
          55.77235523371613
        ],
        [
          37.387017274842314,
          55.77167789111417
        ],
        [
          37.38700654600626,
          55.77145412353108
        ],
        [
          37.38706019018655,
          55.771177436178114
        ],
        [
          37.38723721598155,
          55.770934010154704
        ],
        [
          37.38732036446101,
          55.77085387578815
        ],
        [
          37.388047243104,
          55.7708871391239
        ],
        [
          37.39100035522941,
          55.77098844094455
        ],
        [
          37.39120956753256,
          55.77082666029898
        ],
        [
          37.3912363896227,
          55.769958778776555
        ],
        [
          37.391292716011975,
          55.76910448619538
        ],
        [
          37.391389275536525,
          55.769025860093805
        ],
        [
          37.391657496438,
          55.768662968330496
        ],
        [
          37.39171650503634,
          55.768179107368894
        ],
        [
          37.391845251069,
          55.76796741629538
        ],
        [
          37.39223685358518,
          55.7677950384308
        ],
        [
          37.392880583748756,
          55.76749564347204
        ],
        [
          37.394168044075904,
          55.767305118209165
        ],
        [
          37.395444775567,
          55.76739282042415
        ],
        [
          37.39587392900937,
          55.766854507114125
        ],
        [
          37.39972558115471,
          55.76681519179202
        ],
        [
          37.399983073220156,
          55.766718415475914
        ],
        [
          37.40018692110529,
          55.766476473630135
        ],
        [
          37.400701905236154,
          55.765442155238325
        ],
        [
          37.40110960100641,
          55.76523347361933
        ],
        [
          37.401420737252124,
          55.76478586289239
        ],
        [
          37.40158166979302,
          55.764559031165085
        ],
        [
          37.401812339768306,
          55.763893650453035
        ],
        [
          37.401908899292856,
          55.76364261748824
        ],
        [
          37.40213420485009,
          55.76339158290664
        ],
        [
          37.402574087128535,
          55.763001417503915
        ],
        [
          37.40340557192316,
          55.76191256308369
        ],
        [
          37.404279972062,
          55.761900464529724
        ],
        [
          37.404499913201235,
          55.762302739428065
        ],
        [
          37.40485932920923,
          55.76223922261594
        ],
        [
          37.404827142701045,
          55.76210009018818
        ],
        [
          37.40567472074975,
          55.76202749915839
        ],
        [
          37.40674223993769,
          55.762193853400795
        ],
        [
          37.4066939601754,
          55.762378354545135
        ],
        [
          37.407670284256845,
          55.76237835453257
        ],
        [
          37.40753080938806,
          55.76215907028739
        ],
        [
          37.407477165207766,
          55.76195490798034
        ],
        [
          37.40753617380606,
          55.761784015736126
        ],
        [
          37.40746911858068,
          55.76175679389428
        ],
        [
          37.407466436371664,
          55.76166756661217
        ],
        [
          37.40754690264211,
          55.76157228979643
        ],
        [
          37.407616640076505,
          55.76152691980201
        ],
        [
          37.407597864613365,
          55.761360562695934
        ],
        [
          37.407562995896164,
          55.76121084069675
        ],
        [
          37.40765150879365,
          55.76099911163166
        ],
        [
          37.407713199600956,
          55.76086299947386
        ],
        [
          37.40769710634687,
          55.76049095715871
        ],
        [
          37.40772929285503,
          55.76016882007329
        ],
        [
          37.40794386957624,
          55.759928349807396
        ],
        [
          37.408330107674374,
          55.75995103574515
        ],
        [
          37.4083864340637,
          55.75944891721685
        ],
        [
          37.40985896681286,
          55.75953663718574
        ],
        [
          37.40981873367764,
          55.759689390451705
        ],
        [
          37.40959879253843,
          55.75968031601705
        ],
        [
          37.409875060066966,
          55.759689390451705
        ],
        [
          37.40988847111203,
          55.759518488242925
        ],
        [
          37.408402527317776,
          55.75946404135728
        ],
        [
          37.40839716289975,
          55.759336242132214
        ],
        [
          37.4078459689472,
          55.75931128720486
        ],
        [
          37.408146376356775,
          55.757246778564756
        ],
        [
          37.40803104136911,
          55.757196865995965
        ],
        [
          37.408194656119015,
          55.75598987009834
        ],
        [
          37.40811418984857,
          55.75596718184646
        ],
        [
          37.408368999704926,
          55.75386921753408
        ],
        [
          37.40783524011096,
          55.75361660711038
        ],
        [
          37.40771990512332,
          55.75358937954283
        ],
        [
          37.40680527184926,
          55.75300549488356
        ],
        [
          37.40673553441487,
          55.75292986151437
        ],
        [
          37.40680527184926,
          55.7529041461353
        ],
        [
          37.40603547786199,
          55.75246698207992
        ],
        [
          37.405861134276,
          55.75235655578048
        ],
        [
          37.40515034888703,
          55.75207368149284
        ],
        [
          37.40409087632615,
          55.75127799197344
        ],
        [
          37.403865570768886,
          55.75105410681652
        ],
        [
          37.403420324072414,
          55.75082416936622
        ],
        [
          37.40200948213053,
          55.74990138037417
        ],
        [
          37.40138184522106,
          55.74948082336796
        ],
        [
          37.399531121000784,
          55.74829174186769
        ],
        [
          37.39741217587898,
          55.74687871474858
        ],
        [
          37.396505589231936,
          55.74620697933996
        ],
        [
          37.39634465669104,
          55.746294729219514
        ],
        [
          37.39471923802803,
          55.74531433998622
        ],
        [
          37.394397372946244,
          55.74506016096308
        ],
        [
          37.39225697015231,
          55.74359557323889
        ],
        [
          37.39168834184115,
          55.74321428721416
        ],
        [
          37.39061009381716,
          55.743749902226526
        ],
        [
          37.39022922013706,
          55.74360767747703
        ],
        [
          37.38755773995823,
          55.74489373328326
        ],
        [
          37.384253258451885,
          55.746091996395265
        ],
        [
          37.38798689340052,
          55.74476664257861
        ],
        [
          37.390357966169695,
          55.743507817206606
        ],
        [
          37.38951038812099,
          55.743344408999384
        ],
        [
          37.38618444894251,
          55.74399803769871
        ],
        [
          37.38552998994285,
          55.74442168004836
        ],
        [
          37.38399576638631,
          55.74528710651746
        ],
        [
          37.38235425446922,
          55.74643694403281
        ],
        [
          37.38427471612386,
          55.745202380301784
        ],
        [
          37.3864204833358,
          55.74397382941167
        ],
        [
          37.389714236006064,
          55.74330809594605
        ],
        [
          37.387321705564794,
          55.74295101602715
        ],
        [
          37.38633465264722,
          55.74241841613364
        ],
        [
          37.385830397352436,
          55.7429812771394
        ],
        [
          37.385015005811916,
          55.743804371036504
        ],
        [
          37.38402795289442,
          55.744318795868004
        ],
        [
          37.38260101769851,
          55.74460323961533
        ],
        [
          37.381753439649806,
          55.74482111001346
        ],
        [
          37.380165571912976,
          55.74535972880962
        ],
        [
          37.37908195947088,
          55.745692579363826
        ],
        [
          37.37776231263555,
          55.74574099375597
        ],
        [
          37.376839632734445,
          55.745759149137484
        ],
        [
          37.376496309980524,
          55.74575612323487
        ],
        [
          37.37859379743017,
          55.74562600946352
        ],
        [
          37.37974714730653,
          55.745586672651804
        ],
        [
          37.381259913190945,
          55.7450631867568
        ],
        [
          37.38210212682157,
          55.744648629313325
        ],
        [
          37.38390457127959,
          55.74427037963459
        ],
        [
          37.385041827901894,
          55.743880022098864
        ],
        [
          37.38623809312254,
          55.74266353394658
        ],
        [
          37.38664578889281,
          55.74251222678693
        ],
        [
          37.387402171835014,
          55.742957068156116
        ],
        [
          37.389660591825496,
          55.743359539286075
        ],
        [
          37.39064228032494,
          55.74373174572419
        ],
        [
          37.39175807927514,
          55.74319310435304
        ],
        [
          37.39146840070154,
          55.74302666871336
        ],
        [
          37.394451017126094,
          55.74159529277664
        ],
        [
          37.39607643578911,
          55.74085688795373
        ],
        [
          37.396049613698985,
          55.74079938862917
        ],
        [
          37.396333927854556,
          55.740666231971936
        ],
        [
          37.396435851797115,
          55.74054215376701
        ],
        [
          37.39639293645288,
          55.740427154101376
        ],
        [
          37.395663375600826,
          55.739955046631955
        ],
        [
          37.39640366528893,
          55.740396890962344
        ],
        [
          37.3964526819633,
          55.7401620630916
        ],
        [
          37.39662434334024,
          55.73971718972452
        ],
        [
          37.39578749412761,
          55.73914217578625
        ],
        [
          37.400186316912034,
          55.73705994885999
        ],
        [
          37.404810445253716,
          55.73483232677054
        ],
        [
          37.406811373178805,
          55.73486259423042
        ],
        [
          37.4069723057197,
          55.73493826277704
        ],
        [
          37.40735317939978,
          55.73477784527708
        ],
        [
          37.40747119659643,
          55.73487470120155
        ],
        [
          37.40832950348119,
          55.73443582085662
        ],
        [
          37.408501164858166,
          55.73441160662471
        ],
        [
          37.40952040428382,
          55.733984828305275
        ],
        [
          37.41187001938083,
          55.73396969423024
        ],
        [
          37.412106053774146,
          55.73369727998476
        ],
        [
          37.42090906376098,
          55.73366095793484
        ],
        [
          37.424492495004856,
          55.733624635850965
        ],
        [
          37.42445494407862,
          55.7332069295066
        ],
        [
          37.424905555193114,
          55.73297083263779
        ],
        [
          37.425018207971746,
          55.73294964438714
        ],
        [
          37.42501284355367,
          55.731902325025295
        ],
        [
          37.428472893182885,
          55.73189929804358
        ],
        [
          37.42960478538716,
          55.73187508223151
        ],
        [
          37.42970670932974,
          55.73183875848509
        ],
        [
          37.429771082346086,
          55.731632923280976
        ],
        [
          37.43019487137045,
          55.73159357230903
        ],
        [
          37.4329468178197,
          55.73074600322549
        ],
        [
          37.43530179733476,
          55.72984090013573
        ],
        [
          37.436251299326045,
          55.72972889594782
        ],
        [
          37.43686820739946,
          55.7294413161495
        ],
        [
          37.43738855594835,
          55.729190060472924
        ],
        [
          37.43845071071824,
          55.72910227196436
        ],
        [
          37.43923928016863,
          55.72898421124371
        ],
        [
          37.43944849247179,
          55.72893880317874
        ],
        [
          37.44260277027327,
          55.72935050102184
        ],
        [
          37.445360081140564,
          55.729780357359
        ],
        [
          37.44568194622235,
          55.72901145605095
        ],
        [
          37.445558564607644,
          55.728866150151994
        ],
        [
          37.44597698921396,
          55.727836884530454
        ],
        [
          37.44629348987772,
          55.72787321201631
        ],
        [
          37.44638468498422,
          55.727567454617684
        ],
        [
          37.44665290588571,
          55.727567454617684
        ],
        [
          37.44679238075448,
          55.72745241655802
        ],
        [
          37.44692112678719,
          55.72737976076601
        ],
        [
          37.448020832483316,
          55.72739489740056
        ],
        [
          37.448058383409524,
          55.72747058048481
        ],
        [
          37.44846607917978,
          55.72749782635907
        ],
        [
          37.44857873195841,
          55.727443334585175
        ],
        [
          37.449109809343355,
          55.727428197969516
        ],
        [
          37.44991447204783,
          55.72734040548239
        ],
        [
          37.450697677080164,
          55.7274342526165
        ],
        [
          37.45184029812047,
          55.7275462634092
        ],
        [
          37.45739247078126,
          55.7284029839757
        ],
        [
          37.45878185505098,
          55.728614890745625
        ],
        [
          37.46008540863221,
          55.728981184009754
        ],
        [
          37.4606057571811,
          55.729087135963304
        ],
        [
          37.46080708217271,
          55.72908013054967
        ],
        [
          37.46213745784409,
          55.72927992491242
        ],
        [
          37.46438514899857,
          55.72963410330468
        ],
        [
          37.46446561526902,
          55.729718863467056
        ],
        [
          37.46431004714616,
          55.72983994909272
        ],
        [
          37.462909934040376,
          55.7301184446005
        ],
        [
          37.462856289860085,
          55.729964061467626
        ],
        [
          37.46603738975175,
          55.72931019668972
        ],
        [
          37.46884298038131,
          55.72873805599292
        ],
        [
          37.47000705909375,
          55.728504959214696
        ],
        [
          37.470312830921436,
          55.728544313313215
        ],
        [
          37.47079026412609,
          55.72848074128811
        ],
        [
          37.471214053150426,
          55.7284746868041
        ],
        [
          37.47182559680584,
          55.72855944949434
        ],
        [
          37.474148389812726,
          55.72899234178032
        ],
        [
          37.48252224635722,
          55.73054526534035
        ],
        [
          37.48239886474254,
          55.730327314896996
        ],
        [
          37.48300504397991,
          55.73043931736079
        ],
        [
          37.486963984485854,
          55.73115370385463
        ],
        [
          37.48715710353493,
          55.731132514613456
        ],
        [
          37.48746823978064,
          55.73119002824118
        ],
        [
          37.48757016372322,
          55.73127478501113
        ],
        [
          37.48895954799292,
          55.73149575713702
        ],
        [
          37.49002170276283,
          55.73164105320106
        ],
        [
          37.49276828479408,
          55.732161692964574
        ],
        [
          37.493068692203735,
          55.73229185181745
        ],
        [
          37.493165251728286,
          55.732264609302916
        ],
        [
          37.49348711681007,
          55.7323190943129
        ],
        [
          37.49370705794929,
          55.732388713936736
        ],
        [
          37.49454390716193,
          55.732440171839436
        ],
        [
          37.49473166179299,
          55.73203758760594
        ],
        [
          37.494270321842414,
          55.73198007523221
        ],
        [
          37.49477457713722,
          55.73160170223106
        ],
        [
          37.51455318641299,
          55.735246037853436
        ],
        [
          37.51438152503604,
          55.73534289261118
        ],
        [
          37.516462919231614,
          55.73570004244444
        ],
        [
          37.52056133460635,
          55.73649907763793
        ],
        [
          37.52144109916324,
          55.736783578629584
        ],
        [
          37.52357613753907,
          55.7372708573922
        ],
        [
          37.52378534984222,
          55.73707413067176
        ],
        [
          37.52703082275023,
          55.737876164132295
        ],
        [
          37.531247255321645,
          55.73885068816964
        ],
        [
          37.531161424633176,
          55.73892332252351
        ],
        [
          37.53086101722349,
          55.73884766173527
        ],
        [
          37.53083955955134,
          55.73887792606197
        ],
        [
          37.531156060215096,
          55.73895358679127
        ],
        [
          37.53069472026455,
          55.73957551239786
        ],
        [
          37.53090929698573,
          55.73962998715993
        ],
        [
          37.53087711047755,
          55.73965571132658
        ],
        [
          37.530316528793435,
          55.73952103755941
        ],
        [
          37.53026556682216,
          55.73956492007413
        ],
        [
          37.531083640571694,
          55.739766173731034
        ],
        [
          37.531319674965005,
          55.73980249006313
        ],
        [
          37.531180200096244,
          55.73995683412252
        ],
        [
          37.531402823444466,
          55.73997045268658
        ],
        [
          37.53145378541574,
          55.73982972729462
        ],
        [
          37.53157984923946,
          55.73970262005099
        ],
        [
          37.532912907119815,
          55.74005519030491
        ],
        [
          37.533162352558165,
          55.740292757296714
        ],
        [
          37.532859262939475,
          55.74003249273876
        ],
        [
          37.53147792529681,
          55.73970867277377
        ],
        [
          37.531410870071426,
          55.739788871427706
        ],
        [
          37.53104608964541,
          55.73974801553034
        ],
        [
          37.53023606252291,
          55.739543735386704
        ],
        [
          37.53028031897166,
          55.73950363582747
        ],
        [
          37.53091734361269,
          55.739651928330616
        ],
        [
          37.5309347779713,
          55.73962090800687
        ],
        [
          37.53067192148782,
          55.739567946421296
        ],
        [
          37.530779209848426,
          55.739431759149234
        ],
        [
          37.530127433057814,
          55.73927589980386
        ],
        [
          37.53015023183443,
          55.73925774139286
        ],
        [
          37.530398336168325,
          55.73931448639903
        ],
        [
          37.53042381715396,
          55.73929027520654
        ],
        [
          37.531270054098144,
          55.73948850390131
        ],
        [
          37.53319856237983,
          55.739971209229445
        ],
        [
          37.53347751211733,
          55.740095289244856
        ],
        [
          37.53457453560442,
          55.74034950074768
        ],
        [
          37.535068062063154,
          55.74052200045698
        ],
        [
          37.535489168878506,
          55.740673315366465
        ],
        [
          37.535695698972646,
          55.7407746960262
        ],
        [
          37.53593173336596,
          55.74081101142206
        ],
        [
          37.53734793972577,
          55.74134363332264
        ],
        [
          37.53984775852762,
          55.7422333377123
        ],
        [
          37.54431095432841,
          55.74394611262552
        ],
        [
          37.548033860441066,
          55.74524123505308
        ],
        [
          37.55129542660318,
          55.74637897052987
        ],
        [
          37.55414929699503,
          55.747238301840284
        ],
        [
          37.55746987175546,
          55.7481944368607
        ],
        [
          37.556976345296725,
          55.74871182922756
        ],
        [
          37.55669739555917,
          55.7486543415264
        ],
        [
          37.55664911579691,
          55.74876629118179
        ],
        [
          37.55651500534617,
          55.748705777894614
        ],
        [
          37.556724217649325,
          55.748757214194725
        ],
        [
          37.5568100483378,
          55.74862711048037
        ],
        [
          37.55790438961587,
          55.74897203565312
        ],
        [
          37.5577273638209,
          55.74915357398761
        ],
        [
          37.55795266937814,
          55.74896598436069
        ],
        [
          37.557164099927775,
          55.74870880356121
        ],
        [
          37.55714800667367,
          55.74856962265382
        ],
        [
          37.55753424477182,
          55.74821561679443
        ],
        [
          37.55785610985361,
          55.748318490624534
        ],
        [
          37.56052222561441,
          55.749071881842085
        ],
        [
          37.564068105932094,
          55.75010361076145
        ],
        [
          37.565334108587145,
          55.750388012145095
        ],
        [
          37.56712582420908,
          55.75091445178837
        ],
        [
          37.56742623161873,
          55.75090537530323
        ],
        [
          37.56799485992991,
          55.751047573326616
        ],
        [
          37.57333245586951,
          55.75255423529184
        ],
        [
          37.57394936394293,
          55.752766010402446
        ],
        [
          37.57386889767248,
          55.752917277631646
        ],
        [
          37.57364895653325,
          55.75299896169047
        ],
        [
          37.57402446579535,
          55.75325913939954
        ],
        [
          37.574314144368955,
          55.75329846843648
        ],
        [
          37.57461455177861,
          55.75329241781801
        ],
        [
          37.575049069639,
          55.753141152043455
        ],
        [
          37.57515635799958,
          55.75311089881913
        ],
        [
          37.575311926122446,
          55.75292030296393
        ],
        [
          37.575596240278024,
          55.752787187843694
        ],
        [
          37.57654037785128,
          55.752750883640815
        ],
        [
          37.58017745327542,
          55.752808365273424
        ],
        [
          37.58283820461819,
          55.75280533991984
        ],
        [
          37.58353557896208,
          55.75278416248218
        ],
        [
          37.5839003593881,
          55.75279626387654
        ],
        [
          37.584678200002365,
          55.75277206107776
        ],
        [
          37.58927014183583,
          55.752796263863964
        ],
        [
          37.58924331974568,
          55.753316620254814
        ],
        [
          37.58932915043415,
          55.75352536591748
        ],
        [
          37.5896992952782,
          55.75423025239472
        ],
        [
          37.59033229660572,
          55.7547899171012
        ],
        [
          37.591260340924876,
          55.755416126963055
        ],
        [
          37.5919147999245,
          55.755204366301754
        ],
        [
          37.592402961965234,
          55.75505008280719
        ],
        [
          37.59287503075184,
          55.75562486134207
        ],
        [
          37.59412494015278,
          55.75682884353716
        ],
        [
          37.59470429730001,
          55.75737032085146
        ],
        [
          37.595559921975706,
          55.75728108347705
        ],
        [
          37.59606954168854,
          55.757131345748206
        ],
        [
          37.59642895769654,
          55.75711924570449
        ],
        [
          37.5972926289993,
          55.75729318345779
        ],
        [
          37.59776469778593,
          55.757377883305175
        ],
        [
          37.5980329186874,
          55.757247808457244
        ],
        [
          37.598472800965844,
          55.75670935447821
        ],
        [
          37.59900656055978,
          55.75609829091294
        ],
        [
          37.59793635916282,
          55.7573279708923
        ],
        [
          37.59773787569572,
          55.757409645675175
        ],
        [
          37.59776469778588,
          55.757603244468086
        ],
        [
          37.5977137358146,
          55.757700043505736
        ],
        [
          37.59774726342728,
          55.75767811248862
        ],
        [
          37.59775799226333,
          55.75741040190978
        ],
        [
          37.59782772969773,
          55.75735973331571
        ],
        [
          37.598082539554134,
          55.7574141831455
        ],
        [
          37.598496940846935,
          55.75744897049679
        ],
        [
          37.59884965133239,
          55.75742552685043
        ],
        [
          37.59892341208032,
          55.75743082057827
        ],
        [
          37.59899180841019,
          55.757579800908566
        ],
        [
          37.59891134213974,
          55.75760702567874
        ],
        [
          37.59895157527497,
          55.75767811248862
        ],
        [
          37.59898644399217,
          55.757775667579764
        ],
        [
          37.60118049096626,
          55.75998760675278
        ],
        [
          37.6035461993174,
          55.76242550931732
        ],
        [
          37.605681237693204,
          55.76457896341304
        ],
        [
          37.60598700952091,
          55.76479067295773
        ],
        [
          37.6078591914133,
          55.765628426541156
        ],
        [
          37.609425601477994,
          55.766266558842716
        ],
        [
          37.60989767026462,
          55.7664056763405
        ],
        [
          37.611260232444195,
          55.76699540801711
        ],
        [
          37.61290710877934,
          55.767703074211454
        ],
        [
          37.61344891500034,
          55.76792081506059
        ],
        [
          37.613813695426366,
          55.76798734674311
        ],
        [
          37.614570078368565,
          55.76792686339376
        ],
        [
          37.61565369081059,
          55.7678421865552
        ],
        [
          37.61933904599704,
          55.76731295212946
        ],
        [
          37.62118440579926,
          55.76701052921193
        ],
        [
          37.62347501229796,
          55.7665689875307
        ],
        [
          37.62438159894501,
          55.766475234883536
        ],
        [
          37.62683850240265,
          55.76632704474737
        ],
        [
          37.629037913794846,
          55.76634216621511
        ],
        [
          37.62999814462218,
          55.766357287676946
        ],
        [
          37.63131779145746,
          55.76636333625374
        ],
        [
          37.63248723458798,
          55.76627865600473
        ],
        [
          37.633833703513446,
          55.76621212139378
        ],
        [
          37.63543230008628,
          55.76596412774209
        ],
        [
          37.63596874188925,
          55.765800813988534
        ],
        [
          37.637288388724556,
          55.76515057648388
        ],
        [
          37.63716500710985,
          55.76504169844297
        ],
        [
          37.637277659888476,
          55.765020527677336
        ],
        [
          37.63748150777361,
          55.765032625259096
        ],
        [
          37.63761561822437,
          55.765087064330444
        ],
        [
          37.637433228011346,
          55.76519291786177
        ],
        [
          37.63818424653552,
          55.765392526592706
        ],
        [
          37.63844710301897,
          55.76551047672405
        ],
        [
          37.64070552300949,
          55.76664761857707
        ],
        [
          37.64221292447584,
          55.767367387965486
        ],
        [
          37.644144114966565,
          55.76814762708969
        ],
        [
          37.64538329553145,
          55.76887341685269
        ],
        [
          37.646118220801526,
          55.76937238944753
        ],
        [
          37.64576416921156,
          55.769469159147604
        ],
        [
          37.64606457662124,
          55.76983506739527
        ],
        [
          37.646735128874944,
          55.770216092152516
        ],
        [
          37.6483980984642,
          55.77133797665676
        ],
        [
          37.64949243974222,
          55.771909490242386
        ],
        [
          37.649331507201325,
          55.772338875879846
        ],
        [
          37.64907937955393,
          55.77274406642088
        ],
        [
          37.651589927191864,
          55.77353326868965
        ],
        [
          37.65242677640452,
          55.77386587785947
        ],
        [
          37.65242677640452,
          55.77407451306975
        ],
        [
          37.6519922585441,
          55.77456737150359
        ],
        [
          37.65138607930673,
          55.774915089945964
        ],
        [
          37.65175085973276,
          55.775108601468915
        ],
        [
          37.652024445052284,
          55.77497556240054
        ],
        [
          37.6523892254783,
          55.77491811357093
        ],
        [
          37.65264671754375,
          55.77499068049946
        ]
      ],
      [
        [
          37.323256,
          55.815594
        ],
        [
          37.323176000000004,
          55.815624
        ],
        [
          37.323041,
          55.815512
        ],
        [
          37.322632000000006,
          55.815187
        ],
        [
          37.322239,
          55.814884
        ],
        [
          37.322172,
          55.814845999999996
        ],
        [
          37.322038,
          55.814749
        ],
        [
          37.321847,
          55.814572999999996
        ],
        [
          37.321683,
          55.814423
        ],
        [
          37.321374,
          55.814161999999996
        ],
        [
          37.321256,
          55.81406199999999
        ],
        [
          37.321188,
          55.81401499999999
        ],
        [
          37.321067,
          55.81393099999999
        ],
        [
          37.321011999999996,
          55.81390899999999
        ],
        [
          37.320797,
          55.81389199999999
        ],
        [
          37.320736,
          55.813875999999986
        ],
        [
          37.320705999999994,
          55.81384899999998
        ],
        [
          37.32069599999999,
          55.81381599999998
        ],
        [
          37.32069699999999,
          55.81372899999998
        ],
        [
          37.32069699999999,
          55.81368999999998
        ],
        [
          37.32068899999999,
          55.81366999999998
        ],
        [
          37.32065999999999,
          55.81363599999998
        ],
        [
          37.320618999999986,
          55.81359499999998
        ],
        [
          37.32054499999999,
          55.813547999999976
        ],
        [
          37.32036399999999,
          55.813395999999976
        ],
        [
          37.32042299999999,
          55.813350999999976
        ],
        [
          37.32023199999999,
          55.81319999999997
        ],
        [
          37.32019999999999,
          55.81323499999997
        ],
        [
          37.320148999999994,
          55.81321199999997
        ],
        [
          37.320069,
          55.81315599999997
        ],
        [
          37.319551,
          55.81273599999997
        ],
        [
          37.319230999999995,
          55.81247999999997
        ],
        [
          37.319188999999994,
          55.812470999999974
        ],
        [
          37.319230999999995,
          55.81247999999997
        ],
        [
          37.31903499999999,
          55.812320999999976
        ],
        [
          37.31899299999999,
          55.812295999999975
        ],
        [
          37.31893899999999,
          55.81226999999998
        ],
        [
          37.318878999999995,
          55.812247999999975
        ],
        [
          37.31881799999999,
          55.812227999999976
        ],
        [
          37.31871699999999,
          55.81220499999998
        ],
        [
          37.31854299999999,
          55.812177999999975
        ],
        [
          37.31717799999999,
          55.81199099999998
        ],
        [
          37.31692399999999,
          55.81195099999998
        ],
        [
          37.31678699999999,
          55.81191699999998
        ],
        [
          37.31663199999999,
          55.81189599999998
        ],
        [
          37.31652999999999,
          55.81189299999998
        ],
        [
          37.31531799999999,
          55.81173299999998
        ],
        [
          37.31524099999999,
          55.811725999999986
        ],
        [
          37.31510699999999,
          55.81171999999999
        ],
        [
          37.314919999999994,
          55.81172499999999
        ],
        [
          37.31472399999999,
          55.81173799999999
        ],
        [
          37.31433299999999,
          55.81177099999999
        ],
        [
          37.31403499999999,
          55.81179699999999
        ],
        [
          37.31374099999999,
          55.811823999999994
        ],
        [
          37.313483999999995,
          55.811848
        ],
        [
          37.31341499999999,
          55.811853
        ],
        [
          37.313430999999994,
          55.81191
        ],
        [
          37.313441999999995,
          55.811958999999995
        ],
        [
          37.313342999999996,
          55.811964999999994
        ],
        [
          37.312461,
          55.811992999999994
        ],
        [
          37.312025,
          55.81201299999999
        ],
        [
          37.311997999999996,
          55.812020999999994
        ],
        [
          37.311969,
          55.812037999999994
        ],
        [
          37.311871,
          55.812048
        ],
        [
          37.311195,
          55.812101
        ],
        [
          37.31108,
          55.812113
        ],
        [
          37.310863999999995,
          55.812141
        ],
        [
          37.310652,
          55.812166
        ],
        [
          37.310401999999996,
          55.812199
        ],
        [
          37.31036099999999,
          55.812205
        ],
        [
          37.310325999999996,
          55.812211999999995
        ],
        [
          37.30969699999999,
          55.812366
        ],
        [
          37.309515999999995,
          55.81241
        ],
        [
          37.30848399999999,
          55.812768
        ],
        [
          37.308254999999996,
          55.812867
        ],
        [
          37.308144999999996,
          55.812920999999996
        ],
        [
          37.308105999999995,
          55.81294
        ],
        [
          37.308105,
          55.812957999999995
        ],
        [
          37.308001,
          55.812965999999996
        ],
        [
          37.307952,
          55.812988
        ],
        [
          37.307929,
          55.812999
        ],
        [
          37.307888,
          55.812971
        ],
        [
          37.307825,
          55.812931
        ],
        [
          37.307103,
          55.813285
        ],
        [
          37.306905,
          55.813383
        ],
        [
          37.3068,
          55.813435
        ],
        [
          37.306726000000005,
          55.813472
        ],
        [
          37.306583,
          55.813544
        ],
        [
          37.30654800000001,
          55.813562
        ],
        [
          37.306250000000006,
          55.813708999999996
        ],
        [
          37.30582400000001,
          55.813917
        ],
        [
          37.305642000000006,
          55.814006
        ],
        [
          37.30556200000001,
          55.814045
        ],
        [
          37.30545000000001,
          55.8141
        ],
        [
          37.30519900000001,
          55.814222
        ],
        [
          37.30518300000001,
          55.814228
        ],
        [
          37.305175000000006,
          55.814228
        ],
        [
          37.305167000000004,
          55.814228
        ],
        [
          37.305154,
          55.814221
        ],
        [
          37.304826,
          55.814015000000005
        ],
        [
          37.304758,
          55.81405
        ],
        [
          37.304748,
          55.814043000000005
        ],
        [
          37.304725,
          55.814029000000005
        ],
        [
          37.304812,
          55.813984000000005
        ],
        [
          37.304677,
          55.813908000000005
        ],
        [
          37.304655,
          55.813895
        ],
        [
          37.304758,
          55.813841000000004
        ],
        [
          37.304735,
          55.813827
        ],
        [
          37.304594,
          55.813900000000004
        ],
        [
          37.304527,
          55.813914000000004
        ],
        [
          37.304486,
          55.813934
        ],
        [
          37.304429,
          55.813964000000006
        ],
        [
          37.304362,
          55.81400000000001
        ],
        [
          37.304355,
          55.81400500000001
        ],
        [
          37.304351000000004,
          55.814012000000005
        ],
        [
          37.304353000000006,
          55.814020000000006
        ],
        [
          37.304359000000005,
          55.814024
        ],
        [
          37.304384000000006,
          55.814040000000006
        ],
        [
          37.30417500000001,
          55.814147000000006
        ],
        [
          37.304170000000006,
          55.814144000000006
        ]
      ],
      [
        [
          37.30418,
          55.81443
        ],
        [
          37.304198,
          55.814442
        ],
        [
          37.304391,
          55.814347
        ],
        [
          37.304675,
          55.814206999999996
        ],
        [
          37.304816,
          55.814136
        ],
        [
          37.304855,
          55.814125999999995
        ],
        [
          37.30489600000001,
          55.814128
        ],
        [
          37.304931,
          55.814142
        ],
        [
          37.305177,
          55.814313
        ],
        [
          37.305273,
          55.814265999999996
        ],
        [
          37.305414999999996,
          55.81419699999999
        ],
        [
          37.305521,
          55.814142999999994
        ],
        [
          37.305631999999996,
          55.814086999999994
        ],
        [
          37.306149,
          55.81382299999999
        ],
        [
          37.306307,
          55.813745999999995
        ],
        [
          37.306602999999996,
          55.813596999999994
        ],
        [
          37.306656999999994,
          55.81356999999999
        ],
        [
          37.306650999999995,
          55.813565999999994
        ],
        [
          37.306656999999994,
          55.81356999999999
        ],
        [
          37.306704999999994,
          55.81354499999999
        ],
        [
          37.306816999999995,
          55.81349099999999
        ],
        [
          37.30696699999999,
          55.81341799999999
        ],
        [
          37.30701499999999,
          55.813447999999994
        ],
        [
          37.307061999999995,
          55.813477999999996
        ],
        [
          37.307410999999995,
          55.813314
        ],
        [
          37.30745699999999,
          55.813269999999996
        ],
        [
          37.30752299999999,
          55.813204999999996
        ],
        [
          37.30792899999999,
          55.812999
        ],
        [
          37.307951999999986,
          55.812988
        ],
        [
          37.30800099999998,
          55.812965999999996
        ],
        [
          37.30810499999998,
          55.812957999999995
        ],
        [
          37.30810599999998,
          55.81294
        ],
        [
          37.30814499999998,
          55.812920999999996
        ],
        [
          37.30825499999998,
          55.812867
        ],
        [
          37.30848399999998,
          55.812768
        ],
        [
          37.30951599999998,
          55.81241
        ],
        [
          37.30969699999998,
          55.812366
        ],
        [
          37.31032599999998,
          55.812211999999995
        ],
        [
          37.31036099999998,
          55.812205
        ],
        [
          37.31040199999998,
          55.812199
        ],
        [
          37.31065199999998,
          55.812166
        ],
        [
          37.31086399999998,
          55.812141
        ],
        [
          37.31107999999998,
          55.812113
        ],
        [
          37.311194999999984,
          55.812101
        ],
        [
          37.31187099999998,
          55.812048
        ],
        [
          37.31196899999998,
          55.812037999999994
        ],
        [
          37.31199799999998,
          55.812020999999994
        ],
        [
          37.312024999999984,
          55.81201299999999
        ],
        [
          37.312460999999985,
          55.811992999999994
        ],
        [
          37.31334299999998,
          55.811964999999994
        ],
        [
          37.31344199999998,
          55.811958999999995
        ],
        [
          37.31343099999998,
          55.81191
        ],
        [
          37.31341499999998,
          55.811853
        ],
        [
          37.31348399999998,
          55.811848
        ],
        [
          37.31374099999998,
          55.811823999999994
        ],
        [
          37.314034999999976,
          55.81179699999999
        ],
        [
          37.314332999999976,
          55.81177099999999
        ],
        [
          37.31472399999998,
          55.81173799999999
        ],
        [
          37.31491999999998,
          55.81172499999999
        ],
        [
          37.315106999999976,
          55.81171999999999
        ],
        [
          37.31524099999998,
          55.811725999999986
        ],
        [
          37.31531799999998,
          55.81173299999998
        ],
        [
          37.31652999999998,
          55.81189299999998
        ],
        [
          37.31663199999998,
          55.81189599999998
        ],
        [
          37.31678699999998,
          55.81191699999998
        ],
        [
          37.31692399999998,
          55.81195099999998
        ],
        [
          37.31717799999998,
          55.81199099999998
        ],
        [
          37.31854299999998,
          55.812177999999975
        ],
        [
          37.31871699999998,
          55.81220499999998
        ],
        [
          37.31881799999998,
          55.812227999999976
        ],
        [
          37.31887899999998,
          55.812247999999975
        ],
        [
          37.31893899999998,
          55.81226999999998
        ],
        [
          37.31899299999998,
          55.812295999999975
        ],
        [
          37.31903499999998,
          55.812320999999976
        ],
        [
          37.31920999999998,
          55.81246299999997
        ],
        [
          37.31918899999998,
          55.812470999999974
        ],
        [
          37.31920999999998,
          55.81246299999997
        ],
        [
          37.319230999999974,
          55.81247999999997
        ],
        [
          37.319550999999976,
          55.81273599999997
        ],
        [
          37.320068999999975,
          55.81315599999997
        ],
        [
          37.32014899999997,
          55.81321199999997
        ],
        [
          37.32019999999997,
          55.81323499999997
        ],
        [
          37.32023199999997,
          55.81319999999997
        ],
        [
          37.32042299999997,
          55.813350999999976
        ],
        [
          37.32036399999997,
          55.813395999999976
        ],
        [
          37.32054499999997,
          55.813547999999976
        ],
        [
          37.320618999999965,
          55.81359499999998
        ],
        [
          37.32065999999997,
          55.81363599999998
        ],
        [
          37.320688999999966,
          55.81366999999998
        ],
        [
          37.32069699999997,
          55.81368999999998
        ],
        [
          37.32069699999997,
          55.81372899999998
        ],
        [
          37.32069599999997,
          55.81381599999998
        ],
        [
          37.32070599999997,
          55.81384899999998
        ],
        [
          37.320735999999975,
          55.813875999999986
        ],
        [
          37.32079699999998,
          55.81389199999999
        ],
        [
          37.321011999999975,
          55.81390899999999
        ],
        [
          37.32106699999998,
          55.81393099999999
        ],
        [
          37.32118799999998,
          55.81401499999999
        ],
        [
          37.32125599999998,
          55.81406199999999
        ],
        [
          37.32137399999998,
          55.814161999999996
        ],
        [
          37.32168299999998,
          55.814423
        ],
        [
          37.32184699999998,
          55.814572999999996
        ],
        [
          37.32203799999998,
          55.814749
        ],
        [
          37.32217199999998,
          55.814845999999996
        ],
        [
          37.32223899999998,
          55.814884
        ],
        [
          37.322631999999984,
          55.815187
        ],
        [
          37.32304099999998,
          55.815512
        ],
        [
          37.32316599999998,
          55.815616
        ],
        [
          37.32317499999998,
          55.815612
        ]
      ]
    ]
  }
}
