{
  "type": "Feature",
  "id": "50a6b166-c0fe-4f58-8735-7de647e1abd2",
  "properties": {
    "id": "50a6b166-c0fe-4f58-8735-7de647e1abd2",
    "name": "Дом - Мак",
    "color": "#ff3300",
    "routeType": "Twiter Gravel V1",
    "isSelected": false
  },
  "geometry": {
    "type": "LineString",
    "coordinates": [
      [
        37.32298008964981,
        55.81547251495042
      ],
      [
        37.32282452152692,
        55.81553292418812
      ],
      [
        37.323613090977304,
        55.816227623719904
      ],
      [
        37.323082013592334,
        55.81634541936316
      ],
      [
        37.32276014851055,
        55.8164179088118
      ],
      [
        37.32292644546944,
        55.81670182450691
      ],
      [
        37.322985454067755,
        55.81697969743447
      ],
      [
        37.3220574097486,
        55.816880025852676
      ],
      [
        37.32162825630624,
        55.81685586300635
      ],
      [
        37.32048563526588,
        55.81685586300635
      ],
      [
        37.3197292523237,
        55.81681659834896
      ],
      [
        37.31937520073373,
        55.81676525219848
      ],
      [
        37.318146772251595,
        55.816745606692834
      ],
      [
        37.31789464460417,
        55.81679997323054
      ],
      [
        37.31718117700623,
        55.816802993591516
      ],
      [
        37.31702024446534,
        55.81687548218416
      ],
      [
        37.31683785425231,
        55.81685736004872
      ],
      [
        37.316859311924446,
        55.81702649964997
      ],
      [
        37.316746659145814,
        55.817098987824494
      ],
      [
        37.31581861482666,
        55.81689662466481
      ],
      [
        37.315598673687425,
        55.816866421117496
      ],
      [
        37.31551820741698,
        55.817005357240184
      ],
      [
        37.315400190220295,
        55.81714429283294
      ],
      [
        37.31385523782773,
        55.817352695335686
      ],
      [
        37.3132061432461,
        55.81740706102162
      ],
      [
        37.31315786348384,
        55.8178087606704
      ],
      [
        37.31308276163142,
        55.81815005108482
      ],
      [
        37.313147134647785,
        55.818560803697245
      ],
      [
        37.31296474443476,
        55.81879638044025
      ],
      [
        37.31222445474666,
        55.81890208748759
      ],
      [
        37.311843581066555,
        55.81891114807822
      ],
      [
        37.31188113199277,
        55.81904101631122
      ],
      [
        37.31211716638606,
        55.8192916909718
      ],
      [
        37.31307739721339,
        55.820327594351404
      ],
      [
        37.313533372745944,
        55.820732283777375
      ],
      [
        37.31435412870449,
        55.82168660926153
      ],
      [
        37.31482083307309,
        55.822260401240214
      ],
      [
        37.31325978742642,
        55.82331132452319
      ],
      [
        37.3105400274852,
        55.82499636612615
      ],
      [
        37.30964953409224,
        55.825509715494604
      ],
      [
        37.30726773248701,
        55.82669643239815
      ],
      [
        37.30452115045574,
        55.8280793797558
      ],
      [
        37.30639869676615,
        55.82896105841766
      ],
      [
        37.306404061184175,
        55.829069757136914
      ],
      [
        37.30632359491373,
        55.829235824035656
      ],
      [
        37.306125111446626,
        55.82937471580414
      ],
      [
        37.3064442943194,
        55.82919355252262
      ],
      [
        37.3066213201144,
        55.82908032504534
      ],
      [
        37.30631018386867,
        55.82898068459151
      ],
      [
        37.30669642196682,
        55.829095422061414
      ],
      [
        37.306693739757804,
        55.82925394037515
      ],
      [
        37.30669642196682,
        55.82936867703558
      ],
      [
        37.306656188831596,
        55.829400380526565
      ],
      [
        37.30694318519619,
        55.829545310440544
      ],
      [
        37.307023651466636,
        55.82957701378693
      ],
      [
        37.30725968585995,
        55.82945020023928
      ],
      [
        37.30738038526562,
        55.82951964580139
      ],
      [
        37.30749303804422,
        55.829486432722014
      ],
      [
        37.30805630193735,
        55.82912410636301
      ],
      [
        37.30913723217036,
        55.82839642401936
      ],
      [
        37.309705860481515,
        55.828091457649364
      ],
      [
        37.31099332080866,
        55.82744226380965
      ],
      [
        37.31213057743094,
        55.82681721573841
      ],
      [
        37.31346631752036,
        55.82601097942588
      ],
      [
        37.314946896896586,
        55.82505072101711
      ],
      [
        37.315950043068156,
        55.824440733190784
      ],
      [
        37.31649184928908,
        55.82410553775847
      ],
      [
        37.316730565891405,
        55.82401041419931
      ],
      [
        37.31706852422727,
        55.82420368085542
      ],
      [
        37.31756205068603,
        55.824393926778306
      ],
      [
        37.317701525554796,
        55.82423236879251
      ],
      [
        37.31780344949737,
        55.82402853298928
      ],
      [
        37.317908055648935,
        55.82393038944223
      ],
      [
        37.31791610227597,
        55.82389113195379
      ],
      [
        37.31803680168164,
        55.82386395366926
      ],
      [
        37.31814677225126,
        55.82413573565654
      ],
      [
        37.318240649566775,
        55.82411912681201
      ],
      [
        37.31838548885359,
        55.824088928894646
      ],
      [
        37.31837744222655,
        55.82386244376402
      ],
      [
        37.318535692558434,
        55.8235423425148
      ],
      [
        37.31883341775905,
        55.82296705957
      ],
      [
        37.31885219322214,
        55.822808515526326
      ],
      [
        37.31892461286555,
        55.822665070349906
      ],
      [
        37.319200880394085,
        55.82247330597717
      ],
      [
        37.31944496141444,
        55.82234495921318
      ],
      [
        37.31998140321741,
        55.82208675442878
      ],
      [
        37.320426649913884,
        55.82186478753592
      ],
      [
        37.320957727298826,
        55.82164583935477
      ],
      [
        37.321183032856084,
        55.82159298960997
      ],
      [
        37.321386880741215,
        55.82150691987123
      ],
      [
        37.32145125375759,
        55.82160506955164
      ],
      [
        37.32170606361399,
        55.82173190877852
      ],
      [
        37.32185090290078,
        55.82182854791075
      ],
      [
        37.32209230171212,
        55.82172737881328
      ],
      [
        37.32221031890878,
        55.821677549160704
      ],
      [
        37.32230687843333,
        55.821689629082364
      ],
      [
        37.32245439992913,
        55.821697179031496
      ],
      [
        37.32266361223231,
        55.821712278925325
      ],
      [
        37.32279772268305,
        55.82174247869534
      ],
      [
        37.32278967605601,
        55.82183911780121
      ],
      [
        37.32282722698222,
        55.821908577009644
      ],
      [
        37.322969384059995,
        55.821908577009644
      ],
      [
        37.32309276567468,
        55.82192669678268
      ],
      [
        37.32313568101892,
        55.82191914687829
      ],
      [
        37.32305521474847,
        55.8216911390723
      ],
      [
        37.322921104297734,
        55.82145255993137
      ],
      [
        37.32284063802729,
        55.821286459655624
      ],
      [
        37.3228433202363,
        55.82112639872226
      ],
      [
        37.32283259140025,
        55.8210433479774
      ],
      [
        37.3226260613061,
        55.82092707663551
      ],
      [
        37.323100812301696,
        55.82073077357173
      ],
      [
        37.32362920747762,
        55.8204906784801
      ],
      [
        37.324436552391106,
        55.820119207664334
      ],
      [
        37.325029320583404,
        55.8198368270647
      ],
      [
        37.32520634637838,
        55.81975830375148
      ],
      [
        37.32535655008322,
        55.81970394136449
      ],
      [
        37.32543433414465,
        55.819700921229646
      ],
      [
        37.32544774518972,
        55.8198217264399
      ],
      [
        37.32525999055864,
        55.82040762635975
      ],
      [
        37.32521171079638,
        55.82067339247742
      ],
      [
        37.32519025312425,
        55.820750403909486
      ],
      [
        37.32547724948884,
        55.81972357222887
      ],
      [
        37.32531363473893,
        55.819705451425435
      ],
      [
        37.32369894491197,
        55.82047255802271
      ],
      [
        37.32264349566463,
        55.820939156759295
      ],
      [
        37.32261533246995,
        55.820921036524396
      ],
      [
        37.3229117165661,
        55.82079268461787
      ],
      [
        37.322616673574466,
        55.82055334492704
      ],
      [
        37.32197696672438,
        55.820033134619585
      ],
      [
        37.321443207130415,
        55.82011014732431
      ],
      [
        37.321067697868315,
        55.8200195441264
      ],
      [
        37.3209925960159,
        55.81994706141551
      ],
      [
        37.32148880468362,
        55.8196344781652
      ],
      [
        37.32174897895808,
        55.81948347086374
      ],
      [
        37.32175434337605,
        55.819009304105336
      ],
      [
        37.32206011520376,
        55.81882658224752
      ],
      [
        37.321950144634144,
        55.818704263828145
      ],
      [
        37.32067341314305,
        55.81808360515068
      ],
      [
        37.32038373456944,
        55.817967324920104
      ],
      [
        37.32032204376211,
        55.81792202084218
      ],
      [
        37.320453472003834,
        55.817854064625976
      ],
      [
        37.320501751766095,
        55.817618482153726
      ],
      [
        37.32059562908161,
        55.81749464976709
      ],
      [
        37.32144588933935,
        55.81748256853745
      ],
      [
        37.32140833841314,
        55.81686944118038
      ],
      [
        37.32149416910162,
        55.81684225796978
      ],
      [
        37.319933123454945,
        55.81683168671607
      ],
      [
        37.31991971240988,
        55.815958793238224
      ],
      [
        37.31996799217214,
        55.81591348681193
      ],
      [
        37.319962627754116,
        55.81580928183041
      ],
      [
        37.32176507221213,
        55.81579871028853
      ],
      [
        37.32193136917105,
        55.81572924011987
      ],
      [
        37.32198769556035,
        55.81569450499202
      ],
      [
        37.322009153232486,
        55.81565674938294
      ],
      [
        37.32230956064214,
        55.815617483510486
      ],
      [
        37.322760171756684,
        55.81553140049065
      ],
      [
        37.322939879760675,
        55.8155193186489
      ],
      [
        37.32317323194498,
        55.81552535956389
      ]
    ]
  }
}
