{
  "type": "Feature",
  "id": "5808b307-7644-49aa-9cbd-37a5d19f6277",
  "properties": {
    "id": "5808b307-7644-49aa-9cbd-37a5d19f6277",
    "name": "Капотня - Карьер",
    "color": "#fea690",
    "routeType": "Aspect",
    "isSelected": false
  },
  "geometry": {
    "type": "MultiLineString",
    "coordinates": [
      [
        [
          37.560515933956175,
          55.72096801340888
        ],
        [
          37.561427885021246,
          55.721131515708876
        ],
        [
          37.561803394283324,
          55.722070126722826
        ],
        [
          37.56168537708667,
          55.72226995711034
        ],
        [
          37.562479310955084,
          55.72308743436602
        ],
        [
          37.56165319057848,
          55.723590022962576
        ],
        [
          37.56403499218368,
          55.72475261264718
        ],
        [
          37.56379895779036,
          55.724982704402834
        ],
        [
          37.56932430836104,
          55.727089797143705
        ],
        [
          37.57370167347335,
          55.729390515116364
        ],
        [
          37.578917560070614,
          55.731184091955825
        ],
        [
          37.58720022150861,
          55.73362985626436
        ],
        [
          37.58642774531233,
          55.73412625498695
        ],
        [
          37.587758120983715,
          55.73486478769549
        ],
        [
          37.58740406939374,
          55.7350221780981
        ],
        [
          37.58776884981977,
          55.735300636479906
        ],
        [
          37.58960348078596,
          55.736880547346594
        ],
        [
          37.59055298277722,
          55.73654459465752
        ],
        [
          37.589732226818676,
          55.73581214720965
        ],
        [
          37.59003799864636,
          55.73576674712014
        ]
      ],
      [
        [
          37.84075383879653,
          55.62327885007926
        ],
        [
          37.84087990262022,
          55.623426068086324
        ],
        [
          37.840933081706986,
          55.623518551207276
        ],
        [
          37.840847251018516,
          55.62369308688675
        ],
        [
          37.84123080690765,
          55.624379080423445
        ],
        [
          37.841405150493614,
          55.62458244787341
        ],
        [
          37.841893312534296,
          55.624878391143916
        ],
        [
          37.844079312881426,
          55.62552035269164
        ],
        [
          37.84452992399587,
          55.62644305906084
        ],
        [
          37.84469353874581,
          55.62679362104794
        ],
        [
          37.84498858173744,
          55.626754164010485
        ],
        [
          37.84514146765129,
          55.62688619317156
        ],
        [
          37.846750793060174,
          55.62665096848699
        ],
        [
          37.84728187044512,
          55.62685584167365
        ],
        [
          37.848762449821294,
          55.63011242208332
        ],
        [
          37.84734624346141,
          55.63141740599334
        ],
        [
          37.84721213301065,
          55.6314993453876
        ],
        [
          37.84722286184673,
          55.63197883913384
        ],
        [
          37.8474910827482,
          55.63205167311141
        ],
        [
          37.84892403934398,
          55.632665449267655
        ],
        [
          37.84789407108227,
          55.633463566801986
        ],
        [
          37.84787797782819,
          55.63361529832769
        ],
        [
          37.8483661398689,
          55.633767029257164
        ],
        [
          37.84974479530255,
          55.634340566862754
        ],
        [
          37.84979843948284,
          55.63448926042121
        ],
        [
          37.84951948974529,
          55.63465616067911
        ],
        [
          37.85042607639234,
          55.635005131632255
        ],
        [
          37.85072111938396,
          55.63513865013017
        ],
        [
          37.85053336475291,
          55.63529644412946
        ],
        [
          37.85105907771983,
          55.63561203021336
        ],
        [
          37.85110735748212,
          55.63584264919869
        ],
        [
          37.85146677349012,
          55.63565754722021
        ],
        [
          37.851702807883406,
          55.63543603059069
        ],
        [
          37.85127365444104,
          55.63569699525516
        ],
        [
          37.8509410605232,
          55.63606719794721
        ],
        [
          37.84896695468819,
          55.637611694213675
        ],
        [
          37.84851097915566,
          55.63779375261441
        ],
        [
          37.84786724899209,
          55.63803042726511
        ],
        [
          37.84735226486122,
          55.63824282637003
        ],
        [
          37.847094772795806,
          55.63824586063457
        ],
        [
          37.84704649303352,
          55.63831564865406
        ],
        [
          37.8473469004432,
          55.6383975735611
        ],
        [
          37.847615121344674,
          55.6383975735611
        ],
        [
          37.84796380851662,
          55.63826406621692
        ],
        [
          37.84807109687722,
          55.63810628422105
        ],
        [
          37.84830713127054,
          55.638000084441416
        ],
        [
          37.848580716590035,
          55.63796670730811
        ],
        [
          37.848945497016054,
          55.63796974159412
        ],
        [
          37.8500344738761,
          55.63844612156683
        ],
        [
          37.850737212638016,
          55.63861907336804
        ],
        [
          37.851836918334115,
          55.63900441935432
        ],
        [
          37.85267376754677,
          55.6392228815332
        ],
        [
          37.85433137271797,
          55.63984791934236
        ],
        [
          37.85526478145515,
          55.64021808263688
        ],
        [
          37.85541498515999,
          55.640412265258675
        ],
        [
          37.853612540701945,
          55.641853434186
        ],
        [
          37.854572771529284,
          55.64237830985283
        ],
        [
          37.855007289389675,
          55.64272114390245
        ],
        [
          37.855490087012356,
          55.6427727204456
        ],
        [
          37.855962155798984,
          55.642730245650334
        ],
        [
          37.8574749216834,
          55.641777584517065
        ],
        [
          37.85791480396184,
          55.641744210616
        ],
        [
          37.85844051692876,
          55.64186253613635
        ],
        [
          37.85882675502689,
          55.6419929971914
        ],
        [
          37.860527275542324,
          55.64280002564056
        ],
        [
          37.86094033573064,
          55.643209601363175
        ],
        [
          37.8611710057059,
          55.643655578925
        ],
        [
          37.86185228679569,
          55.64558808942247
        ],
        [
          37.86257648322971,
          55.6454910111165
        ],
        [
          37.86297881458194,
          55.64526651660837
        ],
        [
          37.863799570540515,
          55.644696173397136
        ],
        [
          37.86436283443364,
          55.64445043783444
        ],
        [
          37.864861725310405,
          55.64444133648803
        ],
        [
          37.866717813948654,
          55.64359793582905
        ],
        [
          37.871771095732726,
          55.64123753056721
        ],
        [
          37.87417435501008,
          55.64024235545596
        ],
        [
          37.87266158912567,
          55.6383065457776
        ],
        [
          37.871384857634546,
          55.6390408297102
        ],
        [
          37.87107372138881,
          55.63927749679449
        ],
        [
          37.870322702864634,
          55.639338180430954
        ],
        [
          37.86943220947169,
          55.639332112071564
        ],
        [
          37.86876702163601,
          55.63947168409889
        ],
        [
          37.86814474914454,
          55.63955664074056
        ],
        [
          37.866771458128916,
          55.63986005580747
        ],
        [
          37.86638522003079,
          55.63996928465379
        ],
        [
          37.86543035362148,
          55.6399935576892
        ],
        [
          37.86286616180323,
          55.64004210370862
        ],
        [
          37.861643074492456,
          55.63950809410471
        ],
        [
          37.858499525527,
          55.63835509389049
        ],
        [
          37.85569929931544,
          55.63811842120964
        ],
        [
          37.854862450102814,
          55.63901048766634
        ],
        [
          37.85522723052878,
          55.639726553456526
        ],
        [
          37.855334518889386,
          55.639659802115844
        ],
        [
          37.855152128676366,
          55.638919461405365
        ],
        [
          37.85578513000389,
          55.63820944932761
        ],
        [
          37.8593363747396,
          55.6384946694076
        ],
        [
          37.86279105995079,
          55.63987826062416
        ],
        [
          37.8656020149984,
          55.6399025337101
        ],
        [
          37.86799454543962,
          55.63947775240587
        ],
        [
          37.87034416053664,
          55.639235018149776
        ],
        [
          37.871041534880504,
          55.63975689490651
        ],
        [
          37.86986136291396,
          55.642014234873315
        ],
        [
          37.86607408378493,
          55.64401053689005
        ],
        [
          37.864936827162616,
          55.64453234975212
        ],
        [
          37.864271639326915,
          55.644392795833404
        ],
        [
          37.862726686934344,
          55.64531505595421
        ],
        [
          37.86185765121353,
          55.64568516736382
        ],
        [
          37.86202931259048,
          55.64666200193545
        ],
        [
          37.86151432845961,
          55.64708670498667
        ],
        [
          37.86058091972244,
          55.64749926923588
        ],
        [
          37.86021613929636,
          55.64776622023536
        ],
        [
          37.86065065715673,
          55.64797553280022
        ],
        [
          37.860811589697626,
          55.64829404979289
        ],
        [
          37.8610047087467,
          55.648570095748646
        ],
        [
          37.86095642898444,
          55.64911914837904
        ],
        [
          37.86111199710731,
          55.64956202497807
        ],
        [
          37.86105835292702,
          55.649762227817085
        ],
        [
          37.860752581099305,
          55.64975919444839
        ],
        [
          37.86059164855841,
          55.649728860748624
        ],
        [
          37.860511182287965,
          55.6496226926136
        ],
        [
          37.86039316509131,
          55.64967426002957
        ],
        [
          37.86023759696844,
          55.649862328851114
        ],
        [
          37.861085175017145,
          55.651385046212894
        ],
        [
          37.86136948917272,
          55.65159130614444
        ],
        [
          37.861593895878336,
          55.65216952148326
        ],
        [
          37.86150806518987,
          55.65276402048157
        ],
        [
          37.861787014927415,
          55.65273975538761
        ],
        [
          37.86151342960789,
          55.653091597682334
        ],
        [
          37.864522868122606,
          55.65458992499804
        ],
        [
          37.86925428482484,
          55.656879767421785
        ],
        [
          37.87171118828248,
          55.658426472293904
        ],
        [
          37.875616484608166,
          55.66087681240047
        ],
        [
          37.875852519001484,
          55.661107282010356
        ],
        [
          37.87707560631227,
          55.66188965552008
        ],
        [
          37.876528435673244,
          55.662198961645444
        ],
        [
          37.87675374123048,
          55.662496135806606
        ],
        [
          37.876528435673244,
          55.66257497755067
        ],
        [
          37.87698977562379,
          55.662932795769095
        ],
        [
          37.88055174919556,
          55.66517060128247
        ],
        [
          37.8801440534253,
          55.665304016522704
        ],
        [
          37.880959444965846,
          55.66599534271829
        ],
        [
          37.882386380161755,
          55.66680187445258
        ],
        [
          37.88577669235658,
          55.669027330316176
        ],
        [
          37.88708561035586,
          55.66933051610078
        ],
        [
          37.88708561035586,
          55.66972465409377
        ],
        [
          37.88723581406067,
          55.66994900778599
        ],
        [
          37.887772255863666,
          55.66976103586135
        ],
        [
          37.88865202042056,
          55.67000358011039
        ],
        [
          37.88913481804321,
          55.67060387063382
        ],
        [
          37.89026134582947,
          55.67646682805953
        ],
        [
          37.89018624397708,
          55.67664870507831
        ],
        [
          37.89034717651797,
          55.67680633114098
        ],
        [
          37.89080851646852,
          55.676563829241886
        ],
        [
          37.8935872850079,
          55.678685669663984
        ],
        [
          37.89611929031796,
          55.6811498906697
        ],
        [
          37.896516257252166,
          55.681286282113284
        ],
        [
          37.8966289100308,
          55.68137417856829
        ],
        [
          37.89663963886685,
          55.68150753832806
        ],
        [
          37.89721363159603,
          55.681889429659385
        ],
        [
          37.89704197021906,
          55.68210462073788
        ]
      ],
      [
        [
          37.68615533449327,
          55.61967183618383
        ],
        [
          37.686697140714294,
          55.6198054071544
        ],
        [
          37.69024302103198,
          55.620643250992806
        ],
        [
          37.690827742597214,
          55.62080110361687
        ],
        [
          37.691745058080315,
          55.62125644414813
        ],
        [
          37.692463890096306,
          55.621426436578666
        ],
        [
          37.69374598600543,
          55.62159339271543
        ],
        [
          37.693864003202066,
          55.62162374829994
        ],
        [
          37.693864003202066,
          55.622810633140766
        ],
        [
          37.693654790898904,
          55.62345718181695
        ],
        [
          37.69302178957141,
          55.624470997152955
        ],
        [
          37.69215275385057,
          55.62565172492528
        ],
        [
          37.69196499921952,
          55.626025058152095
        ],
        [
          37.69180943109666,
          55.626522830226186
        ],
        [
          37.6921581182686,
          55.62762761874414
        ],
        [
          37.69187916853105,
          55.62764279419282
        ],
        [
          37.69227613546526,
          55.62871720095428
        ],
        [
          37.692646280309305,
          55.6286656058191
        ],
        [
          37.69295205213702,
          55.62971570501005
        ],
        [
          37.693413392087564,
          55.62983710193813
        ],
        [
          37.69413222410356,
          55.63006168525941
        ],
        [
          37.694432631513195,
          55.630076859755384
        ],
        [
          37.69462575056227,
          55.630343930026704
        ],
        [
          37.695199743291454,
          55.630617068186176
        ],
        [
          37.69653548338086,
          55.63082647281358
        ],
        [
          37.69752253629836,
          55.63083557733711
        ],
        [
          37.69883145429758,
          55.630826472807456
        ],
        [
          37.6998775158134,
          55.631032841485684
        ],
        [
          37.70020474531321,
          55.63110264240924
        ],
        [
          37.70114888288644,
          55.63112692096206
        ],
        [
          37.70228077509072,
          55.63135149685965
        ],
        [
          37.70237197019725,
          55.63142433200829
        ],
        [
          37.702567771455314,
          55.631161821343035
        ],
        [
          37.70315517522958,
          55.631176995417306
        ],
        [
          37.7034475360122,
          55.63123465684574
        ],
        [
          37.7035387311187,
          55.63118609985904
        ],
        [
          37.70381499864724,
          55.63108443347242
        ],
        [
          37.70412881710199,
          55.63107684641801
        ],
        [
          37.7043997202125,
          55.631131473176765
        ],
        [
          37.70538945533898,
          55.631513858340504
        ],
        [
          37.70555843450693,
          55.6316731843886
        ],
        [
          37.70638455488351,
          55.63154117142353
        ],
        [
          37.70678688623572,
          55.63144709293981
        ],
        [
          37.707049742719164,
          55.63146074950708
        ],
        [
          37.70710070469044,
          55.63152599748472
        ],
        [
          37.707030967256074,
          55.63161097143157
        ],
        [
          37.7069665942397,
          55.631717188604874
        ],
        [
          37.706896856805315,
          55.63180064475248
        ],
        [
          37.707478896161504,
          55.6320252167355
        ],
        [
          37.70785440542358,
          55.632061633698
        ],
        [
          37.70913113691468,
          55.632453113898165
        ],
        [
          37.7094959173407,
          55.63264733517534
        ],
        [
          37.70951201059481,
          55.632750514829475
        ],
        [
          37.70950396396774,
          55.63292349188302
        ],
        [
          37.70960588791032,
          55.63305853483912
        ],
        [
          37.70998407938126,
          55.63323757979874
        ],
        [
          37.7090533528531,
          55.63361235776063
        ],
        [
          37.7092518363202,
          55.63378684829884
        ],
        [
          37.70965416767243,
          55.63396133805666
        ],
        [
          37.71032471992614,
          55.63413430973584
        ],
        [
          37.7105848942006,
          55.634219278002135
        ],
        [
          37.71068950035219,
          55.63441349048735
        ],
        [
          37.71109183170442,
          55.634595563814166
        ],
        [
          37.711931363125984,
          55.63541033153007
        ],
        [
          37.71650989391442,
          55.63531626236354
        ],
        [
          37.723022297402586,
          55.63520398598045
        ],
        [
          37.73100455143085,
          55.63509777829328
        ],
        [
          37.73158390857803,
          55.635122054353985
        ],
        [
          37.732082799454794,
          55.6353496417462
        ],
        [
          37.73316641189681,
          55.63541640046274
        ],
        [
          37.73468990661728,
          55.63588370827982
        ],
        [
          37.7355213914119,
          55.63607184361273
        ],
        [
          37.735392645379164,
          55.63666962243324
        ],
        [
          37.73596127369034,
          55.636575556321624
        ],
        [
          37.73669619896042,
          55.63665748488319
        ],
        [
          37.73700733520616,
          55.63658162510987
        ],
        [
          37.73714681007492,
          55.636511833988116
        ],
        [
          37.73763497211562,
          55.63652397158348
        ],
        [
          37.738514736672464,
          55.63668175997337
        ],
        [
          37.73859520294291,
          55.63644204273538
        ],
        [
          37.74320860244848,
          55.63738269685776
        ],
        [
          37.7446516308985,
          55.63788335835431
        ],
        [
          37.7456601414881,
          55.63855089702078
        ],
        [
          37.74592836238955,
          55.63849324639869
        ],
        [
          37.74679739811039,
          55.6387723959571
        ],
        [
          37.74752159454441,
          55.639033338303044
        ],
        [
          37.74808485843754,
          55.6391213300959
        ],
        [
          37.74846573211764,
          55.63924876613365
        ],
        [
          37.75047738887881,
          55.63971299388707
        ],
        [
          37.75049348213291,
          55.63964017421171
        ],
        [
          37.765792802353815,
          55.64397270828429
        ],
        [
          37.76904363967985,
          55.64488284334261
        ],
        [
          37.77320642807098,
          55.64508307020637
        ],
        [
          37.77376432754608,
          55.64480396581101
        ],
        [
          37.77533073761078,
          55.645186216977415
        ],
        [
          37.7758564505777,
          55.64519835187372
        ],
        [
          37.776693299790324,
          55.64556239700699
        ],
        [
          37.77830262519926,
          55.64580509186836
        ],
        [
          37.77913947441191,
          55.64629654434909
        ],
        [
          37.78008361198515,
          55.64659383975677
        ],
        [
          37.78071661331267,
          55.64646036046634
        ],
        [
          37.7811886820993,
          55.64624193882375
        ],
        [
          37.78113503791901,
          55.64603565059352
        ],
        [
          37.78056640960783,
          55.645519925243725
        ],
        [
          37.78024454452604,
          55.644415643323164
        ],
        [
          37.781027749558405,
          55.64394843770669
        ],
        [
          37.78152127601714,
          55.643821017023406
        ],
        [
          37.78152127601714,
          55.643438752475646
        ],
        [
          37.780888274689616,
          55.643202110639855
        ],
        [
          37.78080244400114,
          55.64295939957311
        ],
        [
          37.78175731041045,
          55.64102979285004
        ],
        [
          37.781843141098925,
          55.63931855230967
        ],
        [
          37.782132819672526,
          55.639039406653616
        ],
        [
          37.781939700623475,
          55.63812306667399
        ],
        [
          37.782175735016764,
          55.63748586393336
        ],
        [
          37.78190751411529,
          55.637048918895395
        ],
        [
          37.781456903000795,
          55.63687292573064
        ],
        [
          37.781403258820475,
          55.63654521226186
        ],
        [
          37.78156419136137,
          55.63593225930979
        ],
        [
          37.78196115829558,
          55.63564095156036
        ],
        [
          37.78189678527924,
          55.635234330856214
        ],
        [
          37.78138180114837,
          55.63493694885204
        ],
        [
          37.78124232627956,
          55.63050629542402
        ],
        [
          37.781027749558326,
          55.624812470602805
        ],
        [
          37.78132815696798,
          55.6237500978969
        ],
        [
          37.7842464003762,
          55.62383508877758
        ],
        [
          37.78515835144125,
          55.62349512414439
        ],
        [
          37.78601665832603,
          55.623798664137084
        ],
        [
          37.78678913452224,
          55.62332817612994
        ],
        [
          37.78730948307113,
          55.62311873126268
        ],
        [
          37.78640826084211,
          55.62269376720258
        ],
        [
          37.78796394207075,
          55.62173758116339
        ],
        [
          37.78951962329938,
          55.62271805098744
        ],
        [
          37.79065687992171,
          55.62294874619022
        ],
        [
          37.791096762200155,
          55.62276054757463
        ],
        [
          37.794749930878424,
          55.6247426583903
        ],
        [
          37.79684205391002,
          55.62587177911475
        ],
        [
          37.7969654355247,
          55.626229934244265
        ],
        [
          37.7977057252128,
          55.626630578460194
        ],
        [
          37.79811878540109,
          55.62715565896985
        ],
        [
          37.79870887138437,
          55.62760182008744
        ],
        [
          37.799116567154634,
          55.62808439678481
        ],
        [
          37.799846128006685,
          55.62837576095802
        ],
        [
          37.80245859958714,
          55.63009051643417
        ],
        [
          37.805215910454464,
          55.63196907354503
        ],
        [
          37.80534465648715,
          55.632230061394594
        ],
        [
          37.80528028347078,
          55.63258815816955
        ],
        [
          37.805591419716514,
          55.63297052906352
        ],
        [
          37.80427177288118,
          55.63296142503816
        ],
        [
          37.80347783901274,
          55.63341662369742
        ],
        [
          37.803434923668505,
          55.633371104069866
        ],
        [
          37.80422349311887,
          55.632879488708234
        ],
        [
          37.802753642578665,
          55.63202673378453
        ],
        [
          37.80109603740747,
          55.63101311472246
        ],
        [
          37.80018945076042,
          55.630958487798004
        ],
        [
          37.80001242496545,
          55.63083709435871
        ],
        [
          37.80033965446526,
          55.63099187092758
        ],
        [
          37.80118186809594,
          55.63098580126978
        ],
        [
          37.8029628548818,
          55.63222095717191
        ],
        [
          37.80322034694722,
          55.63209046343183
        ],
        [
          37.80308087207845,
          55.63201459477766
        ],
        [
          37.80340810157827,
          55.63189623938257
        ],
        [
          37.80449171402029,
          55.63258815814498
        ],
        [
          37.80541439392142,
          55.63263367868601
        ],
        [
          37.80570407249502,
          55.63289466209609
        ],
        [
          37.807989314575664,
          55.63172629254023
        ],
        [
          37.80858476497698,
          55.63148654485188
        ],
        [
          37.81157811023759,
          55.63337717332593
        ],
        [
          37.8117068562703,
          55.63338931189658
        ],
        [
          37.81523127891588,
          55.63574715762171
        ],
        [
          37.818798616905596,
          55.63801079818502
        ],
        [
          37.819458440323174,
          55.63830815674543
        ],
        [
          37.820461586494744,
          55.63845986942968
        ],
        [
          37.82283802368192,
          55.638384013155154
        ],
        [
          37.82606740333584,
          55.63838401314901
        ],
        [
          37.82672186233547,
          55.63856303370561
        ],
        [
          37.829591825981396,
          55.638811840566206
        ],
        [
          37.83321817256953,
          55.63916380853915
        ],
        [
          37.83809979297661,
          55.639679617931
        ],
        [
          37.83831436969779,
          55.639588593237676
        ],
        [
          37.838282183189605,
          55.63933372296629
        ],
        [
          37.8369625363543,
          55.637191533199605
        ],
        [
          37.833958462257606,
          55.6322270265393
        ],
        [
          37.83403356411003,
          55.6318992740425
        ],
        [
          37.83449490406058,
          55.631146646778085
        ],
        [
          37.83509571887992,
          55.6306428639659
        ],
        [
          37.836265162010406,
          55.62941676294907
        ],
        [
          37.83725221492785,
          55.62862159763351
        ],
        [
          37.83752043582935,
          55.628148132730075
        ],
        [
          37.83868987895984,
          55.624542326921386
        ],
        [
          37.83872742988605,
          55.62439359545396
        ],
        [
          37.83981104232807,
          55.62395346839739
        ],
        [
          37.84035016634005,
          55.623763756924944
        ],
        [
          37.84078200199146,
          55.6234981593229
        ],
        [
          37.84088929035207,
          55.623388884356125
        ],
        [
          37.84079809524554,
          55.62330237478433
        ]
      ],
      [
        [
          37.688809380313955,
          55.64009832955051
        ],
        [
          37.68809054829796,
          55.64020755772959
        ],
        [
          37.68912051655969,
          55.63984346260983
        ],
        [
          37.688187107822486,
          55.63903637297769
        ],
        [
          37.68863771893696,
          55.638320294505014
        ],
        [
          37.68905614354327,
          55.63801079889587
        ],
        [
          37.68863771893696,
          55.637397868972
        ],
        [
          37.688176378986405,
          55.63680920443438
        ],
        [
          37.68898104169085,
          55.635188813894814
        ],
        [
          37.68857334592059,
          55.63492784583092
        ],
        [
          37.689131245395664,
          55.63447266479137
        ],
        [
          37.68882010914993,
          55.63294321761837
        ],
        [
          37.68833731152725,
          55.632263444073544
        ],
        [
          37.6877686832161,
          55.631674702057914
        ],
        [
          37.687457546970364,
          55.63066107385054
        ],
        [
          37.68773649670791,
          55.629944841640196
        ],
        [
          37.687790140888204,
          55.629526021798554
        ],
        [
          37.68752191998673,
          55.629349994726304
        ],
        [
          37.68718932606886,
          55.629356064638564
        ],
        [
          37.68692110516739,
          55.62946532289782
        ],
        [
          37.68648122288895,
          55.629532091683444
        ],
        [
          37.68547271229935,
          55.62953816156738
        ],
        [
          37.68316601254655,
          55.62887653865463
        ],
        [
          37.68268321492386,
          55.62840307684446
        ],
        [
          37.68275831677624,
          55.62797817032277
        ],
        [
          37.68205021359629,
          55.62719511619587
        ],
        [
          37.68171761967845,
          55.626903743207286
        ],
        [
          37.68081639744946,
          55.6266123680432
        ],
        [
          37.68039797284312,
          55.62658808668131
        ],
        [
          37.679282173892894,
          55.62558646733263
        ],
        [
          37.679389462253496,
          55.62520402407472
        ],
        [
          37.679142699024126,
          55.62497334220235
        ],
        [
          37.678659901401446,
          55.624760870850466
        ],
        [
          37.67812345959845,
          55.624542327681745
        ],
        [
          37.67732952573006,
          55.62402024738056
        ],
        [
          37.67697547414009,
          55.6230732001728
        ],
        [
          37.67734025456611,
          55.62273322890316
        ],
        [
          37.677887425205135,
          55.62213827204951
        ],
        [
          37.67868672349158,
          55.62205934851496
        ],
        [
          37.678847656032474,
          55.62199863799988
        ],
        [
          37.679764971515574,
          55.622032028794855
        ],
        [
          37.680296048900516,
          55.621871145610854
        ],
        [
          37.6806876514167,
          55.621849896838846
        ],
        [
          37.68086467721167,
          55.62199560247166
        ],
        [
          37.681202635547564,
          55.621792221542265
        ],
        [
          37.68191073872748,
          55.62161615958343
        ],
        [
          37.68237744309608,
          55.62145527468525
        ],
        [
          37.68244181611242,
          55.62135813631245
        ],
        [
          37.68273149468605,
          55.62126403328327
        ],
        [
          37.68612180688087,
          55.619901031686474
        ],
        [
          37.68598769643011,
          55.61978263954835
        ],
        [
          37.686153993389055,
          55.61970978266336
        ],
        [
          37.6858589503974,
          55.61962326494307
        ]
      ],
      [
        [
          37.58997266032454,
          55.735787620180034
        ],
        [
          37.58979831673856,
          55.73586026025877
        ],
        [
          37.59053055979962,
          55.73657606044091
        ],
        [
          37.59201382138486,
          55.736037319869396
        ],
        [
          37.59325300194975,
          55.735613586093244
        ],
        [
          37.59336029031035,
          55.73555910570115
        ],
        [
          37.59432588555571,
          55.735734653357824
        ],
        [
          37.59425614812132,
          55.735843613573515
        ],
        [
          37.594964251301235,
          55.73741744927719
        ],
        [
          37.59522710778471,
          55.73735994486342
        ],
        [
          37.59551678635829,
          55.738131707516324
        ],
        [
          37.59657894112817,
          55.73986887408184
        ],
        [
          37.59946499802821,
          55.74172095916572
        ],
        [
          37.60223303773156,
          55.74422658083854
        ],
        [
          37.603080615780264,
          55.744680480522824
        ],
        [
          37.60267292001,
          55.744970973525426
        ],
        [
          37.60612760522119,
          55.746592852943884
        ],
        [
          37.60718975999108,
          55.74721011761496
        ],
        [
          37.609088763973645,
          55.74881374960887
        ],
        [
          37.60855232217065,
          55.74908000662735
        ],
        [
          37.60656748749963,
          55.749691180608366
        ],
        [
          37.606824979565054,
          55.74989692018127
        ],
        [
          37.607586726925284,
          55.75113738568498
        ],
        [
          37.60804806687586,
          55.75264404417287
        ],
        [
          37.61089120843163,
          55.752486725135576
        ],
        [
          37.61198554970971,
          55.754604427957425
        ],
        [
          37.6121464822506,
          55.7548161918898
        ],
        [
          37.61428152062643,
          55.75669781496532
        ],
        [
          37.615268573543894,
          55.75728466911073
        ],
        [
          37.61747871377217,
          55.75860354606006
        ],
        [
          37.6258579347347,
          55.75988003108647
        ],
        [
          37.62645874955403,
          55.760654371230956
        ],
        [
          37.62704883553732,
          55.76050918363006
        ],
        [
          37.62822900750386,
          55.75983768391451
        ],
        [
          37.630128011486406,
          55.760835854968676
        ],
        [
          37.630836114666344,
          55.76016436090227
        ],
        [
          37.63136182763326,
          55.760303500266204
        ],
        [
          37.631994828960785,
          55.76101733785818
        ],
        [
          37.63460193612322,
          55.762523613098345
        ],
        [
          37.63720904328568,
          55.765179112676584
        ],
        [
          37.63827119805559,
          55.76543920879162
        ],
        [
          37.64206920602067,
          55.767235639021834
        ],
        [
          37.64432226159318,
          55.76826386134555
        ],
        [
          37.64610324837906,
          55.769364633876634
        ],
        [
          37.646843538067195,
          55.7701266888865
        ],
        [
          37.649482831737835,
          55.77186242500571
        ],
        [
          37.65207921006424,
          55.77183218636484
        ],
        [
          37.652701482555706,
          55.77364646311431
        ],
        [
          37.65237961747392,
          55.77434191338526
        ],
        [
          37.651875362179105,
          55.77477127211326
        ],
        [
          37.6526639316295,
          55.77498897330916
        ],
        [
          37.652401075146024,
          55.77523086210159
        ]
      ]
    ]
  }
}
