{
  "type": "Feature",
  "id": "5c921532-3140-466b-9c46-a40d119cf820",
  "properties": {
    "id": "5c921532-3140-466b-9c46-a40d119cf820",
    "name": "Москва - Серпухов",
    "color": "#a3a3a3",
    "routeType": "Train",
    "isSelected": false
  },
  "geometry": {
    "type": "LineString",
    "coordinates": [
      [
        37.657677,
        55.773422
      ],
      [
        37.657629,
        55.773500999999996
      ],
      [
        37.656683,
        55.77332199999999
      ],
      [
        37.656514,
        55.773289999999996
      ],
      [
        37.656351,
        55.77325999999999
      ],
      [
        37.656015000000004,
        55.77320099999999
      ],
      [
        37.655972000000006,
        55.77327499999999
      ],
      [
        37.65589000000001,
        55.77341599999999
      ],
      [
        37.65581300000001,
        55.77354999999999
      ],
      [
        37.65575600000001,
        55.77364899999999
      ],
      [
        37.65571900000001,
        55.773641999999995
      ],
      [
        37.65527100000001,
        55.77356399999999
      ],
      [
        37.655191000000016,
        55.773700999999996
      ],
      [
        37.655152000000015,
        55.773765999999995
      ],
      [
        37.655040000000014,
        55.773959
      ],
      [
        37.65493100000001,
        55.774183
      ],
      [
        37.65487700000001,
        55.774289
      ],
      [
        37.65487000000002,
        55.774300000000004
      ],
      [
        37.654854000000014,
        55.774326
      ],
      [
        37.654848000000015,
        55.774335
      ],
      [
        37.65475100000002,
        55.774318
      ],
      [
        37.65422200000002,
        55.774224000000004
      ],
      [
        37.65419000000002,
        55.77425100000001
      ],
      [
        37.65407200000002,
        55.77434000000001
      ],
      [
        37.65400500000002,
        55.77439000000001
      ],
      [
        37.65396200000002,
        55.774448000000014
      ],
      [
        37.65392900000002,
        55.774492000000016
      ],
      [
        37.65379300000002,
        55.77469100000002
      ],
      [
        37.653747000000024,
        55.77468300000002
      ],
      [
        37.65369500000003,
        55.77467200000002
      ],
      [
        37.65361300000003,
        55.774653000000015
      ],
      [
        37.65354600000003,
        55.77464000000001
      ],
      [
        37.653476000000026,
        55.774628000000014
      ],
      [
        37.65345200000002,
        55.774636000000015
      ],
      [
        37.65343300000002,
        55.774645000000014
      ],
      [
        37.65339000000002,
        55.77469600000001
      ],
      [
        37.65336300000002,
        55.774729000000015
      ],
      [
        37.65334700000002,
        55.77474800000002
      ],
      [
        37.65330400000002,
        55.774796000000016
      ],
      [
        37.65328600000002,
        55.77481800000002
      ],
      [
        37.65326700000002,
        55.774839000000014
      ],
      [
        37.65325400000002,
        55.774856000000014
      ],
      [
        37.653255000000016,
        55.774870000000014
      ],
      [
        37.65327100000002,
        55.77488000000002
      ],
      [
        37.65340600000002,
        55.77491300000002
      ],
      [
        37.65338600000002,
        55.77494100000002
      ],
      [
        37.653348000000015,
        55.77499400000002
      ],
      [
        37.65332700000002,
        55.77502400000002
      ],
      [
        37.65328400000002,
        55.77508400000002
      ],
      [
        37.653218000000024,
        55.77513200000002
      ],
      [
        37.652899000000026,
        55.77507900000002
      ],
      [
        37.65286700000003,
        55.77507900000002
      ],
      [
        37.65279300000003,
        55.775069000000016
      ],
      [
        37.65265200000003,
        55.775041000000016
      ],
      [
        37.65258200000003,
        55.775129000000014
      ],
      [
        37.65257700000003,
        55.77513600000001
      ],
      [
        37.65202200000003,
        55.77583400000001
      ],
      [
        37.65203500000003,
        55.77583700000001
      ],
      [
        37.652048000000036,
        55.77584000000001
      ],
      [
        37.65206400000004,
        55.775844000000006
      ],
      [
        37.65193200000004,
        55.77600900000001
      ],
      [
        37.651916000000035,
        55.776030000000006
      ],
      [
        37.65188900000003,
        55.776048
      ],
      [
        37.651857000000035,
        55.77606
      ],
      [
        37.65183100000004,
        55.77608
      ],
      [
        37.65170400000004,
        55.776239
      ],
      [
        37.65171500000004,
        55.776241
      ],
      [
        37.65171500000004,
        55.776241
      ],
      [
        37.65164100000004,
        55.776223
      ],
      [
        37.65257900000004,
        55.775051000000005
      ],
      [
        37.65296700000004,
        55.774568
      ],
      [
        37.65331700000004,
        55.774099
      ],
      [
        37.653543000000035,
        55.773725
      ],
      [
        37.65380900000004,
        55.773198
      ],
      [
        37.65425100000004,
        55.771874000000004
      ],
      [
        37.65469200000004,
        55.77055000000001
      ],
      [
        37.65476000000004,
        55.77034700000001
      ],
      [
        37.65506700000004,
        55.76961300000001
      ],
      [
        37.65502500000004,
        55.76945800000001
      ],
      [
        37.65587700000004,
        55.76819900000001
      ],
      [
        37.65649800000004,
        55.76728000000001
      ],
      [
        37.65738100000004,
        55.766028000000006
      ],
      [
        37.65816500000005,
        55.76491300000001
      ],
      [
        37.65887100000005,
        55.76362700000001
      ],
      [
        37.65957700000005,
        55.762339000000004
      ],
      [
        37.65972300000005,
        55.76207600000001
      ],
      [
        37.66057000000005,
        55.76081700000001
      ],
      [
        37.66118300000005,
        55.75990700000001
      ],
      [
        37.661798000000054,
        55.75860500000001
      ],
      [
        37.662186000000055,
        55.75778500000001
      ],
      [
        37.662189000000055,
        55.75777700000001
      ],
      [
        37.662189000000055,
        55.75777700000001
      ],
      [
        37.662693000000054,
        55.75671700000001
      ],
      [
        37.66336400000005,
        55.755615000000006
      ],
      [
        37.66377600000005,
        55.755097000000006
      ],
      [
        37.66424200000005,
        55.75461000000001
      ],
      [
        37.66504400000005,
        55.75400200000001
      ],
      [
        37.66589600000005,
        55.753445000000006
      ],
      [
        37.667145000000055,
        55.75251900000001
      ],
      [
        37.668485000000054,
        55.75167400000001
      ],
      [
        37.66902900000005,
        55.75140600000001
      ],
      [
        37.66987100000005,
        55.75105400000001
      ],
      [
        37.67117400000005,
        55.75059000000001
      ],
      [
        37.67183700000005,
        55.75038000000001
      ],
      [
        37.673013000000054,
        55.75007800000001
      ],
      [
        37.67532400000005,
        55.74972500000001
      ],
      [
        37.677634000000054,
        55.74937100000001
      ],
      [
        37.677760000000056,
        55.74935200000001
      ],
      [
        37.680015000000054,
        55.74889900000001
      ],
      [
        37.681005000000056,
        55.74870000000001
      ],
      [
        37.68225600000006,
        55.748394000000005
      ],
      [
        37.68353900000006,
        55.74793400000001
      ],
      [
        37.68538700000006,
        55.74707600000001
      ],
      [
        37.68723300000006,
        55.746219
      ],
      [
        37.68883000000006,
        55.745478000000006
      ],
      [
        37.68886100000006,
        55.74546300000001
      ],
      [
        37.68886100000006,
        55.74546300000001
      ],
      [
        37.69071300000006,
        55.74461000000001
      ],
      [
        37.69253100000006,
        55.74377200000001
      ],
      [
        37.69388400000006,
        55.74307000000001
      ],
      [
        37.69492800000006,
        55.74243600000001
      ],
      [
        37.69587900000006,
        55.74176100000001
      ],
      [
        37.697004000000064,
        55.74070200000001
      ],
      [
        37.69773900000006,
        55.739781000000015
      ],
      [
        37.69804100000006,
        55.73930900000001
      ],
      [
        37.69876100000006,
        55.738025000000015
      ],
      [
        37.69947900000006,
        55.73674000000001
      ],
      [
        37.69953800000006,
        55.736635000000014
      ],
      [
        37.699914000000064,
        55.73610200000002
      ],
      [
        37.700932000000066,
        55.735090000000014
      ],
      [
        37.70229900000007,
        55.733984000000014
      ],
      [
        37.70251800000007,
        55.733806000000016
      ],
      [
        37.70251800000007,
        55.733806000000016
      ],
      [
        37.70252600000007,
        55.73379900000002
      ],
      [
        37.70386900000007,
        55.73268500000002
      ],
      [
        37.704886000000066,
        55.731842000000015
      ],
      [
        37.70486500000007,
        55.73185800000002
      ],
      [
        37.70623700000007,
        55.73075400000002
      ],
      [
        37.707480000000075,
        55.72975200000002
      ],
      [
        37.708774000000076,
        55.72862000000002
      ],
      [
        37.71006800000008,
        55.72748700000002
      ],
      [
        37.711161000000075,
        55.72653000000002
      ],
      [
        37.71250700000007,
        55.72541500000002
      ],
      [
        37.71276900000007,
        55.72519700000002
      ],
      [
        37.71278300000007,
        55.72518600000002
      ],
      [
        37.71278300000007,
        55.72518600000002
      ],
      [
        37.714141000000076,
        55.72407700000002
      ],
      [
        37.71484100000008,
        55.723505000000024
      ],
      [
        37.71487100000008,
        55.72348100000002
      ],
      [
        37.71483200000008,
        55.72350900000002
      ],
      [
        37.71627400000008,
        55.72243400000002
      ],
      [
        37.71695100000008,
        55.72192700000002
      ],
      [
        37.71830000000008,
        55.72081500000002
      ],
      [
        37.719649000000075,
        55.71970200000003
      ],
      [
        37.720997000000075,
        55.71858900000003
      ],
      [
        37.72234600000007,
        55.71747600000003
      ],
      [
        37.72369500000007,
        55.716364000000034
      ],
      [
        37.72504300000007,
        55.71525100000004
      ],
      [
        37.72535100000007,
        55.71499700000004
      ],
      [
        37.72665000000007,
        55.713867000000036
      ],
      [
        37.72698600000007,
        55.713572000000035
      ],
      [
        37.72768700000007,
        55.71286200000004
      ],
      [
        37.728360000000066,
        55.71206200000004
      ],
      [
        37.72891900000007,
        55.71116700000004
      ],
      [
        37.72916300000007,
        55.71057000000004
      ],
      [
        37.72930600000007,
        55.71000700000004
      ],
      [
        37.72939300000007,
        55.70933300000004
      ],
      [
        37.72950900000007,
        55.707987000000045
      ],
      [
        37.72958700000007,
        55.70707900000004
      ],
      [
        37.72958700000007,
        55.70707900000004
      ],
      [
        37.72969800000007,
        55.70573400000004
      ],
      [
        37.72980700000007,
        55.70438900000004
      ],
      [
        37.729916000000074,
        55.70304200000004
      ],
      [
        37.730025000000076,
        55.70169600000004
      ],
      [
        37.73013100000008,
        55.70039400000004
      ],
      [
        37.730242000000075,
        55.69941800000004
      ],
      [
        37.73042600000007,
        55.698445000000035
      ],
      [
        37.73074500000007,
        55.69710900000003
      ],
      [
        37.73106300000007,
        55.695774000000036
      ],
      [
        37.73135400000007,
        55.69454800000003
      ],
      [
        37.731625000000065,
        55.693832000000036
      ],
      [
        37.732123000000065,
        55.69302300000004
      ],
      [
        37.732123000000065,
        55.69302300000004
      ],
      [
        37.73271600000007,
        55.69226900000004
      ],
      [
        37.73369800000007,
        55.69116100000004
      ],
      [
        37.734096000000065,
        55.69065400000004
      ],
      [
        37.73447400000006,
        55.689937000000036
      ],
      [
        37.73481200000006,
        55.688603000000036
      ],
      [
        37.73484400000006,
        55.68847800000004
      ],
      [
        37.73498400000006,
        55.68739500000004
      ],
      [
        37.73497600000006,
        55.68710100000004
      ],
      [
        37.73490900000006,
        55.686751000000044
      ],
      [
        37.734637000000056,
        55.686095000000044
      ],
      [
        37.734032000000056,
        55.685011000000046
      ],
      [
        37.734032000000056,
        55.685011000000046
      ],
      [
        37.73397800000006,
        55.68491400000005
      ],
      [
        37.73343200000006,
        55.68399300000005
      ],
      [
        37.73287400000006,
        55.68293400000005
      ],
      [
        37.73253100000006,
        55.68213300000005
      ],
      [
        37.73212900000006,
        55.68104000000005
      ],
      [
        37.73176800000006,
        55.68033500000005
      ],
      [
        37.731029000000056,
        55.679053000000046
      ],
      [
        37.730289000000056,
        55.67777200000005
      ],
      [
        37.729549000000056,
        55.67649100000005
      ],
      [
        37.728809000000055,
        55.675209000000045
      ],
      [
        37.72816100000006,
        55.67408500000005
      ],
      [
        37.72816100000006,
        55.67408500000005
      ],
      [
        37.72813300000006,
        55.674038000000046
      ],
      [
        37.72739700000005,
        55.67275700000005
      ],
      [
        37.72666100000005,
        55.67147600000005
      ],
      [
        37.725925000000046,
        55.670194000000045
      ],
      [
        37.72537600000005,
        55.669237000000045
      ],
      [
        37.724738000000045,
        55.66829500000004
      ],
      [
        37.723790000000044,
        55.66705800000004
      ],
      [
        37.72352300000004,
        55.66670900000004
      ],
      [
        37.72269900000004,
        55.66582100000004
      ],
      [
        37.72201200000004,
        55.665171000000036
      ],
      [
        37.721437000000044,
        55.66468300000004
      ],
      [
        37.720562000000044,
        55.66400000000004
      ],
      [
        37.719104000000044,
        55.66293300000004
      ],
      [
        37.717646000000045,
        55.66186600000004
      ],
      [
        37.716849000000046,
        55.66128100000004
      ],
      [
        37.716849000000046,
        55.66128100000004
      ],
      [
        37.71682300000005,
        55.661262000000036
      ],
      [
        37.715377000000046,
        55.66018900000004
      ],
      [
        37.71393200000005,
        55.65911600000004
      ],
      [
        37.71248600000005,
        55.65804400000004
      ],
      [
        37.71120200000005,
        55.65709000000004
      ],
      [
        37.70977300000005,
        55.65601200000004
      ],
      [
        37.70834300000005,
        55.65493300000004
      ],
      [
        37.70691300000005,
        55.65385300000004
      ],
      [
        37.70588500000005,
        55.65307800000004
      ],
      [
        37.704432000000054,
        55.652008000000045
      ],
      [
        37.702979000000056,
        55.650939000000044
      ],
      [
        37.70153100000005,
        55.64987300000004
      ],
      [
        37.70152300000005,
        55.64986700000004
      ],
      [
        37.70152300000005,
        55.64986700000004
      ],
      [
        37.700084000000054,
        55.64879300000004
      ],
      [
        37.69961700000005,
        55.64844500000004
      ],
      [
        37.69883800000005,
        55.64792600000004
      ],
      [
        37.69711300000005,
        55.646996000000044
      ],
      [
        37.69616500000005,
        55.64648500000004
      ],
      [
        37.69542600000005,
        55.64602000000004
      ],
      [
        37.69497000000005,
        55.64568600000004
      ],
      [
        37.69369400000005,
        55.64454600000004
      ],
      [
        37.69241900000005,
        55.64340800000004
      ],
      [
        37.69114400000005,
        55.64226900000004
      ],
      [
        37.689868000000054,
        55.64113000000004
      ],
      [
        37.68976700000005,
        55.64104000000004
      ],
      [
        37.68971500000006,
        55.64098800000004
      ],
      [
        37.68971500000006,
        55.64098800000004
      ],
      [
        37.688885000000056,
        55.640168000000045
      ],
      [
        37.68831000000006,
        55.63950800000004
      ],
      [
        37.68778300000006,
        55.638677000000044
      ],
      [
        37.68751800000006,
        55.63814400000005
      ],
      [
        37.68734200000006,
        55.63770700000005
      ],
      [
        37.68689200000006,
        55.63638400000005
      ],
      [
        37.68645300000006,
        55.63509800000005
      ],
      [
        37.685978000000055,
        55.63377700000005
      ],
      [
        37.685503000000054,
        55.632456000000055
      ],
      [
        37.685247000000054,
        55.631747000000054
      ],
      [
        37.68500100000006,
        55.63127200000005
      ],
      [
        37.68466000000006,
        55.63081100000005
      ],
      [
        37.684233000000056,
        55.63033200000005
      ],
      [
        37.683141000000056,
        55.62936100000005
      ],
      [
        37.681785000000055,
        55.62825300000005
      ],
      [
        37.68169000000005,
        55.62817400000005
      ],
      [
        37.680327000000055,
        55.62706800000005
      ],
      [
        37.678965000000055,
        55.62596300000005
      ],
      [
        37.67760100000005,
        55.62485600000005
      ],
      [
        37.676792000000056,
        55.624199000000054
      ],
      [
        37.67540400000006,
        55.62310300000006
      ],
      [
        37.674079000000056,
        55.62205600000006
      ],
      [
        37.672672000000055,
        55.620968000000055
      ],
      [
        37.67126400000006,
        55.61988000000005
      ],
      [
        37.671110000000056,
        55.61976000000005
      ],
      [
        37.67112500000005,
        55.61977300000005
      ],
      [
        37.66995500000005,
        55.61894700000005
      ],
      [
        37.66904400000005,
        55.618374000000045
      ],
      [
        37.66904400000005,
        55.618374000000045
      ],
      [
        37.66899800000005,
        55.618346000000045
      ],
      [
        37.66841600000005,
        55.618000000000045
      ],
      [
        37.66771500000005,
        55.617643000000044
      ],
      [
        37.66580200000005,
        55.616891000000045
      ],
      [
        37.66479700000005,
        55.61657200000005
      ],
      [
        37.66265000000005,
        55.61598400000005
      ],
      [
        37.662260000000046,
        55.61587900000005
      ],
      [
        37.660077000000044,
        55.61533500000005
      ],
      [
        37.659123000000044,
        55.61509800000005
      ],
      [
        37.656877000000044,
        55.61464200000005
      ],
      [
        37.65463300000005,
        55.61418600000005
      ],
      [
        37.65451400000005,
        55.61416200000005
      ],
      [
        37.65228500000005,
        55.61368300000005
      ],
      [
        37.65005500000005,
        55.61320300000005
      ],
      [
        37.64782600000005,
        55.612723000000045
      ],
      [
        37.64559700000005,
        55.61224400000005
      ],
      [
        37.64522500000005,
        55.61216400000005
      ],
      [
        37.643578000000055,
        55.61168100000005
      ],
      [
        37.64184300000006,
        55.61103300000005
      ],
      [
        37.64079600000006,
        55.61056200000005
      ],
      [
        37.63954600000006,
        55.609863000000054
      ],
      [
        37.63873700000006,
        55.609317000000054
      ],
      [
        37.637959000000066,
        55.60871800000005
      ],
      [
        37.63677000000007,
        55.60755000000005
      ],
      [
        37.63558100000007,
        55.60638200000005
      ],
      [
        37.634393000000074,
        55.60521400000005
      ],
      [
        37.633205000000075,
        55.604045000000056
      ],
      [
        37.632015000000074,
        55.602878000000054
      ],
      [
        37.63180000000008,
        55.602666000000056
      ],
      [
        37.63180000000008,
        55.602666000000056
      ],
      [
        37.631798000000074,
        55.602664000000054
      ],
      [
        37.63061200000008,
        55.601496000000054
      ],
      [
        37.62942900000008,
        55.60032600000005
      ],
      [
        37.62894200000008,
        55.599847000000054
      ],
      [
        37.62846700000008,
        55.599472000000056
      ],
      [
        37.62740000000008,
        55.598771000000056
      ],
      [
        37.62667100000008,
        55.59835600000006
      ],
      [
        37.62479100000008,
        55.597527000000056
      ],
      [
        37.62291000000008,
        55.59669900000006
      ],
      [
        37.622276000000085,
        55.59642000000006
      ],
      [
        37.62230000000009,
        55.59642900000006
      ],
      [
        37.62045900000009,
        55.595574000000056
      ],
      [
        37.62042900000009,
        55.59555900000006
      ],
      [
        37.61911400000009,
        55.59480200000006
      ],
      [
        37.61833800000009,
        55.59426500000006
      ],
      [
        37.617776000000084,
        55.593807000000055
      ],
      [
        37.61722300000009,
        55.59329900000005
      ],
      [
        37.61665600000009,
        55.59267800000005
      ],
      [
        37.61634400000009,
        55.592274000000046
      ],
      [
        37.61584600000009,
        55.59146800000005
      ],
      [
        37.61556900000009,
        55.59093600000005
      ],
      [
        37.61523800000009,
        55.59016500000005
      ],
      [
        37.61506100000009,
        55.58960400000005
      ],
      [
        37.61506100000009,
        55.58960400000005
      ],
      [
        37.61506000000009,
        55.589603000000054
      ],
      [
        37.61494200000009,
        55.58903000000005
      ],
      [
        37.61484400000009,
        55.58831900000005
      ],
      [
        37.61467900000009,
        55.58697400000005
      ],
      [
        37.61451500000009,
        55.585630000000045
      ],
      [
        37.61434900000009,
        55.584287000000046
      ],
      [
        37.61418500000009,
        55.58294300000004
      ],
      [
        37.61413200000009,
        55.58251500000004
      ],
      [
        37.61395400000009,
        55.58117100000004
      ],
      [
        37.61377500000009,
        55.57982800000004
      ],
      [
        37.61359700000009,
        55.57848400000004
      ],
      [
        37.61341700000009,
        55.577140000000036
      ],
      [
        37.61334600000009,
        55.57659800000003
      ],
      [
        37.61319800000009,
        55.57525300000003
      ],
      [
        37.61313700000009,
        55.57469600000003
      ],
      [
        37.61305200000009,
        55.57423800000003
      ],
      [
        37.61284400000009,
        55.57341300000003
      ],
      [
        37.61260800000009,
        55.57283300000003
      ],
      [
        37.61212900000009,
        55.57199800000003
      ],
      [
        37.61183600000009,
        55.57157100000003
      ],
      [
        37.61154400000009,
        55.571228000000026
      ],
      [
        37.61154400000009,
        55.571228000000026
      ],
      [
        37.61153200000009,
        55.571214000000026
      ],
      [
        37.61055300000009,
        55.570182000000024
      ],
      [
        37.60938400000009,
        55.569008000000025
      ],
      [
        37.608215000000094,
        55.567835000000024
      ],
      [
        37.60712700000009,
        55.566742000000026
      ],
      [
        37.60621900000009,
        55.565969000000024
      ],
      [
        37.60547100000009,
        55.565459000000025
      ],
      [
        37.60385700000009,
        55.56460000000003
      ],
      [
        37.60387300000009,
        55.564606000000026
      ],
      [
        37.60205800000009,
        55.56373300000003
      ],
      [
        37.60140000000009,
        55.56341700000003
      ],
      [
        37.59961400000009,
        55.56271100000003
      ],
      [
        37.59757300000009,
        55.56201500000003
      ],
      [
        37.59652100000009,
        55.56165700000003
      ],
      [
        37.595402000000085,
        55.56118200000003
      ],
      [
        37.594352000000086,
        55.56067000000003
      ],
      [
        37.592827000000085,
        55.55972700000003
      ],
      [
        37.591290000000086,
        55.55869800000003
      ],
      [
        37.58975200000009,
        55.557669000000026
      ],
      [
        37.58821400000009,
        55.55664000000002
      ],
      [
        37.5866760000001,
        55.55561100000002
      ],
      [
        37.5851390000001,
        55.55458200000002
      ],
      [
        37.5836010000001,
        55.55355200000002
      ],
      [
        37.582063000000105,
        55.552523000000015
      ],
      [
        37.580526000000106,
        55.55149400000001
      ],
      [
        37.57898800000011,
        55.55046500000001
      ],
      [
        37.57745100000011,
        55.54943600000001
      ],
      [
        37.57591400000011,
        55.54840800000001
      ],
      [
        37.57456600000011,
        55.54750500000001
      ],
      [
        37.57377800000011,
        55.54688300000001
      ],
      [
        37.57303900000011,
        55.54619300000001
      ],
      [
        37.57262400000011,
        55.54573400000001
      ],
      [
        37.571891000000115,
        55.54472100000001
      ],
      [
        37.57136600000011,
        55.54380400000001
      ],
      [
        37.57107400000011,
        55.54298500000001
      ],
      [
        37.57069700000011,
        55.54165400000001
      ],
      [
        37.570583000000106,
        55.54125600000001
      ],
      [
        37.570583000000106,
        55.54125600000001
      ],
      [
        37.57032000000011,
        55.540208000000014
      ],
      [
        37.57007100000011,
        55.538868000000015
      ],
      [
        37.56998200000011,
        55.53837700000002
      ],
      [
        37.56980100000011,
        55.53722800000002
      ],
      [
        37.56964000000011,
        55.53588500000002
      ],
      [
        37.569617000000115,
        55.535698000000025
      ],
      [
        37.569502000000114,
        55.535188000000026
      ],
      [
        37.56910000000011,
        55.53385900000003
      ],
      [
        37.56869800000011,
        55.53253100000003
      ],
      [
        37.56866200000011,
        55.53241200000003
      ],
      [
        37.56828100000011,
        55.531082000000026
      ],
      [
        37.56790200000011,
        55.529751000000026
      ],
      [
        37.56752200000011,
        55.52842200000003
      ],
      [
        37.56726900000011,
        55.527536000000026
      ],
      [
        37.56684800000011,
        55.52620900000002
      ],
      [
        37.566694000000105,
        55.525724000000025
      ],
      [
        37.56633000000011,
        55.52439200000003
      ],
      [
        37.565965000000105,
        55.52306000000003
      ],
      [
        37.565737000000105,
        55.52222600000003
      ],
      [
        37.565349000000104,
        55.52089700000003
      ],
      [
        37.5649610000001,
        55.519568000000035
      ],
      [
        37.5645730000001,
        55.51823800000003
      ],
      [
        37.5641850000001,
        55.51691000000003
      ],
      [
        37.5637970000001,
        55.51558000000003
      ],
      [
        37.5636900000001,
        55.51521700000003
      ],
      [
        37.5633000000001,
        55.51388900000003
      ],
      [
        37.5629090000001,
        55.51256000000003
      ],
      [
        37.5625180000001,
        55.511230000000026
      ],
      [
        37.5622950000001,
        55.510473000000026
      ],
      [
        37.5622470000001,
        55.51048600000003
      ],
      [
        37.5622470000001,
        55.51048600000003
      ],
      [
        37.5621390000001,
        55.50993700000003
      ],
      [
        37.5617590000001,
        55.50860800000003
      ],
      [
        37.561668000000104,
        55.50828900000003
      ],
      [
        37.5612750000001,
        55.50695900000003
      ],
      [
        37.5608830000001,
        55.50563200000003
      ],
      [
        37.560491000000106,
        55.50430300000003
      ],
      [
        37.56011000000011,
        55.50301600000003
      ],
      [
        37.559734000000105,
        55.50168500000003
      ],
      [
        37.559357000000105,
        55.50035400000003
      ],
      [
        37.5589810000001,
        55.49902400000003
      ],
      [
        37.5586040000001,
        55.49769300000003
      ],
      [
        37.5582280000001,
        55.496362000000026
      ],
      [
        37.5582250000001,
        55.49635300000003
      ],
      [
        37.5578250000001,
        55.49502400000003
      ],
      [
        37.557424000000104,
        55.49369500000003
      ],
      [
        37.5572790000001,
        55.49321300000003
      ],
      [
        37.5569060000001,
        55.49188200000003
      ],
      [
        37.556611000000096,
        55.49083000000003
      ],
      [
        37.55620400000009,
        55.48950200000003
      ],
      [
        37.556170000000094,
        55.48939100000003
      ],
      [
        37.55618200000009,
        55.489435000000036
      ],
      [
        37.55570100000009,
        55.488115000000036
      ],
      [
        37.55546000000009,
        55.487451000000036
      ],
      [
        37.55517900000009,
        55.486314000000036
      ],
      [
        37.55517300000009,
        55.486295000000034
      ],
      [
        37.55517300000009,
        55.486295000000034
      ],
      [
        37.55481800000009,
        55.484963000000036
      ],
      [
        37.554704000000086,
        55.484530000000035
      ],
      [
        37.55445500000009,
        55.48342900000004
      ],
      [
        37.55428600000009,
        55.48241200000004
      ],
      [
        37.55424000000009,
        55.48150400000004
      ],
      [
        37.55435300000009,
        55.480159000000036
      ],
      [
        37.55436000000009,
        55.480081000000034
      ],
      [
        37.55451500000009,
        55.47873600000003
      ],
      [
        37.55466900000009,
        55.47739100000003
      ],
      [
        37.55482300000009,
        55.476048000000034
      ],
      [
        37.55497800000009,
        55.474703000000034
      ],
      [
        37.55513100000009,
        55.47335900000003
      ],
      [
        37.55528500000009,
        55.47201400000003
      ],
      [
        37.55544000000009,
        55.47067000000003
      ],
      [
        37.55546300000009,
        55.47045900000003
      ],
      [
        37.55546300000009,
        55.47045900000003
      ],
      [
        37.555633000000086,
        55.46911600000003
      ],
      [
        37.555732000000084,
        55.46832700000003
      ],
      [
        37.555855000000086,
        55.46766600000003
      ],
      [
        37.55607600000009,
        55.46701600000003
      ],
      [
        37.55631000000009,
        55.46648900000003
      ],
      [
        37.55660700000009,
        55.46595400000003
      ],
      [
        37.557200000000094,
        55.46513300000003
      ],
      [
        37.5580740000001,
        55.46418000000003
      ],
      [
        37.5593870000001,
        55.46305700000003
      ],
      [
        37.5606990000001,
        55.46193400000003
      ],
      [
        37.5609640000001,
        55.461707000000025
      ],
      [
        37.5616250000001,
        55.461051000000026
      ],
      [
        37.5620390000001,
        55.46054300000002
      ],
      [
        37.5624570000001,
        55.45993600000002
      ],
      [
        37.5629130000001,
        55.45913000000002
      ],
      [
        37.5631210000001,
        55.45865800000002
      ],
      [
        37.5635920000001,
        55.45733800000002
      ],
      [
        37.5640640000001,
        55.456017000000024
      ],
      [
        37.5645350000001,
        55.45469600000003
      ],
      [
        37.565006000000096,
        55.45337600000003
      ],
      [
        37.565476000000096,
        55.45205500000003
      ],
      [
        37.5657650000001,
        55.45124400000003
      ],
      [
        37.5661140000001,
        55.44991000000003
      ],
      [
        37.5662740000001,
        55.449298000000034
      ],
      [
        37.5666710000001,
        55.44797000000003
      ],
      [
        37.566931000000096,
        55.447097000000035
      ],
      [
        37.5672790000001,
        55.44576400000003
      ],
      [
        37.5676270000001,
        55.44443100000003
      ],
      [
        37.5679650000001,
        55.44313700000003
      ],
      [
        37.5682110000001,
        55.441810000000025
      ],
      [
        37.5683150000001,
        55.44052500000002
      ],
      [
        37.5683090000001,
        55.43917800000002
      ],
      [
        37.5683060000001,
        55.43859200000002
      ],
      [
        37.5682310000001,
        55.43760800000002
      ],
      [
        37.56816200000009,
        55.43723900000002
      ],
      [
        37.56791200000009,
        55.43645000000002
      ],
      [
        37.56749000000009,
        55.43551700000002
      ],
      [
        37.567129000000094,
        55.43477200000002
      ],
      [
        37.5664440000001,
        55.43348200000002
      ],
      [
        37.565758000000095,
        55.43219200000002
      ],
      [
        37.565423000000095,
        55.43156100000002
      ],
      [
        37.565423000000095,
        55.43156100000002
      ],
      [
        37.565420000000096,
        55.43155400000003
      ],
      [
        37.564936000000095,
        55.43068700000003
      ],
      [
        37.564092000000095,
        55.429458000000025
      ],
      [
        37.563386000000094,
        55.42817100000003
      ],
      [
        37.562679000000095,
        55.42688500000003
      ],
      [
        37.5619720000001,
        55.42559800000003
      ],
      [
        37.5612760000001,
        55.42432900000003
      ],
      [
        37.5605500000001,
        55.42304600000003
      ],
      [
        37.5598240000001,
        55.421764000000024
      ],
      [
        37.559476000000096,
        55.42114600000002
      ],
      [
        37.5587830000001,
        55.41985800000002
      ],
      [
        37.558089000000095,
        55.41857000000002
      ],
      [
        37.557397000000094,
        55.41728100000002
      ],
      [
        37.55670300000009,
        55.41599200000002
      ],
      [
        37.55601100000009,
        55.414704000000015
      ],
      [
        37.55531800000009,
        55.41341400000002
      ],
      [
        37.55528800000009,
        55.413359000000014
      ],
      [
        37.55457500000009,
        55.41207400000001
      ],
      [
        37.553862000000095,
        55.41078900000001
      ],
      [
        37.55382900000009,
        55.41073000000001
      ],
      [
        37.552975000000096,
        55.40950600000001
      ],
      [
        37.552035000000096,
        55.408269000000004
      ],
      [
        37.551095000000096,
        55.407032
      ],
      [
        37.550156000000094,
        55.405795
      ],
      [
        37.549218000000096,
        55.404557999999994
      ],
      [
        37.548636000000094,
        55.403791999999996
      ],
      [
        37.548636000000094,
        55.403791999999996
      ],
      [
        37.5486320000001,
        55.403786
      ],
      [
        37.5476970000001,
        55.402547999999996
      ],
      [
        37.5467620000001,
        55.401309
      ],
      [
        37.5458270000001,
        55.400071
      ],
      [
        37.5448910000001,
        55.398832
      ],
      [
        37.5439570000001,
        55.397594
      ],
      [
        37.5430220000001,
        55.396355
      ],
      [
        37.5420870000001,
        55.395117
      ],
      [
        37.5411530000001,
        55.393879
      ],
      [
        37.5402180000001,
        55.392641
      ],
      [
        37.5392840000001,
        55.391402
      ],
      [
        37.5383490000001,
        55.390164
      ],
      [
        37.537414000000105,
        55.388925
      ],
      [
        37.5364810000001,
        55.387687
      ],
      [
        37.5355460000001,
        55.386448
      ],
      [
        37.5346120000001,
        55.38521
      ],
      [
        37.5345670000001,
        55.385151
      ],
      [
        37.5345670000001,
        55.385151
      ],
      [
        37.5345530000001,
        55.385133
      ],
      [
        37.5336280000001,
        55.383893
      ],
      [
        37.5336170000001,
        55.383879
      ],
      [
        37.5331750000001,
        55.383188
      ],
      [
        37.532636000000096,
        55.382203
      ],
      [
        37.532093000000096,
        55.380891999999996
      ],
      [
        37.531983000000096,
        55.380624999999995
      ],
      [
        37.53168300000009,
        55.37958499999999
      ],
      [
        37.531398000000095,
        55.378246999999995
      ],
      [
        37.5311130000001,
        55.376909
      ],
      [
        37.5308280000001,
        55.375572
      ],
      [
        37.5305430000001,
        55.374234
      ],
      [
        37.5302580000001,
        55.372896000000004
      ],
      [
        37.5299720000001,
        55.371559000000005
      ],
      [
        37.5296880000001,
        55.37022100000001
      ],
      [
        37.5294020000001,
        55.36888400000001
      ],
      [
        37.5293120000001,
        55.36845600000001
      ],
      [
        37.529273000000096,
        55.36775900000001
      ],
      [
        37.528981000000094,
        55.36642200000001
      ],
      [
        37.528688000000095,
        55.36508500000001
      ],
      [
        37.528395000000096,
        55.36374800000001
      ],
      [
        37.528102000000096,
        55.36241000000001
      ],
      [
        37.527810000000095,
        55.36107400000001
      ],
      [
        37.527543000000094,
        55.35985900000001
      ],
      [
        37.52727600000009,
        55.35852100000001
      ],
      [
        37.527008000000095,
        55.35718100000001
      ],
      [
        37.52696700000009,
        55.35698400000001
      ],
      [
        37.52696700000009,
        55.35698400000001
      ],
      [
        37.526963000000094,
        55.35696500000001
      ],
      [
        37.526667000000096,
        55.35562900000001
      ],
      [
        37.526617000000094,
        55.35540400000001
      ],
      [
        37.526316000000094,
        55.354259000000006
      ],
      [
        37.52603500000009,
        55.35292100000001
      ],
      [
        37.52575400000009,
        55.35158300000001
      ],
      [
        37.525474000000095,
        55.350245000000015
      ],
      [
        37.5251940000001,
        55.34890700000002
      ],
      [
        37.5249130000001,
        55.34756900000002
      ],
      [
        37.5246330000001,
        55.346231000000024
      ],
      [
        37.524353000000104,
        55.34489300000003
      ],
      [
        37.52407300000011,
        55.34355600000003
      ],
      [
        37.52390100000011,
        55.34273600000003
      ],
      [
        37.52360700000011,
        55.34139900000003
      ],
      [
        37.52331400000011,
        55.34006300000003
      ],
      [
        37.52303300000011,
        55.33878300000003
      ],
      [
        37.52275200000011,
        55.33744500000003
      ],
      [
        37.522472000000114,
        55.33610800000003
      ],
      [
        37.52219100000011,
        55.33476900000003
      ],
      [
        37.52191100000012,
        55.33343100000003
      ],
      [
        37.52168200000012,
        55.33234300000003
      ],
      [
        37.52142500000012,
        55.33100300000003
      ],
      [
        37.521320000000124,
        55.33044900000003
      ],
      [
        37.52102300000012,
        55.32911200000003
      ],
      [
        37.52072600000012,
        55.32777600000003
      ],
      [
        37.52043000000012,
        55.32643800000003
      ],
      [
        37.52032600000012,
        55.32597100000003
      ],
      [
        37.51990700000012,
        55.32464600000003
      ],
      [
        37.51975200000012,
        55.32415600000003
      ],
      [
        37.51929000000012,
        55.32283400000003
      ],
      [
        37.51882900000012,
        55.32151300000003
      ],
      [
        37.518368000000116,
        55.32019000000003
      ],
      [
        37.517907000000115,
        55.318869000000035
      ],
      [
        37.51744600000011,
        55.31754800000004
      ],
      [
        37.51698500000011,
        55.31622500000004
      ],
      [
        37.516525000000115,
        55.31490400000004
      ],
      [
        37.516064000000114,
        55.313583000000044
      ],
      [
        37.51596000000011,
        55.313287000000045
      ],
      [
        37.515526000000115,
        55.311962000000044
      ],
      [
        37.51550200000011,
        55.31189200000004
      ],
      [
        37.51550200000011,
        55.31189200000004
      ],
      [
        37.51547700000011,
        55.31181700000004
      ],
      [
        37.51501900000011,
        55.31049500000004
      ],
      [
        37.51456000000011,
        55.30917300000004
      ],
      [
        37.51410300000011,
        55.307851000000035
      ],
      [
        37.51364400000011,
        55.30652900000003
      ],
      [
        37.513185000000114,
        55.30520700000003
      ],
      [
        37.51272700000011,
        55.30388500000003
      ],
      [
        37.51226900000011,
        55.30256300000003
      ],
      [
        37.51181200000011,
        55.301241000000026
      ],
      [
        37.51135400000011,
        55.29992000000003
      ],
      [
        37.51097400000011,
        55.29882600000003
      ],
      [
        37.51053200000011,
        55.29750200000003
      ],
      [
        37.510089000000114,
        55.29617800000003
      ],
      [
        37.510077000000116,
        55.296143000000036
      ],
      [
        37.50961200000012,
        55.29482200000004
      ],
      [
        37.50914700000012,
        55.29350000000004
      ],
      [
        37.50888300000012,
        55.29274800000004
      ],
      [
        37.50843000000012,
        55.29142600000004
      ],
      [
        37.50797700000012,
        55.29010300000004
      ],
      [
        37.50752300000012,
        55.28878000000004
      ],
      [
        37.50707000000012,
        55.28745700000004
      ],
      [
        37.50661700000012,
        55.28613500000004
      ],
      [
        37.50616300000012,
        55.28481200000004
      ],
      [
        37.50571100000012,
        55.283490000000036
      ],
      [
        37.50525800000012,
        55.282168000000034
      ],
      [
        37.50480500000012,
        55.28084600000003
      ],
      [
        37.50447000000012,
        55.27986900000003
      ],
      [
        37.50447000000012,
        55.27986900000003
      ],
      [
        37.504454000000116,
        55.27982400000003
      ],
      [
        37.504001000000116,
        55.278501000000034
      ],
      [
        37.50354700000012,
        55.277178000000035
      ],
      [
        37.50309400000012,
        55.27585600000003
      ],
      [
        37.50264000000012,
        55.274533000000034
      ],
      [
        37.50218700000012,
        55.27321100000003
      ],
      [
        37.50173400000012,
        55.27188900000003
      ],
      [
        37.50128100000012,
        55.27056700000003
      ],
      [
        37.50124100000012,
        55.27045400000003
      ],
      [
        37.500767000000124,
        55.26913300000003
      ],
      [
        37.50029200000012,
        55.26781300000003
      ],
      [
        37.50022300000012,
        55.267618000000034
      ],
      [
        37.49998600000012,
        55.26683100000003
      ],
      [
        37.49953600000012,
        55.26550800000003
      ],
      [
        37.49908800000012,
        55.26418500000003
      ],
      [
        37.49863800000012,
        55.262862000000034
      ],
      [
        37.49818900000012,
        55.261539000000035
      ],
      [
        37.497740000000114,
        55.260216000000035
      ],
      [
        37.49729100000011,
        55.258893000000036
      ],
      [
        37.49711900000011,
        55.258387000000035
      ],
      [
        37.49665700000011,
        55.25706500000003
      ],
      [
        37.496195000000114,
        55.255744000000035
      ],
      [
        37.49573400000011,
        55.254422000000034
      ],
      [
        37.49527300000011,
        55.253101000000036
      ],
      [
        37.49481200000011,
        55.25178000000004
      ],
      [
        37.49435000000011,
        55.25045800000004
      ],
      [
        37.49388900000011,
        55.249136000000036
      ],
      [
        37.49376000000011,
        55.24877200000004
      ],
      [
        37.49376000000011,
        55.24877200000004
      ],
      [
        37.493747000000106,
        55.248734000000034
      ],
      [
        37.4932980000001,
        55.247411000000035
      ],
      [
        37.492855000000105,
        55.24610100000004
      ],
      [
        37.49269600000011,
        55.24549800000004
      ],
      [
        37.49270700000011,
        55.24553700000004
      ],
      [
        37.49224900000011,
        55.24421400000004
      ],
      [
        37.49179300000011,
        55.24289200000004
      ],
      [
        37.491335000000106,
        55.24157000000004
      ],
      [
        37.49101600000011,
        55.24064300000004
      ],
      [
        37.49052100000011,
        55.23932600000004
      ],
      [
        37.49043300000011,
        55.23909500000004
      ],
      [
        37.48998100000011,
        55.23777300000004
      ],
      [
        37.48952800000011,
        55.23644900000004
      ],
      [
        37.489076000000104,
        55.23512700000004
      ],
      [
        37.4886230000001,
        55.23380500000004
      ],
      [
        37.4881710000001,
        55.23248300000004
      ],
      [
        37.4877180000001,
        55.23115900000004
      ],
      [
        37.4872650000001,
        55.22983700000004
      ],
      [
        37.4871590000001,
        55.22952700000004
      ],
      [
        37.486729000000096,
        55.22835900000004
      ],
      [
        37.486282000000095,
        55.22703500000004
      ],
      [
        37.4858360000001,
        55.225712000000044
      ],
      [
        37.4853900000001,
        55.22439000000004
      ],
      [
        37.4849430000001,
        55.22306700000004
      ],
      [
        37.484697000000104,
        55.222340000000045
      ],
      [
        37.484697000000104,
        55.222340000000045
      ],
      [
        37.48469300000011,
        55.222326000000045
      ],
      [
        37.484305000000106,
        55.22127200000004
      ],
      [
        37.48395000000011,
        55.219940000000044
      ],
      [
        37.48388700000011,
        55.21970200000004
      ],
      [
        37.48374400000011,
        55.21894000000004
      ],
      [
        37.483621000000106,
        55.21800200000004
      ],
      [
        37.48359200000011,
        55.21759800000004
      ],
      [
        37.48360800000011,
        55.21663700000004
      ],
      [
        37.48369100000011,
        55.21538800000004
      ],
      [
        37.483816000000104,
        55.21404200000004
      ],
      [
        37.483942000000106,
        55.21269700000004
      ],
      [
        37.484066000000105,
        55.21135100000004
      ],
      [
        37.48419200000011,
        55.210005000000045
      ],
      [
        37.484317000000104,
        55.208660000000044
      ],
      [
        37.4844410000001,
        55.207314000000046
      ],
      [
        37.484567000000105,
        55.205969000000046
      ],
      [
        37.484691000000105,
        55.20462300000005
      ],
      [
        37.484817000000106,
        55.20327800000005
      ],
      [
        37.484846000000104,
        55.202966000000046
      ],
      [
        37.4849450000001,
        55.202274000000045
      ],
      [
        37.4852010000001,
        55.200934000000046
      ],
      [
        37.4853200000001,
        55.200310000000044
      ],
      [
        37.4854320000001,
        55.198964000000046
      ],
      [
        37.485507000000105,
        55.19805400000005
      ],
      [
        37.4856350000001,
        55.19670900000005
      ],
      [
        37.4857630000001,
        55.19536300000005
      ],
      [
        37.4858920000001,
        55.19401800000005
      ],
      [
        37.486020000000096,
        55.19267200000005
      ],
      [
        37.486147000000095,
        55.19132600000005
      ],
      [
        37.486276000000096,
        55.18998100000005
      ],
      [
        37.48635300000009,
        55.189170000000054
      ],
      [
        37.48643200000009,
        55.18795800000005
      ],
      [
        37.48641500000009,
        55.18661200000005
      ],
      [
        37.486412000000094,
        55.186271000000055
      ],
      [
        37.4865290000001,
        55.18492500000006
      ],
      [
        37.4866460000001,
        55.18357900000006
      ],
      [
        37.4867640000001,
        55.18223400000006
      ],
      [
        37.4868410000001,
        55.18133300000006
      ],
      [
        37.4868410000001,
        55.18133300000006
      ],
      [
        37.4868430000001,
        55.18133200000006
      ],
      [
        37.4869210000001,
        55.17998400000006
      ],
      [
        37.4869440000001,
        55.17959100000006
      ],
      [
        37.4870650000001,
        55.17824600000006
      ],
      [
        37.4871860000001,
        55.17690000000006
      ],
      [
        37.4873080000001,
        55.17555500000006
      ],
      [
        37.4874290000001,
        55.17420800000006
      ],
      [
        37.487551000000096,
        55.172863000000056
      ],
      [
        37.487641000000096,
        55.17186600000006
      ],
      [
        37.4877950000001,
        55.17052000000006
      ],
      [
        37.4879470000001,
        55.16917600000006
      ],
      [
        37.4881010000001,
        55.167832000000054
      ],
      [
        37.4882540000001,
        55.166486000000056
      ],
      [
        37.4884080000001,
        55.16514300000006
      ],
      [
        37.4884420000001,
        55.16484100000006
      ],
      [
        37.4885590000001,
        55.16349500000006
      ],
      [
        37.488676000000105,
        55.16214900000006
      ],
      [
        37.48879300000011,
        55.160803000000065
      ],
      [
        37.48891100000011,
        55.15945900000006
      ],
      [
        37.48902700000011,
        55.158113000000064
      ],
      [
        37.48914500000011,
        55.156767000000066
      ],
      [
        37.489261000000106,
        55.15542100000007
      ],
      [
        37.489379000000106,
        55.15407600000007
      ],
      [
        37.48946500000011,
        55.15308200000007
      ],
      [
        37.48963000000011,
        55.15192500000007
      ],
      [
        37.48991800000011,
        55.15058800000007
      ],
      [
        37.48995900000011,
        55.15039700000007
      ],
      [
        37.490130000000114,
        55.14915100000007
      ],
      [
        37.490130000000114,
        55.14915100000007
      ],
      [
        37.490265000000115,
        55.14780600000007
      ],
      [
        37.49028000000011,
        55.147663000000065
      ],
      [
        37.490330000000114,
        55.14664600000007
      ],
      [
        37.490383000000115,
        55.145299000000065
      ],
      [
        37.49039900000012,
        55.14485900000007
      ],
      [
        37.490389000000114,
        55.143914000000066
      ],
      [
        37.49047500000012,
        55.142567000000064
      ],
      [
        37.49056100000012,
        55.14122000000006
      ],
      [
        37.49057600000012,
        55.14100400000006
      ],
      [
        37.490687000000115,
        55.13965800000006
      ],
      [
        37.490785000000116,
        55.138475000000064
      ],
      [
        37.490926000000115,
        55.13713100000006
      ],
      [
        37.49106600000012,
        55.13578500000006
      ],
      [
        37.49120700000012,
        55.13444000000006
      ],
      [
        37.49134700000012,
        55.13309500000006
      ],
      [
        37.49137000000012,
        55.132877000000065
      ],
      [
        37.49148000000012,
        55.13153100000007
      ],
      [
        37.491590000000116,
        55.130186000000066
      ],
      [
        37.49170200000012,
        55.12884000000007
      ],
      [
        37.49180200000012,
        55.127608000000066
      ],
      [
        37.49194100000012,
        55.12626400000006
      ],
      [
        37.49207900000012,
        55.124918000000065
      ],
      [
        37.492125000000115,
        55.124473000000066
      ],
      [
        37.49223900000012,
        55.123128000000065
      ],
      [
        37.49235100000012,
        55.12178200000007
      ],
      [
        37.49246400000012,
        55.120435000000064
      ],
      [
        37.49253500000012,
        55.119591000000064
      ],
      [
        37.492665000000116,
        55.118245000000066
      ],
      [
        37.49279600000012,
        55.11689900000007
      ],
      [
        37.49292500000012,
        55.11555400000007
      ],
      [
        37.49305500000012,
        55.114209000000066
      ],
      [
        37.49318500000012,
        55.11286300000007
      ],
      [
        37.493315000000116,
        55.111519000000065
      ],
      [
        37.493420000000114,
        55.110441000000066
      ],
      [
        37.49354000000012,
        55.10909500000007
      ],
      [
        37.49366100000012,
        55.10774900000007
      ],
      [
        37.49378100000012,
        55.10640400000007
      ],
      [
        37.49390100000012,
        55.10505800000007
      ],
      [
        37.49402300000012,
        55.10371200000007
      ],
      [
        37.49414300000012,
        55.10236700000007
      ],
      [
        37.494263000000124,
        55.101021000000074
      ],
      [
        37.494313000000126,
        55.10045900000007
      ],
      [
        37.49445300000013,
        55.09911500000007
      ],
      [
        37.49459300000013,
        55.09777000000007
      ],
      [
        37.49473300000013,
        55.09642400000007
      ],
      [
        37.494864000000135,
        55.09515500000007
      ],
      [
        37.49490200000014,
        55.09444300000007
      ],
      [
        37.494824000000136,
        55.09309600000007
      ],
      [
        37.494802000000135,
        55.092714000000065
      ],
      [
        37.494740000000135,
        55.09236700000007
      ],
      [
        37.494740000000135,
        55.09236700000007
      ],
      [
        37.49466800000013,
        55.09194200000007
      ],
      [
        37.49428500000013,
        55.090612000000064
      ],
      [
        37.494104000000135,
        55.08998900000007
      ],
      [
        37.49365000000014,
        55.08866600000007
      ],
      [
        37.49319600000014,
        55.087344000000066
      ],
      [
        37.49274200000014,
        55.086022000000064
      ],
      [
        37.492288000000144,
        55.08470000000006
      ],
      [
        37.491834000000146,
        55.08337800000006
      ],
      [
        37.491379000000144,
        55.08205600000006
      ],
      [
        37.490926000000144,
        55.08073400000006
      ],
      [
        37.490472000000146,
        55.079412000000055
      ],
      [
        37.49001800000015,
        55.078089000000055
      ],
      [
        37.48956400000015,
        55.07676700000005
      ],
      [
        37.48911000000015,
        55.07544500000005
      ],
      [
        37.48865700000015,
        55.074124000000054
      ],
      [
        37.488203000000155,
        55.07280200000005
      ],
      [
        37.487750000000155,
        55.07148000000005
      ],
      [
        37.48729600000016,
        55.07015800000005
      ],
      [
        37.48684200000016,
        55.06883600000005
      ],
      [
        37.48638900000016,
        55.06751300000005
      ],
      [
        37.48593500000016,
        55.06619000000005
      ],
      [
        37.48548200000016,
        55.06486800000005
      ],
      [
        37.48502800000016,
        55.063546000000045
      ],
      [
        37.484574000000165,
        55.06222400000004
      ],
      [
        37.484121000000165,
        55.06090200000004
      ],
      [
        37.48366700000017,
        55.05958000000004
      ],
      [
        37.48321400000017,
        55.05825800000004
      ],
      [
        37.48276100000017,
        55.05693500000004
      ],
      [
        37.48230700000017,
        55.05561300000004
      ],
      [
        37.48224200000017,
        55.05542100000004
      ],
      [
        37.48179500000017,
        55.05409800000004
      ],
      [
        37.48135000000017,
        55.05277500000004
      ],
      [
        37.48090400000017,
        55.05145200000004
      ],
      [
        37.48045700000017,
        55.05013000000004
      ],
      [
        37.48001200000017,
        55.04880700000004
      ],
      [
        37.479566000000176,
        55.04748300000004
      ],
      [
        37.47912100000018,
        55.04616000000004
      ],
      [
        37.478674000000176,
        55.044837000000044
      ],
      [
        37.47822800000018,
        55.043514000000044
      ],
      [
        37.47778300000018,
        55.042191000000045
      ],
      [
        37.47733700000018,
        55.040868000000046
      ],
      [
        37.47718000000018,
        55.040401000000045
      ],
      [
        37.47717000000018,
        55.04037500000005
      ],
      [
        37.47717000000018,
        55.04037500000005
      ],
      [
        37.47670500000018,
        55.03905500000005
      ],
      [
        37.47630100000018,
        55.03791700000005
      ],
      [
        37.47585600000018,
        55.03659300000005
      ],
      [
        37.47541000000018,
        55.035270000000054
      ],
      [
        37.47497100000018,
        55.033967000000054
      ],
      [
        37.47451500000018,
        55.03264500000005
      ],
      [
        37.474061000000184,
        55.03132300000005
      ],
      [
        37.47360600000018,
        55.03000100000005
      ],
      [
        37.47315000000018,
        55.02867900000005
      ],
      [
        37.47269500000018,
        55.027357000000045
      ],
      [
        37.47224100000018,
        55.02603500000004
      ],
      [
        37.47178600000018,
        55.02471300000004
      ],
      [
        37.47133000000018,
        55.02339100000004
      ],
      [
        37.47087600000018,
        55.02206900000004
      ],
      [
        37.47042100000018,
        55.020747000000036
      ],
      [
        37.46996600000018,
        55.019425000000034
      ],
      [
        37.469511000000175,
        55.01810300000003
      ],
      [
        37.46943300000017,
        55.01787600000003
      ],
      [
        37.46896600000017,
        55.01655600000003
      ],
      [
        37.46849700000017,
        55.01523500000003
      ],
      [
        37.46833900000017,
        55.014787000000034
      ],
      [
        37.46790400000017,
        55.01346300000004
      ],
      [
        37.467469000000165,
        55.01213900000004
      ],
      [
        37.467033000000164,
        55.01081400000004
      ],
      [
        37.46659800000016,
        55.00949000000004
      ],
      [
        37.46616300000016,
        55.008166000000045
      ],
      [
        37.46602700000016,
        55.007753000000044
      ],
      [
        37.46556900000016,
        55.006432000000046
      ],
      [
        37.46511200000016,
        55.00511100000005
      ],
      [
        37.46477900000016,
        55.004147000000046
      ],
      [
        37.464353000000166,
        55.002822000000045
      ],
      [
        37.46422500000017,
        55.00242300000004
      ],
      [
        37.46375300000017,
        55.00110300000004
      ],
      [
        37.46334200000017,
        54.99995600000004
      ],
      [
        37.46289200000017,
        54.99863300000004
      ],
      [
        37.462442000000166,
        54.99731100000004
      ],
      [
        37.46199300000016,
        54.99598900000004
      ],
      [
        37.46161700000016,
        54.994890000000034
      ],
      [
        37.46161700000016,
        54.994890000000034
      ],
      [
        37.46161500000016,
        54.994884000000035
      ],
      [
        37.46115600000016,
        54.99356300000004
      ],
      [
        37.46069800000016,
        54.992241000000035
      ],
      [
        37.46053500000016,
        54.99176900000003
      ],
      [
        37.46010100000016,
        54.99044500000004
      ],
      [
        37.45966700000016,
        54.989120000000035
      ],
      [
        37.45923400000016,
        54.98779600000004
      ],
      [
        37.45892600000016,
        54.98686200000004
      ],
      [
        37.458466000000165,
        54.98554100000004
      ],
      [
        37.45800500000016,
        54.98421900000004
      ],
      [
        37.457543000000165,
        54.98289800000004
      ],
      [
        37.45708300000017,
        54.98157800000004
      ],
      [
        37.45686900000017,
        54.98096400000004
      ],
      [
        37.45641500000017,
        54.97964200000004
      ],
      [
        37.45596000000017,
        54.97832000000004
      ],
      [
        37.45550600000017,
        54.97699900000004
      ],
      [
        37.45505200000017,
        54.97567700000004
      ],
      [
        37.454598000000175,
        54.97435500000004
      ],
      [
        37.45414400000018,
        54.97303300000004
      ],
      [
        37.45369100000018,
        54.971711000000035
      ],
      [
        37.45323700000018,
        54.97038900000003
      ],
      [
        37.45278400000018,
        54.96906700000003
      ],
      [
        37.45236200000018,
        54.96783800000003
      ],
      [
        37.451921000000176,
        54.96651400000003
      ],
      [
        37.451480000000174,
        54.96519100000003
      ],
      [
        37.45143100000018,
        54.96504200000003
      ],
      [
        37.451286000000174,
        54.96436500000003
      ],
      [
        37.45118000000017,
        54.96360200000003
      ],
      [
        37.45110200000017,
        54.96245900000003
      ],
      [
        37.45113100000017,
        54.96111200000003
      ],
      [
        37.45114200000017,
        54.96054100000003
      ],
      [
        37.45114200000017,
        54.96054100000003
      ],
      [
        37.45114400000017,
        54.96054100000003
      ],
      [
        37.45117200000017,
        54.95919300000003
      ],
      [
        37.45120100000017,
        54.957846000000025
      ],
      [
        37.451230000000166,
        54.956498000000025
      ],
      [
        37.451258000000166,
        54.95515100000002
      ],
      [
        37.451287000000164,
        54.95380400000002
      ],
      [
        37.45131600000016,
        54.95245700000002
      ],
      [
        37.45134500000016,
        54.95110900000002
      ],
      [
        37.45137400000016,
        54.94976300000002
      ],
      [
        37.451403000000155,
        54.94841500000002
      ],
      [
        37.45143200000015,
        54.947068000000016
      ],
      [
        37.45146100000015,
        54.945720000000016
      ],
      [
        37.45149000000015,
        54.94437300000001
      ],
      [
        37.45151900000015,
        54.94302500000001
      ],
      [
        37.451523000000144,
        54.942805000000014
      ],
      [
        37.45162800000014,
        54.941459000000016
      ],
      [
        37.451731000000144,
        54.940114000000015
      ],
      [
        37.451781000000146,
        54.93947900000001
      ],
      [
        37.451827000000144,
        54.93813100000001
      ],
      [
        37.451874000000146,
        54.93678400000001
      ],
      [
        37.451897000000145,
        54.93609300000001
      ],
      [
        37.451643000000146,
        54.93608400000001
      ],
      [
        37.45165900000015,
        54.93538200000001
      ],
      [
        37.45160000000015,
        54.935381000000014
      ],
      [
        37.45160000000015,
        54.935381000000014
      ],
      [
        37.451576000000145,
        54.935381000000014
      ],
      [
        37.45157200000015,
        54.935521000000016
      ],
      [
        37.451432000000146,
        54.93552000000002
      ],
      [
        37.45141400000015,
        54.935518000000016
      ],
      [
        37.45139900000015,
        54.93551200000002
      ],
      [
        37.45139400000015,
        54.935504000000016
      ],
      [
        37.451401000000146,
        54.93529500000002
      ],
      [
        37.451404000000146,
        54.93520200000002
      ],
      [
        37.451401000000146,
        54.93518000000002
      ],
      [
        37.451387000000146,
        54.93515400000002
      ],
      [
        37.451205000000144,
        54.93504500000002
      ],
      [
        37.45114100000014,
        54.935012000000015
      ],
      [
        37.45105600000014,
        54.935012000000015
      ],
      [
        37.450996000000146,
        54.935012000000015
      ],
      [
        37.450968000000145,
        54.93501300000001
      ],
      [
        37.450250000000146,
        54.93500700000001
      ],
      [
        37.45014500000015,
        54.93499000000001
      ],
      [
        37.450073000000145,
        54.934978000000015
      ],
      [
        37.44994500000015,
        54.934958000000016
      ],
      [
        37.44990000000015,
        54.93494900000002
      ],
      [
        37.44990900000015,
        54.93492900000002
      ],
      [
        37.44995400000015,
        54.93485200000002
      ],
      [
        37.449966000000146,
        54.93482800000002
      ],
      [
        37.44998700000014,
        54.93479100000002
      ],
      [
        37.45003200000014,
        54.93470800000002
      ],
      [
        37.450042000000145,
        54.934687000000025
      ],
      [
        37.450048000000145,
        54.93468200000002
      ],
      [
        37.450059000000145,
        54.93466800000002
      ],
      [
        37.450143000000146,
        54.93446100000002
      ],
      [
        37.45002600000014,
        54.93444500000002
      ]
    ]
  }
}
