{
  "type": "Feature",
  "id": "5cd1ed39-f4a0-4b78-941b-a28f071c8e99",
  "properties": {
    "id": "5cd1ed39-f4a0-4b78-941b-a28f071c8e99",
    "name": "Лосиный остров - ЯУЗА",
    "color": "#ff3300",
    "routeType": "Twiter Gravel V1",
    "isSelected": false
  },
  "geometry": {
    "type": "MultiLineString",
    "coordinates": [
      [
        [
          37.81792997382581,
          55.7447499409318
        ],
        [
          37.81764993444085,
          55.74479998089373
        ],
        [
          37.817699974402785,
          55.74488991871476
        ],
        [
          37.81749998219311,
          55.745259979739785
        ],
        [
          37.81704995781183,
          55.745539935305715
        ],
        [
          37.81703998334706,
          55.745839923620224
        ],
        [
          37.81736997887492,
          55.74662991799414
        ],
        [
          37.81748992390931,
          55.74677995406091
        ],
        [
          37.8176299855113,
          55.74739996343851
        ],
        [
          37.818279918283224,
          55.7487699855119
        ],
        [
          37.818299951031804,
          55.74893997050822
        ],
        [
          37.81748992390931,
          55.74922998435795
        ],
        [
          37.81716998666525,
          55.749469958245754
        ],
        [
          37.816949961706996,
          55.74977992102504
        ],
        [
          37.81688994728029,
          55.749919982627034
        ],
        [
          37.81695993617177,
          55.75014998205006
        ],
        [
          37.81727995723486,
          55.750329941511154
        ],
        [
          37.817359920591116,
          55.75031996704638
        ],
        [
          37.81717996113002,
          55.750329941511154
        ],
        [
          37.81712992116809,
          55.7502499781549
        ],
        [
          37.81631997786462,
          55.75038995593786
        ],
        [
          37.81626993790269,
          55.75046991929412
        ],
        [
          37.81647998839617,
          55.75093997642398
        ],
        [
          37.81671996228397,
          55.75123996473849
        ],
        [
          37.81672993674874,
          55.751319928094745
        ],
        [
          37.81661996617913,
          55.75145998969674
        ],
        [
          37.81682993285358,
          55.75180993415415
        ],
        [
          37.81504995189607,
          55.75209994800389
        ],
        [
          37.81497996300459,
          55.75212995521724
        ],
        [
          37.814949955791235,
          55.75246992520988
        ],
        [
          37.81553995795548,
          55.75383994728327
        ],
        [
          37.81620992347598,
          55.75499991886318
        ],
        [
          37.816819958388805,
          55.756669929251075
        ],
        [
          37.81720996834338,
          55.757419941946864
        ],
        [
          37.817419935017824,
          55.75747995637357
        ],
        [
          37.81789996661246,
          55.75744994916022
        ],
        [
          37.81901995651424,
          55.75729999691248
        ],
        [
          37.819159934297204,
          55.75730997137725
        ],
        [
          37.81925993040204,
          55.757419941946864
        ],
        [
          37.820469941943884,
          55.75979998335242
        ],
        [
          37.82107997685671,
          55.76146999374032
        ],
        [
          37.822059988975525,
          55.76371994800866
        ],
        [
          37.822319995611906,
          55.76471999287605
        ],
        [
          37.82226995564997,
          55.7657899428159
        ],
        [
          37.8220699634403,
          55.76662997715175
        ],
        [
          37.82178992405534,
          55.76737998984754
        ],
        [
          37.82049994915724,
          55.77006999403238
        ],
        [
          37.820599945262074,
          55.77012992464006
        ],
        [
          37.821049969643354,
          55.770139982923865
        ],
        [
          37.82067999243736,
          55.770869962871075
        ],
        [
          37.821439979597926,
          55.77104992233217
        ],
        [
          37.821459928527474,
          55.77119995839894
        ],
        [
          37.822639932855964,
          55.77146993950009
        ],
        [
          37.82339992001653,
          55.7717199716717
        ],
        [
          37.82533999532461,
          55.77207997441292
        ],
        [
          37.82647993415594,
          55.77239999547601
        ],
        [
          37.830439964309335,
          55.77330993488431
        ],
        [
          37.831169944256544,
          55.7736299559474
        ],
        [
          37.831299947574735,
          55.77373992651701
        ],
        [
          37.83167998306453,
          55.773839922621846
        ],
        [
          37.830889988690615,
          55.77368997037411
        ],
        [
          37.83062998205423,
          55.77438994310796
        ],
        [
          37.830719919875264,
          55.77442992478609
        ],
        [
          37.83063995651901,
          55.77444995753467
        ],
        [
          37.82369999215007,
          55.772759998217225
        ],
        [
          37.82271998003125,
          55.772589929401875
        ],
        [
          37.82142992131412,
          55.77225993387401
        ],
        [
          37.8212099801749,
          55.77227996662259
        ],
        [
          37.82080999575555,
          55.7721999194473
        ],
        [
          37.82047991640866,
          55.772309973835945
        ],
        [
          37.82050992362201,
          55.77248993329704
        ],
        [
          37.82036994583905,
          55.77270995825529
        ],
        [
          37.82114996574819,
          55.772979939356446
        ],
        [
          37.82065995968878,
          55.77306996099651
        ],
        [
          37.82030993141234,
          55.772999972105026
        ],
        [
          37.82033993862569,
          55.77323994599283
        ],
        [
          37.82007993198931,
          55.77355996705592
        ],
        [
          37.82000994309783,
          55.77397998422384
        ],
        [
          37.81993995420635,
          55.774909956380725
        ],
        [
          37.819999968633056,
          55.77495999634266
        ],
        [
          37.820129971951246,
          55.774909956380725
        ],
        [
          37.8201099,
          55.7749799
        ],
        [
          37.8199499,
          55.77507
        ],
        [
          37.8199099,
          55.77524
        ],
        [
          37.81981,
          55.7753
        ],
        [
          37.8193599,
          55.7752499
        ],
        [
          37.8192,
          55.7753
        ],
        [
          37.81918,
          55.77632
        ],
        [
          37.81898,
          55.7775099
        ],
        [
          37.81884,
          55.7778399
        ],
        [
          37.8188699,
          55.77831
        ],
        [
          37.81866,
          55.7798699
        ],
        [
          37.81855,
          55.7801399
        ],
        [
          37.8184099,
          55.78107
        ],
        [
          37.81846,
          55.7812599
        ],
        [
          37.81875,
          55.78151
        ],
        [
          37.81845,
          55.7854499
        ],
        [
          37.8181399,
          55.78846
        ],
        [
          37.81825,
          55.78868
        ],
        [
          37.81849,
          55.78869
        ],
        [
          37.81868,
          55.7890299
        ],
        [
          37.8191599,
          55.7890999
        ],
        [
          37.8195499,
          55.78924
        ],
        [
          37.8195599,
          55.78895
        ],
        [
          37.81951,
          55.78888
        ],
        [
          37.8195899,
          55.78885
        ],
        [
          37.8231299,
          55.7889299
        ],
        [
          37.8234599,
          55.78901
        ],
        [
          37.8236,
          55.78915
        ],
        [
          37.82364,
          55.78951
        ],
        [
          37.8234899,
          55.7916299
        ],
        [
          37.8235199,
          55.79319
        ],
        [
          37.82365,
          55.7938899
        ],
        [
          37.8236,
          55.79411
        ],
        [
          37.8235899,
          55.797
        ],
        [
          37.82354,
          55.7974099
        ],
        [
          37.82373,
          55.7981299
        ],
        [
          37.83175,
          55.8002899
        ],
        [
          37.8326899,
          55.8007899
        ],
        [
          37.8342899,
          55.80142
        ],
        [
          37.8386599,
          55.8036399
        ],
        [
          37.8392499,
          55.80373
        ],
        [
          37.8396,
          55.8038999
        ],
        [
          37.84008,
          55.8039299
        ],
        [
          37.84049,
          55.80431
        ],
        [
          37.8404999,
          55.8044899
        ],
        [
          37.8413,
          55.80477
        ],
        [
          37.84173,
          55.8048499
        ],
        [
          37.84195,
          55.8049499
        ],
        [
          37.84202,
          55.80506
        ],
        [
          37.84265,
          55.8053499
        ],
        [
          37.843,
          55.8056699
        ],
        [
          37.8430599,
          55.80586
        ],
        [
          37.8428599,
          55.80621
        ],
        [
          37.84262,
          55.80635
        ],
        [
          37.8425599,
          55.80661
        ],
        [
          37.8426599,
          55.80678
        ],
        [
          37.8425299,
          55.80772
        ],
        [
          37.8425599,
          55.80793
        ],
        [
          37.84222,
          55.80986
        ],
        [
          37.84193,
          55.81016
        ],
        [
          37.84182,
          55.81041
        ],
        [
          37.84139,
          55.8106599
        ],
        [
          37.8415099,
          55.81179
        ],
        [
          37.84157,
          55.8119099
        ],
        [
          37.8418799,
          55.81225
        ],
        [
          37.8425699,
          55.8125099
        ],
        [
          37.8447599,
          55.81281
        ],
        [
          37.84576,
          55.81308
        ],
        [
          37.8458199,
          55.81321
        ],
        [
          37.84579,
          55.81353
        ],
        [
          37.84584,
          55.8136499
        ],
        [
          37.8462699,
          55.8140799
        ],
        [
          37.8463099,
          55.8142799
        ],
        [
          37.84586,
          55.8147299
        ],
        [
          37.8450899,
          55.8152599
        ],
        [
          37.84501,
          55.81538
        ],
        [
          37.84898,
          55.81696
        ],
        [
          37.85045,
          55.81764
        ],
        [
          37.85112,
          55.8179
        ],
        [
          37.85288,
          55.8184
        ],
        [
          37.85797,
          55.8197
        ],
        [
          37.8587099,
          55.81984
        ],
        [
          37.86024,
          55.8202799
        ],
        [
          37.86602,
          55.8216299
        ],
        [
          37.8684999,
          55.822
        ],
        [
          37.8691,
          55.82195
        ],
        [
          37.87121,
          55.8223199
        ],
        [
          37.87192,
          55.8225
        ],
        [
          37.87248,
          55.82254
        ],
        [
          37.87662,
          55.8231999
        ],
        [
          37.8768299,
          55.82313
        ],
        [
          37.87718,
          55.8231399
        ],
        [
          37.8786399,
          55.82342
        ],
        [
          37.87944,
          55.8234999
        ],
        [
          37.8798899,
          55.8234399
        ],
        [
          37.88027,
          55.8232999
        ],
        [
          37.88055,
          55.82331
        ],
        [
          37.8819199,
          55.82354
        ],
        [
          37.8824799,
          55.82375
        ],
        [
          37.8829099,
          55.824
        ],
        [
          37.8838199,
          55.82424
        ],
        [
          37.88666,
          55.82464
        ],
        [
          37.8868499,
          55.82457
        ],
        [
          37.88705,
          55.82421
        ],
        [
          37.88726,
          55.82414
        ],
        [
          37.88782,
          55.8243
        ],
        [
          37.88984,
          55.8246099
        ],
        [
          37.89017,
          55.8247499
        ],
        [
          37.8907199,
          55.8248499
        ],
        [
          37.89086,
          55.825
        ],
        [
          37.8908,
          55.82526
        ],
        [
          37.89103,
          55.8253099
        ],
        [
          37.89109,
          55.82551
        ],
        [
          37.8914999,
          55.82562
        ],
        [
          37.89135,
          55.82585
        ],
        [
          37.8904899,
          55.82575
        ],
        [
          37.88919,
          55.82585
        ],
        [
          37.8874299,
          55.8263
        ],
        [
          37.8868399,
          55.8265899
        ],
        [
          37.8859599,
          55.82663
        ],
        [
          37.88575,
          55.8265799
        ],
        [
          37.8856699,
          55.82664
        ],
        [
          37.8849799,
          55.82676
        ],
        [
          37.88457,
          55.82697
        ],
        [
          37.88375,
          55.82706
        ],
        [
          37.88344,
          55.82745
        ],
        [
          37.88229,
          55.82926
        ],
        [
          37.88001,
          55.8329899
        ],
        [
          37.8798199,
          55.8334
        ],
        [
          37.8797899,
          55.8340399
        ],
        [
          37.87997,
          55.83622
        ],
        [
          37.8800899,
          55.83923
        ],
        [
          37.8801799,
          55.8399099
        ],
        [
          37.88017,
          55.84092
        ],
        [
          37.88037,
          55.8437
        ],
        [
          37.88047,
          55.84637
        ],
        [
          37.88066,
          55.84859
        ],
        [
          37.8807099,
          55.85043
        ],
        [
          37.88086,
          55.85231
        ],
        [
          37.8809099,
          55.85483
        ],
        [
          37.88116,
          55.8587
        ],
        [
          37.88115,
          55.85969
        ],
        [
          37.88131,
          55.86057
        ],
        [
          37.8812599,
          55.8607
        ],
        [
          37.88158,
          55.8614
        ],
        [
          37.88194,
          55.86188
        ],
        [
          37.8843,
          55.8638399
        ],
        [
          37.88719,
          55.86602
        ],
        [
          37.8884199,
          55.86704
        ],
        [
          37.8909799,
          55.8688699
        ],
        [
          37.8944899,
          55.87163
        ],
        [
          37.89639,
          55.87296
        ],
        [
          37.9006599,
          55.87623
        ],
        [
          37.90321,
          55.87808
        ],
        [
          37.90471,
          55.8792699
        ],
        [
          37.90409,
          55.87955
        ],
        [
          37.9046299,
          55.8793299
        ],
        [
          37.9049299,
          55.87935
        ],
        [
          37.9059799,
          55.8801899
        ],
        [
          37.9063799,
          55.8806499
        ],
        [
          37.90673,
          55.8811399
        ],
        [
          37.9070699,
          55.88191
        ],
        [
          37.90747,
          55.88476
        ],
        [
          37.9078199,
          55.88586
        ],
        [
          37.9078,
          55.88635
        ],
        [
          37.9076199,
          55.88719
        ],
        [
          37.90725,
          55.88796
        ],
        [
          37.90663,
          55.88867
        ],
        [
          37.90548,
          55.8895399
        ],
        [
          37.90407,
          55.89028
        ],
        [
          37.8975499,
          55.8933
        ],
        [
          37.89565,
          55.89403
        ],
        [
          37.89414,
          55.89435
        ],
        [
          37.89106,
          55.89484
        ],
        [
          37.8893999,
          55.8950199
        ],
        [
          37.8859899,
          55.89564
        ],
        [
          37.8702399,
          55.89823
        ],
        [
          37.8700999,
          55.89836
        ],
        [
          37.87025,
          55.8986999
        ],
        [
          37.8702999,
          55.89899
        ],
        [
          37.87016,
          55.8993299
        ],
        [
          37.8702999,
          55.90003
        ],
        [
          37.8704599,
          55.90036
        ],
        [
          37.87049,
          55.9008299
        ],
        [
          37.87098,
          55.90217
        ],
        [
          37.87095,
          55.9024799
        ],
        [
          37.8703399,
          55.90246
        ],
        [
          37.86931,
          55.9026799
        ],
        [
          37.8687199,
          55.9027099
        ],
        [
          37.86779,
          55.90292
        ],
        [
          37.86691,
          55.9033899
        ],
        [
          37.86632,
          55.9035299
        ],
        [
          37.86591,
          55.90347
        ],
        [
          37.86582,
          55.90332
        ],
        [
          37.86568,
          55.9032599
        ],
        [
          37.86532,
          55.9032299
        ],
        [
          37.86533,
          55.9030699
        ],
        [
          37.8650199,
          55.9030699
        ],
        [
          37.8648199,
          55.90319
        ],
        [
          37.86486,
          55.90354
        ],
        [
          37.86503,
          55.9034599
        ],
        [
          37.86491,
          55.90338
        ],
        [
          37.8648899,
          55.90289
        ],
        [
          37.8646199,
          55.9028999
        ],
        [
          37.86458,
          55.90302
        ],
        [
          37.8628199,
          55.90305
        ],
        [
          37.8627,
          55.90311
        ],
        [
          37.86263,
          55.90334
        ],
        [
          37.86061,
          55.90342
        ],
        [
          37.85991,
          55.90335
        ],
        [
          37.8597599,
          55.90329
        ],
        [
          37.85969,
          55.90318
        ],
        [
          37.85946,
          55.9031299
        ],
        [
          37.85892,
          55.90315
        ],
        [
          37.85864,
          55.90299
        ],
        [
          37.8582499,
          55.90291
        ],
        [
          37.8577599,
          55.90291
        ],
        [
          37.8572399,
          55.90306
        ],
        [
          37.8568,
          55.90306
        ],
        [
          37.8566199,
          55.9029999
        ],
        [
          37.85614,
          55.9030699
        ],
        [
          37.85588,
          55.90298
        ],
        [
          37.85538,
          55.9030699
        ],
        [
          37.85394,
          55.9030699
        ],
        [
          37.85276,
          55.90299
        ],
        [
          37.84999,
          55.90368
        ],
        [
          37.8482099,
          55.9037599
        ],
        [
          37.8464999,
          55.90407
        ],
        [
          37.8459799,
          55.9042499
        ],
        [
          37.84514,
          55.90429
        ],
        [
          37.8432199,
          55.90453
        ],
        [
          37.84311,
          55.9046099
        ],
        [
          37.8430299,
          55.9048999
        ],
        [
          37.8427999,
          55.90522
        ],
        [
          37.84248,
          55.9061799
        ],
        [
          37.8419399,
          55.90633
        ],
        [
          37.8406599,
          55.90634
        ],
        [
          37.8399699,
          55.90735
        ],
        [
          37.8402699,
          55.90692
        ],
        [
          37.84026,
          55.90685
        ],
        [
          37.8382999,
          55.9068
        ],
        [
          37.83599,
          55.90683
        ],
        [
          37.8321299,
          55.9066399
        ],
        [
          37.8282899,
          55.90669
        ],
        [
          37.82774,
          55.90659
        ],
        [
          37.82706,
          55.9062499
        ],
        [
          37.8266099,
          55.90587
        ],
        [
          37.82644,
          55.90552
        ],
        [
          37.8264,
          55.90525
        ],
        [
          37.82644,
          55.90131
        ],
        [
          37.82637,
          55.89835
        ],
        [
          37.82616,
          55.8980399
        ],
        [
          37.8257,
          55.89771
        ],
        [
          37.82488,
          55.89747
        ],
        [
          37.7994699,
          55.89728
        ],
        [
          37.7970699,
          55.89721
        ],
        [
          37.79437,
          55.8972299
        ],
        [
          37.79393,
          55.89734
        ],
        [
          37.7928399,
          55.8979199
        ],
        [
          37.7920799,
          55.8981799
        ],
        [
          37.78139,
          55.90069
        ],
        [
          37.7811799,
          55.90058
        ],
        [
          37.7806599,
          55.89987
        ],
        [
          37.78019,
          55.8994199
        ],
        [
          37.77986,
          55.89895
        ],
        [
          37.7771399,
          55.89763
        ],
        [
          37.777,
          55.8973899
        ],
        [
          37.77716,
          55.89692
        ],
        [
          37.7773699,
          55.8967999
        ],
        [
          37.77884,
          55.8972599
        ],
        [
          37.7790499,
          55.8972599
        ],
        [
          37.78028,
          55.8958799
        ],
        [
          37.78142,
          55.8957499
        ],
        [
          37.7828499,
          55.8954899
        ],
        [
          37.7826899,
          55.89547
        ],
        [
          37.7814799,
          55.89573
        ],
        [
          37.78037,
          55.8958099
        ],
        [
          37.77929,
          55.89707
        ],
        [
          37.7791199,
          55.8972299
        ],
        [
          37.779,
          55.89725
        ],
        [
          37.7764899,
          55.89648
        ],
        [
          37.7765,
          55.8963699
        ],
        [
          37.77696,
          55.89576
        ],
        [
          37.7769199,
          55.89564
        ],
        [
          37.77696,
          55.89546
        ],
        [
          37.7764,
          55.8952499
        ],
        [
          37.7759899,
          55.89517
        ],
        [
          37.7709999,
          55.89477
        ],
        [
          37.7692999,
          55.8945699
        ],
        [
          37.7685099,
          55.8945599
        ],
        [
          37.76801,
          55.8944399
        ],
        [
          37.7677299,
          55.8944399
        ],
        [
          37.7675899,
          55.89436
        ],
        [
          37.7655899,
          55.8942399
        ],
        [
          37.76531,
          55.89415
        ],
        [
          37.76427,
          55.89405
        ],
        [
          37.76387,
          55.89393
        ],
        [
          37.76258,
          55.8938799
        ],
        [
          37.7617499,
          55.89377
        ],
        [
          37.76079,
          55.8938499
        ],
        [
          37.75526,
          55.89337
        ],
        [
          37.75307,
          55.8931199
        ],
        [
          37.7517099,
          55.8930599
        ],
        [
          37.74825,
          55.89271
        ],
        [
          37.7463499,
          55.8925899
        ],
        [
          37.74621,
          55.8925299
        ],
        [
          37.74618,
          55.8924299
        ],
        [
          37.74551,
          55.8923299
        ],
        [
          37.745,
          55.89198
        ],
        [
          37.7447099,
          55.89198
        ],
        [
          37.74414,
          55.89149
        ],
        [
          37.74434,
          55.89167
        ],
        [
          37.74339,
          55.89215
        ],
        [
          37.7435999,
          55.8923699
        ],
        [
          37.7431699,
          55.8920999
        ],
        [
          37.7431399,
          55.89202
        ],
        [
          37.74306,
          55.89203
        ],
        [
          37.74322,
          55.89206
        ],
        [
          37.74394,
          55.89255
        ],
        [
          37.744,
          55.89271
        ],
        [
          37.74385,
          55.89297
        ],
        [
          37.7444799,
          55.8930199
        ],
        [
          37.7458599,
          55.8940099
        ],
        [
          37.74574,
          55.89412
        ],
        [
          37.7450099,
          55.89441
        ],
        [
          37.74496,
          55.89459
        ],
        [
          37.74574,
          55.8963099
        ],
        [
          37.7469499,
          55.8980099
        ],
        [
          37.7470499,
          55.89875
        ],
        [
          37.74733,
          55.89967
        ],
        [
          37.7475299,
          55.90088
        ],
        [
          37.7477999,
          55.90193
        ],
        [
          37.74854,
          55.9022799
        ],
        [
          37.74844,
          55.90252
        ],
        [
          37.7469399,
          55.9035899
        ],
        [
          37.7479899,
          55.90414
        ],
        [
          37.74815,
          55.90436
        ],
        [
          37.74834,
          55.90449
        ],
        [
          37.7482199,
          55.9044099
        ],
        [
          37.7477399,
          55.90485
        ],
        [
          37.74771,
          55.9049999
        ],
        [
          37.74752,
          55.9050999
        ],
        [
          37.74726,
          55.90508
        ],
        [
          37.74706,
          55.90515
        ],
        [
          37.74624,
          55.90574
        ],
        [
          37.74582,
          55.9058199
        ],
        [
          37.7454299,
          55.9057199
        ],
        [
          37.7452099,
          55.9057299
        ],
        [
          37.7433699,
          55.9066099
        ],
        [
          37.7418899,
          55.90749
        ],
        [
          37.7422899,
          55.90774
        ],
        [
          37.7424499,
          55.90775
        ],
        [
          37.74237,
          55.90751
        ],
        [
          37.7425799,
          55.90736
        ],
        [
          37.7427399,
          55.90729
        ],
        [
          37.74315,
          55.90736
        ],
        [
          37.74371,
          55.9070399
        ],
        [
          37.7431699,
          55.90735
        ],
        [
          37.7429,
          55.9073299
        ],
        [
          37.7429799,
          55.9076299
        ],
        [
          37.7432399,
          55.90785
        ],
        [
          37.74306,
          55.9080299
        ],
        [
          37.7428099,
          55.9080599
        ],
        [
          37.7422199,
          55.9076999
        ],
        [
          37.74207,
          55.90768
        ],
        [
          37.7411999,
          55.9081599
        ],
        [
          37.74108,
          55.9081199
        ],
        [
          37.7407799,
          55.9083499
        ],
        [
          37.73711,
          55.9105
        ],
        [
          37.73676,
          55.91051
        ],
        [
          37.7364699,
          55.9107
        ],
        [
          37.7358199,
          55.9109799
        ],
        [
          37.73389,
          55.91205
        ],
        [
          37.7336799,
          55.9122199
        ],
        [
          37.73318,
          55.91243
        ],
        [
          37.7293499,
          55.91471
        ],
        [
          37.72596,
          55.91657
        ],
        [
          37.72589,
          55.91673
        ],
        [
          37.72592,
          55.9170899
        ],
        [
          37.7256699,
          55.91733
        ],
        [
          37.7256099,
          55.91766
        ],
        [
          37.7254099,
          55.9177399
        ],
        [
          37.72503,
          55.91776
        ],
        [
          37.7244999,
          55.91802
        ],
        [
          37.7242599,
          55.91802
        ],
        [
          37.72356,
          55.91842
        ],
        [
          37.7236399,
          55.9185299
        ],
        [
          37.72405,
          55.9187599
        ],
        [
          37.72406,
          55.9189199
        ],
        [
          37.72399,
          55.919
        ],
        [
          37.72168,
          55.92031
        ],
        [
          37.7214699,
          55.9202999
        ],
        [
          37.72084,
          55.9206299
        ],
        [
          37.7207499,
          55.92074
        ],
        [
          37.71959,
          55.9213
        ],
        [
          37.71857,
          55.9218799
        ],
        [
          37.7171099,
          55.92242
        ],
        [
          37.7168799,
          55.92236
        ],
        [
          37.71664,
          55.92212
        ],
        [
          37.71624,
          55.92199
        ],
        [
          37.71555,
          55.9221699
        ],
        [
          37.7154999,
          55.9222099
        ],
        [
          37.7155599,
          55.92251
        ],
        [
          37.7151999,
          55.9225999
        ],
        [
          37.7148399,
          55.92241
        ],
        [
          37.71489,
          55.9223299
        ],
        [
          37.7137599,
          55.92239
        ],
        [
          37.7123,
          55.92231
        ],
        [
          37.71203,
          55.92235
        ],
        [
          37.7114599,
          55.92228
        ],
        [
          37.71105,
          55.92231
        ],
        [
          37.71053,
          55.9221699
        ],
        [
          37.70836,
          55.922
        ],
        [
          37.7078199,
          55.9222099
        ],
        [
          37.7078499,
          55.9222999
        ],
        [
          37.70781,
          55.92222
        ],
        [
          37.7083099,
          55.92199
        ],
        [
          37.70833,
          55.92157
        ],
        [
          37.7085399,
          55.92149
        ],
        [
          37.70978,
          55.9215199
        ],
        [
          37.7099499,
          55.92143
        ],
        [
          37.71001,
          55.9211499
        ],
        [
          37.7101799,
          55.92104
        ],
        [
          37.70945,
          55.91891
        ],
        [
          37.7091599,
          55.9183999
        ],
        [
          37.70922,
          55.91816
        ],
        [
          37.7096599,
          55.91802
        ],
        [
          37.7092299,
          55.9169
        ],
        [
          37.70925,
          55.91678
        ],
        [
          37.7087699,
          55.9157699
        ],
        [
          37.70859,
          55.91566
        ],
        [
          37.70859,
          55.91556
        ],
        [
          37.7084399,
          55.9154
        ],
        [
          37.7081,
          55.91471
        ],
        [
          37.7076599,
          55.91412
        ],
        [
          37.70701,
          55.9133799
        ],
        [
          37.70679,
          55.91326
        ],
        [
          37.7064099,
          55.9129099
        ],
        [
          37.70622,
          55.91264
        ],
        [
          37.7056499,
          55.91212
        ],
        [
          37.7025399,
          55.9094299
        ],
        [
          37.70206,
          55.90909
        ],
        [
          37.70176,
          55.90876
        ],
        [
          37.7004299,
          55.9076599
        ],
        [
          37.6997799,
          55.90703
        ],
        [
          37.6979999,
          55.90377
        ],
        [
          37.69747,
          55.9035599
        ],
        [
          37.69703,
          55.9031699
        ],
        [
          37.69605,
          55.9026799
        ],
        [
          37.6953,
          55.90201
        ],
        [
          37.69464,
          55.90122
        ],
        [
          37.6945599,
          55.90105
        ],
        [
          37.69463,
          55.9008399
        ],
        [
          37.69438,
          55.90042
        ],
        [
          37.69381,
          55.8998799
        ],
        [
          37.69368,
          55.89967
        ],
        [
          37.6933,
          55.8986399
        ],
        [
          37.69297,
          55.89816
        ],
        [
          37.69267,
          55.89807
        ],
        [
          37.6911,
          55.8981499
        ],
        [
          37.68787,
          55.8976
        ],
        [
          37.68656,
          55.8975
        ],
        [
          37.6860899,
          55.89737
        ],
        [
          37.6852299,
          55.8968299
        ],
        [
          37.68518,
          55.8967599
        ],
        [
          37.6852699,
          55.8961799
        ],
        [
          37.6851999,
          55.89569
        ],
        [
          37.68528,
          55.8956
        ],
        [
          37.6850999,
          55.8952199
        ],
        [
          37.68502,
          55.89459
        ],
        [
          37.68496,
          55.89454
        ],
        [
          37.6850099,
          55.8941399
        ],
        [
          37.68518,
          55.89412
        ],
        [
          37.68509,
          55.8940699
        ],
        [
          37.6848799,
          55.8920099
        ],
        [
          37.68466,
          55.8915
        ],
        [
          37.6845,
          55.8913499
        ],
        [
          37.68434,
          55.8913199
        ],
        [
          37.6837299,
          55.8914499
        ],
        [
          37.68299,
          55.8914799
        ],
        [
          37.68227,
          55.8916
        ],
        [
          37.6818499,
          55.89149
        ],
        [
          37.68165,
          55.8913199
        ],
        [
          37.6812899,
          55.8908199
        ],
        [
          37.6808699,
          55.89045
        ],
        [
          37.6806099,
          55.8900999
        ],
        [
          37.68026,
          55.88822
        ],
        [
          37.68,
          55.88775
        ],
        [
          37.6795499,
          55.8874
        ],
        [
          37.67957,
          55.8872799
        ],
        [
          37.6794899,
          55.88714
        ],
        [
          37.67957,
          55.8870199
        ],
        [
          37.6795199,
          55.8863299
        ],
        [
          37.6793599,
          55.8860599
        ],
        [
          37.67901,
          55.88569
        ],
        [
          37.67856,
          55.88548
        ],
        [
          37.67822,
          55.8852099
        ],
        [
          37.67758,
          55.8849499
        ],
        [
          37.67735,
          55.8847199
        ],
        [
          37.67646,
          55.88451
        ],
        [
          37.67583,
          55.88414
        ],
        [
          37.6751,
          55.8840899
        ],
        [
          37.67392,
          55.88428
        ],
        [
          37.67301,
          55.88417
        ],
        [
          37.67274,
          55.8839999
        ],
        [
          37.6724999,
          55.8836299
        ],
        [
          37.6720699,
          55.88292
        ],
        [
          37.6718799,
          55.88234
        ],
        [
          37.67162,
          55.8822
        ],
        [
          37.6694799,
          55.88207
        ],
        [
          37.66842,
          55.88207
        ],
        [
          37.6679999,
          55.8821199
        ],
        [
          37.66778,
          55.8823899
        ],
        [
          37.66724,
          55.8825499
        ],
        [
          37.66596,
          55.88257
        ],
        [
          37.6655,
          55.8827099
        ],
        [
          37.6635999,
          55.8824
        ],
        [
          37.66261,
          55.8826
        ],
        [
          37.66169,
          55.88254
        ],
        [
          37.6582,
          55.88172
        ],
        [
          37.6567799,
          55.88158
        ],
        [
          37.6566399,
          55.88152
        ],
        [
          37.65659,
          55.88141
        ],
        [
          37.65685,
          55.8804
        ],
        [
          37.65636,
          55.87972
        ],
        [
          37.6562799,
          55.8795299
        ],
        [
          37.6563099,
          55.8792399
        ],
        [
          37.65611,
          55.8790399
        ],
        [
          37.6557599,
          55.87847
        ],
        [
          37.6559899,
          55.8780599
        ],
        [
          37.6559199,
          55.87762
        ],
        [
          37.65616,
          55.8773699
        ],
        [
          37.65626,
          55.87692
        ],
        [
          37.6564499,
          55.8767099
        ],
        [
          37.65644,
          55.87653
        ],
        [
          37.6563099,
          55.8764499
        ],
        [
          37.6559499,
          55.8764099
        ],
        [
          37.6556899,
          55.8763099
        ],
        [
          37.65521,
          55.8759499
        ],
        [
          37.6540799,
          55.87584
        ],
        [
          37.65355,
          55.87558
        ],
        [
          37.6535199,
          55.87544
        ],
        [
          37.6538199,
          55.8743399
        ],
        [
          37.65381,
          55.8736899
        ],
        [
          37.65373,
          55.87357
        ],
        [
          37.65351,
          55.87344
        ],
        [
          37.6530699,
          55.8733299
        ],
        [
          37.6528999,
          55.87322
        ],
        [
          37.65282,
          55.87262
        ],
        [
          37.65288,
          55.87245
        ],
        [
          37.65269,
          55.8719
        ],
        [
          37.65268,
          55.8716899
        ],
        [
          37.6522099,
          55.8716899
        ],
        [
          37.65214,
          55.87137
        ],
        [
          37.65174,
          55.8713599
        ],
        [
          37.6514599,
          55.8710999
        ],
        [
          37.65117,
          55.8706399
        ],
        [
          37.65065,
          55.87029
        ],
        [
          37.64973,
          55.87007
        ],
        [
          37.6491299,
          55.87
        ],
        [
          37.6488999,
          55.8699
        ],
        [
          37.64879,
          55.8697199
        ],
        [
          37.6471899,
          55.8689899
        ],
        [
          37.64679,
          55.86849
        ],
        [
          37.6462399,
          55.8679799
        ],
        [
          37.6450899,
          55.86731
        ],
        [
          37.64419,
          55.86707
        ],
        [
          37.6433,
          55.86695
        ],
        [
          37.6416799,
          55.86681
        ],
        [
          37.64106,
          55.86684
        ],
        [
          37.6391199,
          55.8662999
        ],
        [
          37.63779,
          55.86566
        ],
        [
          37.6358299,
          55.86422
        ],
        [
          37.63494,
          55.8633
        ],
        [
          37.63483,
          55.8632799
        ],
        [
          37.63463,
          55.8635199
        ],
        [
          37.6343599,
          55.86362
        ],
        [
          37.63378,
          55.8634099
        ],
        [
          37.63338,
          55.8631799
        ],
        [
          37.6333399,
          55.8630899
        ],
        [
          37.63339,
          55.8627899
        ],
        [
          37.6333399,
          55.86271
        ],
        [
          37.63247,
          55.8621999
        ],
        [
          37.6327099,
          55.8623599
        ],
        [
          37.6328799,
          55.86218
        ],
        [
          37.6329799,
          55.86139
        ],
        [
          37.6327099,
          55.86111
        ],
        [
          37.63253,
          55.86057
        ],
        [
          37.6321899,
          55.86032
        ],
        [
          37.6322499,
          55.86015
        ],
        [
          37.6322,
          55.8599399
        ],
        [
          37.63192,
          55.8597999
        ],
        [
          37.6311699,
          55.86002
        ],
        [
          37.6309799,
          55.85992
        ],
        [
          37.6308799,
          55.85973
        ],
        [
          37.63089,
          55.85942
        ],
        [
          37.6311999,
          55.8590799
        ],
        [
          37.6313699,
          55.8585899
        ],
        [
          37.6316299,
          55.8581299
        ],
        [
          37.63161,
          55.85769
        ],
        [
          37.6321,
          55.8575999
        ],
        [
          37.6326799,
          55.85733
        ],
        [
          37.6328499,
          55.8571
        ],
        [
          37.63299,
          55.85663
        ],
        [
          37.6331,
          55.85648
        ],
        [
          37.63375,
          55.85594
        ],
        [
          37.63448,
          55.85552
        ],
        [
          37.6347,
          55.85499
        ],
        [
          37.63512,
          55.85479
        ],
        [
          37.6352,
          55.8546
        ],
        [
          37.63499,
          55.8543499
        ],
        [
          37.63559,
          55.8537699
        ],
        [
          37.63539,
          55.85365
        ],
        [
          37.63444,
          55.85351
        ],
        [
          37.63286,
          55.85397
        ],
        [
          37.63169,
          55.85418
        ],
        [
          37.6311399,
          55.85415
        ],
        [
          37.6305,
          55.85391
        ],
        [
          37.63,
          55.85338
        ],
        [
          37.63004,
          55.85289
        ],
        [
          37.62994,
          55.8526499
        ],
        [
          37.6297299,
          55.8524
        ],
        [
          37.62998,
          55.85228
        ],
        [
          37.6308099,
          55.8522499
        ],
        [
          37.63086,
          55.8521499
        ],
        [
          37.63064,
          55.85158
        ],
        [
          37.6306199,
          55.85129
        ],
        [
          37.6303499,
          55.85112
        ],
        [
          37.63021,
          55.85079
        ],
        [
          37.6302499,
          55.85059
        ],
        [
          37.63053,
          55.8503
        ],
        [
          37.6306,
          55.8501199
        ],
        [
          37.63059,
          55.84955
        ],
        [
          37.62964,
          55.84893
        ],
        [
          37.6305199,
          55.84945
        ],
        [
          37.63116,
          55.8494999
        ],
        [
          37.63148,
          55.84945
        ],
        [
          37.6316699,
          55.8492999
        ],
        [
          37.63149,
          55.84908
        ],
        [
          37.63149,
          55.84892
        ],
        [
          37.63227,
          55.84853
        ],
        [
          37.63329,
          55.84781
        ],
        [
          37.6336299,
          55.84741
        ],
        [
          37.63382,
          55.84699
        ],
        [
          37.63484,
          55.84693
        ],
        [
          37.6354099,
          55.8465399
        ],
        [
          37.63556,
          55.84613
        ],
        [
          37.6355099,
          55.84564
        ],
        [
          37.6355999,
          55.8451299
        ],
        [
          37.6357299,
          55.84482
        ],
        [
          37.63581,
          55.8441799
        ],
        [
          37.63591,
          55.8440799
        ],
        [
          37.6360699,
          55.84265
        ],
        [
          37.6363299,
          55.8426099
        ],
        [
          37.6371199,
          55.84271
        ],
        [
          37.6375699,
          55.84271
        ],
        [
          37.6375999,
          55.84265
        ],
        [
          37.6373699,
          55.8418799
        ],
        [
          37.6371499,
          55.84157
        ],
        [
          37.63676,
          55.84072
        ],
        [
          37.6367799,
          55.8406399
        ],
        [
          37.6378699,
          55.84055
        ],
        [
          37.6398699,
          55.84052
        ],
        [
          37.64153,
          55.84033
        ],
        [
          37.6429,
          55.8403099
        ],
        [
          37.64344,
          55.84038
        ],
        [
          37.64383,
          55.83953
        ],
        [
          37.64392,
          55.8391899
        ],
        [
          37.64497,
          55.83888
        ],
        [
          37.64544,
          55.8386699
        ],
        [
          37.64636,
          55.83848
        ],
        [
          37.6465699,
          55.83829
        ],
        [
          37.64705,
          55.83825
        ],
        [
          37.6476,
          55.8380699
        ],
        [
          37.6482799,
          55.8378
        ],
        [
          37.64848,
          55.83766
        ],
        [
          37.64927,
          55.8377399
        ],
        [
          37.6497799,
          55.83793
        ],
        [
          37.65023,
          55.838
        ],
        [
          37.6503799,
          55.83783
        ],
        [
          37.65039,
          55.83753
        ],
        [
          37.6504699,
          55.8373499
        ],
        [
          37.65078,
          55.83698
        ],
        [
          37.6511999,
          55.83664
        ],
        [
          37.65102,
          55.83655
        ],
        [
          37.6511999,
          55.83635
        ],
        [
          37.65109,
          55.83626
        ],
        [
          37.65108,
          55.83615
        ],
        [
          37.65163,
          55.83567
        ],
        [
          37.6521,
          55.8354199
        ],
        [
          37.65268,
          55.8352799
        ],
        [
          37.65342,
          55.8347
        ],
        [
          37.65373,
          55.83438
        ],
        [
          37.65387,
          55.8338699
        ],
        [
          37.6545799,
          55.83327
        ],
        [
          37.65489,
          55.8331499
        ],
        [
          37.65621,
          55.83303
        ],
        [
          37.6566,
          55.83293
        ],
        [
          37.6593699,
          55.8319699
        ],
        [
          37.66161,
          55.83132
        ],
        [
          37.6639599,
          55.8305199
        ],
        [
          37.66385,
          55.8298999
        ],
        [
          37.6648799,
          55.8295
        ],
        [
          37.6650099,
          55.8291499
        ],
        [
          37.66519,
          55.8290499
        ],
        [
          37.66533,
          55.82848
        ],
        [
          37.66494,
          55.82802
        ],
        [
          37.66496,
          55.82795
        ],
        [
          37.6651199,
          55.82789
        ],
        [
          37.6651499,
          55.8276399
        ],
        [
          37.6656699,
          55.82739
        ],
        [
          37.66638,
          55.82719
        ],
        [
          37.6673499,
          55.82677
        ],
        [
          37.6674799,
          55.82667
        ],
        [
          37.66769,
          55.82627
        ],
        [
          37.66814,
          55.82595
        ],
        [
          37.6684299,
          55.82579
        ],
        [
          37.66916,
          55.82555
        ],
        [
          37.66923,
          55.82546
        ],
        [
          37.6692499,
          55.82503
        ],
        [
          37.66979,
          55.8246499
        ],
        [
          37.67075,
          55.82453
        ],
        [
          37.67139,
          55.8248099
        ],
        [
          37.67262,
          55.8250099
        ],
        [
          37.6735,
          55.82525
        ],
        [
          37.67436,
          55.8251399
        ],
        [
          37.67488,
          55.8251399
        ],
        [
          37.6781499,
          55.8252999
        ],
        [
          37.68406,
          55.8254299
        ],
        [
          37.68424,
          55.82515
        ],
        [
          37.6843799,
          55.82463
        ],
        [
          37.68475,
          55.82208
        ],
        [
          37.6866399,
          55.8211299
        ],
        [
          37.68752,
          55.8207799
        ],
        [
          37.6911399,
          55.8190999
        ],
        [
          37.6911499,
          55.8190399
        ],
        [
          37.6909099,
          55.81883
        ],
        [
          37.6897699,
          55.81819
        ],
        [
          37.6891,
          55.8176599
        ],
        [
          37.68853,
          55.81744
        ],
        [
          37.68844,
          55.81727
        ],
        [
          37.68876,
          55.81712
        ],
        [
          37.6894999,
          55.8169399
        ],
        [
          37.6900599,
          55.8168299
        ],
        [
          37.69057,
          55.8168299
        ],
        [
          37.6926499,
          55.8157799
        ],
        [
          37.69254,
          55.8156
        ],
        [
          37.6925199,
          55.81537
        ],
        [
          37.69409,
          55.8147699
        ],
        [
          37.6947599,
          55.81442
        ],
        [
          37.6956099,
          55.81384
        ],
        [
          37.6971799,
          55.81259
        ],
        [
          37.70026,
          55.8114199
        ],
        [
          37.70018,
          55.81131
        ],
        [
          37.6995499,
          55.8108899
        ],
        [
          37.69687,
          55.80923
        ],
        [
          37.6965899,
          55.8091499
        ],
        [
          37.69634,
          55.80894
        ],
        [
          37.6971499,
          55.80848
        ],
        [
          37.6972499,
          55.80836
        ],
        [
          37.69865,
          55.80776
        ],
        [
          37.7010199,
          55.80649
        ],
        [
          37.70127,
          55.80631
        ],
        [
          37.70137,
          55.80616
        ],
        [
          37.7014199,
          55.80583
        ],
        [
          37.70133,
          55.80556
        ],
        [
          37.69962,
          55.80376
        ],
        [
          37.69897,
          55.80287
        ],
        [
          37.6982999,
          55.8017999
        ],
        [
          37.69819,
          55.80143
        ],
        [
          37.6984299,
          55.8014099
        ],
        [
          37.6982599,
          55.80054
        ],
        [
          37.69832,
          55.80002
        ],
        [
          37.6985899,
          55.7994099
        ],
        [
          37.699,
          55.79889
        ],
        [
          37.7020799,
          55.7961199
        ],
        [
          37.70422,
          55.79433
        ],
        [
          37.70504,
          55.79342
        ],
        [
          37.7051899,
          55.79308
        ],
        [
          37.7052,
          55.79283
        ],
        [
          37.70512,
          55.79252
        ],
        [
          37.70481,
          55.79211
        ],
        [
          37.7045399,
          55.79191
        ],
        [
          37.7024699,
          55.7907799
        ],
        [
          37.70015,
          55.7896199
        ],
        [
          37.69966,
          55.78932
        ],
        [
          37.69926,
          55.78898
        ],
        [
          37.6987599,
          55.7882799
        ],
        [
          37.69839,
          55.7868399
        ],
        [
          37.6983599,
          55.78639
        ],
        [
          37.69868,
          55.78449
        ],
        [
          37.69901,
          55.78297
        ],
        [
          37.69907,
          55.78202
        ],
        [
          37.69927,
          55.7816
        ],
        [
          37.69946,
          55.7814199
        ],
        [
          37.7015499,
          55.7802099
        ],
        [
          37.70186,
          55.7799799
        ],
        [
          37.70209,
          55.7797099
        ],
        [
          37.7026299,
          55.77852
        ],
        [
          37.70272,
          55.77818
        ],
        [
          37.7026299,
          55.7777699
        ],
        [
          37.7024699,
          55.77749
        ],
        [
          37.70212,
          55.77711
        ],
        [
          37.7015099,
          55.77667
        ],
        [
          37.69474,
          55.7723599
        ],
        [
          37.6941899,
          55.7717999
        ],
        [
          37.69401,
          55.7714999
        ],
        [
          37.6938399,
          55.7709199
        ],
        [
          37.6932399,
          55.7702599
        ],
        [
          37.6926199,
          55.76988
        ],
        [
          37.6892399,
          55.7681299
        ],
        [
          37.6888799,
          55.7682
        ],
        [
          37.6880199,
          55.76772
        ],
        [
          37.68761,
          55.76729
        ],
        [
          37.6870999,
          55.76649
        ],
        [
          37.6867099,
          55.7660299
        ],
        [
          37.68653,
          55.76594
        ],
        [
          37.68607,
          55.76532
        ],
        [
          37.6860499,
          55.7651699
        ],
        [
          37.68557,
          55.7646099
        ],
        [
          37.6853399,
          55.76453
        ],
        [
          37.68485,
          55.76462
        ],
        [
          37.6846499,
          55.7644
        ],
        [
          37.68429,
          55.7642799
        ],
        [
          37.68319,
          55.76436
        ],
        [
          37.68229,
          55.76434
        ],
        [
          37.68197,
          55.7634899
        ],
        [
          37.68184,
          55.76272
        ],
        [
          37.6839599,
          55.7625499
        ],
        [
          37.6839899,
          55.7624399
        ],
        [
          37.68378,
          55.7620199
        ],
        [
          37.68364,
          55.76151
        ],
        [
          37.68377,
          55.7614299
        ],
        [
          37.68433,
          55.7613599
        ],
        [
          37.6843799,
          55.76128
        ],
        [
          37.6837899,
          55.7605699
        ],
        [
          37.6832999,
          55.76023
        ],
        [
          37.6829099,
          55.76004
        ],
        [
          37.68211,
          55.7597899
        ],
        [
          37.6810299,
          55.7595299
        ],
        [
          37.6800199,
          55.7594
        ],
        [
          37.6787999,
          55.7594
        ],
        [
          37.6785399,
          55.75927
        ],
        [
          37.67688,
          55.7592999
        ],
        [
          37.67393,
          55.75951
        ],
        [
          37.67295,
          55.7594599
        ],
        [
          37.6722699,
          55.75934
        ],
        [
          37.6715099,
          55.75908
        ],
        [
          37.6706899,
          55.7585699
        ],
        [
          37.6702699,
          55.75799
        ],
        [
          37.67015,
          55.7574299
        ],
        [
          37.67032,
          55.7569699
        ],
        [
          37.67057,
          55.7565999
        ],
        [
          37.67054,
          55.75648
        ],
        [
          37.67077,
          55.7563099
        ],
        [
          37.67131,
          55.75564
        ],
        [
          37.6719,
          55.7552
        ],
        [
          37.6725699,
          55.7542099
        ],
        [
          37.6727599,
          55.7537799
        ],
        [
          37.67277,
          55.7534199
        ],
        [
          37.6726899,
          55.75301
        ],
        [
          37.67252,
          55.75272
        ],
        [
          37.6692799,
          55.7530599
        ],
        [
          37.6665,
          55.7535799
        ],
        [
          37.66647,
          55.7536499
        ],
        [
          37.66671,
          55.75412
        ],
        [
          37.66673,
          55.75433
        ],
        [
          37.6669499,
          55.7544099
        ],
        [
          37.6671,
          55.75456
        ],
        [
          37.6671099,
          55.75464
        ],
        [
          37.66701,
          55.7546699
        ],
        [
          37.66648,
          55.7536799
        ],
        [
          37.6665899,
          55.7535499
        ],
        [
          37.6667499,
          55.75354
        ],
        [
          37.66779,
          55.7547599
        ],
        [
          37.6665299,
          55.75501
        ],
        [
          37.66576,
          55.75504
        ],
        [
          37.66542,
          55.7555899
        ],
        [
          37.66542,
          55.7559
        ],
        [
          37.6652099,
          55.7565699
        ],
        [
          37.6650499,
          55.7565999
        ],
        [
          37.66468,
          55.7565099
        ],
        [
          37.66454,
          55.75659
        ],
        [
          37.6644,
          55.7567999
        ],
        [
          37.66461,
          55.7569299
        ],
        [
          37.66457,
          55.75725
        ],
        [
          37.6643599,
          55.7577899
        ],
        [
          37.6645499,
          55.75806
        ],
        [
          37.66453,
          55.75813
        ],
        [
          37.66384,
          55.7584699
        ],
        [
          37.66297,
          55.75917
        ],
        [
          37.6630099,
          55.75899
        ],
        [
          37.66293,
          55.75875
        ]
      ],
      [
        [
          37.323256,
          55.815594
        ],
        [
          37.323176000000004,
          55.815624
        ],
        [
          37.323041,
          55.815512
        ],
        [
          37.322632000000006,
          55.815187
        ],
        [
          37.322239,
          55.814884
        ],
        [
          37.322172,
          55.814845999999996
        ],
        [
          37.322038,
          55.814749
        ],
        [
          37.321847,
          55.814572999999996
        ],
        [
          37.321683,
          55.814423
        ],
        [
          37.321374,
          55.814161999999996
        ],
        [
          37.321256,
          55.81406199999999
        ],
        [
          37.321188,
          55.81401499999999
        ],
        [
          37.321067,
          55.81393099999999
        ],
        [
          37.321011999999996,
          55.81390899999999
        ],
        [
          37.320797,
          55.81389199999999
        ],
        [
          37.320736,
          55.813875999999986
        ],
        [
          37.320705999999994,
          55.81384899999998
        ],
        [
          37.32069599999999,
          55.81381599999998
        ],
        [
          37.32069699999999,
          55.81372899999998
        ],
        [
          37.32069699999999,
          55.81368999999998
        ],
        [
          37.32068899999999,
          55.81366999999998
        ],
        [
          37.32065999999999,
          55.81363599999998
        ],
        [
          37.320618999999986,
          55.81359499999998
        ],
        [
          37.32054499999999,
          55.813547999999976
        ],
        [
          37.32036399999999,
          55.813395999999976
        ],
        [
          37.32042299999999,
          55.813350999999976
        ],
        [
          37.32023199999999,
          55.81319999999997
        ],
        [
          37.32019999999999,
          55.81323499999997
        ],
        [
          37.320148999999994,
          55.81321199999997
        ],
        [
          37.320069,
          55.81315599999997
        ],
        [
          37.319551,
          55.81273599999997
        ],
        [
          37.319230999999995,
          55.81247999999997
        ],
        [
          37.319188999999994,
          55.812470999999974
        ],
        [
          37.319230999999995,
          55.81247999999997
        ],
        [
          37.31903499999999,
          55.812320999999976
        ],
        [
          37.31899299999999,
          55.812295999999975
        ],
        [
          37.31893899999999,
          55.81226999999998
        ],
        [
          37.318878999999995,
          55.812247999999975
        ],
        [
          37.31881799999999,
          55.812227999999976
        ],
        [
          37.31871699999999,
          55.81220499999998
        ],
        [
          37.31854299999999,
          55.812177999999975
        ],
        [
          37.31717799999999,
          55.81199099999998
        ],
        [
          37.31692399999999,
          55.81195099999998
        ],
        [
          37.31678699999999,
          55.81191699999998
        ],
        [
          37.31663199999999,
          55.81189599999998
        ],
        [
          37.31652999999999,
          55.81189299999998
        ],
        [
          37.31531799999999,
          55.81173299999998
        ],
        [
          37.31524099999999,
          55.811725999999986
        ],
        [
          37.31510699999999,
          55.81171999999999
        ],
        [
          37.314919999999994,
          55.81172499999999
        ],
        [
          37.31472399999999,
          55.81173799999999
        ],
        [
          37.31433299999999,
          55.81177099999999
        ],
        [
          37.31403499999999,
          55.81179699999999
        ],
        [
          37.31374099999999,
          55.811823999999994
        ],
        [
          37.313483999999995,
          55.811848
        ],
        [
          37.31341499999999,
          55.811853
        ],
        [
          37.313430999999994,
          55.81191
        ],
        [
          37.313441999999995,
          55.811958999999995
        ],
        [
          37.313342999999996,
          55.811964999999994
        ],
        [
          37.312461,
          55.811992999999994
        ],
        [
          37.312025,
          55.81201299999999
        ],
        [
          37.311997999999996,
          55.812020999999994
        ],
        [
          37.311969,
          55.812037999999994
        ],
        [
          37.311871,
          55.812048
        ],
        [
          37.311195,
          55.812101
        ],
        [
          37.31108,
          55.812113
        ],
        [
          37.310863999999995,
          55.812141
        ],
        [
          37.310652,
          55.812166
        ],
        [
          37.310401999999996,
          55.812199
        ],
        [
          37.31036099999999,
          55.812205
        ],
        [
          37.310325999999996,
          55.812211999999995
        ],
        [
          37.30969699999999,
          55.812366
        ],
        [
          37.309515999999995,
          55.81241
        ],
        [
          37.30848399999999,
          55.812768
        ],
        [
          37.308254999999996,
          55.812867
        ],
        [
          37.308144999999996,
          55.812920999999996
        ],
        [
          37.308105999999995,
          55.81294
        ],
        [
          37.308105,
          55.812957999999995
        ],
        [
          37.308001,
          55.812965999999996
        ],
        [
          37.307952,
          55.812988
        ],
        [
          37.307929,
          55.812999
        ],
        [
          37.307888,
          55.812971
        ],
        [
          37.307825,
          55.812931
        ],
        [
          37.307103,
          55.813285
        ],
        [
          37.306905,
          55.813383
        ],
        [
          37.3068,
          55.813435
        ],
        [
          37.306726000000005,
          55.813472
        ],
        [
          37.306583,
          55.813544
        ],
        [
          37.30654800000001,
          55.813562
        ],
        [
          37.306250000000006,
          55.813708999999996
        ],
        [
          37.30582400000001,
          55.813917
        ],
        [
          37.305642000000006,
          55.814006
        ],
        [
          37.30556200000001,
          55.814045
        ],
        [
          37.30545000000001,
          55.8141
        ],
        [
          37.30519900000001,
          55.814222
        ],
        [
          37.30518300000001,
          55.814228
        ],
        [
          37.305175000000006,
          55.814228
        ],
        [
          37.305167000000004,
          55.814228
        ],
        [
          37.305154,
          55.814221
        ],
        [
          37.304826,
          55.814015000000005
        ],
        [
          37.304758,
          55.81405
        ],
        [
          37.304748,
          55.814043000000005
        ],
        [
          37.304725,
          55.814029000000005
        ],
        [
          37.304812,
          55.813984000000005
        ],
        [
          37.304677,
          55.813908000000005
        ],
        [
          37.304655,
          55.813895
        ],
        [
          37.304758,
          55.813841000000004
        ],
        [
          37.304735,
          55.813827
        ],
        [
          37.304594,
          55.813900000000004
        ],
        [
          37.304527,
          55.813914000000004
        ],
        [
          37.304486,
          55.813934
        ],
        [
          37.304429,
          55.813964000000006
        ],
        [
          37.304362,
          55.81400000000001
        ],
        [
          37.304355,
          55.81400500000001
        ],
        [
          37.304351000000004,
          55.814012000000005
        ],
        [
          37.304353000000006,
          55.814020000000006
        ],
        [
          37.304359000000005,
          55.814024
        ],
        [
          37.304384000000006,
          55.814040000000006
        ],
        [
          37.30417500000001,
          55.814147000000006
        ],
        [
          37.304170000000006,
          55.814144000000006
        ]
      ],
      [
        [
          37.30418,
          55.81443
        ],
        [
          37.304198,
          55.814442
        ],
        [
          37.304391,
          55.814347
        ],
        [
          37.304675,
          55.814206999999996
        ],
        [
          37.304816,
          55.814136
        ],
        [
          37.304855,
          55.814125999999995
        ],
        [
          37.30489600000001,
          55.814128
        ],
        [
          37.304931,
          55.814142
        ],
        [
          37.305177,
          55.814313
        ],
        [
          37.305273,
          55.814265999999996
        ],
        [
          37.305414999999996,
          55.81419699999999
        ],
        [
          37.305521,
          55.814142999999994
        ],
        [
          37.305631999999996,
          55.814086999999994
        ],
        [
          37.306149,
          55.81382299999999
        ],
        [
          37.306307,
          55.813745999999995
        ],
        [
          37.306602999999996,
          55.813596999999994
        ],
        [
          37.306656999999994,
          55.81356999999999
        ],
        [
          37.306650999999995,
          55.813565999999994
        ],
        [
          37.306656999999994,
          55.81356999999999
        ],
        [
          37.306704999999994,
          55.81354499999999
        ],
        [
          37.306816999999995,
          55.81349099999999
        ],
        [
          37.30696699999999,
          55.81341799999999
        ],
        [
          37.30701499999999,
          55.813447999999994
        ],
        [
          37.307061999999995,
          55.813477999999996
        ],
        [
          37.307410999999995,
          55.813314
        ],
        [
          37.30745699999999,
          55.813269999999996
        ],
        [
          37.30752299999999,
          55.813204999999996
        ],
        [
          37.30792899999999,
          55.812999
        ],
        [
          37.307951999999986,
          55.812988
        ],
        [
          37.30800099999998,
          55.812965999999996
        ],
        [
          37.30810499999998,
          55.812957999999995
        ],
        [
          37.30810599999998,
          55.81294
        ],
        [
          37.30814499999998,
          55.812920999999996
        ],
        [
          37.30825499999998,
          55.812867
        ],
        [
          37.30848399999998,
          55.812768
        ],
        [
          37.30951599999998,
          55.81241
        ],
        [
          37.30969699999998,
          55.812366
        ],
        [
          37.31032599999998,
          55.812211999999995
        ],
        [
          37.31036099999998,
          55.812205
        ],
        [
          37.31040199999998,
          55.812199
        ],
        [
          37.31065199999998,
          55.812166
        ],
        [
          37.31086399999998,
          55.812141
        ],
        [
          37.31107999999998,
          55.812113
        ],
        [
          37.311194999999984,
          55.812101
        ],
        [
          37.31187099999998,
          55.812048
        ],
        [
          37.31196899999998,
          55.812037999999994
        ],
        [
          37.31199799999998,
          55.812020999999994
        ],
        [
          37.312024999999984,
          55.81201299999999
        ],
        [
          37.312460999999985,
          55.811992999999994
        ],
        [
          37.31334299999998,
          55.811964999999994
        ],
        [
          37.31344199999998,
          55.811958999999995
        ],
        [
          37.31343099999998,
          55.81191
        ],
        [
          37.31341499999998,
          55.811853
        ],
        [
          37.31348399999998,
          55.811848
        ],
        [
          37.31374099999998,
          55.811823999999994
        ],
        [
          37.314034999999976,
          55.81179699999999
        ],
        [
          37.314332999999976,
          55.81177099999999
        ],
        [
          37.31472399999998,
          55.81173799999999
        ],
        [
          37.31491999999998,
          55.81172499999999
        ],
        [
          37.315106999999976,
          55.81171999999999
        ],
        [
          37.31524099999998,
          55.811725999999986
        ],
        [
          37.31531799999998,
          55.81173299999998
        ],
        [
          37.31652999999998,
          55.81189299999998
        ],
        [
          37.31663199999998,
          55.81189599999998
        ],
        [
          37.31678699999998,
          55.81191699999998
        ],
        [
          37.31692399999998,
          55.81195099999998
        ],
        [
          37.31717799999998,
          55.81199099999998
        ],
        [
          37.31854299999998,
          55.812177999999975
        ],
        [
          37.31871699999998,
          55.81220499999998
        ],
        [
          37.31881799999998,
          55.812227999999976
        ],
        [
          37.31887899999998,
          55.812247999999975
        ],
        [
          37.31893899999998,
          55.81226999999998
        ],
        [
          37.31899299999998,
          55.812295999999975
        ],
        [
          37.31903499999998,
          55.812320999999976
        ],
        [
          37.31920999999998,
          55.81246299999997
        ],
        [
          37.31918899999998,
          55.812470999999974
        ],
        [
          37.31920999999998,
          55.81246299999997
        ],
        [
          37.319230999999974,
          55.81247999999997
        ],
        [
          37.319550999999976,
          55.81273599999997
        ],
        [
          37.320068999999975,
          55.81315599999997
        ],
        [
          37.32014899999997,
          55.81321199999997
        ],
        [
          37.32019999999997,
          55.81323499999997
        ],
        [
          37.32023199999997,
          55.81319999999997
        ],
        [
          37.32042299999997,
          55.813350999999976
        ],
        [
          37.32036399999997,
          55.813395999999976
        ],
        [
          37.32054499999997,
          55.813547999999976
        ],
        [
          37.320618999999965,
          55.81359499999998
        ],
        [
          37.32065999999997,
          55.81363599999998
        ],
        [
          37.320688999999966,
          55.81366999999998
        ],
        [
          37.32069699999997,
          55.81368999999998
        ],
        [
          37.32069699999997,
          55.81372899999998
        ],
        [
          37.32069599999997,
          55.81381599999998
        ],
        [
          37.32070599999997,
          55.81384899999998
        ],
        [
          37.320735999999975,
          55.813875999999986
        ],
        [
          37.32079699999998,
          55.81389199999999
        ],
        [
          37.321011999999975,
          55.81390899999999
        ],
        [
          37.32106699999998,
          55.81393099999999
        ],
        [
          37.32118799999998,
          55.81401499999999
        ],
        [
          37.32125599999998,
          55.81406199999999
        ],
        [
          37.32137399999998,
          55.814161999999996
        ],
        [
          37.32168299999998,
          55.814423
        ],
        [
          37.32184699999998,
          55.814572999999996
        ],
        [
          37.32203799999998,
          55.814749
        ],
        [
          37.32217199999998,
          55.814845999999996
        ],
        [
          37.32223899999998,
          55.814884
        ],
        [
          37.322631999999984,
          55.815187
        ],
        [
          37.32304099999998,
          55.815512
        ],
        [
          37.32316599999998,
          55.815616
        ],
        [
          37.32317499999998,
          55.815612
        ]
      ]
    ]
  }
}
