{
  "type": "Feature",
  "id": "5e61e743-a110-4988-8405-f46bc79d8505",
  "properties": {
    "id": "5e61e743-a110-4988-8405-f46bc79d8505",
    "name": "Гребной канал - Сколково",
    "color": "#ff3300",
    "routeType": "Twiter Gravel V1",
    "isSelected": false
  },
  "geometry": {
    "type": "MultiLineString",
    "coordinates": [
      [
        [
          37.32301227615792,
          55.81558125150461
        ],
        [
          37.32134930656869,
          55.81414348773783
        ],
        [
          37.32100061939674,
          55.813916944458185
        ],
        [
          37.32069484756906,
          55.81388975917639
        ],
        [
          37.32055537270028,
          55.81360280226108
        ],
        [
          37.319911642536674,
          55.813059088581795
        ],
        [
          37.31892458961918,
          55.812334125160184
        ],
        [
          37.31711141632511,
          55.812032053058985
        ],
        [
          37.315346522793305,
          55.81179643519056
        ],
        [
          37.31298081444209,
          55.811929347997676
        ],
        [
          37.3117201762051,
          55.81199580423666
        ],
        [
          37.31063119934505,
          55.81210152983658
        ],
        [
          37.3095046715588,
          55.8123673529278
        ],
        [
          37.30816356705131,
          55.81282951827343
        ],
        [
          37.306312842831026,
          55.8137447706466
        ],
        [
          37.305154128536586,
          55.81432774190598
        ],
        [
          37.30488054321709,
          55.814161611091585
        ],
        [
          37.304719610676194,
          55.81401662361705
        ],
        [
          37.30481617020072,
          55.813971314920025
        ],
        [
          37.304687424168016,
          55.81390184148167
        ],
        [
          37.30469278858604,
          55.81385049146894
        ],
        [
          37.30441383884849,
          55.81399245898523
        ],
        [
          37.30444334314766,
          55.81402266476631
        ],
        [
          37.30452112720909,
          55.81398490752833
        ]
      ],
      [
        [
          37.46103131615196,
          55.81089247174191
        ],
        [
          37.461535571446774,
          55.81089247174191
        ],
        [
          37.46128344379935,
          55.81079580533202
        ],
        [
          37.46116006218467,
          55.810502783804
        ],
        [
          37.46127807938133,
          55.810052674248816
        ],
        [
          37.461208341946936,
          55.809478701469644
        ],
        [
          37.46088647686515,
          55.80949682705579
        ],
        [
          37.460773824086544,
          55.809372968714825
        ],
        [
          37.460333941808095,
          55.80913431372225
        ],
        [
          37.46010327183281,
          55.80914639755466
        ],
        [
          37.459754584660864,
          55.809427345596184
        ],
        [
          37.45958292328392,
          55.80935182212925
        ],
        [
          37.46011936508689,
          55.8089349299436
        ],
        [
          37.46010327183281,
          55.808792943900215
        ],
        [
          37.460612891545644,
          55.80858751635729
        ],
        [
          37.458129165997846,
          55.806533181103795
        ],
        [
          37.45790922485864,
          55.80633076276807
        ],
        [
          37.45715284191643,
          55.80607094066864
        ],
        [
          37.4560209497121,
          55.805738607531694
        ],
        [
          37.4550124391225,
          55.80557243989797
        ],
        [
          37.45208883129623,
          55.804950060242646
        ],
        [
          37.45174550854232,
          55.804859421596134
        ],
        [
          37.45182597481276,
          55.8046660584356
        ],
        [
          37.45165431343581,
          55.80460261094048
        ],
        [
          37.451686499943996,
          55.804451545057965
        ],
        [
          37.45175623737839,
          55.804221923776424
        ],
        [
          37.45119297348526,
          55.80419473169399
        ],
        [
          37.45109641396071,
          55.804076899116374
        ],
        [
          37.45110714279679,
          55.80392583118528
        ],
        [
          37.45069408260848,
          55.80392583118528
        ],
        [
          37.45064043842819,
          55.8031825683912
        ],
        [
          37.45079064213303,
          55.803070775599934
        ],
        [
          37.45074772678879,
          55.802880424970354
        ],
        [
          37.45065653168227,
          55.801088666094174
        ],
        [
          37.450663495913474,
          55.79930319542667
        ],
        [
          37.450706411257705,
          55.79874417230912
        ],
        [
          37.45073323334781,
          55.798587040031265
        ],
        [
          37.45086734379855,
          55.79835738402111
        ],
        [
          37.45347981537903,
          55.796133276544225
        ],
        [
          37.45376412953461,
          55.795930803899076
        ],
        [
          37.45418412393962,
          55.79586017715159
        ],
        [
          37.45434505648051,
          55.79565770308687
        ],
        [
          37.45465082830822,
          55.79562446097522
        ],
        [
          37.45474738783272,
          55.79557006472472
        ],
        [
          37.45476884550482,
          55.79436123960457
        ],
        [
          37.454784938758905,
          55.79388374330324
        ],
        [
          37.45418948835762,
          55.79389280973714
        ],
        [
          37.45426995462807,
          55.79323699842616
        ],
        [
          37.4539534539643,
          55.79321886523697
        ],
        [
          37.45336873239904,
          55.79311308812472
        ],
        [
          37.4528376550141,
          55.792889444150944
        ],
        [
          37.45231730646521,
          55.79259930950647
        ],
        [
          37.45220465368658,
          55.792487486193124
        ],
        [
          37.45225829786684,
          55.790689202239086
        ],
        [
          37.45224756903074,
          55.789613214322806
        ],
        [
          37.45336873239897,
          55.7896313491978
        ],
        [
          37.453384825653075,
          55.78977945035951
        ],
        [
          37.45373887724302,
          55.789752248147714
        ],
        [
          37.45393736071012,
          55.78970086614005
        ],
        [
          37.45394272512815,
          55.78953160728044
        ],
        [
          37.45402855581665,
          55.78938350517242
        ],
        [
          37.454012462562545,
          55.78906614160185
        ],
        [
          37.45396418280028,
          55.78882131650036
        ],
        [
          37.45398027605436,
          55.78815635165369
        ],
        [
          37.45396954721828,
          55.78748835275605
        ],
        [
          37.45401246256252,
          55.787047044011125
        ],
        [
          37.454001733726436,
          55.7868989324167
        ],
        [
          37.454092928832964,
          55.78680825156958
        ],
        [
          37.45418948835749,
          55.78638204874243
        ],
        [
          37.45436114973444,
          55.785937704645676
        ],
        [
          37.45454890436549,
          55.78559915333997
        ],
        [
          37.45521409220117,
          55.78463184762687
        ],
        [
          37.45593828863519,
          55.783594990034665
        ],
        [
          37.45599729723353,
          55.78337129117795
        ],
        [
          37.45598656839743,
          55.783123407148246
        ],
        [
          37.455444762176434,
          55.7819776787072
        ],
        [
          37.455299922889616,
          55.78171164720445
        ],
        [
          37.45501560873404,
          55.78109493081089
        ],
        [
          37.45495123571767,
          55.78094075018086
        ],
        [
          37.45473129457846,
          55.7808591248934
        ],
        [
          37.45426459020986,
          55.78082587009742
        ],
        [
          37.45353502935779,
          55.78078959209937
        ],
        [
          37.453422376579105,
          55.780695873759136
        ],
        [
          37.45326144403821,
          55.780466111802106
        ],
        [
          37.45305759615308,
          55.78032099828616
        ],
        [
          37.45262307829266,
          55.780079141220206
        ],
        [
          37.452274391120746,
          55.779985421201886
        ],
        [
          37.451829144424224,
          55.779918910077505
        ],
        [
          37.45136780447367,
          55.779964258579476
        ],
        [
          37.450922557777204,
          55.779994490884675
        ],
        [
          37.45093328661326,
          55.77987658476121
        ],
        [
          37.450844773715716,
          55.77986146855296
        ],
        [
          37.45052022642491,
          55.77983577100694
        ],
        [
          37.45101643509266,
          55.7797617015144
        ],
        [
          37.45091451115011,
          55.7796120504756
        ],
        [
          37.450144717162836,
          55.77969367838018
        ],
        [
          37.44998378462194,
          55.77970879463481
        ],
        [
          37.449981102412934,
          55.77957577133633
        ],
        [
          37.44974506801962,
          55.77947902683285
        ],
        [
          37.44968337721226,
          55.77937925881098
        ],
        [
          37.45007497972844,
          55.77925530423834
        ],
        [
          37.45032978958485,
          55.77914041916478
        ],
        [
          37.45026005215048,
          55.77909960464886
        ],
        [
          37.45014203495383,
          55.77899227738364
        ],
        [
          37.44984430975315,
          55.77894390443464
        ],
        [
          37.4493668765485,
          55.77879727355826
        ],
        [
          37.44912547773716,
          55.778751923692454
        ],
        [
          37.44919253296254,
          55.778709597103216
        ],
        [
          37.449498304790254,
          55.778878903183156
        ],
        [
          37.45004547542928,
          55.77900588225833
        ],
        [
          37.45021445459721,
          55.779016463829166
        ],
        [
          37.45038343376517,
          55.77913739586244
        ],
        [
          37.44971019930242,
          55.77938681699079
        ],
        [
          37.44982821649908,
          55.77950623623619
        ],
        [
          37.450024017757165,
          55.77960600392528
        ],
        [
          37.45002133554816,
          55.77968612022223
        ],
        [
          37.45020104355214,
          55.779707282990024
        ],
        [
          37.45036465830205,
          55.77976774797101
        ],
        [
          37.45078040069937,
          55.77987507309137
        ],
        [
          37.450989613002534,
          55.77987960794275
        ],
        [
          37.45095742649435,
          55.77997937467815
        ],
        [
          37.45114249891633,
          55.77999146759204
        ],
        [
          37.45147241062516,
          55.7799642585163
        ],
        [
          37.45188547081345,
          55.779940072648884
        ],
        [
          37.45213491625185,
          55.77995972366219
        ],
        [
          37.45264185375565,
          55.78010483852295
        ],
        [
          37.45294762558336,
          55.780249952847306
        ],
        [
          37.453231699800135,
          55.78043674048585
        ],
        [
          37.45333630595172,
          55.78055086591857
        ],
        [
          37.45347041640246,
          55.78080027796133
        ],
        [
          37.45259601626362,
          55.78094841283999
        ],
        [
          37.45244849476779,
          55.780576562990994
        ],
        [
          37.45193082842792,
          55.7806385382133
        ],
        [
          37.45194960389104,
          55.780708071271725
        ],
        [
          37.45192546400989,
          55.780611329591295
        ],
        [
          37.45247665796242,
          55.78057731878066
        ],
        [
          37.452622838353676,
          55.780938587572294
        ],
        [
          37.4534730986114,
          55.7807813831531
        ],
        [
          37.453288026189384,
          55.78047906516585
        ],
        [
          37.452994324302246,
          55.780294650040815
        ],
        [
          37.45257724080043,
          55.78007622278946
        ],
        [
          37.45213601741744,
          55.77995302625139
        ],
        [
          37.451733686065204,
          55.77993791008557
        ],
        [
          37.45106983933402,
          55.77999837470717
        ],
        [
          37.450899519061565,
          55.77996587498139
        ],
        [
          37.45094109330131,
          55.779889538302804
        ],
        [
          37.450422085856935,
          55.7798222712097
        ],
        [
          37.45029468092872,
          55.77975953887171
        ],
        [
          37.45012704286528,
          55.779686225047
        ],
        [
          37.44999963793709,
          55.77969227155325
        ],
        [
          37.44995672259283,
          55.77956907380246
        ],
        [
          37.4497582391257,
          55.77947610835696
        ],
        [
          37.4497059360499,
          55.779401660262124
        ],
        [
          37.45015472395583,
          55.77922399319537
        ],
        [
          37.45034180803461,
          55.779139718912575
        ],
        [
          37.450384723378846,
          55.77911024175968
        ],
        [
          37.45034180803461,
          55.77907585172067
        ],
        [
          37.45042160375281,
          55.779036170875855
        ],
        [
          37.45042629761859,
          55.77900518199741
        ],
        [
          37.44998440368335,
          55.778951140351204
        ],
        [
          37.449179740978835,
          55.778818114442714
        ],
        [
          37.448204758001836,
          55.77861403972619
        ],
        [
          37.44728207810071,
          55.77834042677242
        ],
        [
          37.446627619101086,
          55.778101580732105
        ],
        [
          37.445742490126165,
          55.77772365678256
        ],
        [
          37.444599869085835,
          55.77716281086702
        ],
        [
          37.44276255591062,
          55.7762466947082
        ],
        [
          37.439774575067986,
          55.77476514095969
        ],
        [
          37.43825644476557,
          55.77401527179738
        ],
        [
          37.43811160547871,
          55.773960089308346
        ],
        [
          37.43806198461195,
          55.773984278896705
        ],
        [
          37.43816256745001,
          55.77400090922996
        ],
        [
          37.43794530851979,
          55.77394875043362
        ],
        [
          37.437891664339496,
          55.77389583564108
        ],
        [
          37.43803918583527,
          55.77389281192386
        ],
        [
          37.438302042318746,
          55.773701562128586
        ],
        [
          37.43839591963426,
          55.7736138741603
        ],
        [
          37.43844419939652,
          55.77356625043304
        ],
        [
          37.438701691461965,
          55.77364184361367
        ],
        [
          37.43893504364624,
          55.77368719945139
        ],
        [
          37.43916839583054,
          55.77365242664721
        ],
        [
          37.43970886094704,
          55.77356927415677
        ],
        [
          37.43995562417641,
          55.77354961990722
        ],
        [
          37.44026944263116,
          55.773552643638574
        ],
        [
          37.44071603043215,
          55.7735934639887
        ],
        [
          37.44129136426582,
          55.77373104336482
        ],
        [
          37.44157701952592,
          55.77399334995063
        ],
        [
          37.44185060484545,
          55.77430478948128
        ],
        [
          37.44203567726746,
          55.77445143732687
        ],
        [
          37.44230658037797,
          55.77445899647284
        ],
        [
          37.443199755979926,
          55.77438794038328
        ],
        [
          37.44494855625765,
          55.77415209369406
        ],
        [
          37.444916369749414,
          55.77384972405711
        ],
        [
          37.4448573611511,
          55.77363806391399
        ],
        [
          37.44481444580686,
          55.77323288270594
        ],
        [
          37.44488954765929,
          55.7729607436991
        ],
        [
          37.44493246300352,
          55.77267650758804
        ],
        [
          37.444835903478946,
          55.772507174441074
        ],
        [
          37.444342377020185,
          55.77239831703195
        ],
        [
          37.44500220043786,
          55.77261300774058
        ],
        [
          37.445651295019466,
          55.77267045998231
        ],
        [
          37.44630038960106,
          55.772697674172406
        ],
        [
          37.44687974674827,
          55.77278536421065
        ],
        [
          37.44795799477227,
          55.772936553466536
        ],
        [
          37.44608581287988,
          55.77267348378215
        ],
        [
          37.44509875996239,
          55.77261451963644
        ],
        [
          37.44487881882318,
          55.772554043503
        ],
        [
          37.44448989851601,
          55.77242855522547
        ],
        [
          37.44406879170069,
          55.77236203115475
        ],
        [
          37.44395882113107,
          55.7723136499408
        ],
        [
          37.44392127020486,
          55.772203280070755
        ],
        [
          37.44321584923393,
          55.770624805385076
        ],
        [
          37.44188547356254,
          55.76775496188657
        ],
        [
          37.43661761505724,
          55.755983057587706
        ],
        [
          37.436317207647555,
          55.755069466673255
        ],
        [
          37.43566274864793,
          55.75359920570424
        ],
        [
          37.43549108727093,
          55.75315448617197
        ],
        [
          37.43529260380382,
          55.75310608101835
        ],
        [
          37.43542671425456,
          55.75302439718479
        ],
        [
          37.43523359520551,
          55.75267345727882
        ],
        [
          37.4354857228529,
          55.75257362034692
        ],
        [
          37.43654251320476,
          55.75248588464949
        ],
        [
          37.43701458199139,
          55.75242235177936
        ],
        [
          37.43743837101573,
          55.75231041266009
        ],
        [
          37.437459828687864,
          55.752207549401206
        ],
        [
          37.436800005270186,
          55.75228923495259
        ],
        [
          37.43519067986127,
          55.752561518883205
        ],
        [
          37.435158493353086,
          55.752652279769265
        ],
        [
          37.43756711704847,
          55.75225293028429
        ],
        [
          37.43752956612226,
          55.75218334624188
        ],
        [
          37.43505120499248,
          55.752600848626535
        ],
        [
          37.43509948475475,
          55.75251613836067
        ],
        [
          37.437475921941946,
          55.75215611766961
        ],
        [
          37.43753493054028,
          55.75232251420205
        ],
        [
          37.43505120499248,
          55.7526492544098
        ],
        [
          37.435217501951406,
          55.75245260554001
        ],
        [
          37.43740082008952,
          55.752131914478234
        ],
        [
          37.43508339150067,
          55.75247983390443
        ],
        [
          37.435158493353086,
          55.75237697109422
        ],
        [
          37.43710041267987,
          55.75214099067677
        ],
        [
          37.43773877842541,
          55.75211678746971
        ],
        [
          37.43850589020367,
          55.75193223756771
        ],
        [
          37.439959647489694,
          55.75228015877617
        ],
        [
          37.440683843923715,
          55.752446554777244
        ],
        [
          37.438178660703805,
          55.75187475462599
        ],
        [
          37.43718624336829,
          55.75164784747118
        ],
        [
          37.43681609852424,
          55.75153288067349
        ],
        [
          37.437121870351945,
          55.75112746871765
        ],
        [
          37.4372398875486,
          55.75097922000793
        ],
        [
          37.43661761505713,
          55.750679695371964
        ],
        [
          37.43577003700843,
          55.75014417588418
        ],
        [
          37.435925605131295,
          55.75008063917756
        ],
        [
          37.435877325369034,
          55.74995356546513
        ],
        [
          37.43552327377906,
          55.74959352102248
        ],
        [
          37.43526578171364,
          55.74928490884419
        ],
        [
          37.43488490803352,
          55.749169935052876
        ],
        [
          37.43432700855844,
          55.749266755110284
        ],
        [
          37.432524564100426,
          55.74964798174063
        ],
        [
          37.43197739346137,
          55.749741775014385
        ],
        [
          37.43111372215859,
          55.749732698255244
        ],
        [
          37.42991745693794,
          55.74937870299457
        ],
        [
          37.427524926496666,
          55.7479657154114
        ],
        [
          37.4267417214643,
          55.74729399879114
        ],
        [
          37.42616772873512,
          55.74691274905985
        ],
        [
          37.42606044037452,
          55.74672817443318
        ],
        [
          37.42559373600594,
          55.74641651364687
        ],
        [
          37.42520749790776,
          55.74623496251558
        ],
        [
          37.424923183752185,
          55.746041307047136
        ],
        [
          37.42447257263766,
          55.74552387910731
        ],
        [
          37.4235069773923,
          55.74513353417154
        ],
        [
          37.42205322010623,
          55.744192453893355
        ],
        [
          37.4201971314679,
          55.74310307205343
        ],
        [
          37.41961777432067,
          55.74269757211985
        ],
        [
          37.41874337418183,
          55.74232535577505
        ],
        [
          37.41746127827271,
          55.74146288956656
        ],
        [
          37.417337896658026,
          55.74121776409179
        ],
        [
          37.417380812002264,
          55.74096658453854
        ],
        [
          37.41712868435484,
          55.74086066496314
        ],
        [
          37.41691410763366,
          55.740676061584495
        ],
        [
          37.416946294141844,
          55.74087882262514
        ],
        [
          37.41649568302734,
          55.74084855985042
        ],
        [
          37.41537451965912,
          55.74015553585985
        ],
        [
          37.41259575111964,
          55.73830337615195
        ],
        [
          37.41056263668631,
          55.736911171853095
        ],
        [
          37.40856170876121,
          55.735543131223345
        ],
        [
          37.40683436615557,
          55.73445350689023
        ],
        [
          37.406662704778626,
          55.7342718998659
        ],
        [
          37.40688264591783,
          55.73416293523777
        ],
        [
          37.40696847660633,
          55.73405094350252
        ],
        [
          37.4070167563686,
          55.73376944933771
        ],
        [
          37.40715623123736,
          55.73367561749641
        ],
        [
          37.407183053327515,
          55.732934035297625
        ],
        [
          37.407284977270066,
          55.73268582910958
        ],
        [
          37.40730107052417,
          55.73199265954995
        ],
        [
          37.40582585556597,
          55.73201384832226
        ],
        [
          37.40574186567561,
          55.731074605906386
        ],
        [
          37.40566139940516,
          55.73019675445661
        ],
        [
          37.40561848406092,
          55.729558029384876
        ],
        [
          37.40569358591334,
          55.72907973549757
        ],
        [
          37.40574186567558,
          55.72837741987886
        ],
        [
          37.40585451845421,
          55.72782040192323
        ],
        [
          37.405999357741,
          55.727535835322456
        ],
        [
          37.40621929888024,
          55.72744804307841
        ],
        [
          37.40738337759265,
          55.72752675336286
        ],
        [
          37.40762477640399,
          55.727454097703514
        ],
        [
          37.40783398870715,
          55.727254293957415
        ],
        [
          37.407732064764595,
          55.72706357124191
        ],
        [
          37.407211716215706,
          55.72691825806878
        ],
        [
          37.40511422876606,
          55.72661552054078
        ],
        [
          37.40368192915209,
          55.726373328819896
        ],
        [
          37.402550036947815,
          55.72599490124547
        ],
        [
          37.400758321325874,
          55.72577087038574
        ],
        [
          37.39992147211323,
          55.725555920644716
        ],
        [
          37.398988063376045,
          55.72521078758256
        ],
        [
          37.398215587179735,
          55.72513510009932
        ],
        [
          37.395764048140094,
          55.724296472918624
        ],
        [
          37.394514138739105,
          55.723739396487964
        ],
        [
          37.39251857523204,
          55.72295826501675
        ],
        [
          37.390962894003394,
          55.72242539112748
        ],
        [
          37.39102726701976,
          55.72229519923924
        ],
        [
          37.391590530912886,
          55.72198637022618
        ],
        [
          37.39212160829783,
          55.72214078503306
        ],
        [
          37.39212429050679,
          55.72217863170118
        ],
        [
          37.39164551619764,
          55.72201816154889
        ],
        [
          37.39169379595991,
          55.72200075201141
        ],
        [
          37.39203711871382,
          55.722139271159094
        ],
        [
          37.39250516418692,
          55.7217350663575
        ],
        [
          37.392627204697085,
          55.721625309648424
        ],
        [
          37.39306038145301,
          55.721766100957
        ],
        [
          37.39307781581161,
          55.721750205189615
        ],
        [
          37.392540032904115,
          55.72155491380298
        ],
        [
          37.39289542559858,
          55.721261974871645
        ],
        [
          37.39336749438516,
          55.720721508116696
        ],
        [
          37.39391466502421,
          55.7201674083643
        ],
        [
          37.39547571067088,
          55.71880483440644
        ],
        [
          37.39684363726848,
          55.71762389835881
        ],
        [
          37.39825447921026,
          55.71640658828667
        ],
        [
          37.39869436148871,
          55.71603109192095
        ],
        [
          37.39871581916081,
          55.71588270929326
        ],
        [
          37.39856561545599,
          55.715819116565264
        ],
        [
          37.39606043223609,
          55.7157131284542
        ],
        [
          37.39606043223609,
          55.71557080110789
        ],
        [
          37.39624818686712,
          55.715567772860815
        ],
        [
          37.3962857377933,
          55.71539364825158
        ],
        [
          37.39584317330579,
          55.715302800316934
        ],
        [
          37.39577880028943,
          55.71549963722697
        ],
        [
          37.39621063594083,
          55.71558215701359
        ],
        [
          37.39628037337523,
          55.71537245040812
        ],
        [
          37.39581366900662,
          55.71528993016409
        ],
        [
          37.39574661378127,
          55.7154920665825
        ],
        [
          37.395550812523176,
          55.71549888015134
        ],
        [
          37.39559506897191,
          55.71536185148205
        ],
        [
          37.39556690577726,
          55.715324755239905
        ],
        [
          37.394913787882096,
          55.715223308180526
        ],
        [
          37.39449536327576,
          55.71513548812896
        ],
        [
          37.39406084541537,
          55.71501889914179
        ],
        [
          37.39347075943208,
          55.7149356210736
        ],
        [
          37.39338761095262,
          55.714999215246074
        ],
        [
          37.39284580473162,
          55.714914422993
        ],
        [
          37.39288067344879,
          55.71489019660101
        ],
        [
          37.39325081829287,
          55.71494016351793
        ],
        [
          37.39362632755495,
          55.71411040154375
        ],
        [
          37.393223996202664,
          55.713990781107874
        ],
        [
          37.392727787534916,
          55.713662201579034
        ],
        [
          37.39244079117032,
          55.713132228742204
        ],
        [
          37.39161467079365,
          55.71184057898832
        ],
        [
          37.39122843269547,
          55.71111978041181
        ],
        [
          37.391153330843046,
          55.71078057646333
        ],
        [
          37.39123379711349,
          55.71043228361104
        ],
        [
          37.39198481563767,
          55.70989318070948
        ],
        [
          37.393111343423875,
          55.70903908103811
        ],
        [
          37.39387577299313,
          55.70845907003731
        ],
        [
          37.39409303192335,
          55.70850298762146
        ],
        [
          37.39418959144787,
          55.70856507791445
        ],
        [
          37.39423787121014,
          55.70848481483402
        ],
        [
          37.3943478417797,
          55.70825462545229
        ],
        [
          37.39421373132897,
          55.708171332908506
        ],
        [
          37.39429687980842,
          55.70800323286795
        ],
        [
          37.39446854118537,
          55.70773972322841
        ],
        [
          37.39452754978371,
          55.70765188628739
        ],
        [
          37.39455705408288,
          55.70757616462734
        ],
        [
          37.39426737550925,
          55.707100629233466
        ],
        [
          37.39414399389457,
          55.70702187758817
        ],
        [
          37.393806035558704,
          55.7070294498687
        ],
        [
          37.393317873517994,
          55.70710971595151
        ],
        [
          37.392966504137036,
          55.70721269860771
        ],
        [
          37.392743880788814,
          55.70722329974803
        ],
        [
          37.39270901207162,
          55.70718998186875
        ],
        [
          37.39288603786659,
          55.707255103151624
        ],
        [
          37.3931757164402,
          55.707102143686626
        ],
        [
          37.39332055572701,
          55.70697038604161
        ],
        [
          37.39341711525154,
          55.70689163413271
        ],
        [
          37.39341175083351,
          55.70680682420639
        ],
        [
          37.393159623186115,
          55.70680379527703
        ],
        [
          37.39253198627662,
          55.707174837362494
        ],
        [
          37.392489070932385,
          55.70716575065968
        ],
        [
          37.39277338508796,
          55.706965842660345
        ],
        [
          37.391673679391815,
          55.706505444567235
        ],
        [
          37.391528840105025,
          55.70663266037277
        ],
        [
          37.39139472965429,
          55.7066493195546
        ],
        [
          37.39098971609299,
          55.706890119652655
        ],
        [
          37.390632982294,
          55.707037022129036
        ],
        [
          37.39042645219986,
          55.70714000497763
        ],
        [
          37.3900536251468,
          55.70720058299654
        ],
        [
          37.38981490854447,
          55.707186952950515
        ],
        [
          37.39002948526563,
          55.706790165067055
        ],
        [
          37.3876262259882,
          55.70650393006595
        ],
        [
          37.384568507711215,
          55.706098048264806
        ],
        [
          37.38242005829027,
          55.705813322675425
        ],
        [
          37.3821732950609,
          55.70584967073743
        ],
        [
          37.381655628721056,
          55.705769402055196
        ],
        [
          37.3818836164873,
          55.705439238564296
        ],
        [
          37.381650264303,
          55.70532867860403
        ],
        [
          37.380153591672666,
          55.70471680683637
        ],
        [
          37.37959032777954,
          55.70451840080837
        ],
        [
          37.37831359628844,
          55.70422609084139
        ],
        [
          37.377793247739554,
          55.704130673124915
        ],
        [
          37.377557213346236,
          55.70400799285996
        ],
        [
          37.377195115129226,
          55.70387773931579
        ],
        [
          37.37746601823969,
          55.702905367674255
        ],
        [
          37.37749820474787,
          55.70246915568413
        ],
        [
          37.37756257776424,
          55.70163912769278
        ],
        [
          37.37765913728877,
          55.70054552364767
        ],
        [
          37.37772351030508,
          55.699733631510384
        ],
        [
          37.37775569681327,
          55.69951550834996
        ],
        [
          37.3777878833213,
          55.69770382701888
        ],
        [
          37.37776106123114,
          55.6975008407536
        ],
        [
          37.377675230542664,
          55.69729785342967
        ],
        [
          37.37752502683782,
          55.69713425093548
        ],
        [
          37.37736945871496,
          55.697137280617554
        ],
        [
          37.37746065382146,
          55.69725846770688
        ],
        [
          37.37738555196906,
          55.697331179779376
        ],
        [
          37.377546484509956,
          55.69733420944611
        ],
        [
          37.37762158636235,
          55.697519018671265
        ],
        [
          37.3776269507804,
          55.69815827004342
        ],
        [
          37.377632315198376,
          55.697441762456364
        ],
        [
          37.37754916671892,
          55.69728724957894
        ],
        [
          37.37688666109225,
          55.697303912761896
        ],
        [
          37.37147128109117,
          55.697305427583935
        ],
        [
          37.369443531075866,
          55.69731148689635
        ],
        [
          37.36911093715803,
          55.697544770663264
        ],
        [
          37.368671054879584,
          55.698156755198674
        ],
        [
          37.36812388424053,
          55.699089861606076
        ],
        [
          37.3679897737898,
          55.69934131178058
        ],
        [
          37.36782347683088,
          55.69942007897098
        ],
        [
          37.36714756015912,
          55.699238308291086
        ],
        [
          37.36311351780073,
          55.69819311040039
        ],
        [
          37.361273522416504,
          55.69771443068779
        ],
        [
          37.360270376244955,
          55.697559918892814
        ],
        [
          37.35956763748304,
          55.69749932586461
        ],
        [
          37.358623499909804,
          55.697620511826706
        ],
        [
          37.358156795541205,
          55.69781440858121
        ],
        [
          37.35802268509047,
          55.6980204228245
        ],
        [
          37.358392829934516,
          55.69808101504145
        ],
        [
          37.35872005943433,
          55.69808707425796
        ],
        [
          37.358832712212966,
          55.69815069597436
        ],
        [
          37.359315509835646,
          55.69815069597436
        ],
        [
          37.359546179810934,
          55.69822946557437
        ],
        [
          37.36009871486798,
          55.698371856369846
        ],
        [
          37.360560054818556,
          55.698526364941586
        ],
        [
          37.36088728431837,
          55.698547571952574
        ],
        [
          37.36057078365461,
          55.69862028161681
        ],
        [
          37.36005579952374,
          55.6987323754164
        ],
        [
          37.35960518840925,
          55.698735404967856
        ],
        [
          37.35946571354049,
          55.699147422607915
        ],
        [
          37.35965883258954,
          55.699265573922325
        ],
        [
          37.3593262386717,
          55.69939281339825
        ],
        [
          37.358634228745856,
          55.699441285470144
        ],
        [
          37.35771691326276,
          55.69942007894612
        ],
        [
          37.35742187027113,
          55.69942310845026
        ],
        [
          37.35727166656629,
          55.69914136355647
        ],
        [
          37.35725557331221,
          55.69880508472298
        ],
        [
          37.357395048180976,
          55.698568778939574
        ],
        [
          37.35747551445142,
          55.698393063452606
        ],
        [
          37.3576900911726,
          55.69821734717232
        ],
        [
          37.357867116967604,
          55.69808707424554
        ],
        [
          37.357947583237994,
          55.69792044544163
        ],
        [
          37.35788321022166,
          55.69781137893321
        ],
        [
          37.3576954555906,
          55.69768716392637
        ],
        [
          37.35765790466439,
          55.69737208017969
        ],
        [
          37.357711548844655,
          55.69672978617523
        ],
        [
          37.357657904664364,
          55.69629956445662
        ],
        [
          37.357577438393946,
          55.69587842731741
        ],
        [
          37.35764181141031,
          55.69539062969103
        ],
        [
          37.35762571815621,
          55.69506946766809
        ],
        [
          37.357373590508814,
          55.6946725562178
        ],
        [
          37.35707854751718,
          55.69427564072658
        ],
        [
          37.35701953891884,
          55.69407869642331
        ],
        [
          37.357100005189295,
          55.693969619149684
        ],
        [
          37.35712146286142,
          55.69365450530273
        ],
        [
          37.35725020889413,
          55.693572696484686
        ],
        [
          37.35736286167276,
          55.69351815717714
        ],
        [
          37.3573145819105,
          55.69340604836055
        ],
        [
          37.35679423336161,
          55.69337271864392
        ],
        [
          37.354782576600364,
          55.69334544884719
        ],
        [
          37.354348058739944,
          55.693245459474625
        ],
        [
          37.35409593109255,
          55.69301517994276
        ],
        [
          37.3539081764615,
          55.69284246939991
        ],
        [
          37.35446071151858,
          55.69266975809082
        ],
        [
          37.35461627964142,
          55.69280913920694
        ],
        [
          37.35499715332154,
          55.69282731930953
        ],
        [
          37.35512321714524,
          55.692651577889784
        ],
        [
          37.35522782329683,
          55.69254552665672
        ],
        [
          37.35553895954254,
          55.69266369801232
        ],
        [
          37.35622292284131,
          55.692701573364694
        ],
        [
          37.3563811731732,
          55.692639457751056
        ],
        [
          37.35644018177151,
          55.69252886142427
        ],
        [
          37.356509919205855,
          55.692394024375425
        ],
        [
          37.35677545789834,
          55.69219404047965
        ],
        [
          37.35674863580818,
          55.692080412812
        ],
        [
          37.35652064804193,
          55.69178043417585
        ],
        [
          37.35622828725929,
          55.6917410428701
        ],
        [
          37.35569184545627,
          55.691710741832345
        ],
        [
          37.35577767614477,
          55.69149257370909
        ],
        [
          37.35579376939877,
          55.69120016589177
        ],
        [
          37.355799133816795,
          55.69096987426114
        ],
        [
          37.35569184545619,
          55.69072140018446
        ],
        [
          37.35554164175132,
          55.69052443789313
        ],
        [
          37.355689163247156,
          55.69044716780145
        ],
        [
          37.35593592647652,
          55.69037141266074
        ],
        [
          37.35552554849725,
          55.69050019630605
        ],
        [
          37.355302925149,
          55.69023050769448
        ],
        [
          37.35505884412864,
          55.690092632461095
        ],
        [
          37.354790623227146,
          55.68991990895225
        ],
        [
          37.35413616422749,
          55.6897199123469
        ],
        [
          37.353656048813825,
          55.68961385312125
        ],
        [
          37.352618033925054,
          55.68954264175652
        ],
        [
          37.352333719769476,
          55.689554762846974
        ],
        [
          37.351035530606275,
          55.68952446011379
        ],
        [
          37.35025232557391,
          55.689566883933644
        ],
        [
          37.34955495123005,
          55.68960021690251
        ],
        [
          37.34910970453358,
          55.68957900501654
        ],
        [
          37.348927314320555,
          55.68953658120989
        ],
        [
          37.34880929712387,
          55.69014263119749
        ],
        [
          37.34870200876327,
          55.69061231344764
        ],
        [
          37.348240668812714,
          55.69056686057369
        ],
        [
          37.34745746378033,
          55.69052746803383
        ],
        [
          37.34702831033794,
          55.690524437837276
        ],
        [
          37.346904928723255,
          55.69164862456331
        ],
        [
          37.34696930173962,
          55.691836490878394
        ],
        [
          37.34688883546917,
          55.691951634300835
        ],
        [
          37.34672253851021,
          55.69359390603957
        ],
        [
          37.34561210397803,
          55.693572696329475
        ],
        [
          37.34561210397803,
          55.6937847929102
        ],
        [
          37.34686737779699,
          55.69385751147187
        ],
        [
          37.34806900743567,
          55.69393931969135
        ],
        [
          37.34832113508309,
          55.69396961898828
        ],
        [
          37.348154838124145,
          55.69536033132632
        ],
        [
          37.34823530439459,
          55.69577844427721
        ],
        [
          37.348535711804274,
          55.69618140395809
        ],
        [
          37.34940474752506,
          55.696593448635056
        ],
        [
          37.349726612606844,
          55.69685703375503
        ],
        [
          37.35015040163118,
          55.697208477805006
        ],
        [
          37.350558097401446,
          55.69772654901667
        ],
        [
          37.35096042875368,
          55.69795680067784
        ],
        [
          37.351700718441805,
          55.69810525168451
        ],
        [
          37.352322990933246,
          55.69813554773255
        ],
        [
          37.352274711170985,
          55.69831126438211
        ],
        [
          37.35210841421207,
          55.700304683918425
        ],
        [
          37.35184555772852,
          55.700235006792205
        ],
        [
          37.35057419065547,
          55.69951096370071
        ],
        [
          37.34945302728724,
          55.69890203000334
        ],
        [
          37.34920089963985,
          55.69882629131509
        ],
        [
          37.34884148363185,
          55.69900200484615
        ],
        [
          37.348723466435196,
          55.69889597091371
        ],
        [
          37.348535711804146,
          55.699047447871614
        ],
        [
          37.34810119394373,
          55.69895353222096
        ],
        [
          37.347666676083335,
          55.69897170946017
        ],
        [
          37.34752720121455,
          55.69883537995927
        ],
        [
          37.34696930173944,
          55.699114097540146
        ],
        [
          37.346743996182205,
          55.69915954043475
        ],
        [
          37.34656697038721,
          55.69903835926458
        ],
        [
          37.34693711523126,
          55.69889294136234
        ],
        [
          37.346529419461,
          55.698702079541086
        ],
        [
          37.346223647633316,
          55.698496068905904
        ],
        [
          37.34604662183832,
          55.69858089694657
        ],
        [
          37.34530096773219,
          55.69885961634367
        ],
        [
          37.34270458940576,
          55.700050210450925
        ],
        [
          37.34416907552786,
          55.7011165640682
        ]
      ],
      [
        [
          37.53188615564386,
          55.75444237928928
        ],
        [
          37.53111367944758,
          55.7526756106829
        ],
        [
          37.53106539968526,
          55.75256064691459
        ],
        [
          37.530469949283955,
          55.75262115419688
        ],
        [
          37.530217821636555,
          55.7526453570834
        ],
        [
          37.529944236317036,
          55.75236097221429
        ],
        [
          37.52941852335012,
          55.752300464526684
        ],
        [
          37.529075200596196,
          55.75220667742463
        ],
        [
          37.529354150333745,
          55.75191321309406
        ],
        [
          37.529509718456616,
          55.75174378937826
        ],
        [
          37.529976422825165,
          55.75118408075312
        ],
        [
          37.530309016743004,
          55.750669746820854
        ],
        [
          37.53085618738206,
          55.74972577506154
        ],
        [
          37.531135137119605,
          55.749205370564965
        ],
        [
          37.53144090894732,
          55.74852459833143
        ],
        [
          37.53160184148821,
          55.74815848922628
        ],
        [
          37.53166621450455,
          55.74789525162176
        ],
        [
          37.5318378758815,
          55.74794668899504
        ],
        [
          37.531950528660104,
          55.74789525160294
        ],
        [
          37.53195589307808,
          55.74745651829203
        ]
      ],
      [
        [
          37.33949929171154,
          55.81490963968672
        ],
        [
          37.34212785654613,
          55.81527209900332
        ],
        [
          37.3420098393495,
          55.81548957296597
        ],
        [
          37.341698703103766,
          55.815471450182386
        ],
        [
          37.34177380495618,
          55.81567684123361
        ],
        [
          37.340818938546875,
          55.81542916365434
        ],
        [
          37.3400679200227,
          55.81526001708073
        ],
        [
          37.33859806948254,
          55.81507274679874
        ],
        [
          37.338619527154655,
          55.81521773032197
        ],
        [
          37.33739643984382,
          55.81509086976245
        ],
        [
          37.33690291338509,
          55.815232832734736
        ],
        [
          37.3366722434098,
          55.815323447126
        ],
        [
          37.33551889353341,
          55.815444265984716
        ],
        [
          37.33464985781257,
          55.81528720139492
        ],
        [
          37.33426361971444,
          55.81531438569641
        ],
        [
          37.33416706018989,
          55.81554696171846
        ],
        [
          37.33420997553413,
          55.81565267763067
        ],
        [
          37.3312327235276,
          55.81517846399192
        ],
        [
          37.33009546690526,
          55.81501233681186
        ],
        [
          37.32956438952029,
          55.81496400877491
        ],
        [
          37.3292210667664,
          55.81491568067767
        ],
        [
          37.32801943712772,
          55.81540802034758
        ],
        [
          37.327788767152434,
          55.81549561386653
        ],
        [
          37.32739180021825,
          55.81574933190754
        ],
        [
          37.32676952772676,
          55.81600606870409
        ],
        [
          37.32642620497284,
          55.8161661507908
        ],
        [
          37.325632271104425,
          55.81553790031572
        ],
        [
          37.325557169252,
          55.815658718505816
        ],
        [
          37.32536405020295,
          55.81580067939785
        ],
        [
          37.32469349794922,
          55.816048354602586
        ],
        [
          37.32451110773619,
          55.81612386502084
        ],
        [
          37.32430189543304,
          55.8159517010525
        ],
        [
          37.32343285971223,
          55.81534761090245
        ],
        [
          37.322987613015755,
          55.81553790031572
        ],
        [
          37.32317000322875,
          55.81567080030411
        ],
        [
          37.32334702902376,
          55.81561039127499
        ]
      ]
    ]
  }
}
