{
  "type": "Feature",
  "id": "69ffd405-24fd-4470-99cc-7ab0831311f6",
  "properties": {
    "id": "69ffd405-24fd-4470-99cc-7ab0831311f6",
    "name": "Савеловский - Дмитров",
    "color": "#a3a3a3",
    "routeType": "Train",
    "isSelected": false
  },
  "geometry": {
    "type": "LineString",
    "coordinates": [
      [
        37.589121,
        55.796077
      ],
      [
        37.589192,
        55.796080999999994
      ],
      [
        37.589192,
        55.796080999999994
      ],
      [
        37.589101,
        55.796077999999994
      ],
      [
        37.589051,
        55.796454
      ],
      [
        37.589006999999995,
        55.796786999999995
      ],
      [
        37.588702,
        55.798123
      ],
      [
        37.588463999999995,
        55.799166
      ],
      [
        37.588280999999995,
        55.80051
      ],
      [
        37.588238999999994,
        55.800822000000004
      ],
      [
        37.587954999999994,
        55.80206200000001
      ],
      [
        37.58758199999999,
        55.80339300000001
      ],
      [
        37.58743599999999,
        55.803914000000006
      ],
      [
        37.58690599999999,
        55.80522800000001
      ],
      [
        37.58667099999999,
        55.80581200000001
      ],
      [
        37.58654199999999,
        55.80631200000001
      ],
      [
        37.58636899999999,
        55.806728000000014
      ],
      [
        37.58602299999999,
        55.807392000000014
      ],
      [
        37.58559099999999,
        55.807971000000016
      ],
      [
        37.58479699999999,
        55.808664000000014
      ],
      [
        37.58477999999999,
        55.80867700000002
      ],
      [
        37.58480299999999,
        55.808661000000015
      ],
      [
        37.58439199999999,
        55.80891800000001
      ],
      [
        37.583595999999986,
        55.80932700000001
      ],
      [
        37.581743999999986,
        55.81018300000001
      ],
      [
        37.58118599999999,
        55.81044100000001
      ],
      [
        37.58036999999999,
        55.81087700000001
      ],
      [
        37.57992799999999,
        55.81118200000001
      ],
      [
        37.57943699999999,
        55.81161900000001
      ],
      [
        37.57905699999999,
        55.81207700000001
      ],
      [
        37.57886499999999,
        55.812416000000006
      ],
      [
        37.57866799999999,
        55.81290800000001
      ],
      [
        37.578371999999995,
        55.814243000000005
      ],
      [
        37.578075999999996,
        55.815581
      ],
      [
        37.578013,
        55.815858
      ],
      [
        37.577881999999995,
        55.816325
      ],
      [
        37.57775899999999,
        55.816613
      ],
      [
        37.577304999999996,
        55.817392
      ],
      [
        37.576381,
        55.818633999999996
      ],
      [
        37.575872,
        55.819317999999996
      ],
      [
        37.575852,
        55.819342999999996
      ],
      [
        37.575852,
        55.819342999999996
      ],
      [
        37.574929999999995,
        55.820586999999996
      ],
      [
        37.57453399999999,
        55.821121999999995
      ],
      [
        37.57425099999999,
        55.82162699999999
      ],
      [
        37.57414299999999,
        55.82189499999999
      ],
      [
        37.57395799999999,
        55.82256399999999
      ],
      [
        37.57385399999999,
        55.82348699999999
      ],
      [
        37.57379099999999,
        55.824831999999994
      ],
      [
        37.573727999999996,
        55.826178999999996
      ],
      [
        37.573663999999994,
        55.827526
      ],
      [
        37.573629999999994,
        55.828257
      ],
      [
        37.573572999999996,
        55.829604
      ],
      [
        37.573527,
        55.830673000000004
      ],
      [
        37.573546,
        55.831392
      ],
      [
        37.573583,
        55.831659
      ],
      [
        37.573699,
        55.832075
      ],
      [
        37.573972,
        55.832725
      ],
      [
        37.57413,
        55.83301
      ],
      [
        37.574510999999994,
        55.833521000000005
      ],
      [
        37.574808,
        55.833847000000006
      ],
      [
        37.575365,
        55.834349
      ],
      [
        37.576758,
        55.835446000000005
      ],
      [
        37.577281,
        55.835858
      ],
      [
        37.577571999999996,
        55.836147000000004
      ],
      [
        37.577836999999995,
        55.836473000000005
      ],
      [
        37.577836999999995,
        55.836473000000005
      ],
      [
        37.577943999999995,
        55.836605000000006
      ],
      [
        37.57791699999999,
        55.83657000000001
      ],
      [
        37.57816599999999,
        55.83694500000001
      ],
      [
        37.57840299999999,
        55.83741800000001
      ],
      [
        37.578591999999986,
        55.83801900000001
      ],
      [
        37.57864199999999,
        55.83833200000001
      ],
      [
        37.57865199999999,
        55.83898500000001
      ],
      [
        37.578585999999994,
        55.839535000000005
      ],
      [
        37.578458999999995,
        55.83999800000001
      ],
      [
        37.578137,
        55.840683000000006
      ],
      [
        37.577681,
        55.841373000000004
      ],
      [
        37.577217,
        55.841894
      ],
      [
        37.576035,
        55.843058000000006
      ],
      [
        37.575596,
        55.84362800000001
      ],
      [
        37.575312,
        55.84416200000001
      ],
      [
        37.574731,
        55.84545900000001
      ],
      [
        37.574289,
        55.84652300000001
      ],
      [
        37.573932,
        55.847555000000014
      ],
      [
        37.573902,
        55.84764000000001
      ],
      [
        37.573902,
        55.84764000000001
      ],
      [
        37.573445,
        55.848962000000014
      ],
      [
        37.573248,
        55.84952900000001
      ],
      [
        37.57297,
        55.85059800000001
      ],
      [
        37.572748999999995,
        55.85193900000001
      ],
      [
        37.57266499999999,
        55.852455000000006
      ],
      [
        37.572616999999994,
        55.853213000000004
      ],
      [
        37.572658999999994,
        55.853523
      ],
      [
        37.57298399999999,
        55.854858
      ],
      [
        37.57310299999999,
        55.85535
      ],
      [
        37.57351899999999,
        55.856677000000005
      ],
      [
        37.57353699999999,
        55.856739000000005
      ],
      [
        37.57403099999999,
        55.858057
      ],
      [
        37.57415799999999,
        55.858396
      ],
      [
        37.57437999999999,
        55.859125999999996
      ],
      [
        37.57447399999999,
        55.859733999999996
      ],
      [
        37.57458799999999,
        55.861045
      ],
      [
        37.57456399999999,
        55.861822999999994
      ],
      [
        37.57452699999999,
        55.862131999999995
      ],
      [
        37.57439099999999,
        55.862677999999995
      ],
      [
        37.57384999999999,
        55.863991
      ],
      [
        37.573308999999995,
        55.865303
      ],
      [
        37.57309599999999,
        55.865818
      ],
      [
        37.57309599999999,
        55.865818
      ],
      [
        37.573094999999995,
        55.865823999999996
      ],
      [
        37.57254399999999,
        55.867135
      ],
      [
        37.571994999999994,
        55.868446
      ],
      [
        37.571445,
        55.869758
      ],
      [
        37.570895,
        55.871069
      ],
      [
        37.570344,
        55.87238
      ],
      [
        37.569794,
        55.873692
      ],
      [
        37.569243,
        55.875003
      ],
      [
        37.568906,
        55.875807
      ],
      [
        37.568636,
        55.876361
      ],
      [
        37.568342,
        55.87717
      ],
      [
        37.568172000000004,
        55.877741
      ],
      [
        37.568009,
        55.878563
      ],
      [
        37.567876000000005,
        55.879908
      ],
      [
        37.56774300000001,
        55.881253
      ],
      [
        37.56761000000001,
        55.882598
      ],
      [
        37.567597000000006,
        55.882723
      ],
      [
        37.567597000000006,
        55.882723
      ],
      [
        37.56759600000001,
        55.882725
      ],
      [
        37.56748100000001,
        55.88407
      ],
      [
        37.567443000000004,
        55.884507
      ],
      [
        37.567416,
        55.885853
      ],
      [
        37.567407,
        55.886286999999996
      ],
      [
        37.567288000000005,
        55.887632999999994
      ],
      [
        37.567170000000004,
        55.88897899999999
      ],
      [
        37.567151,
        55.88919399999999
      ],
      [
        37.567053,
        55.88993999999999
      ],
      [
        37.566848,
        55.89053999999999
      ],
      [
        37.566463,
        55.891226999999986
      ],
      [
        37.5662,
        55.89157199999999
      ],
      [
        37.565633000000005,
        55.89214299999999
      ],
      [
        37.564924000000005,
        55.89269399999999
      ],
      [
        37.564248000000006,
        55.89311299999999
      ],
      [
        37.563621000000005,
        55.89344299999999
      ],
      [
        37.56268600000001,
        55.89383399999999
      ],
      [
        37.560686000000004,
        55.89457999999999
      ],
      [
        37.559055,
        55.89518899999999
      ],
      [
        37.557037,
        55.89592099999999
      ],
      [
        37.55502,
        55.896652999999986
      ],
      [
        37.553002,
        55.897384999999986
      ],
      [
        37.550985,
        55.898116999999985
      ],
      [
        37.548967999999995,
        55.898848999999984
      ],
      [
        37.548860999999995,
        55.898887999999985
      ],
      [
        37.548860999999995,
        55.898887999999985
      ],
      [
        37.54886,
        55.89888899999998
      ],
      [
        37.546844,
        55.89962199999998
      ],
      [
        37.544828,
        55.900354999999976
      ],
      [
        37.543620000000004,
        55.900793999999976
      ],
      [
        37.542424000000004,
        55.90128799999998
      ],
      [
        37.542454000000006,
        55.90127499999998
      ],
      [
        37.54149,
        55.901776999999974
      ],
      [
        37.540172000000005,
        55.90263099999997
      ],
      [
        37.53904800000001,
        55.90354799999997
      ],
      [
        37.538579000000006,
        55.90399499999997
      ],
      [
        37.538236000000005,
        55.904413999999974
      ],
      [
        37.538236000000005,
        55.904413999999974
      ],
      [
        37.53788600000001,
        55.904872999999974
      ],
      [
        37.537636000000006,
        55.90527099999997
      ],
      [
        37.53696200000001,
        55.90656299999997
      ],
      [
        37.53628800000001,
        55.90785699999997
      ],
      [
        37.535615000000014,
        55.90915099999997
      ],
      [
        37.53494100000002,
        55.91044399999997
      ],
      [
        37.53494000000002,
        55.91044499999997
      ],
      [
        37.53429100000002,
        55.91174099999997
      ],
      [
        37.533642000000015,
        55.91303899999997
      ],
      [
        37.53299300000001,
        55.91433699999997
      ],
      [
        37.53234400000001,
        55.91563399999997
      ],
      [
        37.531695000000006,
        55.91693099999997
      ],
      [
        37.53142100000001,
        55.91747699999997
      ],
      [
        37.53075900000001,
        55.91877199999997
      ],
      [
        37.53009800000001,
        55.92006799999997
      ],
      [
        37.52943600000001,
        55.92136299999997
      ],
      [
        37.52877400000001,
        55.92265699999997
      ],
      [
        37.52811100000001,
        55.923952999999976
      ],
      [
        37.52785400000001,
        55.92445499999997
      ],
      [
        37.52785400000001,
        55.92445499999997
      ],
      [
        37.52719900000001,
        55.925751999999974
      ],
      [
        37.52654200000001,
        55.92704799999998
      ],
      [
        37.52588700000001,
        55.92834399999998
      ],
      [
        37.52577500000001,
        55.92856399999998
      ],
      [
        37.52514100000001,
        55.92986399999998
      ],
      [
        37.52450600000001,
        55.931162999999984
      ],
      [
        37.52410300000001,
        55.93199099999998
      ],
      [
        37.52344100000001,
        55.93328599999998
      ],
      [
        37.522779000000014,
        55.93458099999998
      ],
      [
        37.52211600000001,
        55.93587599999998
      ],
      [
        37.52145500000001,
        55.93717199999998
      ],
      [
        37.52079200000001,
        55.938465999999984
      ],
      [
        37.520129000000004,
        55.93976199999999
      ],
      [
        37.519989,
        55.94003399999999
      ],
      [
        37.519989,
        55.94003399999999
      ],
      [
        37.519984,
        55.94004499999999
      ],
      [
        37.519329,
        55.94134199999999
      ],
      [
        37.518675,
        55.942637999999995
      ],
      [
        37.518021000000005,
        55.943934
      ],
      [
        37.517368000000005,
        55.945232
      ],
      [
        37.516713,
        55.946528
      ],
      [
        37.516058,
        55.947824000000004
      ],
      [
        37.515692,
        55.94854900000001
      ],
      [
        37.514994,
        55.94983800000001
      ],
      [
        37.514927,
        55.94995800000001
      ],
      [
        37.514352,
        55.95076400000001
      ],
      [
        37.513921,
        55.95126100000001
      ],
      [
        37.513063,
        55.95205200000001
      ],
      [
        37.512341,
        55.95263100000001
      ],
      [
        37.512332,
        55.95263900000001
      ],
      [
        37.512332,
        55.95263900000001
      ],
      [
        37.510958,
        55.953744000000015
      ],
      [
        37.510834,
        55.953845000000015
      ],
      [
        37.510309,
        55.95446600000002
      ],
      [
        37.509838,
        55.95520300000002
      ],
      [
        37.509621,
        55.95579700000002
      ],
      [
        37.509479000000006,
        55.95639300000002
      ],
      [
        37.50926100000001,
        55.95773500000002
      ],
      [
        37.509206000000006,
        55.958077000000024
      ],
      [
        37.50902000000001,
        55.95942100000003
      ],
      [
        37.508936000000006,
        55.96002500000003
      ],
      [
        37.508793000000004,
        55.96064200000003
      ],
      [
        37.508614,
        55.96110600000003
      ],
      [
        37.507972,
        55.96236700000003
      ],
      [
        37.507371,
        55.96367200000003
      ],
      [
        37.507094,
        55.96427400000003
      ],
      [
        37.50656,
        55.965587000000035
      ],
      [
        37.506396,
        55.96599100000004
      ],
      [
        37.505901,
        55.96731000000004
      ],
      [
        37.505405,
        55.96862800000004
      ],
      [
        37.50491,
        55.969946000000036
      ],
      [
        37.504531,
        55.970954000000035
      ],
      [
        37.504528,
        55.970960000000034
      ],
      [
        37.504528,
        55.970960000000034
      ],
      [
        37.504036,
        55.972279000000036
      ],
      [
        37.503544,
        55.97359800000004
      ],
      [
        37.503311,
        55.97421900000004
      ],
      [
        37.50270999999999,
        55.97552300000004
      ],
      [
        37.50237299999999,
        55.976253000000035
      ],
      [
        37.50173499999999,
        55.97755200000004
      ],
      [
        37.50153599999999,
        55.97795600000004
      ],
      [
        37.50091999999999,
        55.97925900000004
      ],
      [
        37.50030299999999,
        55.98056200000004
      ],
      [
        37.499687999999985,
        55.98186300000004
      ],
      [
        37.49907099999999,
        55.98316500000004
      ],
      [
        37.498724999999986,
        55.98389400000004
      ],
      [
        37.498724999999986,
        55.98389400000004
      ],
      [
        37.49872199999999,
        55.98390200000004
      ],
      [
        37.49811299999999,
        55.98520600000004
      ],
      [
        37.49750599999999,
        55.98651100000004
      ],
      [
        37.49689699999999,
        55.98781400000004
      ],
      [
        37.49628899999999,
        55.98911800000004
      ],
      [
        37.49581799999999,
        55.990127000000044
      ],
      [
        37.49519899999999,
        55.99142800000004
      ],
      [
        37.494578999999995,
        55.992730000000044
      ],
      [
        37.493959999999994,
        55.99403200000005
      ],
      [
        37.493339999999996,
        55.99533400000005
      ],
      [
        37.492720999999996,
        55.99663600000005
      ],
      [
        37.49209999999999,
        55.997938000000055
      ],
      [
        37.49183399999999,
        55.99849900000005
      ],
      [
        37.49124799999999,
        55.99980500000005
      ],
      [
        37.49081599999999,
        56.000769000000055
      ],
      [
        37.490186999999985,
        56.00207000000005
      ],
      [
        37.489558999999986,
        56.00337100000005
      ],
      [
        37.48930399999998,
        56.003896000000054
      ],
      [
        37.48870499999998,
        56.005202000000054
      ],
      [
        37.48810599999998,
        56.006507000000056
      ],
      [
        37.48750699999998,
        56.00781200000006
      ],
      [
        37.48714499999998,
        56.00859700000006
      ],
      [
        37.486393999999976,
        56.00987700000006
      ],
      [
        37.486362999999976,
        56.00993100000006
      ],
      [
        37.48572799999997,
        56.01122900000006
      ],
      [
        37.48509199999997,
        56.01252900000006
      ],
      [
        37.484725999999974,
        56.01327500000006
      ],
      [
        37.484725999999974,
        56.01327500000006
      ],
      [
        37.484725999999974,
        56.01327700000006
      ],
      [
        37.484139999999975,
        56.014584000000056
      ],
      [
        37.483784999999976,
        56.015372000000056
      ],
      [
        37.48362899999998,
        56.016087000000056
      ],
      [
        37.48363699999998,
        56.016861000000056
      ],
      [
        37.48372499999998,
        56.01747400000006
      ],
      [
        37.483925999999975,
        56.018373000000054
      ],
      [
        37.484294999999975,
        56.01970500000005
      ],
      [
        37.484496999999976,
        56.020430000000054
      ],
      [
        37.484547999999975,
        56.020723000000054
      ],
      [
        37.484654999999975,
        56.02206900000005
      ],
      [
        37.48472199999998,
        56.02290700000005
      ],
      [
        37.484843999999974,
        56.023751000000054
      ],
      [
        37.48494899999997,
        56.02423600000005
      ],
      [
        37.48533399999997,
        56.025566000000055
      ],
      [
        37.485715999999975,
        56.02689600000006
      ],
      [
        37.48573399999997,
        56.02696000000006
      ],
      [
        37.48573399999997,
        56.02696000000006
      ],
      [
        37.48607299999997,
        56.02781800000006
      ],
      [
        37.48669499999997,
        56.02912000000006
      ],
      [
        37.48731599999997,
        56.03042000000006
      ],
      [
        37.48734999999997,
        56.030493000000064
      ],
      [
        37.48767199999997,
        56.03140600000006
      ],
      [
        37.48804099999997,
        56.03273800000006
      ],
      [
        37.48841199999997,
        56.03406900000006
      ],
      [
        37.488781999999965,
        56.03540000000006
      ],
      [
        37.489152999999966,
        56.03673200000006
      ],
      [
        37.489521999999965,
        56.03806300000006
      ],
      [
        37.48987499999996,
        56.03933100000006
      ],
      [
        37.490256999999964,
        56.04066200000006
      ],
      [
        37.49063799999996,
        56.041992000000064
      ],
      [
        37.49101999999996,
        56.043323000000065
      ],
      [
        37.49140099999996,
        56.04465300000007
      ],
      [
        37.49178199999996,
        56.04598300000007
      ],
      [
        37.49216399999996,
        56.04731400000007
      ],
      [
        37.49254599999996,
        56.048644000000074
      ],
      [
        37.49260599999996,
        56.048855000000074
      ],
      [
        37.49260599999996,
        56.048855000000074
      ],
      [
        37.49260799999996,
        56.048857000000076
      ],
      [
        37.492738999999965,
        56.04966700000008
      ],
      [
        37.49273199999997,
        56.05015700000008
      ],
      [
        37.49266599999997,
        56.050571000000076
      ],
      [
        37.49247299999997,
        56.05122300000008
      ],
      [
        37.49231999999997,
        56.05156800000008
      ],
      [
        37.49209199999997,
        56.05195300000008
      ],
      [
        37.491842999999974,
        56.05230500000008
      ],
      [
        37.491524999999974,
        56.052670000000084
      ],
      [
        37.49113799999997,
        56.053041000000086
      ],
      [
        37.49065899999997,
        56.053460000000086
      ],
      [
        37.489244999999976,
        56.054552000000086
      ],
      [
        37.48868299999997,
        56.054986000000085
      ],
      [
        37.487786999999976,
        56.055768000000086
      ],
      [
        37.48744799999998,
        56.05614900000008
      ],
      [
        37.48701399999998,
        56.05678600000008
      ],
      [
        37.48676199999998,
        56.05725700000008
      ],
      [
        37.486556999999976,
        56.05803900000008
      ],
      [
        37.48651999999998,
        56.05872000000008
      ],
      [
        37.48671299999998,
        56.05967000000008
      ],
      [
        37.48693699999998,
        56.06014900000008
      ],
      [
        37.48730899999998,
        56.06078200000008
      ],
      [
        37.48781599999998,
        56.061352000000085
      ],
      [
        37.488146999999984,
        56.06167200000009
      ],
      [
        37.488911999999985,
        56.062255000000086
      ],
      [
        37.490512999999986,
        56.063263000000084
      ],
      [
        37.49133899999999,
        56.06378400000008
      ],
      [
        37.49195999999999,
        56.064284000000086
      ],
      [
        37.49260299999999,
        56.06496400000009
      ],
      [
        37.49283699999999,
        56.065252000000086
      ],
      [
        37.493048999999985,
        56.065593000000085
      ],
      [
        37.493220999999984,
        56.065959000000085
      ],
      [
        37.493510999999984,
        56.06695700000009
      ],
      [
        37.49380199999998,
        56.06829400000009
      ],
      [
        37.49409199999998,
        56.069632000000084
      ],
      [
        37.49438299999998,
        56.07097000000008
      ],
      [
        37.49453099999998,
        56.07164600000008
      ],
      [
        37.49498299999998,
        56.07275000000008
      ],
      [
        37.495584999999984,
        56.073924000000076
      ],
      [
        37.49559199999998,
        56.07393700000008
      ],
      [
        37.49559199999998,
        56.07393700000008
      ],
      [
        37.49625299999998,
        56.07523300000008
      ],
      [
        37.49691499999998,
        56.076529000000086
      ],
      [
        37.49757699999998,
        56.07782500000009
      ],
      [
        37.49823799999998,
        56.07912100000009
      ],
      [
        37.49890099999998,
        56.08041600000009
      ],
      [
        37.49956299999998,
        56.081712000000095
      ],
      [
        37.50022499999998,
        56.0830080000001
      ],
      [
        37.50088599999998,
        56.0843040000001
      ],
      [
        37.50154899999998,
        56.085600000000106
      ],
      [
        37.50221099999998,
        56.08689600000011
      ],
      [
        37.50271599999998,
        56.08788400000011
      ],
      [
        37.50332299999998,
        56.08918900000011
      ],
      [
        37.50354299999998,
        56.08966100000011
      ],
      [
        37.50416999999998,
        56.09087700000011
      ],
      [
        37.50416999999998,
        56.09087700000011
      ],
      [
        37.50417199999998,
        56.09088000000011
      ],
      [
        37.50484499999998,
        56.092174000000114
      ],
      [
        37.50507099999998,
        56.09260900000012
      ],
      [
        37.505516999999976,
        56.09337700000012
      ],
      [
        37.506181999999974,
        56.09467100000012
      ],
      [
        37.50684699999997,
        56.09596700000012
      ],
      [
        37.50751199999997,
        56.09726200000012
      ],
      [
        37.50817699999997,
        56.098558000000125
      ],
      [
        37.508841999999966,
        56.099853000000124
      ],
      [
        37.50921299999997,
        56.100573000000125
      ],
      [
        37.509559999999965,
        56.10119600000012
      ],
      [
        37.509807999999964,
        56.101555000000126
      ],
      [
        37.51048099999996,
        56.102309000000126
      ],
      [
        37.511701999999964,
        56.103472000000124
      ],
      [
        37.51245199999996,
        56.10418600000013
      ],
      [
        37.51318499999996,
        56.104935000000125
      ],
      [
        37.51345399999996,
        56.10527400000012
      ],
      [
        37.51385499999996,
        56.106047000000125
      ],
      [
        37.514029999999956,
        56.10666800000013
      ],
      [
        37.51421099999995,
        56.10801200000013
      ],
      [
        37.51422799999995,
        56.10814500000013
      ],
      [
        37.51424199999995,
        56.10876200000013
      ],
      [
        37.514181999999956,
        56.10923400000013
      ],
      [
        37.514119999999956,
        56.10946100000013
      ],
      [
        37.513987999999955,
        56.10983900000013
      ],
      [
        37.51368799999995,
        56.11038200000013
      ],
      [
        37.51269799999995,
        56.11161200000013
      ],
      [
        37.51205099999995,
        56.11241200000013
      ],
      [
        37.51160099999995,
        56.113057000000126
      ],
      [
        37.51129399999995,
        56.11377700000013
      ],
      [
        37.51120299999995,
        56.11407700000013
      ],
      [
        37.51113599999995,
        56.11446400000013
      ],
      [
        37.511131999999954,
        56.11514800000013
      ],
      [
        37.51123199999996,
        56.11567000000013
      ],
      [
        37.511423999999955,
        56.11622900000013
      ],
      [
        37.51180599999996,
        56.116934000000136
      ],
      [
        37.51262199999996,
        56.118175000000136
      ],
      [
        37.513362999999956,
        56.11915300000014
      ],
      [
        37.51453499999995,
        56.12033100000014
      ],
      [
        37.51487399999995,
        56.12067200000014
      ],
      [
        37.51487399999995,
        56.12067200000014
      ],
      [
        37.51488899999995,
        56.12068800000014
      ],
      [
        37.51604299999995,
        56.121872000000145
      ],
      [
        37.51690299999995,
        56.122753000000145
      ],
      [
        37.51728899999995,
        56.12319000000014
      ],
      [
        37.517638999999946,
        56.123651000000145
      ],
      [
        37.51811399999995,
        56.124447000000146
      ],
      [
        37.518564999999946,
        56.12555700000014
      ],
      [
        37.519023999999945,
        56.12688000000014
      ],
      [
        37.51948399999994,
        56.12820300000014
      ],
      [
        37.51994299999994,
        56.12952600000014
      ],
      [
        37.520073999999944,
        56.12990500000014
      ],
      [
        37.52013099999994,
        56.13014700000014
      ],
      [
        37.52018799999994,
        56.130771000000145
      ],
      [
        37.52014299999994,
        56.131278000000144
      ],
      [
        37.52003999999994,
        56.13174900000014
      ],
      [
        37.51983899999994,
        56.132243000000145
      ],
      [
        37.51958899999994,
        56.132685000000144
      ],
      [
        37.51932199999994,
        56.13308800000014
      ],
      [
        37.51903199999994,
        56.13343500000014
      ],
      [
        37.518289999999936,
        56.13412200000014
      ],
      [
        37.51753699999993,
        56.13465400000014
      ],
      [
        37.51640699999993,
        56.13525400000014
      ],
      [
        37.51531499999993,
        56.135700000000135
      ],
      [
        37.51462099999993,
        56.13591800000013
      ],
      [
        37.512440999999924,
        56.13649900000013
      ],
      [
        37.51157599999993,
        56.13673000000013
      ],
      [
        37.51041299999993,
        56.13714400000013
      ],
      [
        37.50980099999993,
        56.137412000000126
      ],
      [
        37.50923499999993,
        56.13770400000013
      ],
      [
        37.50820799999993,
        56.138375000000124
      ],
      [
        37.50762499999993,
        56.13885700000012
      ],
      [
        37.506965999999935,
        56.139627000000125
      ],
      [
        37.506638999999936,
        56.140137000000124
      ],
      [
        37.50640099999993,
        56.140668000000126
      ],
      [
        37.50624999999993,
        56.14123600000013
      ],
      [
        37.50619999999993,
        56.14175300000013
      ],
      [
        37.50624999999993,
        56.142303000000126
      ],
      [
        37.50648999999993,
        56.14364400000012
      ],
      [
        37.506729999999926,
        56.14498400000012
      ],
      [
        37.50684099999992,
        56.14560100000012
      ],
      [
        37.50686999999992,
        56.14609400000012
      ],
      [
        37.50680799999992,
        56.146613000000116
      ],
      [
        37.50667899999992,
        56.147140000000114
      ],
      [
        37.50650699999992,
        56.14754600000011
      ],
      [
        37.50619599999992,
        56.14810700000011
      ],
      [
        37.505228999999915,
        56.149341000000106
      ],
      [
        37.504260999999914,
        56.150577000000105
      ],
      [
        37.503621999999915,
        56.15139200000011
      ],
      [
        37.50327099999991,
        56.151939000000105
      ],
      [
        37.50261099999991,
        56.153236000000106
      ],
      [
        37.502493999999906,
        56.153462000000104
      ],
      [
        37.501860999999906,
        56.154762000000105
      ],
      [
        37.501227999999905,
        56.15606400000011
      ],
      [
        37.500594999999905,
        56.15736400000011
      ],
      [
        37.50054599999991,
        56.15746700000011
      ],
      [
        37.500352999999905,
        56.15799600000011
      ],
      [
        37.5002269999999,
        56.15854200000011
      ],
      [
        37.5002019999999,
        56.15886900000011
      ],
      [
        37.500239999999906,
        56.15944600000011
      ],
      [
        37.5003509999999,
        56.15994900000011
      ],
      [
        37.500557999999906,
        56.160522000000114
      ],
      [
        37.501247999999904,
        56.161813000000116
      ],
      [
        37.501936999999906,
        56.163105000000115
      ],
      [
        37.5023459999999,
        56.16387000000012
      ],
      [
        37.5029349999999,
        56.16485200000012
      ],
      [
        37.503282999999904,
        56.165311000000116
      ],
      [
        37.503825999999904,
        56.16585600000012
      ],
      [
        37.505114999999904,
        56.16699500000012
      ],
      [
        37.5058779999999,
        56.16767100000012
      ],
      [
        37.506253999999906,
        56.168041000000116
      ],
      [
        37.50727499999991,
        56.16926200000012
      ],
      [
        37.50777599999991,
        56.169860000000114
      ],
      [
        37.50833799999991,
        56.170678000000116
      ],
      [
        37.50918699999991,
        56.17169000000012
      ],
      [
        37.50918999999991,
        56.17169500000012
      ],
      [
        37.50918999999991,
        56.17169500000012
      ],
      [
        37.51020399999991,
        56.17291900000012
      ],
      [
        37.51121899999991,
        56.17414300000012
      ],
      [
        37.51223199999991,
        56.175366000000125
      ],
      [
        37.512917999999914,
        56.176193000000126
      ],
      [
        37.51396299999991,
        56.17740800000013
      ],
      [
        37.515008999999914,
        56.17862400000013
      ],
      [
        37.51516399999991,
        56.17880700000013
      ],
      [
        37.515553999999916,
        56.179362000000125
      ],
      [
        37.51618899999992,
        56.18039700000013
      ],
      [
        37.51679399999992,
        56.181701000000125
      ],
      [
        37.51740099999992,
        56.18300600000013
      ],
      [
        37.51749699999992,
        56.18321100000013
      ],
      [
        37.51800699999992,
        56.184155000000125
      ],
      [
        37.51874099999992,
        56.185258000000125
      ],
      [
        37.51972499999992,
        56.18648900000012
      ],
      [
        37.52070999999992,
        56.18771900000012
      ],
      [
        37.521693999999925,
        56.188951000000124
      ],
      [
        37.52250299999992,
        56.18996300000013
      ],
      [
        37.523320999999925,
        56.191174000000125
      ],
      [
        37.52360599999992,
        56.19185900000012
      ],
      [
        37.52383699999992,
        56.19260900000012
      ],
      [
        37.52403499999992,
        56.19395200000012
      ],
      [
        37.52423499999992,
        56.19529400000012
      ],
      [
        37.52443499999992,
        56.196637000000116
      ],
      [
        37.52463499999992,
        56.19798100000012
      ],
      [
        37.52481199999992,
        56.19917800000012
      ],
      [
        37.525026999999916,
        56.200519000000114
      ],
      [
        37.52524199999991,
        56.20186200000011
      ],
      [
        37.525457999999915,
        56.20320300000011
      ],
      [
        37.525671999999915,
        56.20454500000011
      ],
      [
        37.52588699999991,
        56.20588700000011
      ],
      [
        37.52610199999991,
        56.20722900000011
      ],
      [
        37.52614399999991,
        56.20749200000011
      ],
      [
        37.52614399999991,
        56.20749200000011
      ],
      [
        37.52614499999991,
        56.20750100000011
      ],
      [
        37.52632499999991,
        56.20867200000011
      ],
      [
        37.52645199999991,
        56.21001600000011
      ],
      [
        37.526485999999906,
        56.21038000000011
      ],
      [
        37.526595999999905,
        56.21172500000011
      ],
      [
        37.5267039999999,
        56.213071000000106
      ],
      [
        37.526812999999905,
        56.21441800000011
      ],
      [
        37.5269209999999,
        56.21576300000011
      ],
      [
        37.527029999999904,
        56.21710900000011
      ],
      [
        37.527138999999906,
        56.21845600000011
      ],
      [
        37.52724799999991,
        56.21980200000011
      ],
      [
        37.52726999999991,
        56.22006900000011
      ],
      [
        37.52726999999991,
        56.220954000000106
      ],
      [
        37.52721699999991,
        56.22141200000011
      ],
      [
        37.52709899999991,
        56.22199600000011
      ],
      [
        37.526862999999906,
        56.22269700000011
      ],
      [
        37.52664899999991,
        56.22315200000011
      ],
      [
        37.52613899999991,
        56.22403700000011
      ],
      [
        37.525210999999906,
        56.22528200000011
      ],
      [
        37.524282999999905,
        56.226527000000104
      ],
      [
        37.5234869999999,
        56.2275970000001
      ],
      [
        37.522846999999906,
        56.228255000000104
      ],
      [
        37.52208099999991,
        56.228874000000104
      ],
      [
        37.52153999999991,
        56.229256000000106
      ],
      [
        37.52071699999991,
        56.2297440000001
      ],
      [
        37.52012099999991,
        56.2300520000001
      ],
      [
        37.51821699999991,
        56.2308860000001
      ],
      [
        37.517254999999906,
        56.231309000000095
      ],
      [
        37.51662899999991,
        56.2316460000001
      ],
      [
        37.51573599999991,
        56.2322470000001
      ],
      [
        37.515067999999914,
        56.2328600000001
      ],
      [
        37.51475699999991,
        56.2332230000001
      ],
      [
        37.51451199999991,
        56.2335720000001
      ],
      [
        37.51421999999991,
        56.2341270000001
      ],
      [
        37.51407999999991,
        56.2344960000001
      ],
      [
        37.513762999999905,
        56.2358320000001
      ],
      [
        37.51344699999991,
        56.2371680000001
      ],
      [
        37.513129999999904,
        56.238504000000106
      ],
      [
        37.5129789999999,
        56.239135000000104
      ],
      [
        37.5126239999999,
        56.24046800000011
      ],
      [
        37.51226799999991,
        56.241800000000104
      ],
      [
        37.511913999999905,
        56.24313300000011
      ],
      [
        37.5118329999999,
        56.243432000000105
      ],
      [
        37.5118329999999,
        56.243432000000105
      ],
      [
        37.511828999999906,
        56.243449000000105
      ],
      [
        37.511494999999904,
        56.2447840000001
      ],
      [
        37.511356999999904,
        56.2453360000001
      ],
      [
        37.51126299999991,
        56.2455900000001
      ],
      [
        37.510967999999906,
        56.2461590000001
      ],
      [
        37.51048299999991,
        56.2468950000001
      ],
      [
        37.51007399999991,
        56.247437000000104
      ],
      [
        37.50922599999991,
        56.24830000000011
      ],
      [
        37.508895999999915,
        56.24857800000011
      ],
      [
        37.507446999999914,
        56.24965800000011
      ],
      [
        37.506573999999915,
        56.25031000000011
      ],
      [
        37.50604099999992,
        56.25085300000011
      ],
      [
        37.50549499999992,
        56.25161900000011
      ],
      [
        37.50528399999992,
        56.25202500000011
      ],
      [
        37.50513999999992,
        56.25240800000011
      ],
      [
        37.50503499999992,
        56.25299500000011
      ],
      [
        37.50509899999992,
        56.25380500000011
      ],
      [
        37.50534799999992,
        56.25453800000011
      ],
      [
        37.50552999999992,
        56.25488800000011
      ],
      [
        37.50637499999992,
        56.25615100000011
      ],
      [
        37.506761999999924,
        56.25672800000011
      ],
      [
        37.50711399999992,
        56.25717300000011
      ],
      [
        37.50760099999992,
        56.25770800000011
      ],
      [
        37.508809999999926,
        56.25887600000011
      ],
      [
        37.510019999999926,
        56.26004400000011
      ],
      [
        37.51091599999992,
        56.26091000000011
      ],
      [
        37.511520999999924,
        56.26177200000011
      ],
      [
        37.51161499999992,
        56.261959000000104
      ],
      [
        37.51178199999992,
        56.2624810000001
      ],
      [
        37.51187799999992,
        56.2630120000001
      ],
      [
        37.51186899999992,
        56.263501000000105
      ],
      [
        37.51175599999992,
        56.2640060000001
      ],
      [
        37.51157499999992,
        56.2645150000001
      ],
      [
        37.51133699999992,
        56.264962000000104
      ],
      [
        37.51039499999992,
        56.266205000000106
      ],
      [
        37.509452999999915,
        56.267446000000106
      ],
      [
        37.50928499999991,
        56.26766800000011
      ],
      [
        37.50893599999991,
        56.26825200000011
      ],
      [
        37.508546999999915,
        56.26910000000011
      ],
      [
        37.508371999999916,
        56.269768000000106
      ],
      [
        37.50826399999992,
        56.270342000000106
      ],
      [
        37.50804999999992,
        56.27168400000011
      ],
      [
        37.507859999999916,
        56.27287900000011
      ],
      [
        37.50775499999992,
        56.27334700000011
      ],
      [
        37.50758299999992,
        56.273843000000106
      ],
      [
        37.50708699999992,
        56.27496500000011
      ],
      [
        37.50689299999992,
        56.27552700000011
      ],
      [
        37.50679699999992,
        56.27608800000011
      ],
      [
        37.50669499999992,
        56.277434000000106
      ],
      [
        37.50661099999992,
        56.2785470000001
      ],
      [
        37.50648699999992,
        56.279602000000104
      ],
      [
        37.50641499999992,
        56.2799210000001
      ],
      [
        37.50614499999992,
        56.2806310000001
      ],
      [
        37.505968999999915,
        56.2810100000001
      ],
      [
        37.50536199999991,
        56.2819190000001
      ],
      [
        37.50438599999991,
        56.2831520000001
      ],
      [
        37.503748999999914,
        56.2839580000001
      ],
      [
        37.50305699999991,
        56.284758000000096
      ],
      [
        37.502098999999916,
        56.2859960000001
      ],
      [
        37.501690999999916,
        56.2865220000001
      ],
      [
        37.501690999999916,
        56.2865220000001
      ],
      [
        37.501688999999914,
        56.286526000000094
      ],
      [
        37.50073799999991,
        56.28776500000009
      ],
      [
        37.500601999999915,
        56.28794200000009
      ],
      [
        37.499782999999915,
        56.289211000000094
      ],
      [
        37.49896499999991,
        56.290480000000095
      ],
      [
        37.498279999999916,
        56.291541000000095
      ],
      [
        37.49804899999992,
        56.2920270000001
      ],
      [
        37.49787999999992,
        56.2924990000001
      ],
      [
        37.49748499999992,
        56.2938270000001
      ],
      [
        37.49708999999992,
        56.2951570000001
      ],
      [
        37.49693199999992,
        56.295685000000105
      ],
      [
        37.49664199999992,
        56.296358000000104
      ],
      [
        37.49598399999992,
        56.29765400000011
      ],
      [
        37.49536599999992,
        56.298871000000105
      ],
      [
        37.49468399999992,
        56.300165000000106
      ],
      [
        37.49400299999992,
        56.3014580000001
      ],
      [
        37.493562999999924,
        56.3022940000001
      ],
      [
        37.49303399999992,
        56.303408000000104
      ],
      [
        37.492953999999926,
        56.3036790000001
      ],
      [
        37.49285099999992,
        56.3042640000001
      ],
      [
        37.49284099999992,
        56.3048100000001
      ],
      [
        37.49287099999992,
        56.3050690000001
      ],
      [
        37.49315099999992,
        56.3064070000001
      ],
      [
        37.49342999999992,
        56.3077450000001
      ],
      [
        37.49371099999992,
        56.3090840000001
      ],
      [
        37.493990999999916,
        56.3104230000001
      ],
      [
        37.49419899999992,
        56.3114160000001
      ],
      [
        37.49449899999992,
        56.3127540000001
      ],
      [
        37.49466399999992,
        56.3134860000001
      ],
      [
        37.494918999999925,
        56.314308000000096
      ],
      [
        37.495374999999925,
        56.315631000000096
      ],
      [
        37.49583299999993,
        56.31695500000009
      ],
      [
        37.496105999999926,
        56.317748000000094
      ],
      [
        37.49657799999993,
        56.318811000000096
      ],
      [
        37.497096999999926,
        56.3197730000001
      ],
      [
        37.498011999999925,
        56.3210220000001
      ],
      [
        37.49829799999993,
        56.3214120000001
      ],
      [
        37.49857399999993,
        56.3219140000001
      ],
      [
        37.49876999999993,
        56.3224300000001
      ],
      [
        37.49889999999993,
        56.323258000000095
      ],
      [
        37.49892699999993,
        56.324606000000095
      ],
      [
        37.49895599999993,
        56.3259530000001
      ],
      [
        37.49896099999993,
        56.3262010000001
      ],
      [
        37.49901599999993,
        56.3266740000001
      ],
      [
        37.49910399999993,
        56.3270330000001
      ],
      [
        37.49926399999993,
        56.3274520000001
      ],
      [
        37.49945599999993,
        56.3278150000001
      ],
      [
        37.49967399999993,
        56.3281460000001
      ],
      [
        37.50010199999993,
        56.3286590000001
      ],
      [
        37.500426999999924,
        56.3289550000001
      ],
      [
        37.501323999999926,
        56.3296100000001
      ],
      [
        37.50299199999993,
        56.3305900000001
      ],
      [
        37.504658999999926,
        56.3315710000001
      ],
      [
        37.50632699999993,
        56.332552000000106
      ],
      [
        37.50645399999993,
        56.332626000000104
      ],
      [
        37.50695099999993,
        56.3329510000001
      ],
      [
        37.50752499999993,
        56.3333850000001
      ],
      [
        37.50781399999993,
        56.3336920000001
      ],
      [
        37.50874899999993,
        56.3349350000001
      ],
      [
        37.50898599999993,
        56.335249000000104
      ],
      [
        37.50921299999993,
        56.3356010000001
      ],
      [
        37.50989799999993,
        56.3368930000001
      ],
      [
        37.51023999999993,
        56.337540000000104
      ],
      [
        37.51017499999993,
        56.3375770000001
      ],
      [
        37.51017499999993,
        56.3375770000001
      ],
      [
        37.510167999999936,
        56.337641000000104
      ]
    ]
  }
}
