{
  "type": "Feature",
  "id": "79bfbed6-25db-4b26-8623-4b37557e7da9",
  "properties": {
    "id": "79bfbed6-25db-4b26-8623-4b37557e7da9",
    "name": "Дом - Опалиха",
    "color": "#ff3300",
    "routeType": "Twiter Gravel V1",
    "isSelected": false
  },
  "geometry": {
    "type": "LineString",
    "coordinates": [
      [
        37.322932,
        55.81555
      ],
      [
        37.322848,
        55.815483
      ],
      [
        37.322705,
        55.815515
      ],
      [
        37.322293,
        55.815617
      ],
      [
        37.321939,
        55.815677
      ],
      [
        37.321897,
        55.815613
      ],
      [
        37.321193,
        55.815617
      ],
      [
        37.321207,
        55.815752
      ],
      [
        37.32001,
        55.815752
      ],
      [
        37.319979,
        55.81582
      ],
      [
        37.319976,
        55.815967
      ],
      [
        37.319544,
        55.815968
      ],
      [
        37.318967,
        55.815997
      ],
      [
        37.318808,
        55.816091
      ],
      [
        37.318797,
        55.816753
      ],
      [
        37.318142,
        55.816754
      ],
      [
        37.317274,
        55.81678
      ],
      [
        37.31694,
        55.816727
      ],
      [
        37.316945,
        55.816995
      ],
      [
        37.316885,
        55.817016
      ],
      [
        37.316847,
        55.817077
      ],
      [
        37.316694,
        55.817049
      ],
      [
        37.316683,
        55.817069
      ],
      [
        37.316658,
        55.817113
      ],
      [
        37.316075,
        55.817005
      ],
      [
        37.315785,
        55.816952
      ],
      [
        37.315563,
        55.816916
      ],
      [
        37.315495,
        55.816912
      ],
      [
        37.315368,
        55.816854
      ],
      [
        37.315346,
        55.816808
      ],
      [
        37.315368,
        55.816854
      ],
      [
        37.315495,
        55.816912
      ],
      [
        37.314881,
        55.816981
      ],
      [
        37.314294,
        55.817062
      ],
      [
        37.313765,
        55.817134
      ],
      [
        37.313069,
        55.817229
      ],
      [
        37.312263,
        55.817337
      ],
      [
        37.31186,
        55.817392
      ],
      [
        37.311782,
        55.817403
      ],
      [
        37.310756,
        55.817545
      ],
      [
        37.310503,
        55.817575
      ],
      [
        37.310436,
        55.817581
      ],
      [
        37.309932,
        55.817569
      ],
      [
        37.309686,
        55.817507
      ],
      [
        37.309436,
        55.817341
      ],
      [
        37.309208,
        55.817189
      ],
      [
        37.308663,
        55.816827
      ],
      [
        37.30855,
        55.816751
      ],
      [
        37.308407,
        55.816816
      ],
      [
        37.308324,
        55.816848
      ],
      [
        37.308137,
        55.81692
      ],
      [
        37.307898,
        55.817012
      ],
      [
        37.307861,
        55.817072
      ],
      [
        37.307888,
        55.817129
      ],
      [
        37.307987,
        55.817177
      ],
      [
        37.308008,
        55.817235
      ],
      [
        37.307973,
        55.817295
      ],
      [
        37.307838,
        55.81773
      ],
      [
        37.307507,
        55.818422
      ],
      [
        37.307301,
        55.818852
      ],
      [
        37.307317,
        55.819093
      ],
      [
        37.307527,
        55.819389
      ],
      [
        37.307585,
        55.819634
      ],
      [
        37.307623,
        55.819826
      ],
      [
        37.307623,
        55.819856
      ],
      [
        37.307496,
        55.820211
      ],
      [
        37.307242,
        55.820483
      ],
      [
        37.306625,
        55.821013
      ],
      [
        37.305492,
        55.821728
      ],
      [
        37.303516,
        55.822974
      ],
      [
        37.30321,
        55.823167
      ],
      [
        37.301907,
        55.823989
      ],
      [
        37.301827,
        55.82404
      ],
      [
        37.301422,
        55.824295
      ],
      [
        37.300584,
        55.82481
      ],
      [
        37.300245,
        55.824969
      ],
      [
        37.299662,
        55.825136
      ],
      [
        37.299569,
        55.825154
      ],
      [
        37.298828,
        55.825402
      ],
      [
        37.298181,
        55.825565
      ],
      [
        37.297785,
        55.825646
      ],
      [
        37.296964,
        55.825759
      ],
      [
        37.296594,
        55.825865
      ],
      [
        37.296073,
        55.826097
      ],
      [
        37.295447,
        55.826325
      ],
      [
        37.295161,
        55.826455
      ],
      [
        37.294933,
        55.826656
      ],
      [
        37.294708,
        55.826938
      ],
      [
        37.294687,
        55.827032
      ],
      [
        37.294702,
        55.827115
      ],
      [
        37.294825,
        55.82727
      ],
      [
        37.29488,
        55.827327
      ],
      [
        37.294873,
        55.827367
      ],
      [
        37.294731,
        55.827357
      ],
      [
        37.294675,
        55.827352
      ],
      [
        37.294531,
        55.827344
      ],
      [
        37.293961,
        55.827319
      ],
      [
        37.293524,
        55.827326
      ],
      [
        37.293132,
        55.827349
      ],
      [
        37.292865,
        55.827391
      ],
      [
        37.292144,
        55.827547
      ],
      [
        37.291654,
        55.82767
      ],
      [
        37.291536,
        55.827757
      ],
      [
        37.291406,
        55.827888
      ],
      [
        37.291381,
        55.82805
      ],
      [
        37.291406,
        55.828084
      ],
      [
        37.291432,
        55.828122
      ],
      [
        37.291623,
        55.828178
      ],
      [
        37.291643,
        55.828184
      ],
      [
        37.291784,
        55.828222
      ],
      [
        37.29178,
        55.828296
      ],
      [
        37.291726,
        55.828416
      ],
      [
        37.291886,
        55.829601
      ],
      [
        37.291957,
        55.829744
      ],
      [
        37.291995,
        55.829821
      ],
      [
        37.292083,
        55.830185
      ],
      [
        37.292255,
        55.830267
      ],
      [
        37.292276,
        55.830376
      ],
      [
        37.292219,
        55.830569
      ],
      [
        37.292153,
        55.830569
      ],
      [
        37.291951,
        55.830584
      ],
      [
        37.291806,
        55.830651
      ],
      [
        37.291811,
        55.830682
      ],
      [
        37.29187,
        55.831065
      ],
      [
        37.291954,
        55.831746
      ],
      [
        37.291975,
        55.831973
      ],
      [
        37.292196,
        55.831971
      ],
      [
        37.291975,
        55.831973
      ],
      [
        37.291994,
        55.83226
      ],
      [
        37.292043,
        55.832936
      ],
      [
        37.292046,
        55.832971
      ],
      [
        37.292058,
        55.833073
      ],
      [
        37.292139,
        55.833576
      ],
      [
        37.292156,
        55.833622
      ],
      [
        37.292179,
        55.833927
      ],
      [
        37.292217,
        55.833971
      ],
      [
        37.292403,
        55.833984
      ],
      [
        37.29233,
        55.834666
      ],
      [
        37.292324,
        55.834722
      ],
      [
        37.292324,
        55.835518
      ],
      [
        37.292408,
        55.835576
      ],
      [
        37.292726,
        55.835577
      ],
      [
        37.293347,
        55.83558
      ],
      [
        37.293437,
        55.835581
      ],
      [
        37.293512,
        55.835682
      ],
      [
        37.29367,
        55.835894
      ],
      [
        37.29376,
        55.836016
      ],
      [
        37.293671,
        55.836036
      ],
      [
        37.293633,
        55.836045
      ],
      [
        37.293237,
        55.836133
      ],
      [
        37.29312,
        55.836159
      ],
      [
        37.292984,
        55.836188
      ],
      [
        37.293161,
        55.83646
      ],
      [
        37.293023,
        55.836488
      ],
      [
        37.29306,
        55.836544
      ],
      [
        37.293103,
        55.83661
      ],
      [
        37.292998,
        55.83663
      ],
      [
        37.293052,
        55.836721
      ],
      [
        37.292713,
        55.836783
      ],
      [
        37.292521,
        55.836819
      ],
      [
        37.292554,
        55.837249
      ],
      [
        37.29256,
        55.837385
      ],
      [
        37.292455,
        55.837387
      ],
      [
        37.292355,
        55.837388
      ],
      [
        37.292373,
        55.837636
      ],
      [
        37.29238,
        55.83773
      ],
      [
        37.292382,
        55.837758
      ],
      [
        37.292412,
        55.838205
      ],
      [
        37.292151,
        55.838203
      ],
      [
        37.292113,
        55.838462
      ],
      [
        37.292071,
        55.838474
      ],
      [
        37.291929,
        55.838514
      ],
      [
        37.292071,
        55.838474
      ],
      [
        37.292113,
        55.838462
      ],
      [
        37.292151,
        55.838203
      ],
      [
        37.292412,
        55.838205
      ],
      [
        37.292414,
        55.838236
      ],
      [
        37.292434,
        55.838429
      ],
      [
        37.292561,
        55.838807
      ],
      [
        37.292646,
        55.838908
      ],
      [
        37.292502,
        55.839138
      ],
      [
        37.292624,
        55.83925
      ],
      [
        37.293292,
        55.839555
      ],
      [
        37.293992,
        55.839711
      ],
      [
        37.294268,
        55.839773
      ],
      [
        37.294478,
        55.839787
      ],
      [
        37.294883,
        55.839734
      ],
      [
        37.295042,
        55.839662
      ],
      [
        37.295694,
        55.83972
      ],
      [
        37.295725,
        55.839616
      ],
      [
        37.295941,
        55.839636
      ],
      [
        37.295725,
        55.839616
      ],
      [
        37.295694,
        55.83972
      ],
      [
        37.296225,
        55.839769
      ],
      [
        37.296282,
        55.839774
      ],
      [
        37.297584,
        55.839894
      ],
      [
        37.297765,
        55.839911
      ],
      [
        37.297847,
        55.839918
      ],
      [
        37.297977,
        55.83993
      ],
      [
        37.29822,
        55.839953
      ],
      [
        37.298744,
        55.840001
      ],
      [
        37.298881,
        55.840014
      ],
      [
        37.299085,
        55.840032
      ],
      [
        37.299244,
        55.840047
      ],
      [
        37.299889,
        55.840103
      ],
      [
        37.300107,
        55.840121
      ],
      [
        37.300956,
        55.840134
      ],
      [
        37.301835,
        55.840054
      ],
      [
        37.301923,
        55.840036
      ],
      [
        37.302084,
        55.840001
      ],
      [
        37.302047,
        55.839906
      ],
      [
        37.301778,
        55.839966
      ],
      [
        37.301543,
        55.839996
      ],
      [
        37.301778,
        55.839966
      ],
      [
        37.302047,
        55.839906
      ],
      [
        37.302084,
        55.840001
      ],
      [
        37.302244,
        55.839964
      ],
      [
        37.302568,
        55.839883
      ],
      [
        37.302653,
        55.839862
      ],
      [
        37.303251,
        55.839713
      ],
      [
        37.303363,
        55.839686
      ],
      [
        37.30356,
        55.839637
      ],
      [
        37.303675,
        55.839609
      ],
      [
        37.304438,
        55.839421
      ],
      [
        37.304736,
        55.839348
      ],
      [
        37.304927,
        55.839376
      ],
      [
        37.305842,
        55.839318
      ],
      [
        37.305937,
        55.839351
      ],
      [
        37.306211,
        55.83933
      ],
      [
        37.306325,
        55.8393
      ],
      [
        37.306365,
        55.839265
      ],
      [
        37.306523,
        55.839391
      ],
      [
        37.306537,
        55.839402
      ],
      [
        37.306561,
        55.839419
      ],
      [
        37.306835,
        55.839535
      ],
      [
        37.306902,
        55.839555
      ],
      [
        37.306971,
        55.839576
      ],
      [
        37.307226,
        55.839635
      ],
      [
        37.307685,
        55.83982
      ],
      [
        37.307835,
        55.84004
      ],
      [
        37.308006,
        55.840154
      ],
      [
        37.308626,
        55.840473
      ],
      [
        37.30879,
        55.840589
      ],
      [
        37.308932,
        55.84097
      ],
      [
        37.309138,
        55.84099
      ],
      [
        37.309426,
        55.841161
      ],
      [
        37.309457,
        55.841183
      ],
      [
        37.310032,
        55.841101
      ],
      [
        37.310295,
        55.841063
      ],
      [
        37.310415,
        55.840988
      ],
      [
        37.310685,
        55.840627
      ],
      [
        37.310906,
        55.840456
      ],
      [
        37.310964,
        55.840411
      ],
      [
        37.311372,
        55.840176
      ],
      [
        37.31188,
        55.840131
      ],
      [
        37.31217,
        55.840031
      ],
      [
        37.312168,
        55.839967
      ],
      [
        37.312055,
        55.839888
      ],
      [
        37.312033,
        55.839876
      ],
      [
        37.311904,
        55.839832
      ],
      [
        37.311711,
        55.839766
      ],
      [
        37.311625,
        55.839576
      ],
      [
        37.311677,
        55.839471
      ],
      [
        37.312048,
        55.83922
      ],
      [
        37.312071,
        55.839169
      ],
      [
        37.312119,
        55.839065
      ],
      [
        37.312082,
        55.83867
      ],
      [
        37.312183,
        55.838527
      ],
      [
        37.312386,
        55.838383
      ],
      [
        37.312587,
        55.838307
      ],
      [
        37.312959,
        55.8381
      ],
      [
        37.313069,
        55.838039
      ],
      [
        37.313435,
        55.837731
      ],
      [
        37.313749,
        55.837399
      ],
      [
        37.313873,
        55.837147
      ],
      [
        37.314084,
        55.83698
      ],
      [
        37.314201,
        55.83684
      ],
      [
        37.314224,
        55.836818
      ],
      [
        37.314359,
        55.836688
      ],
      [
        37.314747,
        55.836314
      ],
      [
        37.315401,
        55.835685
      ],
      [
        37.315435,
        55.835653
      ],
      [
        37.315634,
        55.83546
      ],
      [
        37.315674,
        55.835421
      ],
      [
        37.315722,
        55.835378
      ],
      [
        37.315767,
        55.835392
      ],
      [
        37.315908,
        55.835436
      ],
      [
        37.316365,
        55.835578
      ],
      [
        37.316467,
        55.83561
      ],
      [
        37.317006,
        55.835788
      ],
      [
        37.317595,
        55.835989
      ],
      [
        37.317879,
        55.836118
      ],
      [
        37.317937,
        55.836065
      ],
      [
        37.318044,
        55.835962
      ],
      [
        37.318062,
        55.835945
      ],
      [
        37.318269,
        55.835749
      ],
      [
        37.31834,
        55.835681
      ],
      [
        37.318643,
        55.835391
      ],
      [
        37.318964,
        55.835085
      ],
      [
        37.319061,
        55.834992
      ],
      [
        37.319121,
        55.834935
      ],
      [
        37.319319,
        55.834747
      ],
      [
        37.318506,
        55.834483
      ],
      [
        37.317911,
        55.83429
      ],
      [
        37.317799,
        55.834254
      ],
      [
        37.31719,
        55.834056
      ],
      [
        37.317156,
        55.834045
      ],
      [
        37.317127,
        55.834036
      ],
      [
        37.316347,
        55.833782
      ],
      [
        37.31615,
        55.833718
      ],
      [
        37.315629,
        55.833549
      ],
      [
        37.315705,
        55.833474
      ],
      [
        37.315858,
        55.833297
      ],
      [
        37.315919,
        55.833271
      ],
      [
        37.316184,
        55.833009
      ],
      [
        37.316305,
        55.832968
      ],
      [
        37.316828,
        55.832467
      ],
      [
        37.316854,
        55.832393
      ],
      [
        37.31695,
        55.832122
      ],
      [
        37.317314,
        55.831644
      ],
      [
        37.317338,
        55.831535
      ],
      [
        37.317413,
        55.831433
      ],
      [
        37.317622,
        55.831224
      ],
      [
        37.317729,
        55.83103
      ],
      [
        37.317731,
        55.831023
      ],
      [
        37.31778,
        55.830817
      ],
      [
        37.317767,
        55.830641
      ],
      [
        37.317636,
        55.830334
      ],
      [
        37.317652,
        55.830184
      ],
      [
        37.317778,
        55.829916
      ],
      [
        37.317925,
        55.829717
      ],
      [
        37.318049,
        55.829643
      ],
      [
        37.31794,
        55.829496
      ],
      [
        37.317985,
        55.829233
      ],
      [
        37.318158,
        55.829151
      ],
      [
        37.318355,
        55.829058
      ],
      [
        37.318498,
        55.828998
      ],
      [
        37.318498,
        55.828998
      ],
      [
        37.318601,
        55.828969
      ],
      [
        37.318712,
        55.828902
      ],
      [
        37.319513,
        55.828613
      ],
      [
        37.319792,
        55.828513
      ],
      [
        37.320589,
        55.828407
      ],
      [
        37.320942,
        55.828391
      ],
      [
        37.321078,
        55.828385
      ],
      [
        37.321207,
        55.828379
      ],
      [
        37.321787,
        55.828379
      ],
      [
        37.322504,
        55.828359
      ],
      [
        37.322881,
        55.828343
      ],
      [
        37.323363,
        55.828256
      ],
      [
        37.323472,
        55.828271
      ],
      [
        37.323624,
        55.828316
      ],
      [
        37.323671,
        55.828339
      ],
      [
        37.324004,
        55.82848
      ],
      [
        37.325053,
        55.828902
      ],
      [
        37.325398,
        55.829141
      ],
      [
        37.325567,
        55.829267
      ],
      [
        37.325905,
        55.829561
      ],
      [
        37.326232,
        55.829871
      ],
      [
        37.326344,
        55.829977
      ],
      [
        37.326659,
        55.830261
      ],
      [
        37.326682,
        55.830312
      ],
      [
        37.326654,
        55.830369
      ],
      [
        37.326837,
        55.83044
      ],
      [
        37.327025,
        55.830549
      ],
      [
        37.32707,
        55.830574
      ],
      [
        37.327125,
        55.830606
      ],
      [
        37.32729,
        55.8307
      ],
      [
        37.327864,
        55.831031
      ],
      [
        37.328002,
        55.831113
      ],
      [
        37.328393,
        55.831343
      ],
      [
        37.32849,
        55.8314
      ],
      [
        37.328583,
        55.831342
      ],
      [
        37.328995,
        55.831116
      ],
      [
        37.329065,
        55.831077
      ],
      [
        37.329421,
        55.830882
      ],
      [
        37.32964,
        55.830761
      ],
      [
        37.330028,
        55.830979
      ],
      [
        37.329812,
        55.831101
      ],
      [
        37.330016,
        55.831215
      ],
      [
        37.330227,
        55.831333
      ],
      [
        37.330435,
        55.831215
      ],
      [
        37.330618,
        55.831317
      ],
      [
        37.330911,
        55.831157
      ],
      [
        37.330957,
        55.831043
      ],
      [
        37.331111,
        55.830958
      ],
      [
        37.331,
        55.830894
      ],
      [
        37.330793,
        55.830776
      ],
      [
        37.330842,
        55.830722
      ],
      [
        37.331008,
        55.83054
      ],
      [
        37.331101,
        55.830533
      ],
      [
        37.331204,
        55.830475
      ],
      [
        37.331203,
        55.830396
      ],
      [
        37.331155,
        55.830359
      ],
      [
        37.331288,
        55.830192
      ],
      [
        37.331525,
        55.829894
      ],
      [
        37.33142,
        55.829867
      ],
      [
        37.331544,
        55.829711
      ],
      [
        37.331428,
        55.829408
      ],
      [
        37.331364,
        55.82937
      ],
      [
        37.331437,
        55.829281
      ],
      [
        37.33195,
        55.828639
      ],
      [
        37.331854,
        55.828615
      ],
      [
        37.331948,
        55.828499
      ],
      [
        37.332071,
        55.82835
      ],
      [
        37.332107,
        55.828306
      ],
      [
        37.332143,
        55.828262
      ],
      [
        37.332275,
        55.828099
      ],
      [
        37.332314,
        55.828051
      ],
      [
        37.332397,
        55.828072
      ],
      [
        37.332451,
        55.828086
      ],
      [
        37.3325,
        55.828098
      ],
      [
        37.332786,
        55.828169
      ],
      [
        37.332877,
        55.828192
      ],
      [
        37.333128,
        55.82788
      ],
      [
        37.333195,
        55.827796
      ],
      [
        37.333404,
        55.827537
      ],
      [
        37.333455,
        55.827474
      ],
      [
        37.333609,
        55.827282
      ],
      [
        37.33368,
        55.827194
      ],
      [
        37.333877,
        55.82695
      ],
      [
        37.334172,
        55.826582
      ],
      [
        37.33427,
        55.826461
      ],
      [
        37.334678,
        55.825953
      ],
      [
        37.334719,
        55.825902
      ],
      [
        37.334867,
        55.825719
      ],
      [
        37.335073,
        55.825466
      ],
      [
        37.335179,
        55.825336
      ],
      [
        37.335438,
        55.825019
      ],
      [
        37.335738,
        55.824652
      ],
      [
        37.335827,
        55.824541
      ],
      [
        37.335998,
        55.824328
      ],
      [
        37.336366,
        55.823879
      ],
      [
        37.336517,
        55.823694
      ],
      [
        37.336732,
        55.823431
      ],
      [
        37.336682,
        55.823418
      ],
      [
        37.336714,
        55.823377
      ],
      [
        37.336742,
        55.823344
      ],
      [
        37.33669,
        55.82333
      ],
      [
        37.336769,
        55.823236
      ],
      [
        37.336869,
        55.823116
      ],
      [
        37.336909,
        55.823068
      ],
      [
        37.337126,
        55.822806
      ],
      [
        37.337396,
        55.822485
      ],
      [
        37.337452,
        55.822417
      ],
      [
        37.337551,
        55.822297
      ],
      [
        37.337602,
        55.82231
      ],
      [
        37.337639,
        55.822268
      ],
      [
        37.337672,
        55.822228
      ],
      [
        37.337622,
        55.822215
      ],
      [
        37.337727,
        55.822092
      ],
      [
        37.338005,
        55.82175
      ],
      [
        37.338182,
        55.821532
      ],
      [
        37.338427,
        55.821206
      ],
      [
        37.338449,
        55.821178
      ],
      [
        37.338535,
        55.821111
      ],
      [
        37.338722,
        55.820871
      ],
      [
        37.338741,
        55.820846
      ],
      [
        37.338778,
        55.820798
      ],
      [
        37.338789,
        55.820784
      ],
      [
        37.338801,
        55.820769
      ],
      [
        37.338884,
        55.820663
      ],
      [
        37.338918,
        55.82062
      ],
      [
        37.338951,
        55.820579
      ],
      [
        37.338963,
        55.820563
      ],
      [
        37.339072,
        55.820427
      ],
      [
        37.33906,
        55.820402
      ],
      [
        37.339138,
        55.820351
      ],
      [
        37.339261,
        55.820172
      ],
      [
        37.339269,
        55.82016
      ],
      [
        37.339304,
        55.820109
      ],
      [
        37.339315,
        55.820093
      ],
      [
        37.339335,
        55.820062
      ],
      [
        37.339497,
        55.819816
      ],
      [
        37.339521,
        55.819779
      ],
      [
        37.339582,
        55.819687
      ],
      [
        37.339275,
        55.819464
      ],
      [
        37.338912,
        55.81947
      ],
      [
        37.337842,
        55.819488
      ],
      [
        37.337708,
        55.819463
      ],
      [
        37.337683,
        55.819447
      ],
      [
        37.337681,
        55.819445
      ],
      [
        37.337683,
        55.819447
      ],
      [
        37.337681,
        55.819445
      ],
      [
        37.337588,
        55.819383
      ],
      [
        37.33708,
        55.819389
      ],
      [
        37.336914,
        55.819392
      ],
      [
        37.336607,
        55.819186
      ],
      [
        37.336473,
        55.819188
      ],
      [
        37.336061,
        55.819195
      ],
      [
        37.335896,
        55.819198
      ],
      [
        37.335732,
        55.819202
      ],
      [
        37.335527,
        55.819206
      ],
      [
        37.33506,
        55.81922
      ],
      [
        37.334645,
        55.819232
      ],
      [
        37.334622,
        55.819262
      ],
      [
        37.33454,
        55.819275
      ],
      [
        37.334479,
        55.819235
      ],
      [
        37.33344,
        55.81926
      ],
      [
        37.331936,
        55.819295
      ],
      [
        37.331991,
        55.819094
      ],
      [
        37.331999,
        55.819017
      ],
      [
        37.331992,
        55.818971
      ],
      [
        37.331987,
        55.818897
      ],
      [
        37.331985,
        55.818861
      ],
      [
        37.331984,
        55.818843
      ],
      [
        37.331884,
        55.818845
      ],
      [
        37.331826,
        55.818801
      ],
      [
        37.331813,
        55.818654
      ],
      [
        37.331916,
        55.818683
      ],
      [
        37.331813,
        55.818654
      ],
      [
        37.331812,
        55.818645
      ],
      [
        37.331565,
        55.818655
      ],
      [
        37.330899,
        55.818681
      ],
      [
        37.330428,
        55.818699
      ],
      [
        37.330404,
        55.818512
      ],
      [
        37.330445,
        55.818477
      ],
      [
        37.330418,
        55.818256
      ],
      [
        37.329649,
        55.81828
      ],
      [
        37.329135,
        55.818306
      ],
      [
        37.329148,
        55.818334
      ],
      [
        37.329054,
        55.818353
      ],
      [
        37.329257,
        55.818781
      ],
      [
        37.329192,
        55.818791
      ],
      [
        37.32826,
        55.818768
      ],
      [
        37.327863,
        55.818756
      ],
      [
        37.327241,
        55.818316
      ],
      [
        37.326702,
        55.818126
      ],
      [
        37.326376,
        55.818055
      ],
      [
        37.325783,
        55.817952
      ],
      [
        37.325691,
        55.81788
      ],
      [
        37.325589,
        55.818046
      ],
      [
        37.325381,
        55.818156
      ],
      [
        37.325217,
        55.818243
      ],
      [
        37.325285,
        55.818303
      ],
      [
        37.325395,
        55.818295
      ],
      [
        37.325285,
        55.818303
      ],
      [
        37.325217,
        55.818243
      ],
      [
        37.325381,
        55.818156
      ],
      [
        37.325589,
        55.818046
      ],
      [
        37.325691,
        55.81788
      ],
      [
        37.32568,
        55.817813
      ],
      [
        37.325509,
        55.817669
      ],
      [
        37.324601,
        55.816908
      ],
      [
        37.324144,
        55.816536
      ],
      [
        37.324077,
        55.816482
      ],
      [
        37.323729,
        55.816204
      ],
      [
        37.323692,
        55.816174
      ],
      [
        37.32355,
        55.816058
      ],
      [
        37.322932,
        55.81555
      ],
      [
        37.32305,
        55.815506
      ],
      [
        37.323196,
        55.815629
      ]
    ]
  }
}
