{
  "type": "Feature",
  "id": "7a263540-6ab4-4ade-8f4e-89481b955852",
  "properties": {
    "id": "7a263540-6ab4-4ade-8f4e-89481b955852",
    "name": "Донской",
    "color": "#fea690",
    "routeType": "Aspect",
    "isSelected": false
  },
  "geometry": {
    "type": "MultiLineString",
    "coordinates": [
      [
        [
          37.589943202518825,
          55.73581937390456
        ],
        [
          37.58981445648611,
          55.73593438720591
        ],
        [
          37.590511830829975,
          55.73661538004282
        ],
        [
          37.593875320934615,
          55.735350237163686
        ],
        [
          37.59458878853258,
          55.73513231366053
        ],
        [
          37.59470680572922,
          55.73520192824575
        ],
        [
          37.60416698017137,
          55.73224015828333
        ],
        [
          37.604279632949975,
          55.732172051864374
        ],
        [
          37.603922899151016,
          55.73192232733017
        ],
        [
          37.603367681884926,
          55.73155303476929
        ],
        [
          37.60297071495067,
          55.73136536014682
        ],
        [
          37.60260593452465,
          55.73145919756506
        ],
        [
          37.60033411511234,
          55.729388661075184
        ],
        [
          37.60142845639041,
          55.729022371644064
        ],
        [
          37.6011012268906,
          55.728538016692326
        ],
        [
          37.60193271168522,
          55.7286227792445
        ],
        [
          37.60205609329991,
          55.728347300274265
        ],
        [
          37.60246378907017,
          55.72816263745413
        ],
        [
          37.60136408337407,
          55.727257474216664
        ],
        [
          37.601562566841146,
          55.727163626649606
        ],
        [
          37.60174763926319,
          55.7270667515105
        ],
        [
          37.601828105533635,
          55.72713032584777
        ],
        [
          37.60158402451328,
          55.72721811880927
        ],
        [
          37.60147137173465,
          55.72724839219829
        ],
        [
          37.601302392566716,
          55.72722568715873
        ],
        [
          37.60038507708359,
          55.72648852299136
        ],
        [
          37.59910834559249,
          55.72546827684023
        ],
        [
          37.59873820074844,
          55.725553046085174
        ],
        [
          37.598223216617576,
          55.72528965532624
        ],
        [
          37.59623838194656,
          55.72417249537167
        ],
        [
          37.59506893881602,
          55.72349733978196
        ],
        [
          37.59439838656231,
          55.72390001246011
        ],
        [
          37.593695647800395,
          55.724369287387276
        ],
        [
          37.5930465532188,
          55.72379404637015
        ],
        [
          37.592064864719354,
          55.72291300283413
        ],
        [
          37.59118510016247,
          55.722416460915326
        ],
        [
          37.59032142885963,
          55.72175338589907
        ],
        [
          37.58981717356482,
          55.721247745758916
        ],
        [
          37.58889985808172,
          55.720539232938826
        ],
        [
          37.587553389156255,
          55.71958241736403
        ],
        [
          37.58702767618921,
          55.71888144407668
        ],
        [
          37.584474213207045,
          55.71701615800317
        ],
        [
          37.58316529520776,
          55.71605017112081
        ],
        [
          37.58207095392969,
          55.71520226318251
        ],
        [
          37.58240354784753,
          55.71509627339056
        ],
        [
          37.5822748018148,
          55.71494485889484
        ],
        [
          37.58255375155235,
          55.71470259448564
        ],
        [
          37.58304727801108,
          55.71422714618996
        ],
        [
          37.58329404124045,
          55.714127210460056
        ],
        [
          37.58365882166647,
          55.7136154143581
        ],
        [
          37.58409333952689,
          55.71327320374465
        ],
        [
          37.58434546717426,
          55.71317932242441
        ],
        [
          37.58490873106733,
          55.71284619334027
        ],
        [
          37.58476925619855,
          55.71259785890352
        ],
        [
          37.584699518764175,
          55.71244037770757
        ],
        [
          37.58457077273147,
          55.712228382783174
        ],
        [
          37.584324009502076,
          55.71201032965565
        ],
        [
          37.58395922907605,
          55.711855874611196
        ],
        [
          37.584028966510445,
          55.71163781939562
        ],
        [
          37.58416307696118,
          55.711513648518356
        ],
        [
          37.58444739111678,
          55.71141067724632
        ],
        [
          37.584892637813255,
          55.7113925058171
        ],
        [
          37.58549345263257,
          55.71142884866709
        ],
        [
          37.58520913847699,
          55.71130770570176
        ],
        [
          37.585375435435935,
          55.7111229619533
        ],
        [
          37.58546797164693,
          55.71109873318744
        ],
        [
          37.585732169234895,
          55.71127514845303
        ],
        [
          37.585765696847595,
          55.71125394837758
        ],
        [
          37.585529662454285,
          55.71109267599673
        ],
        [
          37.58556587227597,
          55.71108207591072
        ],
        [
          37.58579654225126,
          55.71125167694023
        ],
        [
          37.58632359632265,
          55.711015446726314
        ],
        [
          37.58608487972032,
          55.71084205889824
        ],
        [
          37.58611974843752,
          55.71083297305187
        ],
        [
          37.58648721107255,
          55.71111690474766
        ],
        [
          37.586581088388066,
          55.71116081933159
        ],
        [
          37.58727712162731,
          55.71080647260467
        ],
        [
          37.58774919041394,
          55.71043395082303
        ],
        [
          37.58777869471303,
          55.70990999134845
        ],
        [
          37.588060326659594,
          55.709903933972654
        ],
        [
          37.58808714874973,
          55.709866075352565
        ],
        [
          37.588312454306994,
          55.70996147900463
        ],
        [
          37.58956772812596,
          55.70998267978445
        ],
        [
          37.591319210612696,
          55.71001750960565
        ],
        [
          37.592815883243,
          55.71007202578848
        ],
        [
          37.593620545947395,
          55.710102312508454
        ],
        [
          37.594122119033166,
          55.710188629584366
        ],
        [
          37.59456200131161,
          55.71018105791871
        ],
        [
          37.59567780026181,
          55.710217401894226
        ],
        [
          37.595873601519905,
          55.71038852101863
        ],
        [
          37.59670508631451,
          55.71041123589008
        ],
        [
          37.59814006813748,
          55.71044000801036
        ],
        [
          37.59850484856351,
          55.7104384936809
        ],
        [
          37.59850753077252,
          55.710337033890234
        ],
        [
          37.59859872587902,
          55.710329462253455
        ],
        [
          37.60051918753369,
          55.710623240679816
        ],
        [
          37.60128227599839,
          55.710761800340805
        ],
        [
          37.600901402318236,
          55.711777889520945
        ],
        [
          37.60059831269954,
          55.71259104460839
        ],
        [
          37.600399829232416,
          55.713004429774394
        ],
        [
          37.60028717645378,
          55.71312859588691
        ],
        [
          37.600128926121904,
          55.71376607665786
        ],
        [
          37.59986606963843,
          55.71408102767215
        ],
        [
          37.59979364999505,
          55.7142612148496
        ],
        [
          37.60012624391289,
          55.714279384938806
        ],
        [
          37.600539304101176,
          55.71431875343008
        ],
        [
          37.601150847756564,
          55.71439294779785
        ],
        [
          37.60151026376457,
          55.714439887018656
        ],
        [
          37.60192064174384,
          55.71432783846231
        ],
        [
          37.60206011661263,
          55.7140991978393
        ],
        [
          37.602706528985216,
          55.71420216198859
        ],
        [
          37.602792359673685,
          55.714230931336274
        ],
        [
          37.602695800149164,
          55.71428089910008
        ],
        [
          37.602714575612254,
          55.71438386277462
        ],
        [
          37.60268507131308,
          55.71447622701543
        ],
        [
          37.60260192283362,
          55.71457464768643
        ],
        [
          37.60268238910407,
          55.714400518637525
        ],
        [
          37.602744079911425,
          55.71428695579436
        ],
        [
          37.60278967746467,
          55.71419913363497
        ],
        [
          37.602064139926156,
          55.71410828291036
        ],
        [
          37.60194075831145,
          55.71431799633152
        ],
        [
          37.601542450272746,
          55.71444291534109
        ],
        [
          37.6017127705452,
          55.7144716845107
        ],
        [
          37.60209498532982,
          55.71453452235979
        ],
        [
          37.601586706721505,
          55.714440644089954
        ],
        [
          37.60193673499794,
          55.714299069173876
        ],
        [
          37.60213790067406,
          55.71400607559232
        ],
        [
          37.60206011661263,
          55.713922795361924
        ],
        [
          37.602170087182245,
          55.71392582373705
        ],
        [
          37.602219708049,
          55.71394702235642
        ],
        [
          37.60254291423531,
          55.71400607559232
        ],
        [
          37.60211376079292,
          55.71393869432876
        ],
        [
          37.602107055270395,
          55.71403333090173
        ],
        [
          37.6019112540123,
          55.714299826254106
        ],
        [
          37.60147405394287,
          55.71444821492031
        ],
        [
          37.60002834328379,
          55.71426424315476
        ],
        [
          37.59974268802372,
          55.71424228762068
        ],
        [
          37.59991703160966,
          55.7140726996233
        ],
        [
          37.60011685618125,
          55.713861470689686
        ],
        [
          37.600344843947475,
          55.713118753377806
        ],
        [
          37.60059965380388,
          55.7125630310558
        ],
        [
          37.601145483338385,
          55.71115476182014
        ],
        [
          37.60132525543116,
          55.71067154193536
        ],
        [
          37.60243166664976,
          55.71085098774647
        ],
        [
          37.60416839698683,
          55.711104633357294
        ],
        [
          37.60528151372797,
          55.71125076276886
        ],
        [
          37.60579381564982,
          55.71135070588255
        ],
        [
          37.60596011260874,
          55.71143702018236
        ],
        [
          37.60608504338607,
          55.71195204762657
        ],
        [
          37.60619099064215,
          55.71230335535532
        ],
        [
          37.60626341028556,
          55.7124835507674
        ],
        [
          37.60651956124643,
          55.71246310846648
        ],
        [
          37.60688836498596,
          55.71270462970633
        ],
        [
          37.60692591591215,
          55.71278942677033
        ],
        [
          37.60712305827473,
          55.71275687077414
        ],
        [
          37.60722095890378,
          55.71296734859367
        ],
        [
          37.607250463202895,
          55.71311195678903
        ],
        [
          37.60762865467396,
          55.7140954297089
        ],
        [
          37.6078539602311,
          55.71455876628226
        ],
        [
          37.607843231395044,
          55.71474955033623
        ],
        [
          37.608621072009356,
          55.716772409402225
        ],
        [
          37.60988171024635,
          55.71677240938354
        ],
        [
          37.60992462559059,
          55.71692987304152
        ],
        [
          37.609938036635675,
          55.71704342816847
        ],
        [
          37.610415469840326,
          55.71705705476143
        ],
        [
          37.610937159493666,
          55.71705856881456
        ],
        [
          37.61100555582357,
          55.717386362626904
        ],
        [
          37.61102835460019,
          55.716857197561325
        ],
        [
          37.61100689692806,
          55.71670578992674
        ],
        [
          37.6135777942688,
          55.71667853647745
        ],
        [
          37.61342490835492,
          55.71560352456403
        ],
        [
          37.6134973279983,
          55.713574547882935
        ],
        [
          37.613400768473724,
          55.71192403353904
        ],
        [
          37.614747237399214,
          55.71185437726673
        ],
        [
          37.61835480852421,
          55.71179683502844
        ],
        [
          37.62158687038715,
          55.711736264153465
        ],
        [
          37.62090558929736,
          55.71171203578205
        ],
        [
          37.620937775805544,
          55.71158180802712
        ],
        [
          37.620833169653956,
          55.71122292230057
        ],
        [
          37.62110943718249,
          55.711076035628984
        ],
        [
          37.621487628653604,
          55.711077549927374
        ],
        [
          37.621671359971124,
          55.7110253065856
        ],
        [
          37.62155200166995,
          55.710768631818155
        ],
        [
          37.62237678094203,
          55.71068761612074
        ],
        [
          37.62229095025356,
          55.71049075485962
        ],
        [
          37.62217561526591,
          55.71049529781676
        ],
        [
          37.62180815263083,
          55.70968815631283
        ],
        [
          37.62168208880713,
          55.70898246165709
        ],
        [
          37.621593575909614,
          55.708491799457825
        ],
        [
          37.62156407161044,
          55.70813137081818
        ],
        [
          37.621580164864525,
          55.70787089089929
        ],
        [
          37.62196640296268,
          55.707663414361086
        ],
        [
          37.62221584840106,
          55.707587692723465
        ],
        [
          37.62254576010989,
          55.70741050351557
        ],
        [
          37.622612815335266,
          55.707322665831285
        ],
        [
          37.62266645951556,
          55.707084897311695
        ],
        [
          37.622618179753246,
          55.7068107801902
        ],
        [
          37.6226450018434,
          55.70667750708892
        ],
        [
          37.62257258219999,
          55.70649577030601
        ],
        [
          37.62237409873289,
          55.706333720958675
        ],
        [
          37.622046869233074,
          55.70621407661493
        ],
        [
          37.621502380803065,
          55.706220134565235
        ],
        [
          37.62161672741736,
          55.70565972716208
        ],
        [
          37.62196005017125,
          55.70568698831939
        ],
        [
          37.622230953281765,
          55.70543557914457
        ],
        [
          37.622048563068745,
          55.70530078680963
        ],
        [
          37.62197614342536,
          55.70509178204109
        ],
        [
          37.62210488945807,
          55.70445415910143
        ],
        [
          37.62210488945807,
          55.70433753809351
        ],
        [
          37.622332877224316,
          55.7041921399915
        ],
        [
          37.62254745394553,
          55.70410732418108
        ],
        [
          37.62222558886369,
          55.70379532156715
        ],
        [
          37.6221370759662,
          55.70351057913987
        ],
        [
          37.622049083017835,
          55.7030567257756
        ],
        [
          37.62209468057108,
          55.70281893118713
        ],
        [
          37.62212418487025,
          55.70257204736368
        ],
        [
          37.62197934558344,
          55.702220651744724
        ],
        [
          37.621923019194135,
          55.70181926924607
        ],
        [
          37.62187095574331,
          55.70162670399151
        ],
        [
          37.62161346367787,
          55.70101174463746
        ],
        [
          37.62154104403446,
          55.700834525464266
        ],
        [
          37.622581741132244,
          55.70071789361455
        ],
        [
          37.622799000062464,
          55.700633070231596
        ],
        [
          37.622823139943584,
          55.700399804975135
        ],
        [
          37.622906288423046,
          55.70024984800055
        ],
        [
          37.62313427618932,
          55.70009534626466
        ],
        [
          37.62293847493123,
          55.69944855295357
        ],
        [
          37.62308599642706,
          55.699383418605194
        ],
        [
          37.62328447989416,
          55.69928041522712
        ],
        [
          37.623190602578546,
          55.69909864388251
        ],
        [
          37.62319596699657,
          55.69900472836158
        ],
        [
          37.62329789093915,
          55.69889869443655
        ],
        [
          37.623686811246316,
          55.698827500061434
        ],
        [
          37.62387188366833,
          55.69879568976939
        ],
        [
          37.62386383704129,
          55.69855786913708
        ],
        [
          37.62408109597149,
          55.698471526257215
        ],
        [
          37.62526395014702,
          55.698367005647825
        ],
        [
          37.62532832316339,
          55.69853817689334
        ],
        [
          37.62534978083549,
          55.69865027092939
        ],
        [
          37.624491473950734,
          55.69870480304643
        ],
        [
          37.62422325304924,
          55.69875933508704
        ],
        [
          37.624236664094326,
          55.698854765968086
        ],
        [
          37.62411864689762,
          55.69883052956824
        ],
        [
          37.62411060027058,
          55.69875024640651
        ],
        [
          37.62471141508992,
          55.69867753698506
        ],
        [
          37.6254114716428,
          55.698604827427786
        ],
        [
          37.625371238507576,
          55.698489703684274
        ],
        [
          37.6258781760114,
          55.69845031916133
        ],
        [
          37.62588354042943,
          55.69784742812292
        ],
        [
          37.625964006699874,
          55.69719302325409
        ],
        [
          37.62623222760132,
          55.69519035482143
        ],
        [
          37.62651117733882,
          55.69367843853346
        ],
        [
          37.62698324612545,
          55.69167255917628
        ],
        [
          37.627358755387526,
          55.69169073980345
        ],
        [
          37.62776108673976,
          55.690163536480696
        ],
        [
          37.62863548687859,
          55.68816353676013
        ],
        [
          37.62933286122246,
          55.68688469522149
        ],
        [
          37.62996586254998,
          55.68599372390945
        ],
        [
          37.63103338173789,
          55.68523304860618
        ],
        [
          37.63229938439294,
          55.68457237034259
        ],
        [
          37.633307894982536,
          55.684220812205176
        ],
        [
          37.63495477131764,
          55.68377226789849
        ],
        [
          37.63629587582508,
          55.683560116767474
        ],
        [
          37.63758870057025,
          55.68344494852662
        ],
        [
          37.63845773629109,
          55.68342373328103
        ],
        [
          37.64075907162586,
          55.68356314749988
        ],
        [
          37.643097957886845,
          55.683751052831234
        ],
        [
          37.65144499234116,
          55.6843905302982
        ],
        [
          37.65596183232216,
          55.68471784166638
        ],
        [
          37.65598328999427,
          55.684572370262025
        ],
        [
          37.65618177346137,
          55.68450569568677
        ],
        [
          37.656160315789265,
          55.684417806299464
        ],
        [
          37.65660556248574,
          55.684287487187675
        ],
        [
          37.656884512223286,
          55.68416322902377
        ],
        [
          37.65720637730507,
          55.68408443095826
        ],
        [
          37.657404860772154,
          55.6838540972372
        ],
        [
          37.657496055878674,
          55.6836207314199
        ],
        [
          37.65756042889502,
          55.68347828666226
        ],
        [
          37.6575711577311,
          55.6833328106273
        ],
        [
          37.65796276024725,
          55.683217641708
        ],
        [
          37.65833826950936,
          55.6830418569208
        ],
        [
          37.65853675297646,
          55.6827236238221
        ],
        [
          37.65876742295172,
          55.68239629563608
        ],
        [
          37.657699903763806,
          55.681338521848076
        ],
        [
          37.65767844609168,
          55.68107786257854
        ],
        [
          37.65780719212439,
          55.68101421295702
        ],
        [
          37.65817197255041,
          55.68105058418206
        ],
        [
          37.65835436276343,
          55.68112635745845
        ],
        [
          37.660569867409684,
          55.68123547071129
        ],
        [
          37.661047300614314,
          55.68078083010288
        ],
        [
          37.661444267548525,
          55.68040195887912
        ],
        [
          37.66154082707305,
          55.68036407155466
        ],
        [
          37.66211750201124,
          55.680377710995714
        ],
        [
          37.66275854996578,
          55.6794835597464
        ],
        [
          37.66325207642446,
          55.679239558971425
        ],
        [
          37.66326816967857,
          55.67915317323969
        ],
        [
          37.663469335354684,
          55.679133471203876
        ],
        [
          37.66320111445314,
          55.67790131637468
        ],
        [
          37.662895342625454,
          55.6771738265994
        ],
        [
          37.66282560519106,
          55.67697982703122
        ],
        [
          37.66302408865816,
          55.67681613914402
        ],
        [
          37.66289266041644,
          55.676317493087694
        ],
        [
          37.66281487635501,
          55.67583702869679
        ],
        [
          37.661843916691616,
          55.67202038499704
        ],
        [
          37.66332986048582,
          55.67194307817118
        ],
        [
          37.66342642001032,
          55.67173086258809
        ],
        [
          37.66365977219457,
          55.671782400742984
        ],
        [
          37.664212307251645,
          55.6718672869977
        ],
        [
          37.66580553940648,
          55.67178391657059
        ],
        [
          37.666304430283134,
          55.67167174513804
        ],
        [
          37.66670676163537,
          55.67158989012763
        ],
        [
          37.66711445740563,
          55.67152622500065
        ],
        [
          37.667739412106116,
          55.67147923400683
        ],
        [
          37.667921802319114,
          55.67149136072034
        ],
        [
          37.668780109203894,
          55.671195771003354
        ],
        [
          37.67016144684651,
          55.67080164788594
        ],
        [
          37.67048599926632,
          55.6707056947121
        ],
        [
          37.670523550192534,
          55.67050863117604
        ],
        [
          37.67044040171307,
          55.67023425643892
        ],
        [
          37.67066570727033,
          55.67014785073492
        ],
        [
          37.67062547413511,
          55.67010919548333
        ],
        [
          37.670696552673995,
          55.67015012456551
        ],
        [
          37.6709124704997,
          55.67010388985841
        ],
        [
          37.67022582499184,
          55.66863268795824
        ],
        [
          37.66983958689371,
          55.667841353931095
        ],
        [
          37.669649150053615,
          55.66756392842104
        ],
        [
          37.66990395991002,
          55.66734107698937
        ],
        [
          37.670160110870896,
          55.66719705667646
        ],
        [
          37.670126583258224,
          55.6671705265619
        ],
        [
          37.67006757465985,
          55.66705682586014
        ],
        [
          37.67007428018238,
          55.6669825412265
        ],
        [
          37.67004477588323,
          55.66691962657911
        ],
        [
          37.66999247280744,
          55.66685595382047
        ],
        [
          37.670039411465204,
          55.66695828498895
        ],
        [
          37.670048799196735,
          55.66698784727646
        ],
        [
          37.67001393047954,
          55.666996943360424
        ],
        [
          37.66983019916199,
          55.6669992173749
        ],
        [
          37.66964244453094,
          55.66704469776019
        ],
        [
          37.66958209482811,
          55.667146270422826
        ],
        [
          37.669354107061835,
          55.667156882477435
        ],
        [
          37.66917842237138,
          55.66689309625713
        ],
        [
          37.66892629472394,
          55.666532282318315
        ],
        [
          37.66846361366887,
          55.666486801334955
        ],
        [
          37.66672554222717,
          55.66629957071536
        ],
        [
          37.66567411629333,
          55.6660812602012
        ],
        [
          37.66256811825409,
          55.66559763742218
        ],
        [
          37.66005063915871,
          55.6652052850718
        ],
        [
          37.66101623440402,
          55.6636163971258
        ],
        [
          37.66101891661304,
          55.663454169237134
        ],
        [
          37.660863348490174,
          55.66337836158101
        ],
        [
          37.66002918148651,
          55.66323584278212
        ],
        [
          37.65990848208084,
          55.66324039126227
        ],
        [
          37.659583934790035,
          55.6632510043806
        ],
        [
          37.659318396097554,
          55.663243423582095
        ],
        [
          37.65907967949522,
          55.663166099353205
        ],
        [
          37.658701488024136,
          55.66309635578713
        ],
        [
          37.65857005978241,
          55.6630811941285
        ],
        [
          37.65824551249161,
          55.663100904283574
        ],
        [
          37.658242830282575,
          55.662978094693365
        ],
        [
          37.658122130876905,
          55.66292957721777
        ],
        [
          37.65786195660247,
          55.662881059681744
        ],
        [
          37.657639333254245,
          55.662814347971114
        ],
        [
          37.65754009152068,
          55.662717312551784
        ],
        [
          37.65676493311533,
          55.66168023140585
        ],
        [
          37.65677834416042,
          55.66139821333641
        ],
        [
          37.656770297533356,
          55.661286012034125
        ],
        [
          37.65621776247626,
          55.66090088617567
        ],
        [
          37.65612656736976,
          55.660612797424754
        ],
        [
          37.65610510969763,
          55.66008816717701
        ],
        [
          37.65592271948463,
          55.659827365697765
        ],
        [
          37.655472108370134,
          55.6594755841939
        ],
        [
          37.65501076841953,
          55.65887208955731
        ],
        [
          37.65481764937045,
          55.65823825850341
        ],
        [
          37.65495175982119,
          55.65766810501791
        ],
        [
          37.65496785307527,
          55.65680679350603
        ],
        [
          37.65485520029661,
          55.656529289430324
        ],
        [
          37.654621848112285,
          55.656059196065904
        ],
        [
          37.654627212530315,
          55.65585750911305
        ],
        [
          37.65478680977832,
          55.6556834930981
        ],
        [
          37.65479217419635,
          55.65558416523189
        ],
        [
          37.65470366129886,
          55.65546588134322
        ],
        [
          37.654585644102205,
          55.655314234807044
        ],
        [
          37.65443812260638,
          55.655094346275625
        ],
        [
          37.654365702963,
          55.654892654330844
        ],
        [
          37.6543871606351,
          55.654715225215895
        ],
        [
          37.6543938661576,
          55.65459997166445
        ],
        [
          37.654455556964955,
          55.65451428954087
        ],
        [
          37.65460710177429,
          55.654400551917746
        ],
        [
          37.654643311595976,
          55.65432624315808
        ],
        [
          37.65478949198731,
          55.65410331602311
        ],
        [
          37.65488605151184,
          55.65402976495604
        ],
        [
          37.655014797544546,
          55.653934224187495
        ],
        [
          37.65529106507306,
          55.65369992082918
        ],
        [
          37.65545602092746,
          55.653600587915044
        ],
        [
          37.655815436935406,
          55.65341784501027
        ],
        [
          37.655960276222224,
          55.65331320346624
        ],
        [
          37.65620435724257,
          55.65321007818538
        ],
        [
          37.65628214130401,
          55.65316609820585
        ],
        [
          37.656606688594785,
          55.65295378035305
        ],
        [
          37.657041206455176,
          55.652783925248144
        ],
        [
          37.65773321638101,
          55.65259132078406
        ],
        [
          37.65779222497935,
          55.65255188983406
        ],
        [
          37.657971932983266,
          55.65250639250986
        ],
        [
          37.65878196010576,
          55.65172383064748
        ],
        [
          37.659071638679386,
          55.6514690396748
        ],
        [
          37.65945251235949,
          55.65136894276569
        ],
        [
          37.65960808048236,
          55.651302211350185
        ],
        [
          37.66032423028934,
          55.65090940364533
        ],
        [
          37.66072924385059,
          55.650707690049124
        ],
        [
          37.661035015678245,
          55.65058939135823
        ],
        [
          37.660817756748024,
          55.65037099284338
        ],
        [
          37.66133274087889,
          55.650217809821804
        ],
        [
          37.66173239002211,
          55.649940258847444
        ],
        [
          37.66238148460371,
          55.649608105079515
        ],
        [
          37.66358043203338,
          55.64915916217341
        ],
        [
          37.66713704118709,
          55.64774556492562
        ],
        [
          37.675044193362986,
          55.64463000982296
        ],
        [
          37.67889584550838,
          55.64323445165219
        ],
        [
          37.68060709485982,
          55.64270958750091
        ],
        [
          37.682334437465414,
          55.64213313897156
        ],
        [
          37.68480743417708,
          55.64119866744756
        ],
        [
          37.687816872691776,
          55.640000205313015
        ],
        [
          37.68794025430643,
          55.639959244545544
        ],
        [
          37.688239320611544,
          55.640160255198026
        ],
        [
          37.68882940659483,
          55.63996834691951
        ],
        [
          37.68925319561917,
          55.64040525925035
        ]
      ],
      [
        [
          37.69023259037232,
          55.74481065783285
        ],
        [
          37.68907387607788,
          55.745311452647584
        ],
        [
          37.68843282812332,
          55.74556260411535
        ],
        [
          37.68774081819748,
          55.74589091412792
        ],
        [
          37.687722042734386,
          55.74594386709593
        ],
        [
          37.688060001070255,
          55.74578803386947
        ],
        [
          37.687577203447574,
          55.74550057287969
        ],
        [
          37.68749405496811,
          55.74533566008866
        ],
        [
          37.68739481323455,
          55.74493018345469
        ],
        [
          37.68633802288269,
          55.745040630865915
        ],
        [
          37.68568892830108,
          55.74511627959027
        ],
        [
          37.68498350733018,
          55.745282706279184
        ],
        [
          37.68326152914256,
          55.74568364036876
        ],
        [
          37.681882873708865,
          55.745995307027826
        ],
        [
          37.681472495729565,
          55.74612239363815
        ],
        [
          37.68135984295093,
          55.74630545821603
        ],
        [
          37.681182817155936,
          55.74652634490547
        ],
        [
          37.681153312856786,
          55.74681077249149
        ],
        [
          37.6808663164922,
          55.74686069839549
        ],
        [
          37.680362061197386,
          55.74683044027951
        ],
        [
          37.68006433599675,
          55.74677143688558
        ],
        [
          37.67981757276738,
          55.746745717429434
        ],
        [
          37.67978002184117,
          55.74681077249149
        ],
        [
          37.67946620338642,
          55.746828927373095
        ],
        [
          37.679431334669225,
          55.74676992397688
        ],
        [
          37.67928381317339,
          55.74686221129437
        ],
        [
          37.67722387664993,
          55.74702863049193
        ],
        [
          37.67621000164228,
          55.74716176534677
        ],
        [
          37.67545898311813,
          55.74718597163497
        ],
        [
          37.67429490440566,
          55.74712243009623
        ],
        [
          37.6729484354802,
          55.74699837250049
        ],
        [
          37.67043252342422,
          55.74686826289571
        ],
        [
          37.670097247297285,
          55.74683800476679
        ],
        [
          37.66955812328528,
          55.74693331773374
        ],
        [
          37.66942937725257,
          55.746692765510396
        ],
        [
          37.669147745306006,
          55.746630736079155
        ],
        [
          37.668962672883964,
          55.74661711984928
        ],
        [
          37.66880442255211,
          55.74665494269825
        ],
        [
          37.668533519441546,
          55.7465566032081
        ],
        [
          37.66790320032307,
          55.74649911231759
        ],
        [
          37.66767521255679,
          55.7465490386221
        ],
        [
          37.66496886366077,
          55.74687431447097
        ],
        [
          37.663273707563356,
          55.74706191419824
        ],
        [
          37.66231884115405,
          55.74715268792832
        ],
        [
          37.66009260767169,
          55.74730397701763
        ],
        [
          37.659325495893434,
          55.74734936362325
        ],
        [
          37.6572494661159,
          55.74725253878708
        ],
        [
          37.655967370206774,
          55.74719202313567
        ],
        [
          37.65585471742817,
          55.746965088626844
        ],
        [
          37.655779615575746,
          55.74693180478742
        ],
        [
          37.65510369890399,
          55.746949959612465
        ],
        [
          37.654969588453255,
          55.74701047563466
        ],
        [
          37.651273504430726,
          55.747415930545586
        ],
        [
          37.64911164396469,
          55.74783650990004
        ],
        [
          37.64800657385054,
          55.748102773616395
        ],
        [
          37.64726091974441,
          55.74813000502998
        ],
        [
          37.6469551479167,
          55.74808461933007
        ],
        [
          37.64662791841689,
          55.74822077627072
        ],
        [
          37.64575888269605,
          55.74842652363121
        ],
        [
          37.645587221319055,
          55.74829641879678
        ],
        [
          37.64527072065532,
          55.74837508688068
        ],
        [
          37.64510174148736,
          55.748676142115066
        ],
        [
          37.64468331688105,
          55.74893483595525
        ],
        [
          37.64220763796031,
          55.748429549300695
        ],
        [
          37.642156675989014,
          55.748588397607996
        ],
        [
          37.64179189556291,
          55.749080066810926
        ],
        [
          37.64150758140733,
          55.74889701530704
        ],
        [
          37.64151562803438,
          55.7487790147068
        ],
        [
          37.64094163530519,
          55.748426523599804
        ],
        [
          37.63902117365052,
          55.747070991506064
        ],
        [
          37.637755170995455,
          55.74617534614003
        ],
        [
          37.63648916834038,
          55.74542492466514
        ],
        [
          37.63668496959847,
          55.74531145241539
        ],
        [
          37.63666619413538,
          55.74522975219037
        ],
        [
          37.636456981832225,
          55.745132922071576
        ],
        [
          37.636167303258595,
          55.74524639484274
        ],
        [
          37.635872260266964,
          55.74540525615932
        ],
        [
          37.63538409822626,
          55.74501944896274
        ],
        [
          37.63521243684931,
          55.74501188407746
        ],
        [
          37.634893253976536,
          55.74522672624655
        ],
        [
          37.63431121462029,
          55.74548695600904
        ],
        [
          37.63313324107398,
          55.74573934555492
        ],
        [
          37.63229907407032,
          55.745887614255636
        ],
        [
          37.63140858067737,
          55.74600562363844
        ],
        [
          37.63040275229679,
          55.74613119733161
        ],
        [
          37.62918771161299,
          55.74628097746475
        ],
        [
          37.628635176555946,
          55.746356623780336
        ],
        [
          37.62726724995835,
          55.74649429969673
        ],
        [
          37.62622387065156,
          55.7465139676387
        ],
        [
          37.62617559088929,
          55.74668492707696
        ],
        [
          37.625864454643555,
          55.746615333060134
        ],
        [
          37.62573302640183,
          55.74667131086608
        ],
        [
          37.62561769141419,
          55.74665618173729
        ],
        [
          37.625556000606835,
          55.74673182732233
        ],
        [
          37.625049063103035,
          55.74662441054766
        ],
        [
          37.62496859683259,
          55.74718267195425
        ],
        [
          37.62476743115642,
          55.74922199772915
        ],
        [
          37.62458504094342,
          55.7506046844298
        ],
        [
          37.624469705955725,
          55.75140492588875
        ],
        [
          37.62454480780815,
          55.75146997314877
        ],
        [
          37.62463063849662,
          55.751382234958456
        ],
        [
          37.62463868512366,
          55.75099194888282
        ],
        [
          37.624686964885896,
          55.750355078281515
        ],
        [
          37.623943992988785,
          55.750355078281515
        ],
        [
          37.624112972156716,
          55.74994511568427
        ],
        [
          37.62342096223088,
          55.749833169426005
        ],
        [
          37.62342096223088,
          55.74968642857182
        ],
        [
          37.623262711898995,
          55.749668275025556
        ],
        [
          37.62236148966998,
          55.74963045510403
        ],
        [
          37.62129665269108,
          55.74952909754949
        ],
        [
          37.61878342284408,
          55.74916451071389
        ],
        [
          37.61663497342316,
          55.74885438228727
        ],
        [
          37.61527777566162,
          55.748488276290054
        ],
        [
          37.613866933719784,
          55.74810703827252
        ],
        [
          37.61381597174851,
          55.748058626822534
        ],
        [
          37.61367649687972,
          55.748011728178874
        ],
        [
          37.61345655574051,
          55.748011728178874
        ],
        [
          37.61318028821197,
          55.74795423944169
        ],
        [
          37.61335463179793,
          55.74774243809688
        ],
        [
          37.61219859971248,
          55.74737934738444
        ],
        [
          37.611517318622695,
          55.747161491331866
        ],
        [
          37.61028886689384,
          55.74642319228445
        ],
        [
          37.60966927661138,
          55.745877023508164
        ],
        [
          37.60886461390691,
          55.74502522695918
        ],
        [
          37.607695170776395,
          55.74368773254254
        ],
        [
          37.607351848022475,
          55.7432610560872
        ],
        [
          37.60721773757174,
          55.74253176136215
        ],
        [
          37.607158728973424,
          55.741914422355144
        ],
        [
          37.60645867242032,
          55.74020155783976
        ],
        [
          37.60606153842928,
          55.73919568087147
        ],
        [
          37.605787953109754,
          55.73879014016759
        ],
        [
          37.6053105199051,
          55.73834827756826
        ],
        [
          37.60447367069245,
          55.73793667501094
        ],
        [
          37.6021830641937,
          55.736874357083884
        ],
        [
          37.59952231285093,
          55.73559106251694
        ],
        [
          37.59837969181054,
          55.73486767732723
        ],
        [
          37.598009546966495,
          55.735076522130775
        ],
        [
          37.59785934326165,
          55.73507349540251
        ],
        [
          37.59725852844232,
          55.73540340739654
        ],
        [
          37.595423897476145,
          55.736293247796496
        ],
        [
          37.59519322750086,
          55.736393126570384
        ],
        [
          37.59518786308283,
          55.73619942204156
        ],
        [
          37.59491964218133,
          55.736158562370534
        ],
        [
          37.5943912470054,
          55.736244821625654
        ],
        [
          37.59420349237435,
          55.735798390072596
        ],
        [
          37.593897720546664,
          55.73587103013121
        ],
        [
          37.593589266509944,
          55.73601479651364
        ],
        [
          37.59347929594033,
          55.735969396660856
        ],
        [
          37.59370191928858,
          55.735880110129
        ],
        [
          37.593245943756024,
          55.73553355537581
        ],
        [
          37.59050740835174,
          55.73655959059809
        ],
        [
          37.589796622962766,
          55.73588162344297
        ],
        [
          37.590008517474935,
          55.735805956732925
        ]
      ]
    ]
  }
}
