{
  "type": "Feature",
  "id": "8924897a-b531-4eb7-a8f8-be948a330e38",
  "properties": {
    "id": "8924897a-b531-4eb7-a8f8-be948a330e38",
    "name": "Молжаниново - Останкино",
    "color": "#ff3300",
    "routeType": "Twiter Gravel V1",
    "isSelected": false
  },
  "geometry": {
    "type": "MultiLineString",
    "coordinates": [
      [
        [
          37.32310313258514,
          55.815501787326085
        ],
        [
          37.32294935260158,
          55.81558233290307
        ],
        [
          37.32361096415873,
          55.816246827518825
        ],
        [
          37.323178234437684,
          55.81636361630534
        ],
        [
          37.32361096415873,
          55.81713884328659
        ],
        [
          37.324072304109286,
          55.81742678078899
        ],
        [
          37.323825540879916,
          55.81771672967822
        ],
        [
          37.323317709306444,
          55.817805324739375
        ],
        [
          37.32256669078224,
          55.818451659845124
        ],
        [
          37.322194757798826,
          55.81875166842339
        ],
        [
          37.32178706202856,
          55.81904764777075
        ],
        [
          37.32172268901217,
          55.819518793898126
        ],
        [
          37.32152599368443,
          55.81969396215351
        ],
        [
          37.322015943864486,
          55.81923691228435
        ],
        [
          37.32223409686435,
          55.818910732428954
        ],
        [
          37.322391453126585,
          55.818842274573456
        ],
        [
          37.323135319093396,
          55.819152347393974
        ],
        [
          37.32565726108201,
          55.8188657807056
        ],
        [
          37.326734778724116,
          55.81873301014229
        ],
        [
          37.32915234311608,
          55.818837710622105
        ],
        [
          37.329366919837256,
          55.81875515833931
        ],
        [
          37.331759450278504,
          55.81860213411765
        ],
        [
          37.334935185752144,
          55.81858199930197
        ],
        [
          37.33866882070093,
          55.81842494741741
        ],
        [
          37.34035682424093,
          55.8184269609006
        ],
        [
          37.3407037232735,
          55.81853971614923
        ],
        [
          37.340721604666946,
          55.818805495079836
        ],
        [
          37.340551296448034,
          55.818899203752494
        ],
        [
          37.341155687546035,
          55.81899182303049
        ],
        [
          37.34182802793908,
          55.81888007582416
        ],
        [
          37.34243599531581,
          55.818767321566014
        ],
        [
          37.34356609938073,
          55.818785442801826
        ],
        [
          37.344798127388344,
          55.81876631481737
        ],
        [
          37.34576551077305,
          55.81869282301779
        ],
        [
          37.34744636175578,
          55.81847234678902
        ],
        [
          37.34940437433666,
          55.818236768063144
        ],
        [
          37.35100833532739,
          55.81798709332099
        ],
        [
          37.35190419313833,
          55.81790051218599
        ],
        [
          37.35268918630999,
          55.81792064734311
        ],
        [
          37.35441652891548,
          55.81830321344811
        ],
        [
          37.35457746145637,
          55.81813911317492
        ],
        [
          37.35522655603792,
          55.81827603123062
        ],
        [
          37.35594359991455,
          55.81848442764013
        ],
        [
          37.35674289820099,
          55.81871497115511
        ],
        [
          37.3574241792907,
          55.81900793058761
        ],
        [
          37.35820023176567,
          55.81936632468294
        ],
        [
          37.35859004614248,
          55.81959182937843
        ],
        [
          37.358822504257034,
          55.819834446804386
        ],
        [
          37.35897986051925,
          55.820117330765434
        ],
        [
          37.359015623306114,
          55.820299543188156
        ],
        [
          37.35874203798654,
          55.820522022381326
        ],
        [
          37.358359376167066,
          55.82084617530833
        ],
        [
          37.35772637483952,
          55.82142299973518
        ],
        [
          37.35695389864323,
          55.82204008162993
        ],
        [
          37.356481829856534,
          55.82253333741246
        ],
        [
          37.356134930823906,
          55.82298330200524
        ],
        [
          37.35570220110278,
          55.82350372433497
        ],
        [
          37.35541431066854,
          55.823955690859115
        ],
        [
          37.3552480137096,
          55.82421237328927
        ],
        [
          37.355053106521126,
          55.82453951509143
        ],
        [
          37.35463647005413,
          55.825196810120744
        ],
        [
          37.35433606264447,
          55.82566586835872
        ],
        [
          37.35399810430845,
          55.82624161448417
        ],
        [
          37.353704849456136,
          55.826691536005214
        ],
        [
          37.353540340636584,
          55.82695524597011
        ],
        [
          37.353502789710326,
          55.82709515242995
        ],
        [
          37.35359040853832,
          55.827330677275626
        ],
        [
          37.35382107851368,
          55.828109710807816
        ],
        [
          37.35419658777573,
          55.82929936743759
        ],
        [
          37.35449699518539,
          55.83009144511778
        ],
        [
          37.35495531742232,
          55.83115935364021
        ],
        [
          37.355473877831926,
          55.83191214392209
        ],
        [
          37.35598260950357,
          55.83257975882354
        ],
        [
          37.35763926730605,
          55.8323425762551
        ],
        [
          37.3577358268306,
          55.83219262487367
        ],
        [
          37.35785563216665,
          55.832028583429306
        ],
        [
          37.35843320117444,
          55.8320205322915
        ],
        [
          37.358785464625065,
          55.83205776876024
        ],
        [
          37.35943992362467,
          55.83224898248883
        ],
        [
          37.359885170321014,
          55.83247541857912
        ],
        [
          37.36013372168975,
          55.83265254100299
        ],
        [
          37.360482408861614,
          55.833050057123636
        ],
        [
          37.36075420604185,
          55.833422410294446
        ],
        [
          37.360956265787586,
          55.83378570277516
        ],
        [
          37.361027791361195,
          55.834165093223824
        ],
        [
          37.36154277549206,
          55.834198302290986
        ],
        [
          37.36259241328658,
          55.83390344502556
        ],
        [
          37.3629357360405,
          55.834044332733185
        ],
        [
          37.363296940187816,
          55.83412584609502
        ],
        [
          37.364118257778195,
          55.834390819155445
        ],
        [
          37.36501411558916,
          55.834580008714454
        ],
        [
          37.365498701351186,
          55.83457698973929
        ],
        [
          37.36632839800637,
          55.8346393818386
        ],
        [
          37.367290713837725,
          55.834726941477285
        ],
        [
          37.36802782037485,
          55.83471873886655
        ],
        [
          37.36869300821053,
          55.83475396009358
        ],
        [
          37.36939038255444,
          55.83495019208682
        ],
        [
          37.36997152784094,
          55.83506189292837
        ],
        [
          37.37056609070984,
          55.8350981039829
        ],
        [
          37.37131710923402,
          55.83504275680155
        ],
        [
          37.371796330578015,
          55.83503068103742
        ],
        [
          37.37229700959414,
          55.83509810397017
        ],
        [
          37.372680609456694,
          55.83558108002247
        ],
        [
          37.37298577920838,
          55.836173913089794
        ],
        [
          37.37332552568361,
          55.836377181842494
        ],
        [
          37.37366169588011,
          55.836687114322416
        ],
        [
          37.374702392977866,
          55.83701716955397
        ],
        [
          37.37541764871518,
          55.837166095996274
        ],
        [
          37.376014887255806,
          55.83729690929063
        ],
        [
          37.37642258302607,
          55.83742772213666
        ],
        [
          37.37673532944726,
          55.83764200739043
        ],
        [
          37.37709653359457,
          55.8379126864682
        ],
        [
          37.377616882143435,
          55.83800425404861
        ],
        [
          37.378103256044774,
          55.83785633706998
        ],
        [
          37.378416180429774,
          55.837695338349384
        ],
        [
          37.37846610151054,
          55.83738392447315
        ],
        [
          37.37872001729725,
          55.83712833558367
        ],
        [
          37.37911877237085,
          55.836967333835894
        ],
        [
          37.379864426477,
          55.83686972620421
        ],
        [
          37.38051643085038,
          55.83670682438893
        ],
        [
          37.380748888965,
          55.83654380834694
        ],
        [
          37.381405136104,
          55.835929976339514
        ],
        [
          37.38171269607105,
          55.83560594961842
        ],
        [
          37.38229924368949,
          55.83551161609043
        ],
        [
          37.38246554064841,
          55.83543111194219
        ],
        [
          37.38265687155812,
          55.83537777785181
        ],
        [
          37.38302344012341,
          55.8353173995221
        ],
        [
          37.383518754721514,
          55.83526809050385
        ],
        [
          37.38402122187696,
          55.83502154446435
        ],
        [
          37.384280502081744,
          55.83494506455317
        ],
        [
          37.38467031645856,
          55.83493802034382
        ],
        [
          37.38505297827808,
          55.83501852551081
        ],
        [
          37.38513344454853,
          55.83506783484687
        ],
        [
          37.38554650473679,
          55.834893742414344
        ],
        [
          37.385782539130076,
          55.83485550235464
        ],
        [
          37.38627070117081,
          55.83464417502143
        ],
        [
          37.38657826113786,
          55.83444592880768
        ],
        [
          37.38668733763775,
          55.83425573224737
        ],
        [
          37.386655151129595,
          55.83404138262411
        ],
        [
          37.38659614253125,
          55.83384413967488
        ],
        [
          37.38664084601481,
          55.83369922584108
        ],
        [
          37.38688224482615,
          55.833522108204484
        ],
        [
          37.387220203162066,
          55.833419460106136
        ],
        [
          37.3876118056782,
          55.83339732027957
        ],
        [
          37.38807493376812,
          55.833431536360024
        ],
        [
          37.388547002554745,
          55.83355330510064
        ],
        [
          37.389641343832814,
          55.83381596199684
        ],
        [
          37.39053720164378,
          55.83407157273178
        ],
        [
          37.39158862757767,
          55.8342486878489
        ],
        [
          37.392166196585535,
          55.834301017162154
        ],
        [
          37.392833172560636,
          55.83422151682503
        ],
        [
          37.39398115801892,
          55.83414201632471
        ],
        [
          37.3953472964772,
          55.83396087533638
        ],
        [
          37.39632362055859,
          55.8337857715815
        ],
        [
          37.39755922484479,
          55.83359456541542
        ],
        [
          37.39915245699967,
          55.83338323119446
        ],
        [
          37.4000107638844,
          55.83327051913881
        ],
        [
          37.400273620367905,
          55.83320409937833
        ],
        [
          37.40064018893327,
          55.83307830407733
        ],
        [
          37.400833307982346,
          55.833026979477154
        ],
        [
          37.40084940123643,
          55.832966597501134
        ],
        [
          37.40108543562974,
          55.832911247279576
        ],
        [
          37.40131252932634,
          55.83284281416901
        ],
        [
          37.401296436072265,
          55.832725068681036
        ],
        [
          37.401180207014924,
          55.832671730863524
        ],
        [
          37.40109080004774,
          55.83240000875332
        ],
        [
          37.40085297751506,
          55.83242114276261
        ],
        [
          37.400842248679005,
          55.8322399937373
        ],
        [
          37.40132862258037,
          55.83207695889005
        ],
        [
          37.40154498744087,
          55.832020600999044
        ],
        [
          37.40140372443274,
          55.83174988073153
        ],
        [
          37.401657640219454,
          55.83164420873176
        ],
        [
          37.4031793468006,
          55.83134631279188
        ]
      ],
      [
        [
          37.40319009186608,
          55.8313605974944
        ],
        [
          37.40165050389141,
          55.83164339729465
        ],
        [
          37.40142698647352,
          55.83170277492766
        ],
        [
          37.40158791901441,
          55.83203790460073
        ],
        [
          37.40088518025252,
          55.832233143977966
        ],
        [
          37.400842264908256,
          55.832420331322616
        ],
        [
          37.40105684162947,
          55.83239215264042
        ],
        [
          37.401217774170284,
          55.83267897040587
        ],
        [
          37.40131075741613,
          55.83283495812683
        ],
        [
          37.40087266327692,
          55.832960754211925
        ],
        [
          37.40075106980161,
          55.8330714544344
        ],
        [
          37.40023072125271,
          55.833230459648426
        ],
        [
          37.398991540687824,
          55.8334035531904
        ],
        [
          37.39769513966389,
          55.83361790633146
        ],
        [
          37.39627893330408,
          55.83385339151375
        ],
        [
          37.39492173554251,
          55.834040571014
        ],
        [
          37.39394719960044,
          55.8341593188318
        ],
        [
          37.392178729789926,
          55.834286116947524
        ],
        [
          37.39090557457747,
          55.83413717941545
        ],
        [
          37.38894275728061,
          55.833675182903775
        ],
        [
          37.388123789461304,
          55.8334376839157
        ],
        [
          37.38751476042025,
          55.833373279392326
        ],
        [
          37.38711958162536,
          55.83341957175162
        ],
        [
          37.38676910631408,
          55.83356046121967
        ],
        [
          37.386602809355104,
          55.83379795944201
        ],
        [
          37.38664572469934,
          55.833979101179665
        ],
        [
          37.3866957926009,
          55.83423471085055
        ],
        [
          37.386645724699314,
          55.83442289484957
        ],
        [
          37.386148621961816,
          55.83473787457053
        ],
        [
          37.3856872820113,
          55.834913980323755
        ],
        [
          37.385043551847666,
          55.83512530617174
        ],
        [
          37.3846501611922,
          55.83532556150596
        ],
        [
          37.384464194700435,
          55.835612357545514
        ],
        [
          37.38420133821697,
          55.83580154114287
        ],
        [
          37.38392596475812,
          55.83591122695422
        ],
        [
          37.38313918344695,
          55.83628657145603
        ],
        [
          37.382220079824535,
          55.83667298129787
        ],
        [
          37.381799867078826,
          55.83691448548848
        ],
        [
          37.38132422201352,
          55.83719321970354
        ],
        [
          37.38101487390707,
          55.83737535180486
        ],
        [
          37.38042836420247,
          55.837521258123886
        ],
        [
          37.38029425375161,
          55.837423651875845
        ],
        [
          37.37930183641609,
          55.837603770406815
        ],
        [
          37.37923746339975,
          55.837769800712735
        ],
        [
          37.378386309072276,
          55.838182357777974
        ],
        [
          37.37766568891697,
          55.83858887312275
        ],
        [
          37.377070238515735,
          55.83890985623198
        ],
        [
          37.376800229474966,
          55.83912820372078
        ],
        [
          37.376635720655415,
          55.83936768020279
        ],
        [
          37.37633888952444,
          55.83973192309808
        ],
        [
          37.376070668622994,
          55.840036797802995
        ],
        [
          37.37559681169708,
          55.840275262475295
        ],
        [
          37.37522487871371,
          55.840436250461664
        ],
        [
          37.374879767820424,
          55.84058013290796
        ],
        [
          37.37409119837006,
          55.84091820423114
        ],
        [
          37.372630288526544,
          55.8414283241346
        ],
        [
          37.372345974370944,
          55.841483662175825
        ],
        [
          37.37198834650231,
          55.84169998287573
        ],
        [
          37.37169151537132,
          55.84169293989522
        ],
        [
          37.37110679380606,
          55.84168086620502
        ],
        [
          37.37089221708487,
          55.841597356455445
        ],
        [
          37.3704934620113,
          55.841400151988076
        ],
        [
          37.37002675764272,
          55.841195903445225
        ],
        [
          37.36976747743793,
          55.841080195668134
        ],
        [
          37.36958329908559,
          55.84110031878465
        ],
        [
          37.36961369745443,
          55.84119087267952
        ],
        [
          37.36978535883138,
          55.841315635476604
        ],
        [
          37.37009154213569,
          55.841525330363936
        ]
      ],
      [
        [
          37.369891632691754,
          55.84134510127656
        ],
        [
          37.369559038773914,
          55.84115795707258
        ],
        [
          37.3695912252821,
          55.84103319376733
        ],
        [
          37.37086438049451,
          55.84152620770935
        ],
        [
          37.37111114372388,
          55.84171737469151
        ],
        [
          37.37134360183853,
          55.841576514901455
        ],
        [
          37.37166189064159,
          55.84169121505496
        ],
        [
          37.37195872177251,
          55.84173146063594
        ],
        [
          37.372266281739556,
          55.84194274928317
        ],
        [
          37.372666824952454,
          55.841840123512824
        ],
        [
          37.37396143783694,
          55.84226873521327
        ],
        [
          37.37470530380365,
          55.84254038805703
        ],
        [
          37.37537764419665,
          55.84310783452109
        ],
        [
          37.37629674781909,
          55.84382216133033
        ],
        [
          37.37730168212998,
          55.844691408851865
        ],
        [
          37.37761281837572,
          55.8445465356194
        ],
        [
          37.37804912437547,
          55.844389589005694
        ],
        [
          37.380641926423166,
          55.84312795655809
        ],
        [
          37.38222621788129,
          55.842319041389345
        ],
        [
          37.382991541520134,
          55.84192866334537
        ],
        [
          37.384121645585125,
          55.84122235080264
        ],
        [
          37.384926308289614,
          55.840576395571276
        ],
        [
          37.385573614731825,
          55.839674857482365
        ],
        [
          37.38606714119061,
          55.838958441702324
        ],
        [
          37.386356819764266,
          55.83830037395924
        ],
        [
          37.386528481141234,
          55.83755575782707
        ],
        [
          37.386582125321574,
          55.83733035768349
        ],
        [
          37.38763355125541,
          55.83736054527796
        ],
        [
          37.38764070381273,
          55.83796227974434
        ],
        [
          37.38793038238633,
          55.83795221737183
        ],
        [
          37.38776229728797,
          55.83838087211016
        ],
        [
          37.38815211166483,
          55.838409046434656
        ],
        [
          37.38800616540876,
          55.838316979488184
        ],
        [
          37.38789708890884,
          55.83787121796224
        ],
        [
          37.3879560975071,
          55.83754318249406
        ],
        [
          37.388050868892236,
          55.837146718741806
        ],
        [
          37.38812088698463,
          55.83687199099976
        ],
        [
          37.387795445624185,
          55.83683576542651
        ],
        [
          37.38806724280429,
          55.83538067687296
        ],
        [
          37.3884105655582,
          55.835135137867276
        ],
        [
          37.38894343108247,
          55.834913748904434
        ],
        [
          37.38958716124612,
          55.83474468738316
        ],
        [
          37.389909026327906,
          55.83465009311828
        ],
        [
          37.390338179770296,
          55.83452933414648
        ],
        [
          37.39066932852014,
          55.8344280627324
        ],
        [
          37.39105199033966,
          55.83441799943503
        ],
        [
          37.39162061865082,
          55.83446328422378
        ],
        [
          37.39195500070795,
          55.834491461392616
        ],
        [
          37.391985399076816,
          55.834304284059016
        ],
        [
          37.392854434797606,
          55.83420968871193
        ],
        [
          37.39393983537894,
          55.83416641629181
        ],
        [
          37.39490185434562,
          55.83403257339733
        ],
        [
          37.395854932615606,
          55.83388262855333
        ],
        [
          37.397369486639285,
          55.83364412448182
        ],
        [
          37.39898954088412,
          55.83340159351901
        ],
        [
          37.400003415891746,
          55.833269760699245
        ],
        [
          37.40024123842441,
          55.83321239818352
        ],
        [
          37.400336009809585,
          55.83337643460702
        ],
        [
          37.40185414011205,
          55.83318422007126
        ],
        [
          37.4031702106686,
          55.83305540559912
        ],
        [
          37.40483318025775,
          55.83281991554518
        ],
        [
          37.4048778837413,
          55.832941686215364
        ],
        [
          37.404774171659405,
          55.833002068223855
        ],
        [
          37.40521047765914,
          55.83316208009105
        ],
        [
          37.40545366460985,
          55.83317113734676
        ],
        [
          37.40558598692114,
          55.833020182801704
        ],
        [
          37.4057773178309,
          55.83297187722503
        ],
        [
          37.40606520826516,
          55.83296080718856
        ],
        [
          37.40633879358469,
          55.83294369893777
        ],
        [
          37.406540853330455,
          55.83285513849293
        ],
        [
          37.40670357401071,
          55.832770603333934
        ],
        [
          37.406882387945004,
          55.832731354798184
        ],
        [
          37.40710232908421,
          55.83279978810571
        ],
        [
          37.40760837251839,
          55.833118806481174
        ],
        [
          37.40819130594431,
          55.83346398744195
        ],
        [
          37.408640128919416,
          55.833727651291134
        ],
        [
          37.40910862142736,
          55.83403056059758
        ],
        [
          37.409473401853354,
          55.83422981525916
        ],
        [
          37.40995083505801,
          55.834533726963805
        ],
        [
          37.41017614061525,
          55.834702789393354
        ],
        [
          37.41048370058227,
          55.83484166155638
        ],
        [
          37.41084490472961,
          55.835076132978415
        ],
        [
          37.411452872106295,
          55.8354263280077
        ],
        [
          37.411581618139,
          55.835513876271776
        ],
        [
          37.41176043207334,
          55.83567085887029
        ],
        [
          37.41194639856495,
          55.83572217995999
        ],
        [
          37.41244886572039,
          55.83595463348461
        ],
        [
          37.412720662900604,
          55.836163941085665
        ],
        [
          37.4130228584496,
          55.83636318476986
        ],
        [
          37.4128744428841,
          55.8364648187828
        ],
        [
          37.41311226541673,
          55.83649903215289
        ],
        [
          37.41329286749044,
          55.83649601332733
        ],
        [
          37.41410110647342,
          55.8370092102845
        ],
        [
          37.415272337743275,
          55.83771660591662
        ],
        [
          37.41561744863641,
          55.83792892270735
        ],
        [
          37.4147430484976,
          55.83833845939516
        ],
        [
          37.41420124227655,
          55.83859303406946
        ],
        [
          37.41400633508813,
          55.838677556518206
        ],
        [
          37.41419408971915,
          55.8387942776917
        ],
        [
          37.41382930929313,
          55.838963321519635
        ],
        [
          37.413761359998055,
          55.839109221854656
        ],
        [
          37.41380606348166,
          55.839271220892826
        ],
        [
          37.413925868817685,
          55.839359766664465
        ],
        [
          37.41430495435839,
          55.839715960102666
        ],
        [
          37.41470907384987,
          55.840042970966564
        ],
        [
          37.414980871030025,
          55.840261312065
        ],
        [
          37.41520796472658,
          55.84044544208575
        ],
        [
          37.41557453329197,
          55.840473614901455
        ],
        [
          37.41600011045565,
          55.840422300103
        ],
        [
          37.416654569455304,
          55.840448460590615
        ],
        [
          37.41736267263519,
          55.840470596372995
        ],
        [
          37.417818648167696,
          55.84051184939377
        ],
        [
          37.41805289442164,
          55.84054807152771
        ],
        [
          37.418498141118214,
          55.84069497205045
        ],
        [
          37.41897378618345,
          55.84092739571524
        ],
        [
          37.41939042265047,
          55.84115579336837
        ],
        [
          37.41963003332244,
          55.84130369774183
        ],
        [
          37.41993401701078,
          55.841502914978015
        ],
        [
          37.42006991560089,
          55.84166591014122
        ],
        [
          37.42013607675652,
          55.841891285032474
        ],
        [
          37.42019508535486,
          55.84210659732527
        ],
        [
          37.42020760233023,
          55.842322914537945
        ],
        [
          37.42024694139584,
          55.84275655145602
        ],
        [
          37.42029522115807,
          55.84329683010214
        ],
        [
          37.420316678830225,
          55.84380490649247
        ],
        [
          37.420370323010644,
          55.84408560325934
        ],
        [
          37.42044184858433,
          55.84422947214267
        ],
        [
          37.42066000158425,
          55.844399498315425
        ],
        [
          37.42083523923988,
          55.844420625775825
        ],
        [
          37.4221978014194,
          55.844360261559814
        ],
        [
          37.42309187109105,
          55.844284806166996
        ],
        [
          37.42387328798402,
          55.84427675757737
        ],
        [
          37.42513213808172,
          55.84418922911387
        ],
        [
          37.426156741925375,
          55.84411176123314
        ],
        [
          37.42687557394142,
          55.84407956673987
        ],
        [
          37.428386551686486,
          55.84401215943348
        ],
        [
          37.429693681546375,
          55.84393871552573
        ],
        [
          37.43125472719308,
          55.843863259298395
        ],
        [
          37.43352870443647,
          55.84376328146385
        ],
        [
          37.43615369299225,
          55.84361438039067
        ],
        [
          37.440095291255204,
          55.84338031939607
        ],
        [
          37.443231687663186,
          55.84319117281541
        ],
        [
          37.44393263828576,
          55.843267636432856
        ],
        [
          37.4469438649398,
          55.84357952593319
        ],
        [
          37.4491933442336,
          55.843867266920554
        ],
        [
          37.45165382396982,
          55.844124823472114
        ],
        [
          37.45453272831244,
          55.84442865750808
        ],
        [
          37.45442901623051,
          55.844883398052424
        ],
        [
          37.453470573542575,
          55.847575513590556
        ],
        [
          37.45261941921516,
          55.85008838820261
        ],
        [
          37.45230651551733,
          55.8509151378087
        ],
        [
          37.45292878800877,
          55.85096945639583
        ],
        [
          37.45282149964819,
          55.851575002889774
        ],
        [
          37.453129059615314,
          55.85180233184513
        ],
        [
          37.454355723204785,
          55.8518204376342
        ],
        [
          37.45543933564683,
          55.8519069429477
        ],
        [
          37.45558953935167,
          55.85211415257869
        ],
        [
          37.45538211518785,
          55.852411888746765
        ],
        [
          37.455185419860065,
          55.85305362309657
        ],
        [
          37.45556808167954,
          55.853510273978806
        ],
        [
          37.45571470910572,
          55.8536893118409
        ],
        [
          37.45576120072862,
          55.853958872895795
        ],
        [
          37.455887003614265,
          55.85423655275097
        ],
        [
          37.45591382570437,
          55.854486999653524
        ],
        [
          37.455851240827315,
          55.855040189886225
        ],
        [
          37.4557421643274,
          55.855641649565705
        ],
        [
          37.455649181081554,
          55.85612039674024
        ],
        [
          37.455611630155246,
          55.85680632249084
        ],
        [
          37.455595536901114,
          55.85738361714867
        ],
        [
          37.455538316442166,
          55.85751939077498
        ],
        [
          37.455280824376594,
          55.858145954737935
        ],
        [
          37.455132408811096,
          55.858409450512724
        ],
        [
          37.454985781384885,
          55.85859852270912
        ],
        [
          37.454812331868496,
          55.8596223125127
        ],
        [
          37.454724713040704,
          55.85984657719494
        ],
        [
          37.45427231378682,
          55.86010201609496
        ],
        [
          37.45361785478721,
          55.86048315998235
        ],
        [
          37.45344082899224,
          55.86061992837966
        ],
        [
          37.453324599935,
          55.86081602927571
        ],
        [
          37.45317439623019,
          55.861387230335836
        ],
        [
          37.45312969274658,
          55.861527012410896
        ],
        [
          37.45311181135319,
          55.86172109746978
        ],
        [
          37.45320121832032,
          55.86206602344056
        ],
        [
          37.453263803197395,
          55.86246826558705
        ],
        [
          37.453283472730156,
          55.86268748579303
        ],
        [
          37.45324234552532,
          55.86309173264528
        ],
        [
          37.453149362279476,
          55.863197318815544
        ],
        [
          37.45271126814029,
          55.86354927062854
        ],
        [
          37.45241086073064,
          55.86380770177621
        ],
        [
          37.45238225050117,
          55.86391127486694
        ],
        [
          37.4522874791159,
          55.86414858691591
        ],
        [
          37.452249928189694,
          55.864342658828164
        ],
        [
          37.452335758878064,
          55.864654378508
        ],
        [
          37.45239119119762,
          55.864921852100785
        ],
        [
          37.45241086073043,
          55.86511189800781
        ],
        [
          37.45235485092423,
          55.866512622233444
        ],
        [
          37.452376308596385,
          55.86747989633587
        ],
        [
          37.45287698761252,
          55.86811333715921
        ],
        [
          37.45314163223533,
          55.86864019115249
        ],
        [
          37.452955346275324,
          55.86880497053815
        ],
        [
          37.45256910817717,
          55.86895880185143
        ],
        [
          37.45229552285755,
          55.868942714938946
        ],
        [
          37.451839547324994,
          55.86884920966491
        ],
        [
          37.45161960618574,
          55.868819046618626
        ],
        [
          37.4513495971449,
          55.86868431808676
        ],
        [
          37.45107064740734,
          55.868685323525284
        ],
        [
          37.45081851975995,
          55.868774807450954
        ],
        [
          37.45044658677653,
          55.8689728778695
        ],
        [
          37.45014439122751,
          55.869298636152735
        ],
        [
          37.45006571309638,
          55.86955803430984
        ],
        [
          37.4499691535718,
          55.86973197084002
        ],
        [
          37.44959364430972,
          55.869984328257885
        ],
        [
          37.44918189613637,
          55.87018034151253
        ],
        [
          37.44880996315298,
          55.870425658252195
        ],
        [
          37.44817707998151,
          55.870437679610426
        ],
        [
          37.44781408769486,
          55.870397463870624
        ],
        [
          37.447502951449124,
          55.87048895461803
        ],
        [
          37.447406391924595,
          55.87059653136738
        ],
        [
          37.44748507005573,
          55.8710368891668
        ],
        [
          37.44754050237533,
          55.87115250739428
        ],
        [
          37.44739566308852,
          55.871279184359715
        ],
        [
          37.44712028962973,
          55.87143200045775
        ],
        [
          37.44669113618736,
          55.87171651830652
        ],
        [
          37.44625483018758,
          55.87200505546459
        ],
        [
          37.44590435487629,
          55.87204024276999
        ],
        [
          37.44516048890951,
          55.87198092699732
        ],
        [
          37.44474564058183,
          55.87196182528203
        ],
        [
          37.4443933771312,
          55.871945739625126
        ],
        [
          37.44393024904125,
          55.87193267001752
        ],
        [
          37.443502883738226,
          55.871867321945466
        ],
        [
          37.443290095156314,
          55.871827107686
        ],
        [
          37.443221205656805,
          55.871803152246194
        ],
        [
          37.44291990417745,
          55.87198059742649
        ],
        [
          37.44264453071848,
          55.87210325027436
        ],
        [
          37.44236628965317,
          55.87217610012
        ],
        [
          37.44206409410415,
          55.87225451716703
        ],
        [
          37.44179408506326,
          55.87236510503361
        ],
        [
          37.44153480485847,
          55.87246061248757
        ],
        [
          37.44125585512089,
          55.87266469603956
        ],
        [
          37.44108955816197,
          55.87275014942637
        ],
        [
          37.440724777735895,
          55.8727330587577
        ],
        [
          37.440184759654215,
          55.87270289874706
        ],
        [
          37.44004349664611,
          55.872748138754204
        ],
        [
          37.43981640294951,
          55.87285872521547
        ],
        [
          37.439364003695694,
          55.87323471680542
        ],
        [
          37.43900279954833,
          55.87335032846172
        ],
        [
          37.43861298517144,
          55.87355641794181
        ],
        [
          37.43798534826192,
          55.873932402753994
        ],
        [
          37.43742208436879,
          55.87429632040028
        ],
        [
          37.4369643206969,
          55.87453155815887
        ],
        [
          37.4363501806791,
          55.8747541449429
        ],
        [
          37.43603189187602,
          55.87461642123498
        ],
        [
          37.43566353517124,
          55.87472901290958
        ],
        [
          37.43538994985174,
          55.874834567312774
        ],
        [
          37.435102059417424,
          55.87508789669833
        ],
        [
          37.434933974319165,
          55.87552820335221
        ],
        [
          37.43478734689303,
          55.87590316374031
        ],
        [
          37.434615685516086,
          55.876137386484714
        ],
        [
          37.43424911695062,
          55.876409806855314
        ],
        [
          37.43390400605736,
          55.87664000560383
        ],
        [
          37.43352849679538,
          55.876889302259485
        ],
        [
          37.43344266610691,
          55.87706119539261
        ],
        [
          37.4332566996152,
          55.87714161297027
        ],
        [
          37.43316550450865,
          55.87730948411814
        ],
        [
          37.43327100472989,
          55.87748338580276
        ],
        [
          37.433476640754385,
          55.877521583755865
        ],
        [
          37.43363757329528,
          55.87761406285448
        ],
        [
          37.433789565139485,
          55.87773167181695
        ],
        [
          37.433939768844326,
          55.877843249225954
        ],
        [
          37.43424554067206,
          55.87786435842285
        ],
        [
          37.43444044786051,
          55.877948795120865
        ],
        [
          37.43483383851596,
          55.878099574473644
        ],
        [
          37.43493576245851,
          55.87820310929308
        ],
        [
          37.43532736497469,
          55.878359918782884
        ],
        [
          37.43518073754853,
          55.878465463273685
        ],
        [
          37.43450303273745,
          55.878209140439054
        ],
        [
          37.43417759137696,
          55.878110631603505
        ],
        [
          37.43398983674591,
          55.87820411448414
        ],
        [
          37.433718039565754,
          55.878551909016544
        ],
        [
          37.433524920516675,
          55.87850064470022
        ],
        [
          37.43335683541841,
          55.87863131831353
        ],
        [
          37.43316014009065,
          55.87870670673569
        ],
        [
          37.432940198951464,
          55.87879717264179
        ],
        [
          37.432670189910674,
          55.878811245098056
        ],
        [
          37.43261654573036,
          55.878920809046555
        ],
        [
          37.43244309621397,
          55.879318855267286
        ],
        [
          37.43230183320584,
          55.87957416558245
        ],
        [
          37.432244612746864,
          55.87980233518466
        ],
        [
          37.432155205779736,
          55.88010588914024
        ],
        [
          37.43209798532071,
          55.880173233562466
        ],
        [
          37.43172247605863,
          55.88020137746803
        ],
        [
          37.431575848632505,
          55.880266711455576
        ],
        [
          37.43150789933745,
          55.88034611723024
        ],
        [
          37.43156154351767,
          55.88067177970729
        ],
        [
          37.431590153747166,
          55.88091602476306
        ],
        [
          37.43139917799315,
          55.881301314905635
        ],
        [
          37.43105585523928,
          55.881673204002425
        ],
        [
          37.430722910703736,
          55.88185279235627
        ],
        [
          37.43032952004821,
          55.88201662268642
        ],
        [
          37.43014534169585,
          55.88220356933151
        ],
        [
          37.43006845170403,
          55.88224879821627
        ],
        [
          37.43020256215477,
          55.882377448995214
        ],
        [
          37.42930670434385,
          55.88273525671624
        ],
        [
          37.42894907647519,
          55.883164420598376
        ],
        [
          37.4268407113072,
          55.886037227011265
        ],
        [
          37.426171947192785,
          55.88698994329366
        ],
        [
          37.42570629511632,
          55.88690868314361
        ],
        [
          37.42546489630498,
          55.88711369540161
        ],
        [
          37.42533972655095,
          55.8872001218055
        ],
        [
          37.42451360617436,
          55.88710163588066
        ],
        [
          37.423347739322494,
          55.8869257675271
        ],
        [
          37.422981170757105,
          55.88689461361571
        ],
        [
          37.42204418574127,
          55.88689963844079
        ],
        [
          37.42198875342161,
          55.886869489461176
        ],
        [
          37.42147198115138,
          55.88675894307237
        ]
      ],
      [
        [
          37.40378011662801,
          55.89758672748936
        ],
        [
          37.403701662014335,
          55.8982593596031
        ],
        [
          37.40140032667951,
          55.89822017746464
        ],
        [
          37.400025918076814,
          55.89814507826079
        ],
        [
          37.3991018970712,
          55.89814834344632
        ],
        [
          37.397556050608905,
          55.89814181306851
        ],
        [
          37.39592303235372,
          55.898096100431786
        ],
        [
          37.389040370013426,
          55.897935780292975
        ],
        [
          37.388718008643025,
          55.89788604161447
        ],
        [
          37.388343169933194,
          55.897838696075794
        ],
        [
          37.388200789338,
          55.897935019696874
        ],
        [
          37.388036916322214,
          55.89812058911658
        ],
        [
          37.38741106755209,
          55.898211009594306
        ],
        [
          37.38684243924094,
          55.89834965390929
        ],
        [
          37.38638467556907,
          55.89849231638733
        ],
        [
          37.38606102234794,
          55.89859077327672
        ],
        [
          37.38619155651997,
          55.8987324302071
        ],
        [
          37.38628275162647,
          55.898767593188026
        ],
        [
          37.38645262486407,
          55.898801751487945
        ],
        [
          37.38652057415915,
          55.89890422620648
        ],
        [
          37.386445472306725,
          55.8989966541508
        ],
        [
          37.38626308209368,
          55.89908606792353
        ],
        [
          37.38616652256913,
          55.8992146626588
        ],
        [
          37.386155793733074,
          55.89934727552474
        ],
        [
          37.38608426815934,
          55.89949596214337
        ],
        [
          37.38598055607741,
          55.89966574548127
        ],
        [
          37.385787437028334,
          55.899748125296625
        ],
        [
          37.3858142591185,
          55.899812421615835
        ],
        [
          37.38568372494637,
          55.89985361138259
        ],
        [
          37.38568730122505,
          55.89993297689998
        ],
        [
          37.385710547036524,
          55.90002741163007
        ],
        [
          37.38569981820047,
          55.90011280453828
        ],
        [
          37.38559610611855,
          55.90017006791217
        ],
        [
          37.385769555634816,
          55.90031071442868
        ],
        [
          37.38605744606905,
          55.90034286213344
        ],
        [
          37.38634533650331,
          55.90035290828569
        ],
        [
          37.38652951485568,
          55.90044332353842
        ],
        [
          37.38627917534768,
          55.900906447230376
        ],
        [
          37.38570518261837,
          55.90166491329852
        ],
        [
          37.38529412406141,
          55.90170357285258
        ],
        [
          37.38433925765215,
          55.9023384621678
        ],
        [
          37.38403527396381,
          55.90240476329895
        ],
        [
          37.38352386611163,
          55.902215905231785
        ],
        [
          37.382579728538275,
          55.902085311340976
        ],
        [
          37.3819359983747,
          55.902031064520756
        ],
        [
          37.38134233611275,
          55.90216366772457
        ],
        [
          37.38112418311289,
          55.902356544299316
        ],
        [
          37.38075940268681,
          55.902812613195564
        ],
        [
          37.38029806273621,
          55.902959277374755
        ],
        [
          37.37965790885132,
          55.90310594100348
        ],
        [
          37.37897126334351,
          55.903322921788934
        ],
        [
          37.378602906638854,
          55.903604191356784
        ],
        [
          37.378338262016015,
          55.904028100916854
        ],
        [
          37.3782273973768,
          55.904405798399864
        ],
        [
          37.378313228065274,
          55.90488796004044
        ],
        [
          37.37851349967169,
          55.90516921821121
        ],
        [
          37.37901775496648,
          55.90560315538107
        ],
        [
          37.37958995955632,
          55.90586030102644
        ],
        [
          37.3803338255231,
          55.90605315914171
        ],
        [
          37.380594893867205,
          55.905791996879664
        ],
        [
          37.380841657096575,
          55.90534801697463
        ],
        [
          37.38142459052251,
          55.90531185549114
        ],
        [
          37.381710692817414,
          55.90531587343542
        ],
        [
          37.382404490882514,
          55.90504064327926
        ],
        [
          37.382958814078954,
          55.90499041858777
        ],
        [
          37.38346306937375,
          55.90511296672026
        ],
        [
          37.38372771399648,
          55.90537815150541
        ],
        [
          37.38444319881474,
          55.906054714454925
        ],
        [
          37.38505831874887,
          55.906362080073194
        ],
        [
          37.38597026981392,
          55.90659712271893
        ],
        [
          37.387093221321514,
          55.90688841289529
        ],
        [
          37.38774410404246,
          55.907049123779814
        ],
        [
          37.38819829143564,
          55.90725804692985
        ],
        [
          37.38712540782972,
          55.90759955348487
        ],
        [
          37.386717712059465,
          55.90761160660245
        ],
        [
          37.38634935535473,
          55.907886818430306
        ],
        [
          37.38575926937144,
          55.90813189592534
        ],
        [
          37.385694896355105,
          55.90827653109424
        ],
        [
          37.38618842281386,
          55.908593923031894
        ],
        [
          37.38618484653515,
          55.90883096088351
        ],
        [
          37.38621345676462,
          55.90938337395228
        ],
        [
          37.38612762607615,
          55.90974494914062
        ],
        [
          37.385862981453286,
          55.91007839880701
        ],
        [
          37.38530150569953,
          55.910229052835284
        ],
        [
          37.38506189502743,
          55.91037970626283
        ],
        [
          37.384883081093115,
          55.910578567904295
        ],
        [
          37.38445035137201,
          55.91068502876621
        ],
        [
          37.38428226627375,
          55.91078546326603
        ],
        [
          37.38417140163443,
          55.911223354661125
        ],
        [
          37.383255874290654,
          55.911203268002104
        ],
        [
          37.382111465111,
          55.91117916400523
        ],
        [
          37.38033405460375,
          55.911275579895985
        ],
        [
          37.38036266483325,
          55.91145033309606
        ],
        [
          37.38022676624315,
          55.91146238501174
        ],
        [
          37.380090867653095,
          55.91211519148422
        ],
        [
          37.37991562999741,
          55.912555076394945
        ],
        [
          37.37774840511342,
          55.912201561969766
        ],
        [
          37.37750521816277,
          55.912609308421224
        ],
        [
          37.37687221683509,
          55.913310300880944
        ],
        [
          37.37614980854044,
          55.91307730766242
        ],
        [
          37.37574926532752,
          55.91346897647922
        ],
        [
          37.374848043098474,
          55.91455960258568
        ],
        [
          37.37436882175453,
          55.915041637452326
        ],
        [
          37.38006940998081,
          55.916712645070376
        ],
        [
          37.38320223011011,
          55.917610380100406
        ],
        [
          37.383770858421265,
          55.9171424358003
        ],
        [
          37.38730064548479,
          55.91817270908154
        ],
        [
          37.38747945941913,
          55.91837153058714
        ],
        [
          37.388234054221975,
          55.918688839555614
        ],
        [
          37.386771356239194,
          55.91906237714414
        ],
        [
          37.38452902950276,
          55.91960460269854
        ],
        [
          37.38236538089738,
          55.920038377656866
        ],
        [
          37.38072744525892,
          55.920391820313874
        ],
        [
          37.37941495098098,
          55.92074525973456
        ],
        [
          37.37993708766921,
          55.92113283447698
        ],
        [
          37.380831157340836,
          55.92200837759354
        ],
        [
          37.38144627727481,
          55.92255056176524
        ],
        [
          37.38222590602847,
          55.923217237048554
        ],
        [
          37.3823474995037,
          55.92348631356577
        ],
        [
          37.38185039676629,
          55.923620851124156
        ],
        [
          37.38175026096305,
          55.92381763655243
        ],
        [
          37.38130680240592,
          55.92401241298448
        ]
      ],
      [
        [
          37.60334687093045,
          55.81772984339286
        ],
        [
          37.60333793023374,
          55.81783253306942
        ],
        [
          37.603261040241975,
          55.81797750626712
        ],
        [
          37.60324494698787,
          55.81842953725658
        ],
        [
          37.603286074192766,
          55.818693303467334
        ],
        [
          37.603101895840396,
          55.81871142474414
        ],
        [
          37.60296599725037,
          55.819277207005946
        ],
        [
          37.60290877679142,
          55.8195379472923
        ],
        [
          37.60281579354558,
          55.81976244428525
        ],
        [
          37.60282831052098,
          55.81993962485003
        ],
        [
          37.602721149338414,
          55.820135088719006
        ],
        [
          37.60269969166631,
          55.82036461572437
        ],
        [
          37.602962548149755,
          55.820406896866515
        ],
        [
          37.60280876816618,
          55.821001848039124
        ],
        [
          37.602676445854705,
          55.82142968375779
        ],
        [
          37.603107387436445,
          55.821462903745825
        ],
        [
          37.6031288451086,
          55.82174879579245
        ],
        [
          37.602991158379155,
          55.8219340205034
        ],
        [
          37.602844530952865,
          55.82242023114996
        ],
        [
          37.60271220864145,
          55.823187283990116
        ],
        [
          37.60263889492827,
          55.823751994286184
        ],
        [
          37.602458292854564,
          55.824491842913716
        ],
        [
          37.602384979141455,
          55.824906554600965
        ],
        [
          37.602211529625116,
          55.825522574448605
        ],
        [
          37.602120334518695,
          55.82611644051731
        ],
        [
          37.601971918953296,
          55.82682604820356
        ],
        [
          37.60186105431401,
          55.82751249319752
        ],
        [
          37.60167866410104,
          55.82824925053568
        ],
        [
          37.60154097737166,
          55.82887628843216
        ],
        [
          37.601422960174986,
          55.82973379412559
        ],
        [
          37.6018342322239,
          55.82989784528381
        ],
        [
          37.60228305519908,
          55.83003270890571
        ],
        [
          37.60303765000197,
          55.83027626738485
        ],
        [
          37.60372965992779,
          55.83046346418171
        ],
        [
          37.605163563922154,
          55.83083888253466
        ],
        [
          37.60593246383978,
          55.831022050948796
        ],
        [
          37.60685428330565,
          55.831336882555156
        ],
        [
          37.607165419551386,
          55.83156030477451
        ],
        [
          37.6080845231738,
          55.83230101065372
        ],
        [
          37.60905727097651,
          55.83312019875604
        ],
        [
          37.60958298394342,
          55.83344022085304
        ],
        [
          37.6099120015826,
          55.833494563965324
        ],
        [
          37.609089457484764,
          55.83430165083494
        ],
        [
          37.608713948222686,
          55.83421711883357
        ],
        [
          37.60841711709169,
          55.834050066954894
        ],
        [
          37.60840281197695,
          55.834291587511125
        ],
        [
          37.60869249055048,
          55.83525966728081
        ],
        [
          37.60847791382925,
          55.83625791130274
        ],
        [
          37.60873540589466,
          55.83681136212415
        ],
        [
          37.60823115059983,
          55.83834287024712
        ],
        [
          37.608649575206165,
          55.83928871228149
        ],
        [
          37.60848149010788,
          55.83958252233942
        ],
        [
          37.60847433755053,
          55.83977772367295
        ],
        [
          37.60876759240285,
          55.839964874548976
        ],
        [
          37.60888203332072,
          55.84043375394756
        ],
        [
          37.60927900025493,
          55.84061888931624
        ],
        [
          37.60988339135292,
          55.84077182656174
        ],
        [
          37.610126578303586,
          55.840918726235465
        ],
        [
          37.60991200158235,
          55.84275391908738
        ],
        [
          37.609854781123424,
          55.8438244080727
        ],
        [
          37.60954006859898,
          55.84408598922789
        ],
        [
          37.609371983500694,
          55.84435964146119
        ],
        [
          37.60935410210725,
          55.84470371616421
        ],
        [
          37.60943278023838,
          55.844995473019104
        ],
        [
          37.609304034205664,
          55.84515241717622
        ],
        [
          37.611785971614175,
          55.84525302205768
        ],
        [
          37.61327012726896,
          55.845166501858
        ],
        [
          37.614013993235744,
          55.84520875591732
        ],
        [
          37.614686333628796,
          55.845228876887795
        ],
        [
          37.61509760567776,
          55.84519064703493
        ],
        [
          37.61544092843166,
          55.84493913389739
        ],
        [
          37.61564120003813,
          55.84468963125658
        ],
        [
          37.61578782746423,
          55.84431336212953
        ],
        [
          37.61576279351342,
          55.844174523936644
        ],
        [
          37.61608108231652,
          55.84417049963378
        ],
        [
          37.61638506600486,
          55.84407794055225
        ],
        [
          37.616635405512966,
          55.84394111367849
        ],
        [
          37.61672838875881,
          55.843772091572106
        ],
        [
          37.616399371119954,
          55.84359501997715
        ],
        [
          37.61610253998901,
          55.84340788664956
        ],
        [
          37.616145455333246,
          55.843200630403025
        ],
        [
          37.61555894562859,
          55.84265330759569
        ],
        [
          37.61552318284175,
          55.84248226762063
        ],
        [
          37.615487420054805,
          55.84212207510467
        ],
        [
          37.61599167534962,
          55.84188664020064
        ],
        [
          37.61626704880849,
          55.84170956001313
        ],
        [
          37.616453015300166,
          55.841466073432706
        ],
        [
          37.61755093285698,
          55.84167333896588
        ],
        [
          37.618498646708915,
          55.84196109412213
        ],
        [
          37.619238936397046,
          55.8420053639573
        ],
        [
          37.62019022652759,
          55.84213616089546
        ],
        [
          37.62109860131398,
          55.84251647565436
        ],
        [
          37.62214287469042,
          55.842906847758016
        ],
        [
          37.62285455414907,
          55.84307587363599
        ],
        [
          37.62355192849294,
          55.84305172712718
        ],
        [
          37.62424572655822,
          55.84296721422135
        ],
        [
          37.62470349023011,
          55.842876664481494
        ],
        [
          37.62490018555785,
          55.84281026120433
        ],
        [
          37.62457116791869,
          55.84252251235365
        ],
        [
          37.62409552285338,
          55.842268969635725
        ],
        [
          37.62390598008299,
          55.842049633716265
        ],
        [
          37.62336238572262,
          55.84162303186765
        ],
        [
          37.62298330018173,
          55.84134533567907
        ],
        [
          37.62215002724776,
          55.841025378899715
        ],
        [
          37.621474110576,
          55.84088451659181
        ],
        [
          37.620086514445745,
          55.84104952666608
        ],
        [
          37.619256817790436,
          55.840912689088
        ],
        [
          37.618137442561604,
          55.8406591358203
        ],
        [
          37.6182518834796,
          55.840335148680936
        ],
        [
          37.61924608895446,
          55.840476012987715
        ],
        [
          37.620869719478236,
          55.8406329754623
        ],
        [
          37.622307383510226,
          55.84058669171996
        ],
        [
          37.62379511544375,
          55.84057059300761
        ],
        [
          37.62486084649232,
          55.84049814874159
        ],
        [
          37.625068270656136,
          55.84075371538644
        ],
        [
          37.62657388398315,
          55.84119240064804
        ],
        [
          37.62771114060546,
          55.84139765535082
        ],
        [
          37.62825831124446,
          55.8414680856289
        ],
        [
          37.62894495675227,
          55.8415143683175
        ],
        [
          37.63047918030878,
          55.841397655337985
        ],
        [
          37.63085468957089,
          55.841580773811145
        ],
        [
          37.63179525086541,
          55.841790050999194
        ],
        [
          37.633265101405556,
          55.842176405917975
        ],
        [
          37.63384088227411,
          55.84223878577874
        ],
        [
          37.63412340829034,
          55.84240580232403
        ],
        [
          37.63462766358513,
          55.842615075058475
        ],
        [
          37.634949528666915,
          55.84261105059346
        ],
        [
          37.635943734141776,
          55.842641234070726
        ],
        [
          37.63589208573708,
          55.843657755739194
        ],
        [
          37.635766915983034,
          55.84442841230949
        ],
        [
          37.635573796934004,
          55.84559945898319
        ],
        [
          37.6354843899668,
          55.84619301722435
        ],
        [
          37.6354665085734,
          55.8465008591005
        ],
        [
          37.635298423475085,
          55.846595424407596
        ],
        [
          37.63507311791783,
          55.846911311120415
        ],
        [
          37.63436859101657,
          55.84811447383653
        ],
        [
          37.6340467259347,
          55.84882468443725
        ],
        [
          37.63417547196742,
          55.84924517126068
        ],
        [
          37.634400777524675,
          55.849436300124744
        ],
        [
          37.63467257470483,
          55.85073192774161
        ],
        [
          37.634901456540724,
          55.8512771245294
        ],
        [
          37.63528411836012,
          55.85253647963693
        ],
        [
          37.635842017835195,
          55.852665229288306
        ],
        [
          37.63590639085157,
          55.8529971600011
        ],
        [
          37.63641422242496,
          55.85333914624259
        ],
        [
          37.63649290055609,
          55.85351818489646
        ],
        [
          37.63752286881772,
          55.85405127260579
        ],
        [
          37.637955598538795,
          55.85437916819437
        ],
        [
          37.63815587014519,
          55.85485994258542
        ],
        [
          37.63832395524332,
          55.85547347445234
        ],
        [
          37.6379591748173,
          55.855759115480986
        ],
        [
          37.63781969994844,
          55.85600854676088
        ],
        [
          37.6377481743747,
          55.85632837968646
        ],
        [
          37.637558631604335,
          55.85653154261818
        ],
        [
          37.63719742745702,
          55.856795049394385
        ],
        [
          37.63708298653899,
          55.85695395718707
        ],
        [
          37.63723319024383,
          55.857223495505835
        ],
        [
          37.63737266511262,
          55.85738441300997
        ],
        [
          37.63776963204673,
          55.857806818267626
        ],
        [
          37.638059310620356,
          55.857991870549625
        ],
        [
          37.63857787102991,
          55.85804215634288
        ],
        [
          37.639289550488485,
          55.85802204202704
        ],
        [
          37.63999050111106,
          55.857989859110134
        ],
        [
          37.63994400948811,
          55.85809847634735
        ],
        [
          37.63913219422617,
          55.858223184644636
        ],
        [
          37.63907855004588,
          55.85857115891479
        ],
        [
          37.639153651898354,
          55.85895935772449
        ],
        [
          37.6392180249147,
          55.85929726854885
        ],
        [
          37.63864582032486,
          55.85933146174165
        ],
        [
          37.63856356591507,
          55.859067972239906
        ],
        [
          37.63850634545609,
          55.85887890233132
        ],
        [
          37.63872092217728,
          55.858868845395385
        ]
      ],
      [
        [
          37.63845060398062,
          55.85895908086015
        ],
        [
          37.63797495891528,
          55.85895908086015
        ],
        [
          37.63758872081715,
          55.85873682242755
        ],
        [
          37.63746355106315,
          55.85863424118185
        ],
        [
          37.63750110198924,
          55.858293307434074
        ],
        [
          37.63759766151376,
          55.858060988030786
        ],
        [
          37.63768170406284,
          55.857873924633836
        ],
        [
          37.63749216129245,
          55.85772004920582
        ],
        [
          37.63729367782535,
          55.85750582948925
        ],
        [
          37.6370129399484,
          55.857008996091245
        ],
        [
          37.63704512645661,
          55.85677968621382
        ],
        [
          37.637451034087555,
          55.85648298940136
        ],
        [
          37.637638788718554,
          55.85623758421588
        ],
        [
          37.637701373595604,
          55.85600022362748
        ],
        [
          37.6378050856775,
          55.85571659592375
        ],
        [
          37.63811801006253,
          55.85548828416831
        ],
        [
          37.638126950759286,
          55.855237843733654
        ],
        [
          37.638069730300316,
          55.854991424862725
        ],
        [
          37.63798032333315,
          55.85468264470892
        ],
        [
          37.63783548404644,
          55.85440303058643
        ],
        [
          37.63746712734169,
          55.85413749588628
        ],
        [
          37.63706658412877,
          55.85389408747069
        ],
        [
          37.63652120162901,
          55.85357624607948
        ],
        [
          37.63636384536682,
          55.85336904427097
        ],
        [
          37.636195760268585,
          55.85328656556862
        ],
        [
          37.63591323425233,
          55.85304415765189
        ],
        [
          37.635775547522904,
          55.85268607512297
        ],
        [
          37.63530169059694,
          55.85259051882713
        ],
        [
          37.634701391554586,
          55.85074970068785
        ],
        [
          37.63441528925959,
          55.84950235866836
        ],
        [
          37.634175632060405,
          55.84922466163338
        ],
        [
          37.63405761486377,
          55.84882630559182
        ],
        [
          37.63437411552751,
          55.848235805623375
        ],
        [
          37.63468167549428,
          55.84766541634308
        ],
        [
          37.63493380314165,
          55.84722378643102
        ],
        [
          37.63504824405949,
          55.847110108663
        ],
        [
          37.63519487148565,
          55.84710004866803
        ],
        [
          37.63518771892828,
          55.84691092027572
        ],
        [
          37.63493737942023,
          55.84697429851014
        ],
        [
          37.63401469951903,
          55.84698033452065
        ],
        [
          37.63381263977322,
          55.8469763105095
        ],
        [
          37.633617732584796,
          55.847434039091
        ],
        [
          37.63332447773251,
          55.84781530777606
        ],
        [
          37.63298830753598,
          55.848062778320326
        ],
        [
          37.632643196642746,
          55.84829515775036
        ],
        [
          37.63235709434783,
          55.84849132112367
        ],
        [
          37.63171515232359,
          55.84880618640182
        ],
        [
          37.63159355884828,
          55.84890778775213
        ],
        [
          37.6315363383893,
          55.84889571631854
        ],
        [
          37.63148269420902,
          55.848985246028136
        ],
        [
          37.63152918583189,
          55.84916631671146
        ],
        [
          37.631623957217094,
          55.849221643697696
        ],
        [
          37.63157746559415,
          55.84928099437682
        ],
        [
          37.631446931422126,
          55.84923874475016
        ],
        [
          37.6311447358731,
          55.84929004786224
        ],
        [
          37.63105175262731,
          55.84950934274475
        ],
        [
          37.63053676849644,
          55.84951537836633
        ],
        [
          37.62971780067724,
          55.848956073423324
        ],
        [
          37.62991270786571,
          55.848846424560286
        ],
        [
          37.63006469970987,
          55.84873174560726
        ],
        [
          37.630418751299835,
          55.84866535237388
        ],
        [
          37.6308371759062,
          55.84856676826539
        ],
        [
          37.63113937145515,
          55.84839676039097
        ],
        [
          37.63094267612723,
          55.84840480808559
        ],
        [
          37.63077816730768,
          55.848240835326486
        ],
        [
          37.63042769199637,
          55.847857558860674
        ],
        [
          37.63060471779137,
          55.84772275731394
        ],
        [
          37.63052067524216,
          55.84752357206677
        ],
        [
          37.631493423044915,
          55.847487356459474
        ],
        [
          37.63172230488084,
          55.84746723666299
        ],
        [
          37.63178488975784,
          55.84730426592609
        ],
        [
          37.631783101618524,
          55.84723384625956
        ],
        [
          37.63183853393818,
          55.84748534446118
        ],
        [
          37.63141474491381,
          55.84757286544592
        ],
        [
          37.63146660095471,
          55.848054730375644
        ],
        [
          37.6316275334956,
          55.848061772198704
        ],
        [
          37.631561372339895,
          55.84819959047796
        ],
        [
          37.63081929451248,
          55.84851747601798
        ],
        [
          37.630581471979795,
          55.84867440588833
        ],
        [
          37.63009152179985,
          55.84869754292532
        ],
        [
          37.62967309719353,
          55.848942995925235
        ],
        [
          37.630586836397946,
          55.84956265721609
        ],
        [
          37.63056895500448,
          55.85003443814067
        ],
        [
          37.63037762409484,
          55.8503352080499
        ],
        [
          37.630225632250685,
          55.85052331379901
        ],
        [
          37.630171988070394,
          55.85073153673742
        ],
        [
          37.63023099666871,
          55.85091259925704
        ],
        [
          37.63035616642271,
          55.85112484368762
        ],
        [
          37.63051888710297,
          55.85120933877035
        ],
        [
          37.630601141512734,
          55.85134915761985
        ],
        [
          37.630649421274946,
          55.85158956438226
        ],
        [
          37.63071021801263,
          55.851784705180144
        ],
        [
          37.63088724380763,
          55.85226651767183
        ],
        [
          37.629683826029506,
          55.85233994576572
        ],
        [
          37.62878439193978,
          55.85232888126
        ],
        [
          37.62862882381691,
          55.852477748804326
        ],
        [
          37.628553721964515,
          55.852655785581995
        ],
        [
          37.6285072303416,
          55.85285092100339
        ],
        [
          37.62865922218578,
          55.85304102620862
        ],
        [
          37.62871823078412,
          55.853166756655625
        ]
      ],
      [
        [
          37.628749115866654,
          55.85316897804021
        ],
        [
          37.628715588253954,
          55.85311239939286
        ],
        [
          37.62863199273964,
          55.8529957213814
        ],
        [
          37.62849448155158,
          55.85283108024827
        ],
        [
          37.62851504515404,
          55.85275564137472
        ],
        [
          37.628565113055664,
          55.852575593329085
        ],
        [
          37.6287481455122,
          55.85234383104022
        ],
        [
          37.63003560583924,
          55.85231264925793
        ],
        [
          37.63084384482242,
          55.85224927975864
        ],
        [
          37.63063642065858,
          55.851667884958346
        ],
        [
          37.63054701369135,
          55.851250442119806
        ],
        [
          37.630380716732425,
          55.85112369955149
        ],
        [
          37.6302376655849,
          55.85088328988219
        ],
        [
          37.63018044512588,
          55.85074548115935
        ],
        [
          37.63025375883906,
          55.85048998047067
        ],
        [
          37.63042899649469,
          55.85028175622617
        ],
        [
          37.63057204764206,
          55.85005542424858
        ],
        [
          37.63059708159285,
          55.84953837646216
        ],
        [
          37.631054845264664,
          55.84950417460165
        ],
        [
          37.63117643873998,
          55.84928890345463
        ],
        [
          37.63150188010045,
          55.84925268949915
        ],
        [
          37.631562676838136,
          55.84917321986697
        ],
        [
          37.63149293940374,
          55.848984101598674
        ],
        [
          37.6315197614939,
          55.84889457188644
        ],
        [
          37.631628837993794,
          55.84888853616805
        ],
        [
          37.63238164465734,
          55.84850928996216
        ],
        [
          37.63271781485384,
          55.84822661332029
        ],
        [
          37.63323637526339,
          55.847873516111136
        ],
        [
          37.63354393523044,
          55.84751739771443
        ],
        [
          37.63383182566465,
          55.84696611192976
        ],
        [
          37.634813514164144,
          55.84697114193862
        ],
        [
          37.63504239600006,
          55.84681319914219
        ],
        [
          37.63514968436056,
          55.846725676420505
        ],
        [
          37.63545724432764,
          55.846611997195964
        ],
        [
          37.6355055240899,
          55.846442986758234
        ],
        [
          37.63557704966362,
          55.846290071910374
        ],
        [
          37.63552876990133,
          55.846154258880155
        ],
        [
          37.63564499895864,
          55.845362509715734
        ],
        [
          37.63586851637653,
          55.84445504666597
        ],
        [
          37.63589176218793,
          55.844094872505764
        ],
        [
          37.63595077078622,
          55.84361698262498
        ],
        [
          37.63596686404025,
          55.843052561906894
        ],
        [
          37.63547154944217,
          55.84297509175777
        ],
        [
          37.63477953951631,
          55.8426742646376
        ],
        [
          37.63419839422986,
          55.84248209625464
        ],
        [
          37.63381930868908,
          55.84225873704749
        ],
        [
          37.633404460361426,
          55.842204406228284
        ],
        [
          37.632874590217305,
          55.8420618565278
        ],
        [
          37.631633621513075,
          55.84174391796079
        ],
        [
          37.63098631507074,
          55.8416070828307
        ],
        [
          37.63065014487422,
          55.84149439471861
        ],
        [
          37.630281788169505,
          55.84126298060282
        ],
        [
          37.62987766867788,
          55.8410033926813
        ],
        [
          37.629312616645436,
          55.84059287800688
        ],
        [
          37.62905870085878,
          55.840450001774
        ],
        [
          37.62914453154725,
          55.840260840888384
        ],
        [
          37.62853656417057,
          55.84005960488905
        ],
        [
          37.62777481681029,
          55.83982616981301
        ],
        [
          37.62760315543334,
          55.839578646600515
        ],
        [
          37.627174001991,
          55.83920031538381
        ],
        [
          37.626769882499374,
          55.83889241544037
        ],
        [
          37.62616549140132,
          55.838552313970965
        ],
        [
          37.62574349051696,
          55.83835106907833
        ],
        [
          37.62511764174678,
          55.83815988547352
        ],
        [
          37.62425575858334,
          55.838194097345855
        ],
        [
          37.62415204650142,
          55.83858652548379
        ],
        [
          37.6240590632556,
          55.83880990587819
        ],
        [
          37.62380872374745,
          55.83907755816056
        ],
        [
          37.62170944815836,
          55.838667023058974
        ],
        [
          37.62017164832309,
          55.838483890797285
        ],
        [
          37.619291883766195,
          55.83834905660508
        ],
        [
          37.61856947547149,
          55.83810957381616
        ],
        [
          37.61815105086518,
          55.83788820185936
        ],
        [
          37.61710320121005,
          55.83737904154903
        ],
        [
          37.616849285423164,
          55.837129490173986
        ],
        [
          37.616570335685616,
          55.83710533994982
        ],
        [
          37.61577997809588,
          55.836972513482614
        ],
        [
          37.61518631583386,
          55.83668270869347
        ],
        [
          37.61471782332595,
          55.836338562696675
        ],
        [
          37.61430297499826,
          55.83608296690036
        ],
        [
          37.613702160178924,
          55.835849507854135
        ],
        [
          37.6133373797529,
          55.8356885007825
        ],
        [
          37.61268292075327,
          55.83543088809578
        ],
        [
          37.61203919058965,
          55.834907607043185
        ],
        [
          37.61177812224552,
          55.834521179577614
        ],
        [
          37.61149559622928,
          55.834321926402474
        ],
        [
          37.61095915442631,
          55.83409248208962
        ],
        [
          37.60994349127932,
          55.833762401915166
        ],
        [
          37.610222300865146,
          55.83332104207799
        ],
        [
          37.61058529315177,
          55.8330020253558
        ],
        [
          37.61136604538436,
          55.83238622299001
        ],
        [
          37.61138392677788,
          55.83209034552449
        ],
        [
          37.6115448593187,
          55.8310779042294
        ],
        [
          37.61172367325299,
          55.829938624524274
        ],
        [
          37.61156989326944,
          55.82984603139629
        ],
        [
          37.60983897438506,
          55.829894340865636
        ],
        [
          37.60973526230314,
          55.82936293331861
        ],
        [
          37.60962118567292,
          55.827945791231215
        ],
        [
          37.609764236820396,
          55.82722714540195
        ],
        [
          37.60957469405008,
          55.82594482266881
        ],
        [
          37.6093028968699,
          55.824128964954376
        ],
        [
          37.6091669982798,
          55.82361962372112
        ],
        [
          37.60968555868937,
          55.8235531874152
        ],
        [
          37.61002888144326,
          55.82332166605844
        ],
        [
          37.61006464423016,
          55.823019679608954
        ],
        [
          37.61000384749247,
          55.82217813160977
        ],
        [
          37.60986794890242,
          55.821831843394946
        ],
        [
          37.61025418700052,
          55.82172312435708
        ],
        [
          37.610250610721714,
          55.82138488541288
        ],
        [
          37.608784336460275,
          55.821352672026684
        ],
        [
          37.60864128531288,
          55.820990269580065
        ],
        [
          37.608508963001434,
          55.82063994399881
        ],
        [
          37.608494657886666,
          55.82015270429683
        ],
        [
          37.608165640247535,
          55.81971982091464
        ],
        [
          37.60772575796909,
          55.8191540451034
        ],
        [
          37.60756482542815,
          55.81903927817855
        ],
        [
          37.60789741934602,
          55.81876544696473
        ],
        [
          37.608026165378725,
          55.81865873280587
        ],
        [
          37.60847320021454,
          55.81837281795054
        ],
        [
          37.608870167148794,
          55.818175495193834
        ],
        [
          37.60936369360753,
          55.81803857677651
        ],
        [
          37.6113699859507,
          55.81810300902681
        ],
        [
          37.615207332981484,
          55.818100995507706
        ],
        [
          37.61703481139016,
          55.818145292611575
        ],
        [
          37.61743177832432,
          55.81688683207596
        ],
        [
          37.617875236881446,
          55.815098741052836
        ],
        [
          37.618300814045185,
          55.813356883865126
        ],
        [
          37.61844744147126,
          55.812327842427784
        ],
        [
          37.618536848438346,
          55.81165321139099
        ],
        [
          37.61850466193016,
          55.81137731412364
        ],
        [
          37.618651289356315,
          55.81123433009561
        ],
        [
          37.61843671263506,
          55.81095037432877
        ],
        [
          37.618708509815264,
          55.810849680297004
        ],
        [
          37.61776079596335,
          55.809661470959185
        ],
        [
          37.6168881839638,
          55.808507463293864
        ],
        [
          37.615983385456126,
          55.8071922957355
        ],
        [
          37.615736622226756,
          55.806670647237596
        ],
        [
          37.61569013060384,
          55.80615503410172
        ],
        [
          37.61574019850546,
          55.80541382820616
        ],
        [
          37.615919012439754,
          55.80466253711597
        ],
        [
          37.615997690570865,
          55.80380044790028
        ],
        [
          37.615958351505284,
          55.80316595410289
        ],
        [
          37.615997690570865,
          55.80300279687181
        ],
        [
          37.616287369144466,
          55.80296049673849
        ],
        [
          37.616412538898516,
          55.802646265731894
        ],
        [
          37.616290945423174,
          55.80244483425987
        ],
        [
          37.61627306402978,
          55.80176197377588
        ],
        [
          37.61637319983301,
          55.801473919879136
        ],
        [
          37.61710991324243,
          55.80115967681734
        ],
        [
          37.617310184848854,
          55.80096629520959
        ],
        [
          37.61911620558553,
          55.801016655089825
        ]
      ],
      [
        [
          37.304853180554744,
          55.81428329271043
        ],
        [
          37.30611665264311,
          55.81385496328036
        ],
        [
          37.30692489162624,
          55.814225487293875
        ],
        [
          37.30772597805205,
          55.814326172554956
        ],
        [
          37.30848414913359,
          55.81429193959554
        ],
        [
          37.30867726818267,
          55.81416708972255
        ],
        [
          37.30943186298551,
          55.813973772990295
        ],
        [
          37.31045110241116,
          55.81430804922092
        ],
        [
          37.31150610462368,
          55.8146745415273
        ],
        [
          37.312457394754254,
          55.81464030886925
        ],
        [
          37.31311185375391,
          55.814740993052595
        ],
        [
          37.313605380212564,
          55.81478126664629
        ],
        [
          37.31419546619583,
          55.81476515721126
        ],
        [
          37.31464965358898,
          55.81465239097232
        ],
        [
          37.31568319812937,
          55.81467252782363
        ],
        [
          37.31687409893197,
          55.81468460992303
        ],
        [
          37.316945624505756,
          55.815111508569174
        ],
        [
          37.317349743997305,
          55.81530280596776
        ],
        [
          37.31691303513093,
          55.815522894054666
        ],
        [
          37.31706145069643,
          55.8155963918603
        ],
        [
          37.3172509934668,
          55.81552994179548
        ],
        [
          37.317610409474796,
          55.81551886677362
        ],
        [
          37.317664053655086,
          55.81585010923516
        ],
        [
          37.31812002918761,
          55.815879306763705
        ],
        [
          37.31821658871211,
          55.815674923595516
        ],
        [
          37.31879058144132,
          55.815702107625015
        ],
        [
          37.31901409885916,
          55.815765536946635
        ],
        [
          37.31943609974416,
          55.81580983673317
        ],
        [
          37.32127430698907,
          55.81580379584342
        ],
        [
          37.321866181111645,
          55.81577258461787
        ],
        [
          37.32210936806227,
          55.81564069178935
        ],
        [
          37.32259037754559,
          55.81555813269513
        ],
        [
          37.32281747124219,
          55.815503764415084
        ],
        [
          37.32297303936506,
          55.81552490764417
        ]
      ]
    ]
  }
}
