{
  "type": "Feature",
  "id": "95880a83-914a-497b-ac4f-04c5e32d023a",
  "properties": {
    "id": "95880a83-914a-497b-ac4f-04c5e32d023a",
    "name": "Москва Товар - Подольск",
    "color": "#a3a3a3",
    "routeType": "Train",
    "isSelected": false
  },
  "geometry": {
    "type": "LineString",
    "coordinates": [
      [
        37.688313,
        55.745656
      ],
      [
        37.6883,
        55.745647
      ],
      [
        37.688759,
        55.745429
      ],
      [
        37.689038,
        55.745303
      ],
      [
        37.689215,
        55.745243
      ],
      [
        37.689757,
        55.744994000000005
      ],
      [
        37.689759,
        55.744995
      ],
      [
        37.689759,
        55.744995
      ],
      [
        37.689806000000004,
        55.745028000000005
      ],
      [
        37.690713,
        55.74461
      ],
      [
        37.692531,
        55.743772
      ],
      [
        37.693884000000004,
        55.74307
      ],
      [
        37.694928000000004,
        55.742436000000005
      ],
      [
        37.695879000000005,
        55.741761000000004
      ],
      [
        37.69700400000001,
        55.740702000000006
      ],
      [
        37.697739000000006,
        55.73978100000001
      ],
      [
        37.698041,
        55.739309000000006
      ],
      [
        37.698761000000005,
        55.73802500000001
      ],
      [
        37.699479000000004,
        55.736740000000005
      ],
      [
        37.699538000000004,
        55.73663500000001
      ],
      [
        37.69991400000001,
        55.73610200000001
      ],
      [
        37.70093200000001,
        55.73509000000001
      ],
      [
        37.70229900000001,
        55.73398400000001
      ],
      [
        37.70251800000001,
        55.73380600000001
      ],
      [
        37.70251800000001,
        55.73380600000001
      ],
      [
        37.70252600000001,
        55.73379900000001
      ],
      [
        37.70386900000001,
        55.73268500000001
      ],
      [
        37.70488600000001,
        55.73184200000001
      ],
      [
        37.70486500000001,
        55.73185800000001
      ],
      [
        37.706237000000016,
        55.73075400000001
      ],
      [
        37.70748000000002,
        55.72975200000001
      ],
      [
        37.70877400000002,
        55.728620000000014
      ],
      [
        37.71006800000002,
        55.72748700000001
      ],
      [
        37.71116100000002,
        55.72653000000001
      ],
      [
        37.712507000000016,
        55.72541500000001
      ],
      [
        37.712769000000016,
        55.725197000000016
      ],
      [
        37.712783000000016,
        55.725186000000015
      ],
      [
        37.712783000000016,
        55.725186000000015
      ],
      [
        37.71414100000002,
        55.724077000000015
      ],
      [
        37.71484100000002,
        55.72350500000002
      ],
      [
        37.714871000000024,
        55.723481000000014
      ],
      [
        37.71483200000002,
        55.723509000000014
      ],
      [
        37.71627400000002,
        55.722434000000014
      ],
      [
        37.71695100000002,
        55.721927000000015
      ],
      [
        37.71830000000002,
        55.720815000000016
      ],
      [
        37.71964900000002,
        55.71970200000002
      ],
      [
        37.72099700000002,
        55.71858900000002
      ],
      [
        37.722346000000016,
        55.717476000000026
      ],
      [
        37.72369500000001,
        55.71636400000003
      ],
      [
        37.725043000000014,
        55.71525100000003
      ],
      [
        37.72535100000001,
        55.71499700000003
      ],
      [
        37.726650000000014,
        55.71386700000003
      ],
      [
        37.72698600000001,
        55.71357200000003
      ],
      [
        37.72768700000001,
        55.71286200000003
      ],
      [
        37.72836000000001,
        55.71206200000003
      ],
      [
        37.72891900000001,
        55.71116700000003
      ],
      [
        37.729163000000014,
        55.71057000000003
      ],
      [
        37.729306000000015,
        55.71000700000003
      ],
      [
        37.729393000000016,
        55.709333000000036
      ],
      [
        37.729509000000014,
        55.70798700000004
      ],
      [
        37.729587000000016,
        55.707079000000036
      ],
      [
        37.729587000000016,
        55.707079000000036
      ],
      [
        37.72969800000001,
        55.705734000000035
      ],
      [
        37.729807000000015,
        55.704389000000035
      ],
      [
        37.72991600000002,
        55.70304200000003
      ],
      [
        37.73002500000002,
        55.701696000000034
      ],
      [
        37.73013100000002,
        55.70039400000003
      ],
      [
        37.73024200000002,
        55.69941800000003
      ],
      [
        37.730426000000016,
        55.69844500000003
      ],
      [
        37.73074500000001,
        55.697109000000026
      ],
      [
        37.73106300000001,
        55.69577400000003
      ],
      [
        37.73135400000001,
        55.694548000000026
      ],
      [
        37.73162500000001,
        55.69383200000003
      ],
      [
        37.73212300000001,
        55.69302300000003
      ],
      [
        37.73212300000001,
        55.69302300000003
      ],
      [
        37.73271600000001,
        55.69226900000003
      ],
      [
        37.73369800000001,
        55.69116100000003
      ],
      [
        37.73409600000001,
        55.69065400000003
      ],
      [
        37.734474000000006,
        55.68993700000003
      ],
      [
        37.734812000000005,
        55.68860300000003
      ],
      [
        37.734844,
        55.68847800000003
      ],
      [
        37.734984000000004,
        55.68739500000003
      ],
      [
        37.734976,
        55.687101000000034
      ],
      [
        37.734909,
        55.68675100000004
      ],
      [
        37.734637,
        55.68609500000004
      ],
      [
        37.734032,
        55.68501100000004
      ],
      [
        37.734032,
        55.68501100000004
      ],
      [
        37.733978,
        55.68491400000004
      ],
      [
        37.733432,
        55.683993000000044
      ],
      [
        37.732874,
        55.682934000000046
      ],
      [
        37.732531,
        55.68213300000004
      ],
      [
        37.732129,
        55.681040000000046
      ],
      [
        37.731768,
        55.68033500000004
      ],
      [
        37.731029,
        55.67905300000004
      ],
      [
        37.730289,
        55.67777200000004
      ],
      [
        37.729549,
        55.67649100000004
      ],
      [
        37.728809,
        55.67520900000004
      ],
      [
        37.728161,
        55.67408500000004
      ],
      [
        37.728161,
        55.67408500000004
      ],
      [
        37.728133,
        55.67403800000004
      ],
      [
        37.727396999999996,
        55.67275700000004
      ],
      [
        37.72666099999999,
        55.67147600000004
      ],
      [
        37.72592499999999,
        55.67019400000004
      ],
      [
        37.72537599999999,
        55.66923700000004
      ],
      [
        37.72473799999999,
        55.668295000000036
      ],
      [
        37.72378999999999,
        55.66705800000003
      ],
      [
        37.723522999999986,
        55.66670900000003
      ],
      [
        37.722698999999984,
        55.66582100000003
      ],
      [
        37.722011999999985,
        55.66517100000003
      ],
      [
        37.72143699999999,
        55.66468300000003
      ],
      [
        37.72056199999999,
        55.66400000000003
      ],
      [
        37.71910399999999,
        55.66293300000003
      ],
      [
        37.71764599999999,
        55.66186600000003
      ],
      [
        37.71684899999999,
        55.66128100000003
      ],
      [
        37.71684899999999,
        55.66128100000003
      ],
      [
        37.71682299999999,
        55.66126200000003
      ],
      [
        37.71537699999999,
        55.66018900000003
      ],
      [
        37.71393199999999,
        55.65911600000003
      ],
      [
        37.71248599999999,
        55.65804400000003
      ],
      [
        37.71120199999999,
        55.65709000000003
      ],
      [
        37.70977299999999,
        55.65601200000003
      ],
      [
        37.70834299999999,
        55.654933000000035
      ],
      [
        37.70691299999999,
        55.65385300000003
      ],
      [
        37.705884999999995,
        55.653078000000036
      ],
      [
        37.704432,
        55.65200800000004
      ],
      [
        37.702979,
        55.65093900000004
      ],
      [
        37.701530999999996,
        55.649873000000035
      ],
      [
        37.701522999999995,
        55.649867000000036
      ],
      [
        37.701522999999995,
        55.649867000000036
      ],
      [
        37.700084,
        55.64879300000003
      ],
      [
        37.699616999999996,
        55.64844500000003
      ],
      [
        37.698837999999995,
        55.647926000000034
      ],
      [
        37.697112999999995,
        55.64699600000004
      ],
      [
        37.69616499999999,
        55.646485000000034
      ],
      [
        37.69542599999999,
        55.646020000000036
      ],
      [
        37.69496999999999,
        55.64568600000003
      ],
      [
        37.693693999999994,
        55.644546000000034
      ],
      [
        37.692418999999994,
        55.643408000000036
      ],
      [
        37.691143999999994,
        55.642269000000034
      ],
      [
        37.689868,
        55.64113000000003
      ],
      [
        37.689766999999996,
        55.64104000000003
      ],
      [
        37.689715,
        55.640988000000036
      ],
      [
        37.689715,
        55.640988000000036
      ],
      [
        37.688885,
        55.64016800000004
      ],
      [
        37.68831,
        55.639508000000035
      ],
      [
        37.687783,
        55.63867700000004
      ],
      [
        37.687518000000004,
        55.63814400000004
      ],
      [
        37.687342,
        55.63770700000004
      ],
      [
        37.686892,
        55.63638400000004
      ],
      [
        37.686453,
        55.63509800000004
      ],
      [
        37.685978,
        55.633777000000045
      ],
      [
        37.685503,
        55.63245600000005
      ],
      [
        37.685247,
        55.63174700000005
      ],
      [
        37.685001,
        55.631272000000045
      ],
      [
        37.68466,
        55.630811000000044
      ],
      [
        37.684233,
        55.630332000000045
      ],
      [
        37.683141,
        55.629361000000046
      ],
      [
        37.681785,
        55.62825300000004
      ],
      [
        37.681689999999996,
        55.628174000000044
      ],
      [
        37.680327,
        55.627068000000044
      ],
      [
        37.678965,
        55.62596300000004
      ],
      [
        37.677600999999996,
        55.624856000000044
      ],
      [
        37.676792,
        55.62419900000005
      ],
      [
        37.675404,
        55.62310300000005
      ],
      [
        37.674079,
        55.62205600000005
      ],
      [
        37.672672,
        55.62096800000005
      ],
      [
        37.671264,
        55.619880000000045
      ],
      [
        37.67111,
        55.61976000000004
      ],
      [
        37.671124999999996,
        55.619773000000045
      ],
      [
        37.669954999999995,
        55.61894700000004
      ],
      [
        37.66904399999999,
        55.61837400000004
      ],
      [
        37.66904399999999,
        55.61837400000004
      ],
      [
        37.668997999999995,
        55.61834600000004
      ],
      [
        37.66841599999999,
        55.61800000000004
      ],
      [
        37.667714999999994,
        55.61764300000004
      ],
      [
        37.66580199999999,
        55.61689100000004
      ],
      [
        37.66479699999999,
        55.61657200000004
      ],
      [
        37.66264999999999,
        55.61598400000004
      ],
      [
        37.66225999999999,
        55.61587900000004
      ],
      [
        37.66007699999999,
        55.615335000000044
      ],
      [
        37.65912299999999,
        55.615098000000046
      ],
      [
        37.65687699999999,
        55.614642000000046
      ],
      [
        37.65463299999999,
        55.614186000000046
      ],
      [
        37.65451399999999,
        55.61416200000004
      ],
      [
        37.65228499999999,
        55.613683000000044
      ],
      [
        37.650054999999995,
        55.61320300000004
      ],
      [
        37.647825999999995,
        55.61272300000004
      ],
      [
        37.645596999999995,
        55.61224400000004
      ],
      [
        37.645224999999996,
        55.61216400000004
      ],
      [
        37.643578,
        55.61168100000004
      ],
      [
        37.641843,
        55.61103300000004
      ],
      [
        37.640796,
        55.610562000000044
      ],
      [
        37.639546,
        55.60986300000005
      ],
      [
        37.638737000000006,
        55.60931700000005
      ],
      [
        37.63795900000001,
        55.608718000000046
      ],
      [
        37.63677000000001,
        55.607550000000046
      ],
      [
        37.635581000000016,
        55.606382000000046
      ],
      [
        37.63439300000002,
        55.605214000000046
      ],
      [
        37.63320500000002,
        55.60404500000005
      ],
      [
        37.63201500000002,
        55.60287800000005
      ],
      [
        37.63180000000002,
        55.60266600000005
      ],
      [
        37.63180000000002,
        55.60266600000005
      ],
      [
        37.63179800000002,
        55.60266400000005
      ],
      [
        37.63061200000002,
        55.60149600000005
      ],
      [
        37.62942900000002,
        55.600326000000045
      ],
      [
        37.62894200000002,
        55.59984700000005
      ],
      [
        37.62846700000002,
        55.59947200000005
      ],
      [
        37.62740000000002,
        55.59877100000005
      ],
      [
        37.62667100000002,
        55.59835600000005
      ],
      [
        37.62479100000002,
        55.59752700000005
      ],
      [
        37.622910000000026,
        55.59669900000005
      ],
      [
        37.62227600000003,
        55.59642000000005
      ],
      [
        37.62230000000003,
        55.59642900000005
      ],
      [
        37.62045900000003,
        55.59557400000005
      ],
      [
        37.62042900000003,
        55.59555900000005
      ],
      [
        37.61911400000003,
        55.59480200000005
      ],
      [
        37.61833800000003,
        55.59426500000005
      ],
      [
        37.61777600000003,
        55.59380700000005
      ],
      [
        37.61722300000003,
        55.593299000000044
      ],
      [
        37.616656000000035,
        55.59267800000004
      ],
      [
        37.61634400000003,
        55.59227400000004
      ],
      [
        37.61584600000003,
        55.59146800000004
      ],
      [
        37.615569000000036,
        55.59093600000004
      ],
      [
        37.61523800000003,
        55.59016500000004
      ],
      [
        37.61506100000003,
        55.589604000000044
      ],
      [
        37.61506100000003,
        55.589604000000044
      ],
      [
        37.615060000000035,
        55.58960300000005
      ],
      [
        37.614942000000035,
        55.589030000000044
      ],
      [
        37.61484400000003,
        55.58831900000004
      ],
      [
        37.61467900000003,
        55.58697400000004
      ],
      [
        37.61451500000003,
        55.58563000000004
      ],
      [
        37.61434900000003,
        55.58428700000004
      ],
      [
        37.614185000000035,
        55.582943000000036
      ],
      [
        37.61413200000003,
        55.582515000000036
      ],
      [
        37.613954000000035,
        55.58117100000003
      ],
      [
        37.61377500000003,
        55.579828000000035
      ],
      [
        37.613597000000034,
        55.57848400000003
      ],
      [
        37.613417000000034,
        55.57714000000003
      ],
      [
        37.613346000000035,
        55.576598000000025
      ],
      [
        37.61319800000003,
        55.575253000000025
      ],
      [
        37.61313700000003,
        55.574696000000024
      ],
      [
        37.61305200000003,
        55.57423800000002
      ],
      [
        37.61284400000003,
        55.57341300000002
      ],
      [
        37.61260800000003,
        55.572833000000024
      ],
      [
        37.61212900000003,
        55.57199800000002
      ],
      [
        37.61183600000003,
        55.57157100000002
      ],
      [
        37.61154400000003,
        55.57122800000002
      ],
      [
        37.61154400000003,
        55.57122800000002
      ],
      [
        37.61153200000003,
        55.57121400000002
      ],
      [
        37.61055300000003,
        55.57018200000002
      ],
      [
        37.609384000000034,
        55.56900800000002
      ],
      [
        37.60821500000004,
        55.56783500000002
      ],
      [
        37.607127000000034,
        55.56674200000002
      ],
      [
        37.60621900000003,
        55.56596900000002
      ],
      [
        37.60547100000003,
        55.56545900000002
      ],
      [
        37.60385700000003,
        55.56460000000002
      ],
      [
        37.603873000000036,
        55.56460600000002
      ],
      [
        37.602058000000035,
        55.56373300000002
      ],
      [
        37.601400000000034,
        55.56341700000002
      ],
      [
        37.59961400000003,
        55.56271100000002
      ],
      [
        37.59757300000003,
        55.562015000000024
      ],
      [
        37.59652100000003,
        55.561657000000025
      ],
      [
        37.59540200000003,
        55.561182000000024
      ],
      [
        37.59435200000003,
        55.56067000000002
      ],
      [
        37.59282700000003,
        55.559727000000024
      ],
      [
        37.59129000000003,
        55.55869800000002
      ],
      [
        37.58975200000003,
        55.55766900000002
      ],
      [
        37.588214000000036,
        55.556640000000016
      ],
      [
        37.58667600000004,
        55.55561100000001
      ],
      [
        37.58513900000004,
        55.55458200000001
      ],
      [
        37.583601000000044,
        55.55355200000001
      ],
      [
        37.58206300000005,
        55.55252300000001
      ],
      [
        37.58052600000005,
        55.551494000000005
      ],
      [
        37.57898800000005,
        55.550465
      ],
      [
        37.57745100000005,
        55.549436
      ],
      [
        37.575914000000054,
        55.548408
      ],
      [
        37.574566000000054,
        55.547505
      ],
      [
        37.573778000000054,
        55.546883
      ],
      [
        37.57303900000005,
        55.546193
      ],
      [
        37.572624000000054,
        55.545734
      ],
      [
        37.57189100000006,
        55.544721
      ],
      [
        37.571366000000054,
        55.543804
      ],
      [
        37.57107400000005,
        55.542985
      ],
      [
        37.57069700000005,
        55.541654
      ],
      [
        37.57058300000005,
        55.541256000000004
      ],
      [
        37.57058300000005,
        55.541256000000004
      ],
      [
        37.57032000000005,
        55.54020800000001
      ],
      [
        37.570071000000056,
        55.53886800000001
      ],
      [
        37.56998200000005,
        55.53837700000001
      ],
      [
        37.569801000000055,
        55.53722800000001
      ],
      [
        37.56964000000006,
        55.535885000000015
      ],
      [
        37.56961700000006,
        55.53569800000002
      ],
      [
        37.56950200000006,
        55.53518800000002
      ],
      [
        37.569100000000056,
        55.53385900000002
      ],
      [
        37.568698000000055,
        55.53253100000002
      ],
      [
        37.56866200000005,
        55.53241200000002
      ],
      [
        37.568281000000056,
        55.53108200000002
      ],
      [
        37.56790200000005,
        55.52975100000002
      ],
      [
        37.567522000000054,
        55.52842200000002
      ],
      [
        37.56726900000005,
        55.52753600000002
      ],
      [
        37.56684800000005,
        55.526209000000016
      ],
      [
        37.56669400000005,
        55.52572400000002
      ],
      [
        37.56633000000005,
        55.52439200000002
      ],
      [
        37.56596500000005,
        55.52306000000002
      ],
      [
        37.56573700000005,
        55.522226000000025
      ],
      [
        37.56534900000005,
        55.520897000000026
      ],
      [
        37.56496100000005,
        55.51956800000003
      ],
      [
        37.564573000000046,
        55.518238000000025
      ],
      [
        37.564185000000045,
        55.516910000000024
      ],
      [
        37.563797000000044,
        55.51558000000002
      ],
      [
        37.563690000000044,
        55.51521700000002
      ],
      [
        37.56330000000004,
        55.51388900000002
      ],
      [
        37.56290900000004,
        55.51256000000002
      ],
      [
        37.56251800000004,
        55.51123000000002
      ],
      [
        37.56229500000004,
        55.51047300000002
      ],
      [
        37.56224700000004,
        55.51048600000002
      ],
      [
        37.56224700000004,
        55.51048600000002
      ],
      [
        37.562139000000045,
        55.50993700000002
      ],
      [
        37.561759000000045,
        55.508608000000024
      ],
      [
        37.56166800000005,
        55.508289000000026
      ],
      [
        37.561275000000045,
        55.50695900000002
      ],
      [
        37.56088300000005,
        55.50563200000002
      ],
      [
        37.56049100000005,
        55.50430300000002
      ],
      [
        37.56011000000005,
        55.503016000000024
      ],
      [
        37.55973400000005,
        55.50168500000002
      ],
      [
        37.55935700000005,
        55.50035400000002
      ],
      [
        37.558981000000045,
        55.49902400000002
      ],
      [
        37.558604000000045,
        55.49769300000002
      ],
      [
        37.55822800000004,
        55.49636200000002
      ],
      [
        37.55822500000004,
        55.49635300000002
      ],
      [
        37.557825000000044,
        55.49502400000002
      ],
      [
        37.55742400000005,
        55.493695000000024
      ],
      [
        37.557279000000044,
        55.493213000000026
      ],
      [
        37.55690600000004,
        55.491882000000025
      ],
      [
        37.55661100000004,
        55.490830000000024
      ],
      [
        37.55620400000004,
        55.48950200000002
      ],
      [
        37.55617000000004,
        55.489391000000026
      ],
      [
        37.556182000000035,
        55.48943500000003
      ],
      [
        37.555701000000035,
        55.48811500000003
      ],
      [
        37.55546000000003,
        55.48745100000003
      ],
      [
        37.55517900000003,
        55.48631400000003
      ],
      [
        37.55517300000003,
        55.48629500000003
      ],
      [
        37.55517300000003,
        55.48629500000003
      ],
      [
        37.55481800000003,
        55.48496300000003
      ],
      [
        37.55470400000003,
        55.48453000000003
      ],
      [
        37.55445500000003,
        55.48342900000003
      ],
      [
        37.55428600000003,
        55.48241200000003
      ],
      [
        37.554240000000036,
        55.48150400000003
      ],
      [
        37.554353000000035,
        55.48015900000003
      ],
      [
        37.55436000000003,
        55.48008100000003
      ],
      [
        37.55451500000003,
        55.478736000000026
      ],
      [
        37.55466900000003,
        55.477391000000026
      ],
      [
        37.554823000000034,
        55.47604800000003
      ],
      [
        37.554978000000034,
        55.47470300000003
      ],
      [
        37.55513100000003,
        55.47335900000002
      ],
      [
        37.55528500000003,
        55.47201400000002
      ],
      [
        37.55544000000003,
        55.47067000000002
      ],
      [
        37.55546300000003,
        55.47045900000002
      ],
      [
        37.55546300000003,
        55.47045900000002
      ],
      [
        37.55563300000003,
        55.46911600000002
      ],
      [
        37.55573200000003,
        55.46832700000002
      ],
      [
        37.55585500000003,
        55.46766600000002
      ],
      [
        37.55607600000003,
        55.46701600000002
      ],
      [
        37.55631000000003,
        55.466489000000024
      ],
      [
        37.556607000000035,
        55.465954000000025
      ],
      [
        37.55720000000004,
        55.46513300000002
      ],
      [
        37.55807400000004,
        55.46418000000002
      ],
      [
        37.559387000000044,
        55.46305700000002
      ],
      [
        37.56069900000004,
        55.46193400000002
      ],
      [
        37.56096400000004,
        55.46170700000002
      ],
      [
        37.56162500000004,
        55.46105100000002
      ],
      [
        37.56203900000004,
        55.460543000000015
      ],
      [
        37.562457000000045,
        55.45993600000001
      ],
      [
        37.562913000000044,
        55.459130000000016
      ],
      [
        37.563121000000045,
        55.458658000000014
      ],
      [
        37.56359200000004,
        55.457338000000014
      ],
      [
        37.564064000000045,
        55.45601700000002
      ],
      [
        37.56453500000004,
        55.45469600000002
      ],
      [
        37.56500600000004,
        55.45337600000002
      ],
      [
        37.56547600000004,
        55.45205500000002
      ],
      [
        37.56576500000004,
        55.451244000000024
      ],
      [
        37.56611400000004,
        55.449910000000024
      ],
      [
        37.56627400000004,
        55.44929800000003
      ],
      [
        37.56667100000004,
        55.447970000000026
      ],
      [
        37.56693100000004,
        55.44709700000003
      ],
      [
        37.56727900000004,
        55.445764000000025
      ],
      [
        37.567627000000044,
        55.44443100000002
      ],
      [
        37.567965000000044,
        55.44313700000002
      ],
      [
        37.56821100000004,
        55.44181000000002
      ],
      [
        37.56831500000004,
        55.440525000000015
      ],
      [
        37.56830900000004,
        55.43917800000001
      ],
      [
        37.56830600000004,
        55.438592000000014
      ],
      [
        37.56823100000004,
        55.43760800000001
      ],
      [
        37.56816200000004,
        55.43723900000001
      ],
      [
        37.567912000000035,
        55.436450000000015
      ],
      [
        37.567490000000035,
        55.43551700000001
      ],
      [
        37.56712900000004,
        55.43477200000001
      ],
      [
        37.56644400000004,
        55.43348200000001
      ],
      [
        37.56575800000004,
        55.432192000000015
      ],
      [
        37.565523000000034,
        55.43174800000001
      ],
      [
        37.56544300000004,
        55.43176200000001
      ],
      [
        37.56544300000004,
        55.43176200000001
      ],
      [
        37.565368000000035,
        55.43163600000001
      ]
    ]
  }
}
