{
  "type": "Feature",
  "id": "97a858dd-7ffd-4117-8a53-dc2659248b96",
  "properties": {
    "id": "97a858dd-7ffd-4117-8a53-dc2659248b96",
    "name": "Дом Авиаторов - Лужники",
    "color": "#ff3300",
    "routeType": "Twiter Gravel V1",
    "isSelected": false
  },
  "geometry": {
    "type": "MultiLineString",
    "coordinates": [
      [
        [
          37.3231947,
          55.8155541
        ],
        [
          37.3230069,
          55.8156356
        ],
        [
          37.3210382,
          55.8139502
        ],
        [
          37.3206627,
          55.8138958
        ],
        [
          37.3206197,
          55.8136995
        ],
        [
          37.3203998,
          55.8135092
        ],
        [
          37.3199492,
          55.8131648
        ],
        [
          37.3189353,
          55.812322
        ],
        [
          37.3188334,
          55.8122798
        ],
        [
          37.3183721,
          55.8122042
        ],
        [
          37.315191,
          55.8117813
        ],
        [
          37.3149764,
          55.8117813
        ],
        [
          37.3133134,
          55.8119203
        ],
        [
          37.3118275,
          55.8119807
        ],
        [
          37.3111676,
          55.812029
        ],
        [
          37.3101216,
          55.8122103
        ],
        [
          37.3091989,
          55.8124701
        ],
        [
          37.3084103,
          55.8127298
        ],
        [
          37.3070531,
          55.8133581
        ],
        [
          37.3052131,
          55.8142915
        ],
        [
          37.3051635,
          55.8143157
        ],
        [
          37.3050871,
          55.8142892
        ],
        [
          37.3049449,
          55.8142205
        ],
        [
          37.3048417,
          55.8141322
        ],
        [
          37.3047867,
          55.814065
        ],
        [
          37.3047236,
          55.8140249
        ],
        [
          37.3048101,
          55.81398
        ],
        [
          37.3046579,
          55.8138966
        ],
        [
          37.3047625,
          55.8138414
        ],
        [
          37.3047317,
          55.8138263
        ],
        [
          37.3045909,
          55.8139034
        ],
        [
          37.3045319,
          55.8139237
        ],
        [
          37.3044326,
          55.8139664
        ],
        [
          37.3043521,
          55.8140091
        ],
        [
          37.3043964,
          55.8140438
        ],
        [
          37.3044695,
          55.8139993
        ]
      ],
      [
        [
          37.4909541,
          55.8151433
        ],
        [
          37.487435,
          55.815249
        ],
        [
          37.4872902,
          55.815246
        ],
        [
          37.4872473,
          55.8150859
        ],
        [
          37.4872527,
          55.8148986
        ],
        [
          37.4873492,
          55.8142915
        ],
        [
          37.4874887,
          55.8138022
        ],
        [
          37.4883309,
          55.8140015
        ],
        [
          37.4890068,
          55.8130802
        ],
        [
          37.4895057,
          55.8124308
        ],
        [
          37.4896774,
          55.8123794
        ],
        [
          37.4901119,
          55.8117662
        ],
        [
          37.490305,
          55.8114989
        ],
        [
          37.4908495,
          55.8113569
        ],
        [
          37.4903855,
          55.8108388
        ],
        [
          37.4902567,
          55.8106667
        ],
        [
          37.490254,
          55.8105232
        ],
        [
          37.4905008,
          55.8104945
        ],
        [
          37.490474,
          55.8103721
        ],
        [
          37.4903801,
          55.8102045
        ],
        [
          37.4903318,
          55.8101214
        ],
        [
          37.4904793,
          55.8098601
        ],
        [
          37.4907234,
          55.8095112
        ],
        [
          37.4910077,
          55.8092
        ],
        [
          37.491162,
          55.8089938
        ],
        [
          37.4913444,
          55.8088987
        ],
        [
          37.4913846,
          55.8088964
        ],
        [
          37.4914798,
          55.8088964
        ],
        [
          37.4912371,
          55.8089387
        ],
        [
          37.4913591,
          55.8089055
        ],
        [
          37.4915576,
          55.8089168
        ],
        [
          37.4914101,
          55.8088435
        ],
        [
          37.4915093,
          55.808737
        ],
        [
          37.4916139,
          55.8086479
        ],
        [
          37.4922349,
          55.8078685
        ],
        [
          37.4926452,
          55.8074093
        ],
        [
          37.4928544,
          55.8069758
        ],
        [
          37.4929054,
          55.8068882
        ],
        [
          37.4937637,
          55.8058836
        ],
        [
          37.4946944,
          55.8047869
        ],
        [
          37.4953757,
          55.804086
        ],
        [
          37.4960892,
          55.8032732
        ],
        [
          37.4963091,
          55.8030194
        ],
        [
          37.4964754,
          55.8027233
        ],
        [
          37.4968992,
          55.802252
        ],
        [
          37.4975483,
          55.8014512
        ],
        [
          37.4980365,
          55.800856
        ],
        [
          37.4995331,
          55.7990944
        ],
        [
          37.4996458,
          55.798907
        ],
        [
          37.4995546,
          55.7988133
        ],
        [
          37.4998336,
          55.7985776
        ],
        [
          37.5000213,
          55.7984537
        ],
        [
          37.5004236,
          55.7980821
        ],
        [
          37.5007831,
          55.797656
        ],
        [
          37.5011156,
          55.7975895
        ],
        [
          37.5014912,
          55.7976681
        ],
        [
          37.501754,
          55.7978252
        ],
        [
          37.5020732,
          55.7980428
        ],
        [
          37.5021376,
          55.7980247
        ],
        [
          37.5022797,
          55.7978358
        ],
        [
          37.5034679,
          55.796139
        ],
        [
          37.5046267,
          55.7945192
        ],
        [
          37.5055225,
          55.7932348
        ],
        [
          37.5057425,
          55.7929235
        ],
        [
          37.5057264,
          55.792854
        ],
        [
          37.5058095,
          55.7927059
        ],
        [
          37.506008,
          55.7927588
        ],
        [
          37.5058766,
          55.7929975
        ],
        [
          37.5069039,
          55.7931773
        ],
        [
          37.5088485,
          55.7935052
        ],
        [
          37.5088726,
          55.7934569
        ],
        [
          37.5090818,
          55.7930368
        ],
        [
          37.5094439,
          55.7922933
        ],
        [
          37.5095136,
          55.7920788
        ],
        [
          37.5097631,
          55.7915997
        ],
        [
          37.5100072,
          55.7912446
        ],
        [
          37.5102593,
          55.7909061
        ],
        [
          37.510372,
          55.7906734
        ],
        [
          37.5103746,
          55.7905494
        ],
        [
          37.5104417,
          55.7904286
        ],
        [
          37.5109808,
          55.7905389
        ],
        [
          37.5110881,
          55.7903485
        ],
        [
          37.5109835,
          55.7905721
        ],
        [
          37.5113939,
          55.7905162
        ],
        [
          37.5117774,
          55.7904422
        ],
        [
          37.5121315,
          55.7904391
        ],
        [
          37.5127082,
          55.7905736
        ],
        [
          37.5131883,
          55.7906945
        ],
        [
          37.5132419,
          55.7905978
        ],
        [
          37.5132929,
          55.7904301
        ],
        [
          37.5133841,
          55.7902941
        ],
        [
          37.5136523,
          55.7901233
        ],
        [
          37.5137676,
          55.7898936
        ],
        [
          37.5137408,
          55.7895369
        ],
        [
          37.5134136,
          55.7890019
        ],
        [
          37.5133707,
          55.788736
        ],
        [
          37.513722,
          55.7879773
        ],
        [
          37.5136872,
          55.7879048
        ],
        [
          37.5135906,
          55.7875874
        ],
        [
          37.5136684,
          55.7872413
        ],
        [
          37.5137113,
          55.7869299
        ],
        [
          37.5143765,
          55.786936
        ],
        [
          37.5145723,
          55.7865672
        ],
        [
          37.5146554,
          55.7863813
        ],
        [
          37.5153045,
          55.7865264
        ],
        [
          37.5149237,
          55.7867818
        ],
        [
          37.5151034,
          55.7869405
        ],
        [
          37.5155942,
          55.7870221
        ],
        [
          37.5171204,
          55.7872594
        ],
        [
          37.516946,
          55.7875526
        ],
        [
          37.5182201,
          55.7877521
        ],
        [
          37.5185071,
          55.7877974
        ],
        [
          37.5181423,
          55.7884534
        ],
        [
          37.5181879,
          55.7885138
        ],
        [
          37.5183676,
          55.7885591
        ],
        [
          37.5184883,
          55.7886664
        ],
        [
          37.5185017,
          55.788736
        ],
        [
          37.5183435,
          55.7890579
        ],
        [
          37.5182416,
          55.7893616
        ],
        [
          37.5182255,
          55.789617
        ],
        [
          37.5184856,
          55.7897198
        ],
        [
          37.519419,
          55.789608
        ],
        [
          37.5210203,
          55.7894432
        ],
        [
          37.5219564,
          55.7893677
        ],
        [
          37.5220758,
          55.789348
        ],
        [
          37.5221348,
          55.7890881
        ],
        [
          37.522222,
          55.7891002
        ],
        [
          37.5222957,
          55.788745
        ],
        [
          37.522513,
          55.7882236
        ],
        [
          37.5228241,
          55.7882629
        ],
        [
          37.5230628,
          55.7878473
        ],
        [
          37.5235242,
          55.7873304
        ],
        [
          37.5240499,
          55.7868574
        ],
        [
          37.5244468,
          55.7865899
        ],
        [
          37.5248894,
          55.7863254
        ],
        [
          37.525399,
          55.7860639
        ],
        [
          37.5260454,
          55.7857798
        ],
        [
          37.5268447,
          55.7855108
        ],
        [
          37.5274026,
          55.7853536
        ],
        [
          37.5280303,
          55.7852236
        ],
        [
          37.528615,
          55.7851238
        ],
        [
          37.5294143,
          55.7850241
        ],
        [
          37.5299078,
          55.7850044
        ],
        [
          37.5304201,
          55.7849893
        ],
        [
          37.530691,
          55.7849924
        ],
        [
          37.5308681,
          55.7851269
        ],
        [
          37.5308976,
          55.785272
        ],
        [
          37.5308573,
          55.7854019
        ],
        [
          37.5308627,
          55.7855606
        ],
        [
          37.5311014,
          55.785612
        ],
        [
          37.5310746,
          55.7856861
        ],
        [
          37.531485,
          55.7857813
        ],
        [
          37.5318578,
          55.7859158
        ],
        [
          37.5320643,
          55.7860549
        ],
        [
          37.532126,
          55.7861123
        ],
        [
          37.5322869,
          55.7863496
        ],
        [
          37.5326785,
          55.7865219
        ],
        [
          37.5330031,
          55.7867244
        ],
        [
          37.533612,
          55.7871068
        ],
        [
          37.5337166,
          55.7871083
        ],
        [
          37.5340062,
          55.7870357
        ],
        [
          37.5342315,
          55.7870388
        ],
        [
          37.5343603,
          55.7870796
        ],
        [
          37.5347707,
          55.7872594
        ],
        [
          37.5349799,
          55.7873229
        ],
        [
          37.5354949,
          55.7873954
        ],
        [
          37.5357175,
          55.7874393
        ],
        [
          37.5363451,
          55.7873607
        ],
        [
          37.5377506,
          55.7871869
        ],
        [
          37.5379196,
          55.7871642
        ],
        [
          37.5379571,
          55.7871037
        ],
        [
          37.5381985,
          55.7870025
        ],
        [
          37.5372812,
          55.7864221
        ],
        [
          37.5363666,
          55.7859627
        ],
        [
          37.5351194,
          55.7854669
        ],
        [
          37.5352937,
          55.7852387
        ],
        [
          37.5356236,
          55.784808
        ],
        [
          37.5361547,
          55.784155
        ],
        [
          37.5359026,
          55.78409
        ],
        [
          37.535806,
          55.7840205
        ],
        [
          37.5360259,
          55.7838104
        ],
        [
          37.5356343,
          55.7835882
        ],
        [
          37.5350121,
          55.7832345
        ],
        [
          37.5340974,
          55.7826103
        ],
        [
          37.5341403,
          55.782577
        ],
        [
          37.5348136,
          55.7822611
        ],
        [
          37.5359938,
          55.7817336
        ],
        [
          37.5362271,
          55.7817034
        ],
        [
          37.536675,
          55.7817986
        ],
        [
          37.5375092,
          55.7819694
        ],
        [
          37.5381261,
          55.7820163
        ],
        [
          37.5385284,
          55.7820299
        ],
        [
          37.5391105,
          55.7819785
        ],
        [
          37.539258,
          55.7818787
        ],
        [
          37.5399098,
          55.7818122
        ],
        [
          37.5404462,
          55.7816988
        ],
        [
          37.54087,
          55.7815552
        ],
        [
          37.5412455,
          55.7814071
        ],
        [
          37.5417551,
          55.7810957
        ],
        [
          37.5422835,
          55.7807511
        ],
        [
          37.5427207,
          55.7804609
        ],
        [
          37.5429809,
          55.7802145
        ],
        [
          37.543233,
          55.7798683
        ],
        [
          37.5434047,
          55.779563
        ],
        [
          37.5436595,
          55.7795766
        ],
        [
          37.5437829,
          55.7795826
        ],
        [
          37.5438875,
          55.7797035
        ],
        [
          37.5452688,
          55.7802825
        ],
        [
          37.545808,
          55.7805002
        ],
        [
          37.5461942,
          55.7802568
        ],
        [
          37.5469211,
          55.7798124
        ],
        [
          37.5471249,
          55.7796537
        ],
        [
          37.5472644,
          55.7796068
        ],
        [
          37.5478464,
          55.7792485
        ],
        [
          37.5485036,
          55.7788752
        ],
        [
          37.5489998,
          55.7785849
        ],
        [
          37.5495926,
          55.7781934
        ],
        [
          37.550078,
          55.7778911
        ],
        [
          37.5504857,
          55.7775812
        ],
        [
          37.5506493,
          55.7776416
        ],
        [
          37.5508156,
          55.7776598
        ],
        [
          37.5513387,
          55.7779001
        ],
        [
          37.5519878,
          55.7782146
        ],
        [
          37.5522828,
          55.7783113
        ],
        [
          37.5531089,
          55.7784519
        ],
        [
          37.5546351,
          55.778724
        ],
        [
          37.5552332,
          55.7788283
        ],
        [
          37.5556651,
          55.7788993
        ],
        [
          37.5558475,
          55.7789009
        ],
        [
          37.5559789,
          55.7789689
        ],
        [
          37.5563222,
          55.7788993
        ],
        [
          37.5566575,
          55.7788343
        ],
        [
          37.556797,
          55.7789447
        ],
        [
          37.5569364,
          55.7791412
        ],
        [
          37.55743,
          55.7798562
        ],
        [
          37.5575265,
          55.7799862
        ],
        [
          37.5576016,
          55.7799575
        ],
        [
          37.5574836,
          55.7797837
        ],
        [
          37.5582293,
          55.7795599
        ],
        [
          37.5581837,
          55.7795206
        ],
        [
          37.5580442,
          55.7795569
        ],
        [
          37.5581676,
          55.7796673
        ],
        [
          37.5582856,
          55.7797625
        ],
        [
          37.5583446,
          55.7798381
        ],
        [
          37.5583661,
          55.779897
        ],
        [
          37.5586075,
          55.7801056
        ],
        [
          37.5589374,
          55.7802961
        ],
        [
          37.5594443,
          55.7806679
        ],
        [
          37.5600505,
          55.7811275
        ],
        [
          37.5608042,
          55.7816746
        ],
        [
          37.5616974,
          55.7823261
        ],
        [
          37.5619736,
          55.7821991
        ],
        [
          37.5620675,
          55.7822112
        ],
        [
          37.5623545,
          55.7824138
        ],
        [
          37.5629285,
          55.782831
        ],
        [
          37.563481,
          55.7832194
        ],
        [
          37.563583,
          55.7832859
        ],
        [
          37.5635695,
          55.7834099
        ],
        [
          37.5636607,
          55.7834416
        ],
        [
          37.5638941,
          55.7833449
        ],
        [
          37.5638995,
          55.7833146
        ],
        [
          37.563827,
          55.7833207
        ],
        [
          37.5639129,
          55.7832376
        ],
        [
          37.5640309,
          55.7833222
        ],
        [
          37.5644708,
          55.7836517
        ],
        [
          37.5646532,
          55.7837454
        ],
        [
          37.5647846,
          55.7837288
        ],
        [
          37.5652137,
          55.7840674
        ],
        [
          37.565423,
          55.7841701
        ],
        [
          37.5655437,
          55.7842533
        ],
        [
          37.5656697,
          55.7843409
        ],
        [
          37.565726,
          55.7843621
        ],
        [
          37.5658762,
          55.7842774
        ],
        [
          37.5656697,
          55.7841248
        ],
        [
          37.5660586,
          55.7839736
        ],
        [
          37.5663054,
          55.783892
        ],
        [
          37.5663885,
          55.783821
        ],
        [
          37.5666809,
          55.783685
        ],
        [
          37.5669759,
          55.7835776
        ],
        [
          37.5662491,
          55.7831318
        ],
        [
          37.5661632,
          55.7830305
        ],
        [
          37.566241,
          55.7829746
        ],
        [
          37.5663403,
          55.7829277
        ],
        [
          37.5664663,
          55.78284
        ],
        [
          37.5668633,
          55.7824349
        ],
        [
          37.5675231,
          55.7818424
        ],
        [
          37.5688186,
          55.7807511
        ],
        [
          37.5706801,
          55.7791639
        ],
        [
          37.5717315,
          55.7783204
        ],
        [
          37.5738075,
          55.7769568
        ],
        [
          37.574698,
          55.7763491
        ],
        [
          37.5751862,
          55.776204
        ],
        [
          37.5756314,
          55.7762372
        ],
        [
          37.5765488,
          55.7764337
        ],
        [
          37.578378,
          55.776978
        ],
        [
          37.5791237,
          55.7772259
        ],
        [
          37.5794509,
          55.7774043
        ],
        [
          37.5795153,
          55.7775222
        ],
        [
          37.579408,
          55.7776976
        ],
        [
          37.5799873,
          55.7780815
        ],
        [
          37.5801858,
          55.7781873
        ],
        [
          37.5803253,
          55.7781359
        ],
        [
          37.5805238,
          55.7783053
        ],
        [
          37.5803521,
          55.7783657
        ],
        [
          37.5804004,
          55.7784406
        ],
        [
          37.5805211,
          55.7784504
        ],
        [
          37.5807156,
          55.7783567
        ],
        [
          37.5818984,
          55.7777815
        ],
        [
          37.5835721,
          55.7769757
        ],
        [
          37.5835748,
          55.7769031
        ],
        [
          37.5839664,
          55.7767217
        ],
        [
          37.5839289,
          55.7766446
        ],
        [
          37.5838216,
          55.7765434
        ],
        [
          37.5837196,
          55.7764829
        ],
        [
          37.5836177,
          55.7764693
        ],
        [
          37.5838377,
          55.7766628
        ],
        [
          37.5839074,
          55.7766975
        ],
        [
          37.5840576,
          55.7766658
        ],
        [
          37.5839825,
          55.7765267
        ],
        [
          37.5837921,
          55.7763408
        ],
        [
          37.583725,
          55.7762501
        ],
        [
          37.5839128,
          55.7761654
        ],
        [
          37.5839905,
          55.7760989
        ],
        [
          37.5839664,
          55.7760157
        ],
        [
          37.5838403,
          55.7760037
        ],
        [
          37.5837196,
          55.7760656
        ],
        [
          37.5836284,
          55.7761185
        ],
        [
          37.5835936,
          55.7761563
        ],
        [
          37.5837921,
          55.7760475
        ],
        [
          37.5838967,
          55.775981
        ],
        [
          37.5840791,
          55.7758842
        ],
        [
          37.5841649,
          55.775721
        ],
        [
          37.5842722,
          55.7755395
        ],
        [
          37.584535,
          55.7754488
        ],
        [
          37.5845753,
          55.775405
        ],
        [
          37.5842346,
          55.7751631
        ],
        [
          37.5841381,
          55.7750013
        ],
        [
          37.584071,
          55.7748592
        ],
        [
          37.5844331,
          55.7746672
        ],
        [
          37.5854067,
          55.7740988
        ],
        [
          37.5862302,
          55.7736256
        ],
        [
          37.5861953,
          55.7735424
        ],
        [
          37.5861283,
          55.7734396
        ],
        [
          37.5862516,
          55.7733867
        ],
        [
          37.5864314,
          55.7732597
        ],
        [
          37.5867371,
          55.7730813
        ],
        [
          37.586823,
          55.7730193
        ],
        [
          37.5863267,
          55.7733141
        ],
        [
          37.5860666,
          55.7730813
        ],
        [
          37.5852351,
          55.7724402
        ],
        [
          37.5841005,
          55.7715724
        ],
        [
          37.5832127,
          55.7708829
        ],
        [
          37.5829311,
          55.7706199
        ],
        [
          37.5827031,
          55.7704566
        ],
        [
          37.5826843,
          55.7703825
        ],
        [
          37.5827835,
          55.7703235
        ],
        [
          37.5829847,
          55.7702464
        ],
        [
          37.5830947,
          55.7701965
        ],
        [
          37.5830518,
          55.7701209
        ],
        [
          37.5829123,
          55.7700211
        ],
        [
          37.5828613,
          55.7699833
        ],
        [
          37.5828721,
          55.7698926
        ],
        [
          37.5829445,
          55.7698971
        ],
        [
          37.5818904,
          55.7697777
        ],
        [
          37.5817294,
          55.769625
        ],
        [
          37.5815846,
          55.7695781
        ],
        [
          37.5799967,
          55.7681779
        ],
        [
          37.5793262,
          55.7675459
        ],
        [
          37.5788058,
          55.7668957
        ],
        [
          37.5785001,
          55.7664027
        ],
        [
          37.5780924,
          55.7655408
        ],
        [
          37.5782694,
          55.7645851
        ],
        [
          37.5782479,
          55.7638592
        ],
        [
          37.5782748,
          55.7635568
        ],
        [
          37.5789131,
          55.7629186
        ],
        [
          37.5793101,
          55.7625526
        ],
        [
          37.5793423,
          55.7622381
        ],
        [
          37.5792135,
          55.7618025
        ],
        [
          37.579058,
          55.7612732
        ],
        [
          37.5789078,
          55.7610675
        ],
        [
          37.5789802,
          55.7610463
        ],
        [
          37.5791331,
          55.7610448
        ],
        [
          37.5792913,
          55.7609843
        ],
        [
          37.5791733,
          55.7608921
        ],
        [
          37.5791089,
          55.7607741
        ],
        [
          37.5790633,
          55.7606773
        ],
        [
          37.5788622,
          55.7606244
        ],
        [
          37.5787227,
          55.7605291
        ],
        [
          37.5783633,
          55.7605594
        ],
        [
          37.5781809,
          55.7604686
        ],
        [
          37.5778241,
          55.760269
        ],
        [
          37.5775988,
          55.7602281
        ],
        [
          37.5775371,
          55.7601344
        ],
        [
          37.5773682,
          55.760027
        ],
        [
          37.5771295,
          55.7599892
        ],
        [
          37.5771053,
          55.7594825
        ],
        [
          37.5771724,
          55.7593827
        ],
        [
          37.5771053,
          55.7592753
        ],
        [
          37.5770463,
          55.7590454
        ],
        [
          37.5770356,
          55.7589305
        ],
        [
          37.5768934,
          55.7588912
        ],
        [
          37.5764294,
          55.7588882
        ],
        [
          37.5762041,
          55.7588836
        ],
        [
          37.5761129,
          55.7587611
        ],
        [
          37.5761236,
          55.7584616
        ],
        [
          37.5760834,
          55.7581576
        ],
        [
          37.5758956,
          55.7576313
        ],
        [
          37.5757132,
          55.7571624
        ],
        [
          37.5754799,
          55.7571715
        ],
        [
          37.5752009,
          55.7572048
        ],
        [
          37.5744499,
          55.7570611
        ],
        [
          37.5738303,
          55.756996
        ],
        [
          37.5731303,
          55.756869
        ],
        [
          37.5723229,
          55.757111
        ],
        [
          37.5725858,
          55.7574997
        ],
        [
          37.5723685,
          55.7575103
        ],
        [
          37.5722049,
          55.7575436
        ],
        [
          37.5720708,
          55.7575058
        ],
        [
          37.5713627,
          55.7565801
        ],
        [
          37.5713117,
          55.7564289
        ],
        [
          37.5709818,
          55.7560023
        ],
        [
          37.5702415,
          55.7550721
        ],
        [
          37.569799,
          55.7545381
        ],
        [
          37.5696434,
          55.7543581
        ],
        [
          37.5695495,
          55.7542976
        ],
        [
          37.5696541,
          55.7542311
        ],
        [
          37.5697722,
          55.7542099
        ],
        [
          37.5698499,
          55.7541721
        ],
        [
          37.5699304,
          55.7541343
        ],
        [
          37.5697614,
          55.7539149
        ],
        [
          37.5706814,
          55.7536805
        ],
        [
          37.5714163,
          55.7534203
        ],
        [
          37.5721137,
          55.7531238
        ],
        [
          37.5725,
          55.7529574
        ],
        [
          37.573192,
          55.7525944
        ],
        [
          37.5738518,
          55.7521829
        ],
        [
          37.5745063,
          55.7516565
        ],
        [
          37.5748657,
          55.7512904
        ],
        [
          37.5752304,
          55.7508729
        ],
        [
          37.5755148,
          55.7502436
        ],
        [
          37.5756864,
          55.7494267
        ],
        [
          37.5758313,
          55.7485009
        ],
        [
          37.5758581,
          55.747929
        ],
        [
          37.5758205,
          55.7471423
        ],
        [
          37.575724,
          55.7461559
        ],
        [
          37.5754987,
          55.7452632
        ],
        [
          37.5751553,
          55.7447821
        ],
        [
          37.574238,
          55.7435778
        ],
        [
          37.5730632,
          55.7422977
        ],
        [
          37.5713895,
          55.7403882
        ],
        [
          37.5695652,
          55.7383269
        ],
        [
          37.568487,
          55.7372615
        ],
        [
          37.5674677,
          55.7364625
        ],
        [
          37.5660623,
          55.7355454
        ],
        [
          37.5640935,
          55.7343923
        ],
        [
          37.5612987,
          55.7330968
        ],
        [
          37.5591153,
          55.7320737
        ],
        [
          37.5584287,
          55.7315863
        ],
        [
          37.5561381,
          55.7301999
        ],
        [
          37.5556285,
          55.7299336
        ],
        [
          37.5557411,
          55.7298851
        ],
        [
          37.5563151,
          55.730209
        ],
        [
          37.5564975,
          55.730097
        ],
        [
          37.5567443,
          55.7300062
        ],
        [
          37.5586916,
          55.7285804
        ],
        [
          37.5590456,
          55.7283201
        ],
        [
          37.5591958,
          55.7283836
        ],
        [
          37.5593943,
          55.7282444
        ],
        [
          37.5597054,
          55.7280506
        ],
        [
          37.5598798,
          55.7279515
        ],
        [
          37.559975,
          55.7279969
        ],
        [
          37.5601507,
          55.7278667
        ],
        [
          37.5600903,
          55.7278312
        ],
        [
          37.5598918,
          55.7279492
        ],
        [
          37.5600018,
          55.7279939
        ],
        [
          37.5601628,
          55.7278637
        ],
        [
          37.5600984,
          55.7278834
        ],
        [
          37.559975,
          55.7278857
        ],
        [
          37.5596357,
          55.7281082
        ],
        [
          37.559346,
          55.7282928
        ],
        [
          37.559228,
          55.7282338
        ],
        [
          37.5589464,
          55.7283526
        ],
        [
          37.5588404,
          55.7284185
        ],
        [
          37.5590778,
          55.7282527
        ],
        [
          37.5590456,
          55.728205
        ],
        [
          37.5586124,
          55.7279182
        ],
        [
          37.5579271,
          55.7274845
        ],
        [
          37.5576026,
          55.727256
        ],
        [
          37.5575355,
          55.7272212
        ],
        [
          37.5577474,
          55.7272446
        ],
        [
          37.5581806,
          55.7272862
        ],
        [
          37.5582691,
          55.7273082
        ],
        [
          37.558304,
          55.727231
        ],
        [
          37.5582423,
          55.7272931
        ],
        [
          37.5575811,
          55.7272181
        ],
        [
          37.5576133,
          55.7271947
        ],
        [
          37.5576482,
          55.7271311
        ],
        [
          37.5576723,
          55.7270751
        ],
        [
          37.55762,
          55.7270297
        ],
        [
          37.5574282,
          55.7270796
        ],
        [
          37.5568998,
          55.7272075
        ],
        [
          37.5566383,
          55.7272749
        ],
        [
          37.5554354,
          55.7271682
        ],
        [
          37.5546106,
          55.727091
        ],
        [
          37.5543249,
          55.7270161
        ],
        [
          37.5540862,
          55.7268851
        ],
        [
          37.5534559,
          55.7265294
        ],
        [
          37.5529865,
          55.7262592
        ],
        [
          37.5519029,
          55.7257627
        ],
        [
          37.5517808,
          55.7257582
        ],
        [
          37.5516119,
          55.7256583
        ],
        [
          37.5515166,
          55.725544
        ],
        [
          37.5514885,
          55.7254077
        ],
        [
          37.5514737,
          55.7253411
        ],
        [
          37.5514027,
          55.7254138
        ],
        [
          37.5510593,
          55.725765
        ],
        [
          37.5504666,
          55.7264023
        ],
        [
          37.5500911,
          55.7268064
        ],
        [
          37.5497826,
          55.7270985
        ],
        [
          37.5495492,
          55.7273998
        ],
        [
          37.5495358,
          55.727483
        ],
        [
          37.5495868,
          55.7275178
        ],
        [
          37.5494513,
          55.7276964
        ],
        [
          37.5492797,
          55.7276707
        ],
        [
          37.5492488,
          55.7277419
        ],
        [
          37.5487929,
          55.7276533
        ],
        [
          37.5486132,
          55.7276087
        ],
        [
          37.5485662,
          55.7275844
        ],
        [
          37.5485434,
          55.7275663
        ],
        [
          37.5486185,
          55.7275178
        ],
        [
          37.5488277,
          55.7275693
        ],
        [
          37.5491644,
          55.7276503
        ],
        [
          37.5494446,
          55.7276859
        ],
        [
          37.5496002,
          55.7275292
        ],
        [
          37.5495184,
          55.7274656
        ],
        [
          37.5497531,
          55.727153
        ],
        [
          37.5501608,
          55.7267375
        ],
        [
          37.5508501,
          55.7260094
        ],
        [
          37.5516467,
          55.7251829
        ],
        [
          37.5520839,
          55.7248227
        ],
        [
          37.5525587,
          55.7244639
        ],
        [
          37.5529235,
          55.7242414
        ],
        [
          37.5534358,
          55.7239447
        ],
        [
          37.553932,
          55.7236752
        ],
        [
          37.554801,
          55.7233059
        ],
        [
          37.5554501,
          55.7230379
        ],
        [
          37.5555306,
          55.7230424
        ],
        [
          37.5557934,
          55.7229562
        ],
        [
          37.5558605,
          55.722882
        ],
        [
          37.5560885,
          55.7227624
        ],
        [
          37.5579472,
          55.7222477
        ],
        [
          37.5588163,
          55.7219994
        ],
        [
          37.559004,
          55.7219722
        ],
        [
          37.5596612,
          55.7217587
        ],
        [
          37.5602566,
          55.7216103
        ],
        [
          37.5604417,
          55.7215407
        ],
        [
          37.5609272,
          55.721415
        ],
        [
          37.5611954,
          55.7213348
        ],
        [
          37.561351,
          55.72125
        ],
        [
          37.5612946,
          55.7212016
        ],
        [
          37.5611471,
          55.721138
        ],
        [
          37.5609647,
          55.7211047
        ],
        [
          37.5607046,
          55.7210502
        ],
        [
          37.5605222,
          55.7210184
        ],
        [
          37.5604283,
          55.7209291
        ],
        [
          37.5603934,
          55.7208958
        ],
        [
          37.5600742,
          55.7209442
        ],
        [
          37.5597631,
          55.7210335
        ],
        [
          37.5594117,
          55.7211123
        ],
        [
          37.5592374,
          55.7211849
        ]
      ],
      [
        [
          37.3042693,
          55.8143222
        ],
        [
          37.3044088,
          55.8142708
        ],
        [
          37.304559,
          55.8142134
        ],
        [
          37.3046609,
          55.8142255
        ],
        [
          37.304846,
          55.8143055
        ],
        [
          37.3049827,
          55.8144097
        ],
        [
          37.3051142,
          55.814591
        ],
        [
          37.3058518,
          55.8151407
        ],
        [
          37.3066296,
          55.8156482
        ],
        [
          37.3075738,
          55.816074
        ],
        [
          37.3085715,
          55.8167385
        ],
        [
          37.3092045,
          55.8172218
        ],
        [
          37.3097464,
          55.8175298
        ],
        [
          37.3103257,
          55.8175752
        ],
        [
          37.3111089,
          55.8174936
        ],
        [
          37.3146119,
          55.8170285
        ],
        [
          37.3152073,
          55.8169197
        ],
        [
          37.3158296,
          55.8169228
        ],
        [
          37.3167845,
          55.8170617
        ],
        [
          37.3168381,
          55.8170134
        ],
        [
          37.3168649,
          55.8167929
        ],
        [
          37.3168703,
          55.816358
        ],
        [
          37.3172995,
          55.8163444
        ],
        [
          37.317852,
          55.8161677
        ],
        [
          37.3181175,
          55.8160363
        ],
        [
          37.3181578,
          55.815988
        ],
        [
          37.3189517,
          55.8159804
        ],
        [
          37.3189571,
          55.8159306
        ],
        [
          37.3189812,
          55.8158233
        ],
        [
          37.3212799,
          55.8157901
        ],
        [
          37.32176,
          55.8157886
        ],
        [
          37.3219504,
          55.8157327
        ],
        [
          37.321996,
          55.8156965
        ],
        [
          37.3220228,
          55.8156648
        ],
        [
          37.3222615,
          55.8156315
        ],
        [
          37.322747,
          55.8155243
        ],
        [
          37.322865,
          55.8154926
        ],
        [
          37.3230072,
          55.8156179
        ],
        [
          37.3232137,
          55.8155545
        ]
      ],
      [
        [
          37.323256,
          55.815594
        ],
        [
          37.323176,
          55.815624
        ],
        [
          37.323041,
          55.815512
        ],
        [
          37.322632,
          55.815187
        ],
        [
          37.322239,
          55.814884
        ],
        [
          37.322172,
          55.814846
        ],
        [
          37.322038,
          55.814749
        ],
        [
          37.321847,
          55.814573
        ],
        [
          37.321683,
          55.814423
        ],
        [
          37.321374,
          55.814162
        ],
        [
          37.321256,
          55.814062
        ],
        [
          37.321188,
          55.814015
        ],
        [
          37.321067,
          55.813931
        ],
        [
          37.321012,
          55.813909
        ],
        [
          37.320797,
          55.813892
        ],
        [
          37.320736,
          55.813876
        ],
        [
          37.320706,
          55.813849
        ],
        [
          37.320696,
          55.813816
        ],
        [
          37.320697,
          55.813729
        ],
        [
          37.320697,
          55.81369
        ],
        [
          37.320689,
          55.81367
        ],
        [
          37.32066,
          55.813636
        ],
        [
          37.320619,
          55.813595
        ],
        [
          37.320545,
          55.813548
        ],
        [
          37.320364,
          55.813396
        ],
        [
          37.320423,
          55.813351
        ],
        [
          37.320232,
          55.8132
        ],
        [
          37.3202,
          55.813235
        ],
        [
          37.320149,
          55.813212
        ],
        [
          37.320069,
          55.813156
        ],
        [
          37.319551,
          55.812736
        ],
        [
          37.319231,
          55.81248
        ],
        [
          37.319189,
          55.812471
        ],
        [
          37.319231,
          55.81248
        ],
        [
          37.319035,
          55.812321
        ],
        [
          37.318993,
          55.812296
        ],
        [
          37.318939,
          55.81227
        ],
        [
          37.318879,
          55.812248
        ],
        [
          37.318818,
          55.812228
        ],
        [
          37.318717,
          55.812205
        ],
        [
          37.318543,
          55.812178
        ],
        [
          37.317178,
          55.811991
        ],
        [
          37.316924,
          55.811951
        ],
        [
          37.316787,
          55.811917
        ],
        [
          37.316632,
          55.811896
        ],
        [
          37.31653,
          55.811893
        ],
        [
          37.315318,
          55.811733
        ],
        [
          37.315241,
          55.811726
        ],
        [
          37.315107,
          55.81172
        ],
        [
          37.31492,
          55.811725
        ],
        [
          37.314724,
          55.811738
        ],
        [
          37.314333,
          55.811771
        ],
        [
          37.314035,
          55.811797
        ],
        [
          37.313741,
          55.811824
        ],
        [
          37.313484,
          55.811848
        ],
        [
          37.313415,
          55.811853
        ],
        [
          37.313431,
          55.81191
        ],
        [
          37.313442,
          55.811959
        ],
        [
          37.313343,
          55.811965
        ],
        [
          37.312461,
          55.811993
        ],
        [
          37.312025,
          55.812013
        ],
        [
          37.311998,
          55.812021
        ],
        [
          37.311969,
          55.812038
        ],
        [
          37.311871,
          55.812048
        ],
        [
          37.311195,
          55.812101
        ],
        [
          37.31108,
          55.812113
        ],
        [
          37.310864,
          55.812141
        ],
        [
          37.310652,
          55.812166
        ],
        [
          37.310402,
          55.812199
        ],
        [
          37.310361,
          55.812205
        ],
        [
          37.310326,
          55.812212
        ],
        [
          37.309697,
          55.812366
        ],
        [
          37.309516,
          55.81241
        ],
        [
          37.308484,
          55.812768
        ],
        [
          37.308255,
          55.812867
        ],
        [
          37.308145,
          55.812921
        ],
        [
          37.308106,
          55.81294
        ],
        [
          37.308105,
          55.812958
        ],
        [
          37.308001,
          55.812966
        ],
        [
          37.307952,
          55.812988
        ],
        [
          37.307929,
          55.812999
        ],
        [
          37.307888,
          55.812971
        ],
        [
          37.307825,
          55.812931
        ],
        [
          37.307103,
          55.813285
        ],
        [
          37.306905,
          55.813383
        ],
        [
          37.3068,
          55.813435
        ],
        [
          37.306726,
          55.813472
        ],
        [
          37.306583,
          55.813544
        ],
        [
          37.306548,
          55.813562
        ],
        [
          37.30625,
          55.813709
        ],
        [
          37.305824,
          55.813917
        ],
        [
          37.305642,
          55.814006
        ],
        [
          37.305562,
          55.814045
        ],
        [
          37.30545,
          55.8141
        ],
        [
          37.305199,
          55.814222
        ],
        [
          37.305183,
          55.814228
        ],
        [
          37.305175,
          55.814228
        ],
        [
          37.305167,
          55.814228
        ],
        [
          37.305154,
          55.814221
        ],
        [
          37.304826,
          55.814015
        ],
        [
          37.304758,
          55.81405
        ],
        [
          37.304748,
          55.814043
        ],
        [
          37.304725,
          55.814029
        ],
        [
          37.304812,
          55.813984
        ],
        [
          37.304677,
          55.813908
        ],
        [
          37.304655,
          55.813895
        ],
        [
          37.304758,
          55.813841
        ],
        [
          37.304735,
          55.813827
        ],
        [
          37.304594,
          55.8139
        ],
        [
          37.304527,
          55.813914
        ],
        [
          37.304486,
          55.813934
        ],
        [
          37.304429,
          55.813964
        ],
        [
          37.304362,
          55.814
        ],
        [
          37.304355,
          55.814005
        ],
        [
          37.304351,
          55.814012
        ],
        [
          37.304353,
          55.81402
        ],
        [
          37.304359,
          55.814024
        ],
        [
          37.304384,
          55.81404
        ],
        [
          37.304175,
          55.814147
        ],
        [
          37.30417,
          55.814144
        ]
      ],
      [
        [
          37.30418,
          55.81443
        ],
        [
          37.304198,
          55.814442
        ],
        [
          37.304391,
          55.814347
        ],
        [
          37.304675,
          55.814207
        ],
        [
          37.304816,
          55.814136
        ],
        [
          37.304855,
          55.814126
        ],
        [
          37.304896,
          55.814128
        ],
        [
          37.304931,
          55.814142
        ],
        [
          37.305177,
          55.814313
        ],
        [
          37.305273,
          55.814266
        ],
        [
          37.305415,
          55.814197
        ],
        [
          37.305521,
          55.814143
        ],
        [
          37.305632,
          55.814087
        ],
        [
          37.306149,
          55.813823
        ],
        [
          37.306307,
          55.813746
        ],
        [
          37.306603,
          55.813597
        ],
        [
          37.306657,
          55.81357
        ],
        [
          37.306651,
          55.813566
        ],
        [
          37.306657,
          55.81357
        ],
        [
          37.306705,
          55.813545
        ],
        [
          37.306817,
          55.813491
        ],
        [
          37.306967,
          55.813418
        ],
        [
          37.307015,
          55.813448
        ],
        [
          37.307062,
          55.813478
        ],
        [
          37.307411,
          55.813314
        ],
        [
          37.307457,
          55.81327
        ],
        [
          37.307523,
          55.813205
        ],
        [
          37.307929,
          55.812999
        ],
        [
          37.307952,
          55.812988
        ],
        [
          37.308001,
          55.812966
        ],
        [
          37.308105,
          55.812958
        ],
        [
          37.308106,
          55.81294
        ],
        [
          37.308145,
          55.812921
        ],
        [
          37.308255,
          55.812867
        ],
        [
          37.308484,
          55.812768
        ],
        [
          37.309516,
          55.81241
        ],
        [
          37.309697,
          55.812366
        ],
        [
          37.310326,
          55.812212
        ],
        [
          37.310361,
          55.812205
        ],
        [
          37.310402,
          55.812199
        ],
        [
          37.310652,
          55.812166
        ],
        [
          37.310864,
          55.812141
        ],
        [
          37.31108,
          55.812113
        ],
        [
          37.311195,
          55.812101
        ],
        [
          37.311871,
          55.812048
        ],
        [
          37.311969,
          55.812038
        ],
        [
          37.311998,
          55.812021
        ],
        [
          37.312025,
          55.812013
        ],
        [
          37.312461,
          55.811993
        ],
        [
          37.313343,
          55.811965
        ],
        [
          37.313442,
          55.811959
        ],
        [
          37.313431,
          55.81191
        ],
        [
          37.313415,
          55.811853
        ],
        [
          37.313484,
          55.811848
        ],
        [
          37.313741,
          55.811824
        ],
        [
          37.314035,
          55.811797
        ],
        [
          37.314333,
          55.811771
        ],
        [
          37.314724,
          55.811738
        ],
        [
          37.31492,
          55.811725
        ],
        [
          37.315107,
          55.81172
        ],
        [
          37.315241,
          55.811726
        ],
        [
          37.315318,
          55.811733
        ],
        [
          37.31653,
          55.811893
        ],
        [
          37.316632,
          55.811896
        ],
        [
          37.316787,
          55.811917
        ],
        [
          37.316924,
          55.811951
        ],
        [
          37.317178,
          55.811991
        ],
        [
          37.318543,
          55.812178
        ],
        [
          37.318717,
          55.812205
        ],
        [
          37.318818,
          55.812228
        ],
        [
          37.318879,
          55.812248
        ],
        [
          37.318939,
          55.81227
        ],
        [
          37.318993,
          55.812296
        ],
        [
          37.319035,
          55.812321
        ],
        [
          37.31921,
          55.812463
        ],
        [
          37.319189,
          55.812471
        ],
        [
          37.31921,
          55.812463
        ],
        [
          37.319231,
          55.81248
        ],
        [
          37.319551,
          55.812736
        ],
        [
          37.320069,
          55.813156
        ],
        [
          37.320149,
          55.813212
        ],
        [
          37.3202,
          55.813235
        ],
        [
          37.320232,
          55.8132
        ],
        [
          37.320423,
          55.813351
        ],
        [
          37.320364,
          55.813396
        ],
        [
          37.320545,
          55.813548
        ],
        [
          37.320619,
          55.813595
        ],
        [
          37.32066,
          55.813636
        ],
        [
          37.320689,
          55.81367
        ],
        [
          37.320697,
          55.81369
        ],
        [
          37.320697,
          55.813729
        ],
        [
          37.320696,
          55.813816
        ],
        [
          37.320706,
          55.813849
        ],
        [
          37.320736,
          55.813876
        ],
        [
          37.320797,
          55.813892
        ],
        [
          37.321012,
          55.813909
        ],
        [
          37.321067,
          55.813931
        ],
        [
          37.321188,
          55.814015
        ],
        [
          37.321256,
          55.814062
        ],
        [
          37.321374,
          55.814162
        ],
        [
          37.321683,
          55.814423
        ],
        [
          37.321847,
          55.814573
        ],
        [
          37.322038,
          55.814749
        ],
        [
          37.322172,
          55.814846
        ],
        [
          37.322239,
          55.814884
        ],
        [
          37.322632,
          55.815187
        ],
        [
          37.323041,
          55.815512
        ],
        [
          37.323166,
          55.815616
        ],
        [
          37.323175,
          55.815612
        ]
      ]
    ]
  }
}
