{
  "type": "Feature",
  "id": "984d6a60-64d8-47cf-a9ac-a924f4aab1f8",
  "properties": {
    "id": "984d6a60-64d8-47cf-a9ac-a924f4aab1f8",
    "name": "Кузьминки - Кусково - Семпре",
    "color": "#fea690",
    "routeType": "Aspect",
    "isSelected": false
  },
  "geometry": {
    "type": "MultiLineString",
    "coordinates": [
      [
        [
          37.66167135491282,
          55.75735617183628
        ],
        [
          37.66050459399126,
          55.75715652175111
        ],
        [
          37.66045094981097,
          55.757241221896564
        ],
        [
          37.66156674876115,
          55.75743482153537
        ],
        [
          37.66100884928608,
          55.75844515398934
        ],
        [
          37.65987159266374,
          55.75825760923316
        ],
        [
          37.65957118525409,
          55.75846935324674
        ],
        [
          37.658150955580666,
          55.75851170189833
        ],
        [
          37.65809999360937,
          55.75851472680114
        ],
        [
          37.65809462919134,
          55.75869697676107
        ],
        [
          37.65804366722006,
          55.75868412098281
        ],
        [
          37.658054396056116,
          55.758518507929324
        ],
        [
          37.65735433950324,
          55.758518507929324
        ],
        [
          37.65735433950324,
          55.75835516285598
        ],
        [
          37.65738518490691,
          55.75788705441236
        ],
        [
          37.65728862538238,
          55.757088458981436
        ],
        [
          37.6570955063333,
          55.75623842080218
        ],
        [
          37.65662343754665,
          55.7548801361083
        ],
        [
          37.65523941769494,
          55.75465022130651
        ],
        [
          37.65425772919551,
          55.75440517903266
        ],
        [
          37.653662278794194,
          55.75405122635214
        ],
        [
          37.65296490445033,
          55.75375475067801
        ],
        [
          37.65050263657466,
          55.75318599509651
        ],
        [
          37.64932782902614,
          55.75305590621485
        ],
        [
          37.64779896988765,
          55.75308918480744
        ],
        [
          37.647683634899956,
          55.75314817858721
        ],
        [
          37.647018447064276,
          55.75308162144944
        ],
        [
          37.646801188134056,
          55.753116412675354
        ],
        [
          37.64673949732673,
          55.753013551550936
        ],
        [
          37.644440844200965,
          55.75283354392776
        ],
        [
          37.64422894968877,
          55.75287589873768
        ],
        [
          37.64299513354194,
          55.75274278345896
        ],
        [
          37.6426839972962,
          55.75274278345896
        ],
        [
          37.642562572472926,
          55.75275426097368
        ],
        [
          37.642533068173755,
          55.752717956740035
        ],
        [
          37.64265644978844,
          55.75264837353069
        ],
        [
          37.64216828774765,
          55.75232768406637
        ],
        [
          37.64187190365148,
          55.75187916819498
        ],
        [
          37.64165866803479,
          55.751463170772965
        ],
        [
          37.64153528642011,
          55.75138148348437
        ],
        [
          37.64162111710858,
          55.75132551246525
        ],
        [
          37.64170426558804,
          55.75121205744931
        ],
        [
          37.64154601525616,
          55.751137933314006
        ],
        [
          37.6421682877476,
          55.75058124150481
        ],
        [
          37.642141465657474,
          55.75041786304023
        ],
        [
          37.64163184594463,
          55.749867212064466
        ],
        [
          37.64111149739572,
          55.74931655327044
        ],
        [
          37.640953247063834,
          55.74896104139418
        ],
        [
          37.63948071431465,
          55.74788843477146
        ],
        [
          37.63897377681085,
          55.748035182417446
        ],
        [
          37.63872701358143,
          55.74781884290426
        ],
        [
          37.636127953045964,
          55.74854047418255
        ],
        [
          37.63363886308014,
          55.749216707672694
        ],
        [
          37.63165402840907,
          55.74951926918027
        ],
        [
          37.62774873208339,
          55.74976736786322
        ],
        [
          37.624878768437405,
          55.74964331870723
        ],
        [
          37.6225506110125,
          55.74942850096097
        ],
        [
          37.61815447043704,
          55.748864220505794
        ],
        [
          37.616593424790345,
          55.748590397794686
        ],
        [
          37.61273640822692,
          55.74761914375322
        ],
        [
          37.611304108612956,
          55.7471077884101
        ],
        [
          37.61027414035125,
          55.746430005262205
        ],
        [
          37.60949093531889,
          55.74574615849573
        ],
        [
          37.6077635927133,
          55.74376414526134
        ],
        [
          37.60743636321348,
          55.743388913040384
        ],
        [
          37.60721373986526,
          55.74286539752748
        ],
        [
          37.607165460103,
          55.74240239816095
        ],
        [
          37.60720032882014,
          55.742136095363655
        ],
        [
          37.606655840390104,
          55.74082876431261
        ],
        [
          37.606164996140386,
          55.73940941296961
        ],
        [
          37.60588068198481,
          55.73892216100787
        ],
        [
          37.605537359230915,
          55.738534776194456
        ],
        [
          37.605204765313054,
          55.73830173816498
        ],
        [
          37.603225295060064,
          55.73732720035571
        ],
        [
          37.60066110324179,
          55.736137746859136
        ],
        [
          37.59982157182013,
          55.735735200909126
        ],
        [
          37.598695044033846,
          55.73510413364852
        ],
        [
          37.5984160942963,
          55.73487712853551
        ],
        [
          37.59801376294406,
          55.73507537973461
        ],
        [
          37.597925526117116,
          55.7350741552068
        ],
        [
          37.595323783372685,
          55.73634536031923
        ],
        [
          37.59515480420475,
          55.73620008183298
        ],
        [
          37.59495900294666,
          55.73625456132661
        ],
        [
          37.59489194772128,
          55.73612138909625
        ],
        [
          37.59437159917239,
          55.73620764842764
        ],
        [
          37.59417848012323,
          55.73579148315907
        ],
        [
          37.59381638190622,
          55.735842936557084
        ],
        [
          37.59364203832027,
          55.73589741655134
        ],
        [
          37.593258482431125,
          55.73557507547463
        ],
        [
          37.59241626880047,
          55.735920116526394
        ],
        [
          37.59234384915706,
          55.735848989893555
        ],
        [
          37.59042606971133,
          55.736501231361416
        ],
        [
          37.58978502175677,
          55.73586412321805
        ],
        [
          37.58992181441652,
          55.73578996981027
        ],
        [
          37.589962047551744,
          55.73582780319927
        ]
      ],
      [
        [
          37.81157313501788,
          55.733743848909356
        ],
        [
          37.811522173046576,
          55.73369541956831
        ],
        [
          37.81154363071866,
          55.73339424823675
        ],
        [
          37.81052941735754,
          55.7323195267241
        ],
        [
          37.81041810568341,
          55.73231422957376
        ],
        [
          37.80824953969483,
          55.73297258415052
        ],
        [
          37.80715519841675,
          55.733297973664946
        ],
        [
          37.80624861176973,
          55.73326770498038
        ],
        [
          37.80572289880281,
          55.73315419722683
        ],
        [
          37.803209668955844,
          55.73063878032458
        ],
        [
          37.80316943582062,
          55.73050861593655
        ],
        [
          37.803147978148516,
          55.73040720849499
        ],
        [
          37.80305946525103,
          55.73029823303904
        ],
        [
          37.8026785915709,
          55.72988957235222
        ],
        [
          37.80212605651383,
          55.730092389671384
        ],
        [
          37.801965123972934,
          55.73020439281205
        ],
        [
          37.80191563229371,
          55.73074564296607
        ],
        [
          37.79824100594329,
          55.73188682985928
        ],
        [
          37.79391192059327,
          55.73327316038584
        ],
        [
          37.7931072578888,
          55.73355768499133
        ],
        [
          37.792603002593985,
          55.7338058856059
        ],
        [
          37.79372953038024,
          55.73600935327492
        ],
        [
          37.79458783726503,
          55.73586407352646
        ],
        [
          37.794775591896055,
          55.736154632449015
        ],
        [
          37.795049177215574,
          55.73624543166882
        ],
        [
          37.79556416134644,
          55.736366496965225
        ],
        [
          37.79620252709199,
          55.73650269497294
        ],
        [
          37.794662939117394,
          55.73933550531206
        ],
        [
          37.794850693748444,
          55.739383927625624
        ],
        [
          37.794716583297685,
          55.73960788004102
        ],
        [
          37.79502235512539,
          55.739665381128646
        ]
      ],
      [
        [
          37.65708044128576,
          55.7106543803002
        ],
        [
          37.6572655137078,
          55.71053020628388
        ],
        [
          37.65740498857656,
          55.7107891540889
        ],
        [
          37.657740264703435,
          55.71077249667962
        ],
        [
          37.658198922444974,
          55.71083004042687
        ],
        [
          37.65843495683829,
          55.71065286598532
        ],
        [
          37.660210579206144,
          55.711423644640995
        ],
        [
          37.66249487352396,
          55.71231363006949
        ],
        [
          37.663755511760925,
          55.71289509778902
        ],
        [
          37.66453871679327,
          55.71326153915028
        ],
        [
          37.66475329351447,
          55.71328576655664
        ],
        [
          37.66463527631782,
          55.7139883547771
        ],
        [
          37.665348743915786,
          55.714064063957245
        ],
        [
          37.66661474657081,
          55.71413371627281
        ],
        [
          37.66868541193029,
          55.71436084252237
        ],
        [
          37.67006406736392,
          55.714494089286156
        ],
        [
          37.672510241985506,
          55.71483931746292
        ],
        [
          37.6731092912008,
          55.71490802602481
        ],
        [
          37.673181710844204,
          55.714682417128394
        ],
        [
          37.67428295340153,
          55.714829695347966
        ],
        [
          37.67510370936007,
          55.714990195163274
        ],
        [
          37.677922711034675,
          55.715677611395506
        ],
        [
          37.67803268160429,
          55.71570335140917
        ],
        [
          37.67840014423933,
          55.71523245776251
        ],
        [
          37.67847002907918,
          55.715267405584335
        ],
        [
          37.67879457636998,
          55.714876756718795
        ],
        [
          37.67897849159737,
          55.714542822337954
        ],
        [
          37.67914210634726,
          55.71419153481523
        ],
        [
          37.67968927698628,
          55.71351923433698
        ],
        [
          37.681312013440305,
          55.71149772034326
        ],
        [
          37.68130664902228,
          55.711306920339844
        ],
        [
          37.68138175087467,
          55.71117063405018
        ],
        [
          37.6815855987598,
          55.71108280485495
        ],
        [
          37.68260752039437,
          55.709957665018955
        ],
        [
          37.68413637953278,
          55.70825096416527
        ],
        [
          37.68466745691772,
          55.707728489737555
        ],
        [
          37.684586990647276,
          55.707619450715086
        ],
        [
          37.68583277682069,
          55.70619937346801
        ],
        [
          37.686256565845056,
          55.705623863671285
        ],
        [
          37.68676082113987,
          55.705323989403986
        ],
        [
          37.68872956255677,
          55.70488477544725
        ],
        [
          37.68978582278264,
          55.70462767623349
        ],
        [
          37.689812644872774,
          55.704474706439356
        ],
        [
          37.69021229401599,
          55.704400493154296
        ],
        [
          37.69037859097491,
          55.70447925010528
        ],
        [
          37.69049929038058,
          55.70448530832569
        ],
        [
          37.69444481984149,
          55.703552331259964
        ],
        [
          37.695254846963984,
          55.70336452144881
        ],
        [
          37.69537018195163,
          55.70350537886417
        ],
        [
          37.69558744088185,
          55.70346448482837
        ],
        [
          37.695772513303865,
          55.70346448482837
        ],
        [
          37.69587711945545,
          55.703338773264015
        ],
        [
          37.69656912938127,
          55.70310249499544
        ],
        [
          37.69719676629074,
          55.70278594046786
        ],
        [
          37.697856589708366,
          55.702484529684256
        ],
        [
          37.69960002556804,
          55.70197106575847
        ],
        [
          37.70180080529053,
          55.70136606806263
        ],
        [
          37.70327065583066,
          55.700911662480685
        ],
        [
          37.70468686219054,
          55.700426957358296
        ],
        [
          37.70653222199277,
          55.69993921672285
        ],
        [
          37.70663951035337,
          55.69993921672285
        ],
        [
          37.70688627358274,
          55.69986953899202
        ],
        [
          37.706956011017134,
          55.69979986113642
        ],
        [
          37.70754609700042,
          55.69957567936337
        ],
        [
          37.708672624786644,
          55.699239404282515
        ],
        [
          37.70891693943844,
          55.69909670776342
        ],
        [
          37.70930317753659,
          55.698487767584574
        ],
        [
          37.70969478005272,
          55.698269637435445
        ],
        [
          37.709957636536195,
          55.698181779115856
        ],
        [
          37.71038678997856,
          55.69772430672967
        ],
        [
          37.71236626023152,
          55.69528234327488
        ],
        [
          37.71307035577282,
          55.69438809703775
        ],
        [
          37.71336003434643,
          55.69415479435124
        ],
        [
          37.71415933263287,
          55.69367606497979
        ],
        [
          37.71509274137005,
          55.693130669901635
        ],
        [
          37.71518393647657,
          55.69299128993671
        ],
        [
          37.71523758065686,
          55.6922095408847
        ],
        [
          37.715259038328995,
          55.6921156087406
        ],
        [
          37.71624072682843,
          55.69151261957956
        ],
        [
          37.71743699204903,
          55.69083083664656
        ],
        [
          37.71757110249977,
          55.690667206970474
        ],
        [
          37.717597924589924,
          55.69039751952204
        ],
        [
          37.717415534376926,
          55.69001571162515
        ],
        [
          37.717372619032695,
          55.689888441494105
        ],
        [
          37.717512093901455,
          55.689815715518165
        ],
        [
          37.71797879827005,
          55.68952481025581
        ],
        [
          37.718429409384555,
          55.689276326956296
        ],
        [
          37.71886392724497,
          55.68919147863717
        ],
        [
          37.71922870767094,
          55.68921875130652
        ],
        [
          37.719480835318336,
          55.68905814516582
        ],
        [
          37.71980466275501,
          55.68928232438757
        ],
        [
          37.72085340647983,
          55.688845959700785
        ],
        [
          37.72099824576665,
          55.68875201944094
        ],
        [
          37.72115113168048,
          55.68869292787106
        ],
        [
          37.72136034398366,
          55.6886095934534
        ],
        [
          37.72241981654448,
          55.68860050240903
        ],
        [
          37.72295089392943,
          55.688724746407445
        ],
        [
          37.72469164758004,
          55.68935959673527
        ],
        [
          37.72496523289951,
          55.68932020297386
        ],
        [
          37.72557141213687,
          55.68914899119007
        ],
        [
          37.727121728947395,
          55.688605047853926
        ],
        [
          37.72795321374202,
          55.68830201206894
        ],
        [
          37.72847356229084,
          55.68799291312605
        ],
        [
          37.7296939673926,
          55.68685346840387
        ],
        [
          37.73075343995345,
          55.68599431715744
        ],
        [
          37.731496411850515,
          55.6854609368301
        ],
        [
          37.731979209473174,
          55.68523970306357
        ],
        [
          37.73253152864529,
          55.68507245793145
        ],
        [
          37.732649545841944,
          55.68527399370622
        ],
        [
          37.73342470424724,
          55.6850982182014
        ],
        [
          37.73331205146861,
          55.68491486532069
        ],
        [
          37.73340592878415,
          55.68488910492944
        ],
        [
          37.73359636562419,
          55.68509670289187
        ],
        [
          37.734658520394106,
          55.6848921355646
        ],
        [
          37.734749715500605,
          55.68498002388132
        ],
        [
          37.73483822839809,
          55.68495123290287
        ],
        [
          37.73505012291026,
          55.68499820764623
        ],
        [
          37.73550408761357,
          55.68492283117675
        ],
        [
          37.73570257108067,
          55.684913739277754
        ],
        [
          37.736576971219534,
          55.68499556629222
        ],
        [
          37.73686128537511,
          55.685019811300535
        ],
        [
          37.7369846669898,
          55.68508042375525
        ],
        [
          37.73756938855506,
          55.68515618919097
        ],
        [
          37.73768204133366,
          55.68509860747327
        ],
        [
          37.7403159705863,
          55.68531075021032
        ],
        [
          37.74240809361787,
          55.68533196440933
        ],
        [
          37.74251538197842,
          55.68535014799748
        ],
        [
          37.742681678937345,
          55.68618658444412
        ],
        [
          37.742676314519315,
          55.686586612915065
        ],
        [
          37.7429981796011,
          55.68820486796995
        ],
        [
          37.74282785932858,
          55.688243505222864
        ],
        [
          37.74266424457867,
          55.68833896188684
        ],
        [
          37.742594507144275,
          55.68851320757982
        ],
        [
          37.742733982013064,
          55.68867608872387
        ],
        [
          37.742854681418734,
          55.68874048340684
        ],
        [
          37.7429767219289,
          55.68875715024862
        ],
        [
          37.74310278575262,
          55.68876169574966
        ],
        [
          37.743235555098835,
          55.688748816828614
        ],
        [
          37.74337502996762,
          55.68871851346814
        ],
        [
          37.743534621403995,
          55.688638209448854
        ],
        [
          37.74358692447979,
          55.688562450788254
        ],
        [
          37.74362313430151,
          55.68851017722648
        ],
        [
          37.74465176145872,
          55.68864123976119
        ],
        [
          37.74489316027006,
          55.68868669488326
        ],
        [
          37.745638814376186,
          55.68860487562532
        ],
        [
          37.74582656900724,
          55.68919275832466
        ],
        [
          37.74580511133511,
          55.68937760620504
        ],
        [
          37.74599823038419,
          55.68934427304557
        ],
        [
          37.74879845659572,
          55.68891700001949
        ],
        [
          37.74969431440672,
          55.68885033288331
        ],
        [
          37.75096031706173,
          55.688768513969265
        ],
        [
          37.75322141926118,
          55.688335173872346
        ],
        [
          37.753489640162655,
          55.68820638305922
        ],
        [
          37.753918793604996,
          55.68810335009579
        ],
        [
          37.7542084721786,
          55.687916980965824
        ],
        [
          37.75515216555724,
          55.687665185305654
        ],
        [
          37.75603193011413,
          55.687750036951
        ],
        [
          37.75726038184297,
          55.68772882405699
        ],
        [
          37.75789338317046,
          55.68762275941364
        ],
        [
          37.75894480910432,
          55.68779246270434
        ],
        [
          37.75885093178876,
          55.68782428197659
        ],
        [
          37.75791215863353,
          55.687650033194274
        ],
        [
          37.75703507628568,
          55.68773033925171
        ],
        [
          37.75601583686,
          55.687733369665715
        ],
        [
          37.75510925021298,
          55.687662154873934
        ],
        [
          37.75561618771678,
          55.68727425924686
        ],
        [
          37.75704312291272,
          55.686710591528986
        ],
        [
          37.75857734646924,
          55.686310564331734
        ],
        [
          37.760283231402695,
          55.68620449581875
        ],
        [
          37.76137757268074,
          55.6865196699454
        ],
        [
          37.76184964146735,
          55.68650451740062
        ],
        [
          37.761731624270716,
          55.68690151208958
        ],
        [
          37.761044978762904,
          55.688683392758755
        ],
        [
          37.76116299595954,
          55.688701574788034
        ],
        [
          37.76189255681156,
          55.68671059144829
        ],
        [
          37.76275622811434,
          55.68671059144829
        ],
        [
          37.76439774003146,
          55.68683787196739
        ],
        [
          37.764982461596674,
          55.686959091110175
        ],
        [
          37.7657442089569,
          55.68642875452007
        ],
        [
          37.7658354040634,
          55.68622873998745
        ],
        [
          37.76588151880255,
          55.68677703383223
        ],
        [
          37.766192655048286,
          55.687174025779925
        ],
        [
          37.76727626749031,
          55.68758010495856
        ],
        [
          37.76969025560371,
          55.688295278886045
        ],
        [
          37.773335980804184,
          55.68946650660089
        ],
        [
          37.774154200695904,
          55.689781541515515
        ],
        [
          37.774584695242815,
          55.6899368417483
        ],
        [
          37.7750889505376,
          55.69006941461525
        ],
        [
          37.77606527461902,
          55.690230016584366
        ],
        [
          37.77692089929479,
          55.690230016584366
        ],
        [
          37.77789185895818,
          55.69014668545668
        ],
        [
          37.77933488740814,
          55.690034566918264
        ],
        [
          37.78142562940618,
          55.690316608539916
        ],
        [
          37.78201571538946,
          55.69025297401821
        ],
        [
          37.78272918298743,
          55.69010752328612
        ],
        [
          37.783807431011425,
          55.690140855792116
        ],
        [
          37.7849232299616,
          55.690222671822255
        ],
        [
          37.78511098459265,
          55.69013782556549
        ],
        [
          37.78519949749011,
          55.68999994997904
        ],
        [
          37.7850197894861,
          55.689545411702326
        ],
        [
          37.78509220912951,
          55.6894832910528
        ],
        [
          37.785389934330155,
          55.689456018543915
        ],
        [
          37.785534773616966,
          55.68973328816057
        ],
        [
          37.78579763010041,
          55.690171158014515
        ],
        [
          37.78644672468204,
          55.69049842084871
        ],
        [
          37.78764835432069,
          55.690434786624174
        ],
        [
          37.78766415019843,
          55.69017108993747
        ],
        [
          37.78760514160009,
          55.69004382031436
        ],
        [
          37.787487124403455,
          55.68982261259849
        ],
        [
          37.78741202255104,
          55.689648372759315
        ],
        [
          37.787444209059196,
          55.68955140416326
        ],
        [
          37.78753003974769,
          55.68944534448479
        ],
        [
          37.78780898948514,
          55.68876049502107
        ],
        [
          37.7880342950424,
          55.68843321757807
        ],
        [
          37.788345431288136,
          55.688269577824926
        ],
        [
          37.78923324247199,
          55.68794381143556
        ],
        [
          37.78992525239783,
          55.68759531416095
        ],
        [
          37.79064408441382,
          55.687392275174105
        ],
        [
          37.791379009683894,
          55.68736803164298
        ],
        [
          37.79243580003576,
          55.6876316792335
        ],
        [
          37.793937837084066,
          55.68807714867957
        ],
        [
          37.79483905931306,
          55.68820745509632
        ],
        [
          37.795804654558424,
          55.688525643381375
        ],
        [
          37.7956383575995,
          55.6887620101384
        ],
        [
          37.79555252691103,
          55.689498374298125
        ],
        [
          37.792532359560205,
          55.68989230823518
        ],
        [
          37.79122344156095,
          55.68999533645833
        ],
        [
          37.79039732118435,
          55.69024078494413
        ],
        [
          37.789844786127304,
          55.69033775182319
        ],
        [
          37.78961948057004,
          55.69053774524852
        ],
        [
          37.78962484498807,
          55.69077106961293
        ],
        [
          37.78985015054533,
          55.69094984967322
        ],
        [
          37.790279303987695,
          55.69248914232781
        ],
        [
          37.79124906615851,
          55.69569183181931
        ],
        [
          37.792971044346075,
          55.70169945055673
        ],
        [
          37.79317489223121,
          55.70222049125167
        ],
        [
          37.79279938296913,
          55.70227501836003
        ],
        [
          37.7926169927561,
          55.70238710163344
        ],
        [
          37.79271891669868,
          55.702853606924975
        ],
        [
          37.792874484821546,
          55.7034230993105
        ],
        [
          37.793121248050916,
          55.70382900900864
        ],
        [
          37.79351016835798,
          55.705061858014396
        ],
        [
          37.79404392795191,
          55.70672780813818
        ],
        [
          37.79473862008674,
          55.70899641459444
        ],
        [
          37.794827132984224,
          55.709214484609504
        ],
        [
          37.79481103973012,
          55.70928717434499
        ],
        [
          37.79515436248404,
          55.710356303515
        ],
        [
          37.79587855891801,
          55.712860918829804
        ],
        [
          37.79687634067156,
          55.71606489536009
        ],
        [
          37.79616630621093,
          55.7165888601914
        ],
        [
          37.79637551851408,
          55.716909844635744
        ],
        [
          37.79446578569544,
          55.71723082642479
        ],
        [
          37.79443359918728,
          55.71732772607074
        ],
        [
          37.79466963358057,
          55.71780919260664
        ],
        [
          37.79517120666637,
          55.717748631099695
        ],
        [
          37.79524362630978,
          55.717812220672975
        ],
        [
          37.795941000653634,
          55.7177077520334
        ],
        [
          37.79624945469036,
          55.717815248745296
        ],
        [
          37.79681808300151,
          55.7178682399728
        ],
        [
          37.7972311431898,
          55.719280808073236
        ],
        [
          37.79782659359106,
          55.71929897581136
        ],
        [
          37.79818600959906,
          55.72036480195955
        ],
        [
          37.798178926986616,
          55.72064460420567
        ],
        [
          37.79831840185538,
          55.72071424473738
        ],
        [
          37.797556654495146,
          55.72102913949159
        ],
        [
          37.797352806610014,
          55.72116236343033
        ],
        [
          37.79720796732323,
          55.721207780577856
        ],
        [
          37.79692097095859,
          55.72123351693167
        ],
        [
          37.79682441143404,
          55.721274392292045
        ],
        [
          37.79666616110215,
          55.721366740170254
        ],
        [
          37.79641403345476,
          55.72142578214138
        ],
        [
          37.79638989357365,
          55.721468171193585
        ],
        [
          37.796843186897156,
          55.72204193274748
        ],
        [
          37.79719455627806,
          55.722176667076646
        ],
        [
          37.79730989126563,
          55.72228717914184
        ],
        [
          37.79668761877416,
          55.72253393786684
        ],
        [
          37.796942428630594,
          55.72271559973115
        ],
        [
          37.7971623697698,
          55.722629310445164
        ],
        [
          37.797637120765444,
          55.723089517724375
        ],
        [
          37.79741449741719,
          55.723522470909764
        ],
        [
          37.797086862297526,
          55.723662914394474
        ],
        [
          37.79733898994492,
          55.72382640536369
        ],
        [
          37.79699566719098,
          55.724062557703576
        ],
        [
          37.79738995191617,
          55.72425480891964
        ],
        [
          37.797636715145536,
          55.72425026756314
        ],
        [
          37.798832980366186,
          55.72446522452226
        ],
        [
          37.79986831304594,
          55.72483004312028
        ],
        [
          37.800034610004865,
          55.724923896301405
        ],
        [
          37.799838713402245,
          55.72556994818652
        ],
        [
          37.799827984566164,
          55.726239012950074
        ],
        [
          37.79991381525466,
          55.72649936988193
        ],
        [
          37.799959412807915,
          55.72736519549831
        ],
        [
          37.800117663139794,
          55.727539266504834
        ],
        [
          37.80072652458605,
          55.72768911829352
        ],
        [
          37.80180477261003,
          55.727710309411606
        ],
        [
          37.8025627869983,
          55.727928186905395
        ],
        [
          37.802820279063724,
          55.72803111445205
        ],
        [
          37.80266471094085,
          55.728267241323586
        ],
        [
          37.80287392324401,
          55.72973846106314
        ],
        [
          37.802712990703114,
          55.72992917064414
        ],
        [
          37.803061677875064,
          55.73029545152514
        ],
        [
          37.80316360181764,
          55.730477077128356
        ],
        [
          37.80327089017822,
          55.730704107939026
        ],
        [
          37.80481584257081,
          55.73222063974373
        ],
        [
          37.80575461572597,
          55.73317411745855
        ],
        [
          37.80678994840572,
          55.73333756843489
        ],
        [
          37.808581664027656,
          55.73287748244967
        ],
        [
          37.81046457475612,
          55.73231750202794
        ],
        [
          37.8115964669604,
          55.73340415937635
        ],
        [
          37.81149454301785,
          55.73370079036596
        ],
        [
          37.81154818719814,
          55.73375375994107
        ]
      ],
      [
        [
          37.65847674419115,
          55.71371700677877
        ],
        [
          37.65879592706392,
          55.71363524012832
        ],
        [
          37.658828113572106,
          55.71352016084764
        ],
        [
          37.658374607135606,
          55.71280732030894
        ],
        [
          37.658098339607044,
          55.71231670631744
        ],
        [
          37.65750288920573,
          55.71107500137897
        ],
        [
          37.65737414317302,
          55.71069036766295
        ],
        [
          37.657293676902576,
          55.71056316512478
        ],
        [
          37.65707910018134,
          55.71069188197014
        ]
      ],
      [
        [
          37.58996630977617,
          55.73581833147189
        ],
        [
          37.58993747602925,
          55.73579752310743
        ],
        [
          37.58978660177214,
          55.73587205482159
        ],
        [
          37.59043100248788,
          55.73650046129876
        ],
        [
          37.591439513077404,
          55.736151263744375
        ],
        [
          37.59239974390469,
          55.735847084773546
        ],
        [
          37.59245472918942,
          55.73590534807915
        ],
        [
          37.593803880323904,
          55.73537567832611
        ],
        [
          37.59374645517995,
          55.73522289127625
        ],
        [
          37.5941554920547,
          55.735204730971496
        ],
        [
          37.59421718286201,
          55.735321259433746
        ],
        [
          37.59424668716118,
          55.73532504281992
        ],
        [
          37.59451624916717,
          55.73519565080341
        ],
        [
          37.59573128985084,
          55.73480974221856
        ],
        [
          37.59724003242164,
          55.73437918478652
        ],
        [
          37.59867501424461,
          55.73390095021653
        ],
        [
          37.601282121407046,
          55.733070079317145
        ],
        [
          37.604736806618156,
          55.731919846209074
        ],
        [
          37.60487628148692,
          55.73190319784869
        ],
        [
          37.605908931957664,
          55.73159444514562
        ],
        [
          37.60597330497401,
          55.73157628314553
        ],
        [
          37.6064587848057,
          55.73124331164022
        ],
        [
          37.60767650769843,
          55.730842228527564
        ],
        [
          37.609586240517025,
          55.730223190249504
        ],
        [
          37.6115120665897,
          55.72962079145875
        ],
        [
          37.611668535592514,
          55.72949181306509
        ],
        [
          37.61161757362124,
          55.72921179947579
        ],
        [
          37.61149687421557,
          55.72893783827621
        ],
        [
          37.611298390748466,
          55.728768314360906
        ],
        [
          37.611968943002196,
          55.728456509508774
        ],
        [
          37.61229617250201,
          55.728656307076456
        ],
        [
          37.61384648931261,
          55.728621493937766
        ],
        [
          37.61395377767321,
          55.72862452114973
        ],
        [
          37.613912203433465,
          55.72869793142174
        ],
        [
          37.6139551187777,
          55.72870020184032
        ],
        [
          37.61405972492924,
          55.728561706058414
        ],
        [
          37.61451301825278,
          55.72863435964162
        ],
        [
          37.614439257504856,
          55.72879177527273
        ],
        [
          37.61489255082829,
          55.72884096750176
        ],
        [
          37.615581878545136,
          55.72883945389488
        ],
        [
          37.61567977917418,
          55.728909836552795
        ],
        [
          37.61632350933776,
          55.728921188576216
        ],
        [
          37.6188152815125,
          55.72909525259731
        ],
        [
          37.619811722161494,
          55.72913839007416
        ],
        [
          37.62047154557915,
          55.729184554702734
        ],
        [
          37.620806821706026,
          55.729291262896695
        ],
        [
          37.62151894819948,
          55.729374510195534
        ],
        [
          37.6229606355449,
          55.72950467836843
        ],
        [
          37.6232006932517,
          55.72952359808276
        ],
        [
          37.62336028468807,
          55.729511489438615
        ],
        [
          37.62338576567371,
          55.72948424497553
        ],
        [
          37.62338040125568,
          55.72939645713129
        ],
        [
          37.62344745648106,
          55.729409322603615
        ],
        [
          37.623687514187885,
          55.72940251147173
        ],
        [
          37.62424943697647,
          55.729478947426294
        ],
        [
          37.62455789101314,
          55.72949786716567
        ],
        [
          37.62458203089428,
          55.729525111619196
        ],
        [
          37.624936082484254,
          55.729525111619196
        ],
        [
          37.625346460463525,
          55.729562951106324
        ],
        [
          37.62828616154385,
          55.72989442342654
        ],
        [
          37.630254902960786,
          55.73011237629694
        ],
        [
          37.633849063040685,
          55.73049076378216
        ],
        [
          37.63630596649823,
          55.730769254596275
        ],
        [
          37.63680753958397,
          55.73084644462177
        ],
        [
          37.63695237887076,
          55.730935742717016
        ],
        [
          37.637475409628664,
          55.7310432028585
        ],
        [
          37.63780263912848,
          55.731009905379686
        ],
        [
          37.63758001578026,
          55.73071628092282
        ],
        [
          37.63749418509178,
          55.73038178850415
        ],
        [
          37.63749418509178,
          55.730295516236964
        ],
        [
          37.63735471022299,
          55.73018048624956
        ],
        [
          37.63741031191574,
          55.730137220806235
        ],
        [
          37.63965532086119,
          55.730285549049455
        ],
        [
          37.64138634971029,
          55.730423701647126
        ],
        [
          37.641659935029814,
          55.730520568421525
        ],
        [
          37.64347847274191,
          55.730021096529626
        ],
        [
          37.64593001178152,
          55.72937934140633
        ],
        [
          37.64855857661609,
          55.72875271178223
        ],
        [
          37.65067215731981,
          55.728222944569765
        ],
        [
          37.65078285353069,
          55.72818182516006
        ],
        [
          37.65080431120282,
          55.728122793446914
        ],
        [
          37.65061119215374,
          55.72793358863413
        ],
        [
          37.65041807310467,
          55.72771562354843
        ],
        [
          37.65051195042018,
          55.72749765724069
        ],
        [
          37.6509115995634,
          55.72717676017495
        ],
        [
          37.651206642555,
          55.72698906442462
        ],
        [
          37.65144535915733,
          55.726895216215894
        ],
        [
          37.65159019844415,
          55.727010255924256
        ],
        [
          37.65153655426383,
          55.72709199445755
        ],
        [
          37.65181282179237,
          55.727247902664956
        ],
        [
          37.65204349176766,
          55.72739321460602
        ],
        [
          37.65218564884543,
          55.72759150398271
        ],
        [
          37.652292937206035,
          55.72768837781427
        ],
        [
          37.65323171036124,
          55.72806527526874
        ],
        [
          37.65358576195121,
          55.72824993855131
        ],
        [
          37.65332492711901,
          55.728412502168815
        ],
        [
          37.65442597391962,
          55.72888853385767
        ],
        [
          37.65537145259732,
          55.72930401619914
        ],
        [
          37.656037981537494,
          55.72951970199657
        ],
        [
          37.660241276020756,
          55.7305276707075
        ],
        [
          37.66079381107783,
          55.729628616845794
        ],
        [
          37.661356961256004,
          55.72869778440649
        ],
        [
          37.66200605583761,
          55.728307270425034
        ],
        [
          37.662445938116,
          55.72755347654185
        ],
        [
          37.66267660809129,
          55.727114513525756
        ],
        [
          37.662665879255236,
          55.72664527173091
        ],
        [
          37.662934100156704,
          55.72594896701779
        ],
        [
          37.663036024099206,
          55.72507402731742
        ],
        [
          37.66313794804176,
          55.72351785756279
        ],
        [
          37.6630896682795,
          55.721416626808264
        ],
        [
          37.663035037741494,
          55.7189470213255
        ],
        [
          37.662986757979205,
          55.71808403627932
        ],
        [
          37.66194606088145,
          55.718059811855305
        ],
        [
          37.661929967627344,
          55.71780848263051
        ],
        [
          37.661892416701136,
          55.71766313486772
        ],
        [
          37.66200506947969,
          55.717562326095724
        ],
        [
          37.662359121069656,
          55.717426061721575
        ],
        [
          37.66239130757782,
          55.71736549962428
        ],
        [
          37.66147399209474,
          55.71695973113978
        ],
        [
          37.66118967793917,
          55.71692642159856
        ],
        [
          37.660916092619644,
          55.71703240640343
        ],
        [
          37.66081953309509,
          55.717129306543725
        ],
        [
          37.66056204102967,
          55.717074800244525
        ],
        [
          37.66070688031643,
          55.71675078898788
        ],
        [
          37.660722973570515,
          55.71640860595837
        ],
        [
          37.66061032079191,
          55.716172407066765
        ],
        [
          37.65922093652215,
          55.71421008388159
        ],
        [
          37.65878910087068,
          55.713669519103505
        ],
        [
          37.65845114253478,
          55.71373462954099
        ]
      ]
    ]
  }
}
