{
  "type": "Feature",
  "id": "9fedd745-c5a3-49b3-806b-fc013431a344",
  "properties": {
    "id": "9fedd745-c5a3-49b3-806b-fc013431a344",
    "name": "Соловки",
    "color": "#fea690",
    "routeType": "Aspect",
    "isSelected": false
  },
  "geometry": {
    "type": "LineString",
    "coordinates": [
      [
        35.705258,
        65.027849
      ],
      [
        35.705255,
        65.02784700000001
      ],
      [
        35.704872,
        65.027966
      ],
      [
        35.704806000000005,
        65.027921
      ],
      [
        35.704716000000005,
        65.02795
      ],
      [
        35.703777,
        65.02820700000001
      ],
      [
        35.703707,
        65.02826800000001
      ],
      [
        35.703568000000004,
        65.02831200000001
      ],
      [
        35.703434,
        65.02835400000001
      ],
      [
        35.702495,
        65.02860500000001
      ],
      [
        35.701999,
        65.02870200000001
      ],
      [
        35.700103,
        65.02922000000001
      ],
      [
        35.699866,
        65.02932600000001
      ],
      [
        35.698526,
        65.03001300000001
      ],
      [
        35.697418,
        65.030753
      ],
      [
        35.697489,
        65.030767
      ],
      [
        35.697250999999994,
        65.030908
      ],
      [
        35.69712499999999,
        65.03099399999999
      ],
      [
        35.697053999999994,
        65.031043
      ],
      [
        35.69688599999999,
        65.031157
      ],
      [
        35.69666499999999,
        65.03135999999999
      ],
      [
        35.69646699999999,
        65.03154199999999
      ],
      [
        35.69573299999999,
        65.03222499999998
      ],
      [
        35.69507999999999,
        65.03292399999998
      ],
      [
        35.69499999999999,
        65.03300099999998
      ],
      [
        35.69461199999999,
        65.03338599999998
      ],
      [
        35.69448299999999,
        65.03352299999997
      ],
      [
        35.69439699999999,
        65.03366499999997
      ],
      [
        35.69432699999999,
        65.03383399999997
      ],
      [
        35.694310999999985,
        65.03398799999997
      ],
      [
        35.69427899999999,
        65.03414899999997
      ],
      [
        35.69417399999999,
        65.03498999999996
      ],
      [
        35.69408099999999,
        65.03518499999997
      ],
      [
        35.69379099999999,
        65.03566999999997
      ],
      [
        35.69321699999999,
        65.03632299999997
      ],
      [
        35.69289499999999,
        65.03666699999997
      ],
      [
        35.69253599999999,
        65.03692199999996
      ],
      [
        35.69227799999999,
        65.03705099999996
      ],
      [
        35.69073599999999,
        65.03762399999997
      ],
      [
        35.690266999999984,
        65.03776499999996
      ],
      [
        35.689768999999984,
        65.03787599999997
      ],
      [
        35.68880799999999,
        65.03789999999996
      ],
      [
        35.68460299999999,
        65.03791699999996
      ],
      [
        35.68413599999999,
        65.03792499999996
      ],
      [
        35.683708999999986,
        65.03794599999996
      ],
      [
        35.683368999999985,
        65.03798499999996
      ],
      [
        35.682912999999985,
        65.03804199999996
      ],
      [
        35.68242999999998,
        65.03810799999997
      ],
      [
        35.68114099999998,
        65.03832799999996
      ],
      [
        35.679946999999984,
        65.03856099999996
      ],
      [
        35.679270999999986,
        65.03873099999996
      ],
      [
        35.678626999999985,
        65.03893099999996
      ],
      [
        35.67642399999998,
        65.03969899999996
      ],
      [
        35.67422099999998,
        65.04046699999995
      ],
      [
        35.67193399999998,
        65.04132499999994
      ],
      [
        35.66964799999998,
        65.04218399999995
      ],
      [
        35.66736199999998,
        65.04304199999994
      ],
      [
        35.665703999999984,
        65.04363199999995
      ],
      [
        35.66516199999998,
        65.04384699999994
      ],
      [
        35.66464099999998,
        65.04408899999994
      ],
      [
        35.66335599999998,
        65.04474799999994
      ],
      [
        35.66218299999998,
        65.04535799999994
      ],
      [
        35.66172699999998,
        65.04558099999994
      ],
      [
        35.66133599999998,
        65.04577899999994
      ],
      [
        35.66105599999998,
        65.04591299999994
      ],
      [
        35.66086799999998,
        65.04604199999994
      ],
      [
        35.66074599999998,
        65.04614199999995
      ],
      [
        35.66056699999998,
        65.04638599999994
      ],
      [
        35.66049599999998,
        65.04645799999994
      ],
      [
        35.66039299999998,
        65.04653399999995
      ],
      [
        35.659847999999975,
        65.04682799999995
      ],
      [
        35.65961299999997,
        65.04697099999994
      ],
      [
        35.65954199999997,
        65.04703299999994
      ],
      [
        35.65948399999997,
        65.04711399999994
      ],
      [
        35.65942599999997,
        65.04723399999993
      ],
      [
        35.659370999999965,
        65.04741399999993
      ],
      [
        35.659328999999964,
        65.04750199999994
      ],
      [
        35.659266999999964,
        65.04756899999994
      ],
      [
        35.65901699999996,
        65.04774499999994
      ],
      [
        35.65878399999996,
        65.04788099999993
      ],
      [
        35.65862299999996,
        65.04796099999993
      ],
      [
        35.65832499999996,
        65.04807599999992
      ],
      [
        35.65802699999996,
        65.04816999999993
      ],
      [
        35.65768999999996,
        65.04828399999992
      ],
      [
        35.65736299999996,
        65.04840399999992
      ],
      [
        35.65716399999996,
        65.04851199999992
      ],
      [
        35.65688999999996,
        65.04870399999992
      ],
      [
        35.65672899999996,
        65.04880699999991
      ],
      [
        35.65596699999996,
        65.0492029999999
      ],
      [
        35.65579599999996,
        65.04927999999991
      ],
      [
        35.65467399999996,
        65.04968899999992
      ],
      [
        35.65284899999996,
        65.05024599999992
      ],
      [
        35.651023999999964,
        65.05080199999992
      ],
      [
        35.650724999999966,
        65.05091599999992
      ],
      [
        35.650468999999966,
        65.05102699999992
      ],
      [
        35.650117999999964,
        65.05118299999992
      ],
      [
        35.64964299999996,
        65.05138299999993
      ],
      [
        35.649340999999964,
        65.05149499999993
      ],
      [
        35.64889999999996,
        65.05163999999994
      ],
      [
        35.64862699999996,
        65.05173999999994
      ],
      [
        35.64838899999996,
        65.05184499999994
      ],
      [
        35.64817599999996,
        65.05198499999995
      ],
      [
        35.64773899999996,
        65.05232999999994
      ],
      [
        35.64726699999996,
        65.05266099999994
      ],
      [
        35.647163999999954,
        65.05278099999994
      ],
      [
        35.64704899999995,
        65.05297899999994
      ],
      [
        35.64697099999995,
        65.05317799999993
      ],
      [
        35.64695199999995,
        65.05329499999993
      ],
      [
        35.64697399999995,
        65.05338999999994
      ],
      [
        35.64707199999995,
        65.05358999999994
      ],
      [
        35.64707599999995,
        65.05366899999994
      ],
      [
        35.64706899999995,
        65.05374499999995
      ],
      [
        35.64698699999995,
        65.05384699999995
      ],
      [
        35.646831999999954,
        65.05398599999995
      ],
      [
        35.646552999999955,
        65.05412999999996
      ],
      [
        35.64646699999995,
        65.05418999999996
      ],
      [
        35.64639999999995,
        65.05427299999997
      ],
      [
        35.64638199999995,
        65.05435299999996
      ],
      [
        35.64642399999995,
        65.05446699999996
      ],
      [
        35.646496999999954,
        65.05464299999996
      ],
      [
        35.64657999999995,
        65.05501699999995
      ],
      [
        35.64657099999995,
        65.05512599999994
      ],
      [
        35.646535999999955,
        65.05521999999995
      ],
      [
        35.646431999999955,
        65.05532099999995
      ],
      [
        35.645809999999955,
        65.05562199999994
      ],
      [
        35.64574599999995,
        65.05567499999994
      ],
      [
        35.64556099999995,
        65.05602299999994
      ],
      [
        35.645497999999954,
        65.05608899999994
      ],
      [
        35.645412999999955,
        65.05614699999994
      ],
      [
        35.64494099999995,
        65.05637399999993
      ],
      [
        35.644785999999954,
        65.05647599999993
      ],
      [
        35.64448499999995,
        65.05675399999993
      ],
      [
        35.64438099999995,
        65.05686499999993
      ],
      [
        35.64426599999995,
        65.05696099999993
      ],
      [
        35.64411099999995,
        65.05704699999993
      ],
      [
        35.64392099999995,
        65.05712199999992
      ],
      [
        35.64370499999995,
        65.05717999999992
      ],
      [
        35.643460999999945,
        65.05721199999992
      ],
      [
        35.643150999999946,
        65.05720099999992
      ],
      [
        35.642470999999944,
        65.05714899999992
      ],
      [
        35.64218999999994,
        65.05714299999993
      ],
      [
        35.641966999999944,
        65.05715199999993
      ],
      [
        35.641758999999944,
        65.05718699999993
      ],
      [
        35.64151499999994,
        65.05724299999993
      ],
      [
        35.64126699999994,
        65.05727999999993
      ],
      [
        35.64100299999994,
        65.05728699999993
      ],
      [
        35.640697999999944,
        65.05727699999993
      ],
      [
        35.640322999999945,
        65.05725699999992
      ],
      [
        35.640069999999945,
        65.05726299999992
      ],
      [
        35.639886999999945,
        65.05728999999992
      ],
      [
        35.63964399999995,
        65.05734599999992
      ],
      [
        35.63907499999995,
        65.05755099999992
      ],
      [
        35.638529999999946,
        65.05770699999992
      ],
      [
        35.63828699999995,
        65.05773999999992
      ],
      [
        35.63784499999995,
        65.05776899999992
      ],
      [
        35.63761199999995,
        65.05780199999992
      ],
      [
        35.63741799999995,
        65.05785199999993
      ],
      [
        35.63734199999995,
        65.05789999999993
      ],
      [
        35.636937999999944,
        65.05839699999993
      ],
      [
        35.63688799999994,
        65.05849799999993
      ],
      [
        35.63686399999994,
        65.05858799999993
      ],
      [
        35.63681699999994,
        65.05870799999992
      ],
      [
        35.63672599999994,
        65.05880499999992
      ],
      [
        35.63653199999994,
        65.05896299999992
      ],
      [
        35.63629599999994,
        65.05909499999991
      ],
      [
        35.63592399999994,
        65.05925799999991
      ],
      [
        35.63561199999994,
        65.05937299999991
      ],
      [
        35.63550099999994,
        65.05945599999991
      ],
      [
        35.63538799999994,
        65.05958499999991
      ],
      [
        35.63532599999994,
        65.05969799999991
      ],
      [
        35.63527799999994,
        65.05978899999991
      ],
      [
        35.63519099999994,
        65.05989899999992
      ],
      [
        35.63510199999994,
        65.05999899999992
      ],
      [
        35.63498099999994,
        65.06009499999992
      ],
      [
        35.63461299999994,
        65.06033299999991
      ],
      [
        35.63436299999994,
        65.06048499999991
      ],
      [
        35.63406599999993,
        65.06069599999991
      ],
      [
        35.63393099999993,
        65.0608109999999
      ],
      [
        35.633817999999934,
        65.0609229999999
      ],
      [
        35.63370999999994,
        65.0611189999999
      ],
      [
        35.633642999999935,
        65.0613219999999
      ],
      [
        35.633521999999935,
        65.06152899999991
      ],
      [
        35.633440999999934,
        65.06160599999991
      ],
      [
        35.63335399999993,
        65.0616759999999
      ],
      [
        35.63314699999993,
        65.06178199999991
      ],
      [
        35.63284399999993,
        65.06189799999991
      ],
      [
        35.63244399999993,
        65.06202299999991
      ],
      [
        35.632109999999926,
        65.06214599999991
      ],
      [
        35.63188099999993,
        65.06223999999992
      ],
      [
        35.63164199999993,
        65.06242299999992
      ],
      [
        35.631459999999926,
        65.06249799999992
      ],
      [
        35.63112199999993,
        65.06259199999992
      ],
      [
        35.63078999999993,
        65.06269699999993
      ],
      [
        35.630674999999925,
        65.06273999999993
      ],
      [
        35.63055199999992,
        65.06281299999993
      ],
      [
        35.63050199999992,
        65.06288199999993
      ],
      [
        35.630466999999925,
        65.06302899999993
      ],
      [
        35.630418999999925,
        65.06319199999993
      ],
      [
        35.630362999999925,
        65.06329399999993
      ],
      [
        35.630280999999925,
        65.06338399999993
      ],
      [
        35.63016099999992,
        65.06346799999993
      ],
      [
        35.63000099999992,
        65.06355499999992
      ],
      [
        35.62954599999992,
        65.06374999999993
      ],
      [
        35.62941099999992,
        65.06382399999993
      ],
      [
        35.62855199999992,
        65.06438099999993
      ],
      [
        35.62844199999992,
        65.06452399999992
      ],
      [
        35.62835399999992,
        65.06466599999992
      ],
      [
        35.628271999999924,
        65.06486599999992
      ],
      [
        35.62824999999992,
        65.06502999999992
      ],
      [
        35.62822799999992,
        65.06511499999992
      ],
      [
        35.628184999999924,
        65.06519199999993
      ],
      [
        35.628046999999924,
        65.06533599999993
      ],
      [
        35.62787599999992,
        65.06546099999993
      ],
      [
        35.627657999999926,
        65.06559499999993
      ],
      [
        35.627449999999925,
        65.06569899999992
      ],
      [
        35.627289999999924,
        65.06574299999993
      ],
      [
        35.62712999999992,
        65.06577199999992
      ],
      [
        35.62696499999992,
        65.06578599999992
      ],
      [
        35.62434699999992,
        65.06576999999992
      ],
      [
        35.62404099999992,
        65.06577799999991
      ],
      [
        35.62377999999992,
        65.06579299999991
      ],
      [
        35.623496999999915,
        65.06583599999992
      ],
      [
        35.62292199999992,
        65.06597399999993
      ],
      [
        35.62243699999992,
        65.06612699999992
      ],
      [
        35.62194099999992,
        65.06630699999992
      ],
      [
        35.62167099999992,
        65.06638899999993
      ],
      [
        35.62097799999992,
        65.06653999999993
      ],
      [
        35.62049799999992,
        65.06663299999994
      ],
      [
        35.62016299999992,
        65.06673399999994
      ],
      [
        35.61990799999992,
        65.06686499999994
      ],
      [
        35.619674999999916,
        65.06704399999994
      ],
      [
        35.61949599999991,
        65.06724499999994
      ],
      [
        35.61933899999991,
        65.06746599999994
      ],
      [
        35.619241999999915,
        65.06757099999994
      ],
      [
        35.61910199999991,
        65.06765299999995
      ],
      [
        35.618672999999916,
        65.06788599999994
      ],
      [
        35.61834199999991,
        65.06814299999995
      ],
      [
        35.61787499999991,
        65.06848299999994
      ],
      [
        35.61742999999991,
        65.06876799999995
      ],
      [
        35.61734399999991,
        65.06886199999995
      ],
      [
        35.61729299999991,
        65.06894799999995
      ],
      [
        35.61727099999991,
        65.06903899999995
      ],
      [
        35.61727999999991,
        65.06913699999994
      ],
      [
        35.61734899999991,
        65.06926399999995
      ],
      [
        35.61742199999991,
        65.06938099999995
      ],
      [
        35.617519999999914,
        65.06955799999994
      ],
      [
        35.61756899999991,
        65.06968699999994
      ],
      [
        35.61755799999991,
        65.06981699999994
      ],
      [
        35.61749699999991,
        65.06997099999994
      ],
      [
        35.61738599999991,
        65.07010499999994
      ],
      [
        35.61721899999991,
        65.07025599999994
      ],
      [
        35.617125999999914,
        65.07033199999995
      ],
      [
        35.617009999999915,
        65.07041699999995
      ],
      [
        35.616967999999915,
        65.07051699999995
      ],
      [
        35.616950999999915,
        65.07061799999995
      ],
      [
        35.617026999999915,
        65.07140299999995
      ],
      [
        35.616964999999915,
        65.07153099999995
      ],
      [
        35.616874999999915,
        65.07162599999995
      ],
      [
        35.616787999999914,
        65.07169499999995
      ],
      [
        35.61666499999991,
        65.07177799999995
      ],
      [
        35.61651399999991,
        65.07185699999995
      ],
      [
        35.61630899999991,
        65.07199199999995
      ],
      [
        35.616163999999905,
        65.07211699999995
      ],
      [
        35.6160409999999,
        65.07225799999995
      ],
      [
        35.6158979999999,
        65.07234999999994
      ],
      [
        35.6155909999999,
        65.07244399999995
      ],
      [
        35.615175999999906,
        65.07254399999995
      ],
      [
        35.61469099999991,
        65.07271499999995
      ],
      [
        35.614173999999906,
        65.07291299999994
      ],
      [
        35.6131169999999,
        65.07335999999994
      ],
      [
        35.6129909999999,
        65.07341799999993
      ],
      [
        35.6128929999999,
        65.07349599999993
      ],
      [
        35.6128269999999,
        65.07357899999994
      ],
      [
        35.61280599999991,
        65.07366299999994
      ],
      [
        35.6127959999999,
        65.07411199999994
      ],
      [
        35.6127679999999,
        65.07421799999995
      ],
      [
        35.61271599999991,
        65.07433199999994
      ],
      [
        35.612625999999906,
        65.07441899999993
      ],
      [
        35.612513999999905,
        65.07451699999993
      ],
      [
        35.61237499999991,
        65.07461699999993
      ],
      [
        35.61169299999991,
        65.07502099999994
      ],
      [
        35.61151499999991,
        65.07516099999994
      ],
      [
        35.611389999999915,
        65.07527299999994
      ],
      [
        35.611153999999914,
        65.07565999999994
      ],
      [
        35.610801999999914,
        65.07639999999994
      ],
      [
        35.61070499999992,
        65.07652899999994
      ],
      [
        35.61061399999992,
        65.07662299999994
      ],
      [
        35.61045199999992,
        65.07676799999994
      ],
      [
        35.61032399999992,
        65.07690299999994
      ],
      [
        35.61003099999992,
        65.07733899999994
      ],
      [
        35.60979099999992,
        65.07774199999994
      ],
      [
        35.609533999999925,
        65.07799999999995
      ],
      [
        35.60932399999992,
        65.07824999999994
      ],
      [
        35.60921799999992,
        65.07842599999994
      ],
      [
        35.60904899999992,
        65.07876799999994
      ],
      [
        35.60894499999992,
        65.07905999999994
      ],
      [
        35.60888099999992,
        65.07937599999994
      ],
      [
        35.60882999999992,
        65.07952999999993
      ],
      [
        35.60877899999992,
        65.07963099999994
      ],
      [
        35.60846599999992,
        65.07991999999993
      ],
      [
        35.60816899999992,
        65.08023999999993
      ],
      [
        35.607792999999916,
        65.08069799999993
      ],
      [
        35.606923999999914,
        65.08166099999993
      ],
      [
        35.60546399999991,
        65.08330899999993
      ],
      [
        35.604004999999916,
        65.08495699999993
      ],
      [
        35.60327499999992,
        65.08573599999993
      ],
      [
        35.60283799999992,
        65.08616499999992
      ],
      [
        35.60230499999992,
        65.08670499999992
      ],
      [
        35.60151699999992,
        65.08761299999992
      ],
      [
        35.600727999999926,
        65.08851999999992
      ],
      [
        35.60023399999992,
        65.08907699999992
      ],
      [
        35.59993899999992,
        65.08942799999991
      ],
      [
        35.59977099999992,
        65.08960899999991
      ],
      [
        35.59960399999992,
        65.08974499999991
      ],
      [
        35.59939199999992,
        65.0899089999999
      ],
      [
        35.599179999999926,
        65.09005399999991
      ],
      [
        35.59879899999993,
        65.0902749999999
      ],
      [
        35.59706899999993,
        65.0910969999999
      ],
      [
        35.594606999999925,
        65.0924899999999
      ],
      [
        35.59394699999992,
        65.0928679999999
      ],
      [
        35.59335899999992,
        65.0932399999999
      ],
      [
        35.59309799999992,
        65.09341699999989
      ],
      [
        35.59281199999992,
        65.09363099999989
      ],
      [
        35.59247599999992,
        65.09391499999988
      ],
      [
        35.59225699999992,
        65.09413799999989
      ],
      [
        35.592170999999915,
        65.09423899999989
      ],
      [
        35.59185799999992,
        65.0946639999999
      ],
      [
        35.591295999999915,
        65.0953669999999
      ],
      [
        35.591123999999915,
        65.0956099999999
      ],
      [
        35.591013999999916,
        65.0957929999999
      ],
      [
        35.59054599999992,
        65.0965999999999
      ],
      [
        35.58999699999992,
        65.09756399999989
      ],
      [
        35.58944899999992,
        65.09852799999989
      ],
      [
        35.58846099999992,
        65.10023199999989
      ],
      [
        35.58807199999992,
        65.10092699999988
      ],
      [
        35.58794899999992,
        65.10124199999989
      ],
      [
        35.58775099999992,
        65.10168899999988
      ],
      [
        35.58772099999992,
        65.10179799999987
      ],
      [
        35.587723999999916,
        65.10188999999987
      ],
      [
        35.58775999999992,
        65.10196699999987
      ],
      [
        35.587802999999916,
        65.10203799999988
      ],
      [
        35.587867999999915,
        65.10210199999987
      ],
      [
        35.58775199999992,
        65.10222799999987
      ],
      [
        35.587743999999915,
        65.10233699999986
      ],
      [
        35.58762099999991,
        65.10249999999986
      ],
      [
        35.58737999999991,
        65.10264799999986
      ],
      [
        35.58736099999991,
        65.10267099999986
      ],
      [
        35.58733799999991,
        65.10293299999987
      ],
      [
        35.58734899999991,
        65.10295399999987
      ],
      [
        35.58752599999991,
        65.10310399999987
      ],
      [
        35.58806699999991,
        65.10311099999987
      ],
      [
        35.58853099999991,
        65.10314299999987
      ],
      [
        35.588782999999914,
        65.10319599999987
      ],
      [
        35.588858999999914,
        65.10318799999988
      ],
      [
        35.588922999999916,
        65.10316499999988
      ],
      [
        35.588956999999915,
        65.10314399999987
      ],
      [
        35.588965999999914,
        65.10311199999987
      ],
      [
        35.58896099999991,
        65.10308699999987
      ],
      [
        35.588990999999915,
        65.10308599999988
      ],
      [
        35.58896099999991,
        65.10308699999987
      ],
      [
        35.58895099999991,
        65.10304399999987
      ],
      [
        35.58831199999991,
        65.10245799999987
      ],
      [
        35.58797199999991,
        65.10219299999987
      ],
      [
        35.58786799999991,
        65.10210199999987
      ],
      [
        35.58780299999991,
        65.10203799999988
      ],
      [
        35.58775999999991,
        65.10196699999987
      ],
      [
        35.58772399999991,
        65.10188999999987
      ],
      [
        35.58772099999991,
        65.10179799999987
      ],
      [
        35.58775099999991,
        65.10168899999988
      ],
      [
        35.58794899999991,
        65.10124199999989
      ],
      [
        35.58807199999991,
        65.10092699999988
      ],
      [
        35.58846099999991,
        65.10023199999989
      ],
      [
        35.58944899999991,
        65.09852799999989
      ],
      [
        35.58999699999991,
        65.09756399999989
      ],
      [
        35.59054599999991,
        65.0965999999999
      ],
      [
        35.59101399999991,
        65.0957929999999
      ],
      [
        35.59112399999991,
        65.0956099999999
      ],
      [
        35.59129599999991,
        65.0953669999999
      ],
      [
        35.59185799999991,
        65.0946639999999
      ],
      [
        35.59217099999991,
        65.09423899999989
      ],
      [
        35.59225699999991,
        65.09413799999989
      ],
      [
        35.59247599999991,
        65.09391499999988
      ],
      [
        35.59281199999991,
        65.09363099999989
      ],
      [
        35.59309799999991,
        65.09341699999989
      ],
      [
        35.593358999999914,
        65.0932399999999
      ],
      [
        35.593946999999915,
        65.0928679999999
      ],
      [
        35.59460699999992,
        65.0924899999999
      ],
      [
        35.59706899999992,
        65.0910969999999
      ],
      [
        35.59879899999992,
        65.0902749999999
      ],
      [
        35.59917999999992,
        65.09005399999991
      ],
      [
        35.599391999999916,
        65.0899089999999
      ],
      [
        35.599603999999914,
        65.08974499999991
      ],
      [
        35.59977099999991,
        65.08960899999991
      ],
      [
        35.599938999999914,
        65.08942799999991
      ],
      [
        35.600233999999915,
        65.08907699999992
      ],
      [
        35.60072799999992,
        65.08851999999992
      ],
      [
        35.601516999999916,
        65.08761299999992
      ],
      [
        35.602304999999916,
        65.08670499999992
      ],
      [
        35.60283799999991,
        65.08616499999992
      ],
      [
        35.60327499999991,
        65.08573599999993
      ],
      [
        35.60400499999991,
        65.08495699999993
      ],
      [
        35.605463999999905,
        65.08330899999993
      ],
      [
        35.60692399999991,
        65.08166099999993
      ],
      [
        35.60779299999991,
        65.08069799999993
      ],
      [
        35.60816899999991,
        65.08023999999993
      ],
      [
        35.608465999999915,
        65.07991999999993
      ],
      [
        35.60877899999991,
        65.07963099999994
      ],
      [
        35.60882999999991,
        65.07952999999993
      ],
      [
        35.60888099999991,
        65.07937599999994
      ],
      [
        35.60894499999991,
        65.07905999999994
      ],
      [
        35.609048999999914,
        65.07876799999994
      ],
      [
        35.60921799999991,
        65.07842599999994
      ],
      [
        35.609323999999916,
        65.07824999999994
      ],
      [
        35.60953399999992,
        65.07799999999995
      ],
      [
        35.609790999999916,
        65.07774199999994
      ],
      [
        35.610030999999914,
        65.07733899999994
      ],
      [
        35.61032399999991,
        65.07690299999994
      ],
      [
        35.61045199999991,
        65.07676799999994
      ],
      [
        35.61061399999991,
        65.07662299999994
      ],
      [
        35.61070499999991,
        65.07652899999994
      ],
      [
        35.61080199999991,
        65.07639999999994
      ],
      [
        35.61115399999991,
        65.07565999999994
      ],
      [
        35.61138999999991,
        65.07527299999994
      ],
      [
        35.611514999999905,
        65.07516099999994
      ],
      [
        35.6116929999999,
        65.07502099999994
      ],
      [
        35.6123749999999,
        65.07461699999993
      ],
      [
        35.6125139999999,
        65.07451699999993
      ],
      [
        35.6126259999999,
        65.07441899999993
      ],
      [
        35.6127159999999,
        65.07433199999994
      ],
      [
        35.612767999999896,
        65.07421799999995
      ],
      [
        35.612795999999896,
        65.07411199999994
      ],
      [
        35.6128059999999,
        65.07366299999994
      ],
      [
        35.612826999999896,
        65.07357899999994
      ],
      [
        35.61289299999989,
        65.07349599999993
      ],
      [
        35.612990999999894,
        65.07341799999993
      ],
      [
        35.613116999999896,
        65.07335999999994
      ],
      [
        35.6141739999999,
        65.07291299999994
      ],
      [
        35.6146909999999,
        65.07271499999995
      ],
      [
        35.6151759999999,
        65.07254399999995
      ],
      [
        35.615590999999895,
        65.07244399999995
      ],
      [
        35.615897999999895,
        65.07234999999994
      ],
      [
        35.616040999999896,
        65.07225799999995
      ],
      [
        35.6161639999999,
        65.07211699999995
      ],
      [
        35.6163089999999,
        65.07199199999995
      ],
      [
        35.6165139999999,
        65.07185699999995
      ],
      [
        35.616664999999905,
        65.07177799999995
      ],
      [
        35.61678799999991,
        65.07169499999995
      ],
      [
        35.61687499999991,
        65.07162599999995
      ],
      [
        35.61696499999991,
        65.07153099999995
      ],
      [
        35.61702699999991,
        65.07140299999995
      ],
      [
        35.61695099999991,
        65.07061799999995
      ],
      [
        35.61696799999991,
        65.07051699999995
      ],
      [
        35.61700999999991,
        65.07041699999995
      ],
      [
        35.61712599999991,
        65.07033199999995
      ],
      [
        35.617218999999906,
        65.07025599999994
      ],
      [
        35.617385999999904,
        65.07010499999994
      ],
      [
        35.6174969999999,
        65.06997099999994
      ],
      [
        35.6175579999999,
        65.06981699999994
      ],
      [
        35.617568999999904,
        65.06968699999994
      ],
      [
        35.61751999999991,
        65.06955799999994
      ],
      [
        35.617421999999905,
        65.06938099999995
      ],
      [
        35.617348999999905,
        65.06926399999995
      ],
      [
        35.6172799999999,
        65.06913699999994
      ],
      [
        35.6172709999999,
        65.06903899999995
      ],
      [
        35.617292999999904,
        65.06894799999995
      ],
      [
        35.6173439999999,
        65.06886199999995
      ],
      [
        35.617429999999906,
        65.06876799999995
      ],
      [
        35.617874999999906,
        65.06848299999994
      ],
      [
        35.618341999999906,
        65.06814299999995
      ],
      [
        35.61867299999991,
        65.06788599999994
      ],
      [
        35.619101999999906,
        65.06765299999995
      ],
      [
        35.61924199999991,
        65.06757099999994
      ],
      [
        35.619338999999904,
        65.06746599999994
      ],
      [
        35.619495999999906,
        65.06724499999994
      ],
      [
        35.61967499999991,
        65.06704399999994
      ],
      [
        35.61990799999991,
        65.06686499999994
      ],
      [
        35.62016299999991,
        65.06673399999994
      ],
      [
        35.62049799999991,
        65.06663299999994
      ],
      [
        35.620977999999916,
        65.06653999999993
      ],
      [
        35.621670999999914,
        65.06638899999993
      ],
      [
        35.621940999999914,
        65.06630699999992
      ],
      [
        35.62243699999991,
        65.06612699999992
      ],
      [
        35.62292199999991,
        65.06597399999993
      ],
      [
        35.62349699999991,
        65.06583599999992
      ],
      [
        35.62377999999991,
        65.06579299999991
      ],
      [
        35.62404099999991,
        65.06577799999991
      ],
      [
        35.624346999999915,
        65.06576999999992
      ],
      [
        35.62696499999991,
        65.06578599999992
      ],
      [
        35.627129999999916,
        65.06577199999992
      ],
      [
        35.62728999999992,
        65.06574299999993
      ],
      [
        35.62744999999992,
        65.06569899999992
      ],
      [
        35.62765799999992,
        65.06559499999993
      ],
      [
        35.627875999999915,
        65.06546099999993
      ],
      [
        35.62804699999992,
        65.06533599999993
      ],
      [
        35.62818499999992,
        65.06519199999993
      ],
      [
        35.628227999999915,
        65.06511499999992
      ],
      [
        35.628249999999916,
        65.06502999999992
      ],
      [
        35.62827199999992,
        65.06486599999992
      ],
      [
        35.628353999999916,
        65.06466599999992
      ],
      [
        35.628441999999914,
        65.06452399999992
      ],
      [
        35.628551999999914,
        65.06438099999993
      ],
      [
        35.62941099999991,
        65.06382399999993
      ],
      [
        35.62954599999991,
        65.06374999999993
      ],
      [
        35.630000999999915,
        65.06355499999992
      ],
      [
        35.630160999999916,
        65.06346799999993
      ],
      [
        35.63028099999992,
        65.06338399999993
      ],
      [
        35.63036299999992,
        65.06329399999993
      ],
      [
        35.63041899999992,
        65.06319199999993
      ],
      [
        35.63046699999992,
        65.06302899999993
      ],
      [
        35.630501999999915,
        65.06288199999993
      ],
      [
        35.630551999999916,
        65.06281299999993
      ],
      [
        35.63067499999992,
        65.06273999999993
      ],
      [
        35.63078999999992,
        65.06269699999993
      ],
      [
        35.63112199999992,
        65.06259199999992
      ],
      [
        35.63145999999992,
        65.06249799999992
      ],
      [
        35.63164199999992,
        65.06242299999992
      ],
      [
        35.63188099999992,
        65.06223999999992
      ],
      [
        35.63210999999992,
        65.06214599999991
      ],
      [
        35.63244399999992,
        65.06202299999991
      ],
      [
        35.63284399999992,
        65.06189799999991
      ],
      [
        35.63314699999992,
        65.06178199999991
      ],
      [
        35.633353999999926,
        65.0616759999999
      ],
      [
        35.63344099999993,
        65.06160599999991
      ],
      [
        35.63352199999993,
        65.06152899999991
      ],
      [
        35.63364299999993,
        65.0613219999999
      ],
      [
        35.63370999999993,
        65.0611189999999
      ],
      [
        35.63381799999993,
        65.0609229999999
      ],
      [
        35.633930999999926,
        65.0608109999999
      ],
      [
        35.634065999999926,
        65.06069599999991
      ],
      [
        35.63436299999993,
        65.06048499999991
      ],
      [
        35.63461299999993,
        65.06033299999991
      ],
      [
        35.63498099999993,
        65.06009499999992
      ],
      [
        35.63510199999993,
        65.05999899999992
      ],
      [
        35.635190999999935,
        65.05989899999992
      ],
      [
        35.635277999999936,
        65.05978899999991
      ],
      [
        35.635325999999935,
        65.05969799999991
      ],
      [
        35.635387999999935,
        65.05958499999991
      ],
      [
        35.635500999999934,
        65.05945599999991
      ],
      [
        35.63561199999993,
        65.05937299999991
      ],
      [
        35.63592399999993,
        65.05925799999991
      ],
      [
        35.63629599999993,
        65.05909499999991
      ],
      [
        35.63653199999993,
        65.05896299999992
      ],
      [
        35.63672599999993,
        65.05880499999992
      ],
      [
        35.63681699999993,
        65.05870799999992
      ],
      [
        35.63686399999993,
        65.05858799999993
      ],
      [
        35.636887999999935,
        65.05849799999993
      ],
      [
        35.63693799999994,
        65.05839699999993
      ],
      [
        35.63734199999994,
        65.05789999999993
      ],
      [
        35.63741799999994,
        65.05785199999993
      ],
      [
        35.63761199999994,
        65.05780199999992
      ],
      [
        35.63784499999994,
        65.05776899999992
      ],
      [
        35.63828699999994,
        65.05773999999992
      ],
      [
        35.63852999999994,
        65.05770699999992
      ],
      [
        35.63907499999994,
        65.05755099999992
      ],
      [
        35.63964399999994,
        65.05734599999992
      ],
      [
        35.63988699999994,
        65.05728999999992
      ],
      [
        35.64006999999994,
        65.05726299999992
      ],
      [
        35.64032299999994,
        65.05725699999992
      ],
      [
        35.64069799999994,
        65.05727699999993
      ],
      [
        35.641002999999934,
        65.05728699999993
      ],
      [
        35.641266999999935,
        65.05727999999993
      ],
      [
        35.641514999999934,
        65.05724299999993
      ],
      [
        35.64175899999994,
        65.05718699999993
      ],
      [
        35.64196699999994,
        65.05715199999993
      ],
      [
        35.642189999999935,
        65.05714299999993
      ],
      [
        35.64247099999994,
        65.05714899999992
      ],
      [
        35.64315099999994,
        65.05720099999992
      ],
      [
        35.64346099999994,
        65.05721199999992
      ],
      [
        35.64370499999994,
        65.05717999999992
      ],
      [
        35.64392099999994,
        65.05712199999992
      ],
      [
        35.644110999999945,
        65.05704699999993
      ],
      [
        35.644265999999945,
        65.05696099999993
      ],
      [
        35.644380999999946,
        65.05686499999993
      ],
      [
        35.644484999999946,
        65.05675399999993
      ],
      [
        35.64478599999995,
        65.05647599999993
      ],
      [
        35.644940999999946,
        65.05637399999993
      ],
      [
        35.64541299999995,
        65.05614699999994
      ],
      [
        35.64549799999995,
        65.05608899999994
      ],
      [
        35.645560999999944,
        65.05602299999994
      ],
      [
        35.645745999999946,
        65.05567499999994
      ],
      [
        35.64580999999995,
        65.05562199999994
      ],
      [
        35.64643199999995,
        65.05532099999995
      ],
      [
        35.64653599999995,
        65.05521999999995
      ],
      [
        35.646570999999945,
        65.05512599999994
      ],
      [
        35.64657999999994,
        65.05501699999995
      ],
      [
        35.64649699999995,
        65.05464299999996
      ],
      [
        35.646423999999946,
        65.05446699999996
      ],
      [
        35.646381999999946,
        65.05435299999996
      ],
      [
        35.64639999999994,
        65.05427299999997
      ],
      [
        35.646466999999944,
        65.05418999999996
      ],
      [
        35.64655299999995,
        65.05412999999996
      ],
      [
        35.64683199999995,
        65.05398599999995
      ],
      [
        35.646986999999946,
        65.05384699999995
      ],
      [
        35.647068999999945,
        65.05374499999995
      ],
      [
        35.64707599999994,
        65.05366899999994
      ],
      [
        35.647071999999945,
        65.05358999999994
      ],
      [
        35.64697399999994,
        65.05338999999994
      ],
      [
        35.64695199999994,
        65.05329499999993
      ],
      [
        35.646970999999944,
        65.05317799999993
      ],
      [
        35.647048999999946,
        65.05297899999994
      ],
      [
        35.64716399999995,
        65.05278099999994
      ],
      [
        35.64726699999995,
        65.05266099999994
      ],
      [
        35.64773899999995,
        65.05232999999994
      ],
      [
        35.64817599999995,
        65.05198499999995
      ],
      [
        35.64838899999995,
        65.05184499999994
      ],
      [
        35.648626999999955,
        65.05173999999994
      ],
      [
        35.648899999999955,
        65.05163999999994
      ],
      [
        35.64934099999996,
        65.05149499999993
      ],
      [
        35.649642999999955,
        65.05138299999993
      ],
      [
        35.65011799999996,
        65.05118299999992
      ],
      [
        35.65046899999996,
        65.05102699999992
      ],
      [
        35.65072499999996,
        65.05091599999992
      ],
      [
        35.65102399999996,
        65.05080199999992
      ],
      [
        35.652848999999954,
        65.05024599999992
      ],
      [
        35.65467399999995,
        65.04968899999992
      ],
      [
        35.65579599999995,
        65.04927999999991
      ],
      [
        35.655966999999954,
        65.0492029999999
      ],
      [
        35.656728999999956,
        65.04880699999991
      ],
      [
        35.656889999999954,
        65.04870399999992
      ],
      [
        35.65716399999995,
        65.04851199999992
      ],
      [
        35.657362999999954,
        65.04840399999992
      ],
      [
        35.65768999999995,
        65.04828399999992
      ],
      [
        35.658026999999954,
        65.04816999999993
      ],
      [
        35.658324999999955,
        65.04807599999992
      ],
      [
        35.658622999999956,
        65.04796099999993
      ],
      [
        35.658783999999955,
        65.04788099999993
      ],
      [
        35.659016999999956,
        65.04774499999994
      ],
      [
        35.65926699999996,
        65.04756899999994
      ],
      [
        35.65932899999996,
        65.04750199999994
      ],
      [
        35.65937099999996,
        65.04741399999993
      ],
      [
        35.65942599999996,
        65.04723399999993
      ],
      [
        35.65948399999996,
        65.04711399999994
      ],
      [
        35.659541999999966,
        65.04703299999994
      ],
      [
        35.659612999999965,
        65.04697099999994
      ],
      [
        35.65984799999997,
        65.04682799999995
      ],
      [
        35.66039299999997,
        65.04653399999995
      ],
      [
        35.66049599999997,
        65.04645799999994
      ],
      [
        35.66056699999997,
        65.04638599999994
      ],
      [
        35.660745999999975,
        65.04614199999995
      ],
      [
        35.66086799999997,
        65.04604199999994
      ],
      [
        35.661055999999974,
        65.04591299999994
      ],
      [
        35.66133599999997,
        65.04577899999994
      ],
      [
        35.66172699999997,
        65.04558099999994
      ],
      [
        35.66218299999997,
        65.04535799999994
      ],
      [
        35.66335599999997,
        65.04474799999994
      ],
      [
        35.664640999999975,
        65.04408899999994
      ],
      [
        35.665161999999974,
        65.04384699999994
      ],
      [
        35.66570399999998,
        65.04363199999995
      ],
      [
        35.667361999999976,
        65.04304199999994
      ],
      [
        35.669647999999974,
        65.04218399999995
      ],
      [
        35.67193399999997,
        65.04132499999994
      ],
      [
        35.674220999999974,
        65.04046699999995
      ],
      [
        35.676423999999976,
        65.03969899999996
      ],
      [
        35.67862699999998,
        65.03893099999996
      ],
      [
        35.67927099999998,
        65.03873099999996
      ],
      [
        35.67994699999998,
        65.03856099999996
      ],
      [
        35.681140999999975,
        65.03832799999996
      ],
      [
        35.682429999999975,
        65.03810799999997
      ],
      [
        35.68291299999998,
        65.03804199999996
      ],
      [
        35.68336899999998,
        65.03798499999996
      ],
      [
        35.68370899999998,
        65.03794599999996
      ],
      [
        35.68413599999998,
        65.03792499999996
      ],
      [
        35.68460299999998,
        65.03791699999996
      ],
      [
        35.68880799999998,
        65.03789999999996
      ],
      [
        35.68976899999998,
        65.03787599999997
      ],
      [
        35.69026699999998,
        65.03776499999996
      ],
      [
        35.69073599999998,
        65.03762399999997
      ],
      [
        35.69227799999998,
        65.03705099999996
      ],
      [
        35.69253599999998,
        65.03692199999996
      ],
      [
        35.692894999999986,
        65.03666699999997
      ],
      [
        35.69321699999998,
        65.03632299999997
      ],
      [
        35.69379099999998,
        65.03566999999997
      ],
      [
        35.69408099999998,
        65.03518499999997
      ],
      [
        35.69417399999998,
        65.03498999999996
      ],
      [
        35.69427899999998,
        65.03414899999997
      ],
      [
        35.69431099999998,
        65.03398799999997
      ],
      [
        35.69432699999998,
        65.03383399999997
      ],
      [
        35.69439699999998,
        65.03366499999997
      ],
      [
        35.694482999999984,
        65.03352299999997
      ],
      [
        35.694611999999985,
        65.03338599999998
      ],
      [
        35.694999999999986,
        65.03300099999998
      ],
      [
        35.69507999999998,
        65.03292399999998
      ],
      [
        35.69573299999998,
        65.03222499999998
      ],
      [
        35.696466999999984,
        65.03154199999999
      ],
      [
        35.69666499999998,
        65.03135999999999
      ],
      [
        35.696885999999985,
        65.031157
      ],
      [
        35.69705399999999,
        65.031043
      ],
      [
        35.697124999999986,
        65.03099399999999
      ],
      [
        35.69725099999999,
        65.030908
      ],
      [
        35.69748899999999,
        65.030767
      ],
      [
        35.69741799999999,
        65.030753
      ],
      [
        35.698525999999994,
        65.03001300000001
      ],
      [
        35.69986599999999,
        65.02932600000001
      ],
      [
        35.70010299999999,
        65.02922000000001
      ],
      [
        35.701998999999994,
        65.02870200000001
      ],
      [
        35.70249499999999,
        65.02860500000001
      ],
      [
        35.703433999999994,
        65.02835400000001
      ],
      [
        35.703568,
        65.02831200000001
      ],
      [
        35.703706999999994,
        65.02826800000001
      ],
      [
        35.703776999999995,
        65.02820700000001
      ],
      [
        35.704716,
        65.02795
      ],
      [
        35.704806,
        65.027921
      ],
      [
        35.705966,
        65.027544
      ],
      [
        35.70642599999999,
        65.02742400000001
      ],
      [
        35.70654799999999,
        65.02748500000001
      ],
      [
        35.70676599999999,
        65.02744700000001
      ],
      [
        35.706895999999986,
        65.02751300000001
      ],
      [
        35.70711399999998,
        65.02760100000002
      ],
      [
        35.70739299999998,
        65.02770900000002
      ],
      [
        35.70800199999998,
        65.02790000000002
      ],
      [
        35.70846499999998,
        65.02805400000001
      ],
      [
        35.70911299999998,
        65.02833100000001
      ],
      [
        35.70919299999998,
        65.028384
      ],
      [
        35.70936499999998,
        65.028497
      ],
      [
        35.710671999999974,
        65.02833
      ],
      [
        35.71089499999997,
        65.028275
      ],
      [
        35.711490999999974,
        65.028087
      ],
      [
        35.71163899999998,
        65.02803899999999
      ],
      [
        35.71181799999998,
        65.027987
      ],
      [
        35.71216199999998,
        65.027902
      ],
      [
        35.713099999999976,
        65.027742
      ],
      [
        35.713952999999975,
        65.027556
      ],
      [
        35.71431699999997,
        65.027468
      ],
      [
        35.71443899999997,
        65.027447
      ],
      [
        35.71454299999997,
        65.027441
      ],
      [
        35.71470999999997,
        65.027447
      ],
      [
        35.71488099999997,
        65.02745499999999
      ],
      [
        35.71507699999997,
        65.02745999999999
      ],
      [
        35.715390999999975,
        65.02743799999999
      ],
      [
        35.715601999999976,
        65.02741199999998
      ],
      [
        35.71586299999998,
        65.02736999999999
      ],
      [
        35.71632899999998,
        65.027273
      ],
      [
        35.71719399999998,
        65.027429
      ],
      [
        35.71775699999998,
        65.027667
      ],
      [
        35.71802299999998,
        65.02778099999999
      ],
      [
        35.71829899999998,
        65.027914
      ],
      [
        35.71931399999998,
        65.028414
      ],
      [
        35.71930899999998,
        65.028468
      ],
      [
        35.71933399999998,
        65.02849900000001
      ],
      [
        35.722062999999984,
        65.02986800000001
      ],
      [
        35.72210099999999,
        65.02988
      ],
      [
        35.722146999999985,
        65.02988400000001
      ],
      [
        35.722211999999985,
        65.02988300000001
      ],
      [
        35.72197699999998,
        65.02976100000001
      ],
      [
        35.72197199999998,
        65.029763
      ],
      [
        35.72197699999998,
        65.02976100000001
      ],
      [
        35.72022499999998,
        65.028857
      ],
      [
        35.719313999999976,
        65.028414
      ],
      [
        35.71829899999997,
        65.027914
      ],
      [
        35.718022999999974,
        65.02778099999999
      ],
      [
        35.71775699999997,
        65.027667
      ],
      [
        35.71719399999997,
        65.027429
      ],
      [
        35.71632899999997,
        65.027273
      ],
      [
        35.71429799999997,
        65.026854
      ],
      [
        35.71336299999997,
        65.026677
      ],
      [
        35.713063999999974,
        65.02662400000001
      ],
      [
        35.712821999999974,
        65.02658100000001
      ],
      [
        35.712550999999976,
        65.02653900000001
      ],
      [
        35.711703999999976,
        65.02627800000002
      ],
      [
        35.711540999999976,
        65.02623700000002
      ],
      [
        35.71139399999998,
        65.02620400000002
      ],
      [
        35.710952999999975,
        65.02615200000002
      ],
      [
        35.71084399999997,
        65.02612900000003
      ],
      [
        35.710676999999976,
        65.02605100000002
      ],
      [
        35.71062299999998,
        65.02599900000003
      ],
      [
        35.71059999999998,
        65.02593200000003
      ],
      [
        35.71059999999998,
        65.02590000000002
      ],
      [
        35.71061699999998,
        65.02572500000002
      ],
      [
        35.71058899999998,
        65.02566500000002
      ],
      [
        35.710521999999976,
        65.02562800000001
      ],
      [
        35.71028399999997,
        65.02556600000001
      ],
      [
        35.710170999999974,
        65.02553200000001
      ],
      [
        35.71009099999998,
        65.02549400000001
      ],
      [
        35.710020999999976,
        65.02544700000001
      ],
      [
        35.709939999999975,
        65.02535700000001
      ],
      [
        35.70987299999997,
        65.02516200000001
      ],
      [
        35.709868999999976,
        65.025097
      ],
      [
        35.70989899999998,
        65.02496500000001
      ],
      [
        35.70993699999998,
        65.02487300000001
      ],
      [
        35.709980999999985,
        65.02443400000001
      ],
      [
        35.70998799999998,
        65.02437000000002
      ],
      [
        35.71002499999998,
        65.02410800000001
      ],
      [
        35.71006399999998,
        65.02406700000002
      ],
      [
        35.71014299999998,
        65.02403300000002
      ],
      [
        35.71037299999998,
        65.02400000000002
      ],
      [
        35.711097999999986,
        65.02397200000001
      ],
      [
        35.711125999999986,
        65.02386600000001
      ],
      [
        35.711083999999985,
        65.023812
      ],
      [
        35.711021999999986,
        65.02377000000001
      ],
      [
        35.71093099999999,
        65.02372800000002
      ],
      [
        35.71071199999999,
        65.02364300000002
      ],
      [
        35.71018299999999,
        65.02344100000002
      ],
      [
        35.71014899999999,
        65.02341000000001
      ],
      [
        35.710174999999985,
        65.02337800000001
      ],
      [
        35.71043199999998,
        65.023256
      ],
      [
        35.71062899999998,
        65.023151
      ],
      [
        35.70987899999999,
        65.022916
      ],
      [
        35.70984799999999,
        65.02292299999999
      ],
      [
        35.70987899999999,
        65.022916
      ],
      [
        35.70957099999999,
        65.02285599999999
      ],
      [
        35.70930099999999,
        65.02287299999999
      ],
      [
        35.70903999999999,
        65.02287399999999
      ],
      [
        35.70880899999999,
        65.02286199999999
      ],
      [
        35.708584999999985,
        65.02282
      ],
      [
        35.708469999999984,
        65.02278799999999
      ],
      [
        35.70834799999999,
        65.02275399999999
      ],
      [
        35.708193999999985,
        65.02272099999999
      ],
      [
        35.708024999999985,
        65.02269899999999
      ],
      [
        35.707881999999984,
        65.022686
      ],
      [
        35.707619999999984,
        65.022672
      ],
      [
        35.707323999999986,
        65.022645
      ],
      [
        35.707140999999986,
        65.022696
      ],
      [
        35.706943999999986,
        65.022741
      ],
      [
        35.706791999999986,
        65.022768
      ],
      [
        35.70676199999998,
        65.022773
      ],
      [
        35.706547999999984,
        65.022808
      ],
      [
        35.706352999999986,
        65.022835
      ],
      [
        35.706166999999986,
        65.022847
      ],
      [
        35.705970999999984,
        65.022847
      ],
      [
        35.70574099999998,
        65.022837
      ],
      [
        35.705131999999985,
        65.02277699999999
      ],
      [
        35.70492299999999,
        65.02275999999999
      ],
      [
        35.704740999999984,
        65.02275999999999
      ],
      [
        35.704585999999985,
        65.022775
      ],
      [
        35.70440999999998,
        65.02281099999999
      ],
      [
        35.704152999999984,
        65.022866
      ],
      [
        35.703839999999985,
        65.02296
      ],
      [
        35.703757999999986,
        65.023016
      ],
      [
        35.70370999999999,
        65.023063
      ],
      [
        35.70365599999999,
        65.023145
      ],
      [
        35.70360699999999,
        65.023205
      ],
      [
        35.70357799999999,
        65.02327000000001
      ],
      [
        35.703557999999994,
        65.02337500000002
      ],
      [
        35.70355899999999,
        65.02346900000002
      ],
      [
        35.703557999999994,
        65.02355200000002
      ],
      [
        35.703523,
        65.02362000000002
      ],
      [
        35.703455,
        65.02369700000003
      ],
      [
        35.703382999999995,
        65.02377900000003
      ],
      [
        35.703379999999996,
        65.02384200000003
      ],
      [
        35.70340899999999,
        65.02390200000004
      ],
      [
        35.70342999999999,
        65.02393100000003
      ],
      [
        35.70347099999999,
        65.02399200000004
      ],
      [
        35.703498999999994,
        65.02405400000004
      ],
      [
        35.703520999999995,
        65.02416400000004
      ],
      [
        35.703571,
        65.02427300000004
      ],
      [
        35.703590999999996,
        65.02430500000004
      ],
      [
        35.703706999999994,
        65.02449100000004
      ],
      [
        35.703770999999996,
        65.02458900000003
      ],
      [
        35.703779,
        65.02458800000004
      ],
      [
        35.703770999999996,
        65.02458900000003
      ],
      [
        35.703838999999995,
        65.02469300000003
      ],
      [
        35.703706999999994,
        65.02449100000003
      ],
      [
        35.703590999999996,
        65.02430500000003
      ],
      [
        35.703571,
        65.02427300000002
      ],
      [
        35.703520999999995,
        65.02416400000003
      ],
      [
        35.703498999999994,
        65.02405400000002
      ],
      [
        35.70347099999999,
        65.02399200000002
      ],
      [
        35.70342999999999,
        65.02393100000002
      ],
      [
        35.70340899999999,
        65.02390200000002
      ],
      [
        35.703379999999996,
        65.02384200000002
      ],
      [
        35.703382999999995,
        65.02377900000002
      ],
      [
        35.703455,
        65.02369700000001
      ],
      [
        35.703523,
        65.02362000000001
      ],
      [
        35.703557999999994,
        65.02355200000001
      ],
      [
        35.70355899999999,
        65.023469
      ],
      [
        35.703557999999994,
        65.023375
      ],
      [
        35.70357799999999,
        65.02327
      ],
      [
        35.70360699999999,
        65.02320499999999
      ],
      [
        35.70365599999999,
        65.02314499999999
      ],
      [
        35.70370999999999,
        65.02306299999998
      ],
      [
        35.703757999999986,
        65.02301599999998
      ],
      [
        35.703839999999985,
        65.02295999999998
      ],
      [
        35.704152999999984,
        65.02286599999998
      ],
      [
        35.70440999999998,
        65.02281099999998
      ],
      [
        35.704585999999985,
        65.02277499999998
      ],
      [
        35.704740999999984,
        65.02275999999998
      ],
      [
        35.70492299999999,
        65.02275999999998
      ],
      [
        35.705131999999985,
        65.02277699999998
      ],
      [
        35.70574099999998,
        65.02283699999998
      ],
      [
        35.705970999999984,
        65.02284699999998
      ],
      [
        35.706166999999986,
        65.02284699999998
      ],
      [
        35.706352999999986,
        65.02283499999999
      ],
      [
        35.706547999999984,
        65.02280799999998
      ],
      [
        35.70676199999998,
        65.02277299999999
      ],
      [
        35.706791999999986,
        65.02276799999999
      ],
      [
        35.706943999999986,
        65.02274099999998
      ],
      [
        35.707140999999986,
        65.02269599999998
      ],
      [
        35.707323999999986,
        65.02264499999998
      ],
      [
        35.707619999999984,
        65.02267199999999
      ],
      [
        35.707881999999984,
        65.02268599999998
      ],
      [
        35.708024999999985,
        65.02269899999997
      ],
      [
        35.708193999999985,
        65.02272099999998
      ],
      [
        35.70834799999999,
        65.02275399999998
      ],
      [
        35.708469999999984,
        65.02278799999998
      ],
      [
        35.708584999999985,
        65.02281999999998
      ],
      [
        35.70853899999999,
        65.02291499999998
      ],
      [
        35.70853099999999,
        65.02300399999999
      ],
      [
        35.708590999999984,
        65.02314999999999
      ],
      [
        35.708683999999984,
        65.02334899999998
      ],
      [
        35.70868699999998,
        65.02342999999998
      ],
      [
        35.70864899999998,
        65.02347399999998
      ],
      [
        35.70859199999998,
        65.02352199999999
      ],
      [
        35.70851999999998,
        65.02356099999999
      ],
      [
        35.70851299999998,
        65.02355899999999
      ]
    ]
  }
}
