{
  "type": "Feature",
  "id": "bdf1f82d-158e-4eec-9297-241954e2850b",
  "properties": {
    "id": "bdf1f82d-158e-4eec-9297-241954e2850b",
    "name": "Космос - Верхние Котлы",
    "color": "#a3a3a3",
    "routeType": "Train",
    "isSelected": false
  },
  "geometry": {
    "type": "LineString",
    "coordinates": [
      [
        37.880397,
        55.429464
      ],
      [
        37.880465,
        55.429491000000006
      ],
      [
        37.881186,
        55.42890200000001
      ],
      [
        37.881425,
        55.42870400000001
      ],
      [
        37.881423,
        55.42870300000001
      ],
      [
        37.881423,
        55.42870300000001
      ],
      [
        37.881372999999996,
        55.42868400000001
      ],
      [
        37.881252999999994,
        55.42878300000001
      ],
      [
        37.881246999999995,
        55.42878700000001
      ],
      [
        37.881246999999995,
        55.42878700000001
      ],
      [
        37.87991099999999,
        55.42990100000001
      ],
      [
        37.87941699999999,
        55.43031100000001
      ],
      [
        37.87804399999999,
        55.431410000000014
      ],
      [
        37.87685499999999,
        55.432361000000014
      ],
      [
        37.87594899999999,
        55.433070000000015
      ],
      [
        37.875336999999995,
        55.43349700000002
      ],
      [
        37.873684,
        55.43446500000002
      ],
      [
        37.873152999999995,
        55.43472300000002
      ],
      [
        37.87157799999999,
        55.43533600000002
      ],
      [
        37.87039599999999,
        55.43570100000002
      ],
      [
        37.86929899999999,
        55.435985000000024
      ],
      [
        37.86748299999999,
        55.43634100000002
      ],
      [
        37.866057999999995,
        55.43652800000002
      ],
      [
        37.864031999999995,
        55.43663200000002
      ],
      [
        37.862537999999994,
        55.436638000000016
      ],
      [
        37.86093699999999,
        55.436531000000016
      ],
      [
        37.859418999999995,
        55.43633600000002
      ],
      [
        37.857308999999994,
        55.43593600000002
      ],
      [
        37.85553699999999,
        55.43543900000002
      ],
      [
        37.85412399999999,
        55.434910000000016
      ],
      [
        37.85346899999999,
        55.434615000000015
      ],
      [
        37.85286899999999,
        55.43433300000002
      ],
      [
        37.85174399999999,
        55.43372500000002
      ],
      [
        37.85066499999999,
        55.433002000000016
      ],
      [
        37.84918299999999,
        55.43194900000002
      ],
      [
        37.84770199999999,
        55.43089600000002
      ],
      [
        37.84621999999999,
        55.42984300000002
      ],
      [
        37.84473899999999,
        55.428789000000016
      ],
      [
        37.84325799999999,
        55.42773600000002
      ],
      [
        37.84215999999999,
        55.42695600000002
      ],
      [
        37.84069699999999,
        55.42589400000002
      ],
      [
        37.83923399999999,
        55.42483400000002
      ],
      [
        37.837771999999994,
        55.42377300000002
      ],
      [
        37.83630899999999,
        55.42271100000002
      ],
      [
        37.83518699999999,
        55.42189800000002
      ],
      [
        37.83518699999999,
        55.42189800000002
      ],
      [
        37.83518099999999,
        55.42189500000002
      ],
      [
        37.83363399999999,
        55.42087200000002
      ],
      [
        37.83208699999999,
        55.41985000000002
      ],
      [
        37.83193699999999,
        55.41975100000002
      ],
      [
        37.83044699999999,
        55.41870200000002
      ],
      [
        37.829719999999995,
        55.41819000000002
      ],
      [
        37.82873899999999,
        55.417603000000014
      ],
      [
        37.82767499999999,
        55.417135000000016
      ],
      [
        37.82641199999999,
        55.41673400000002
      ],
      [
        37.82500499999999,
        55.41643900000002
      ],
      [
        37.82349999999999,
        55.41628000000002
      ],
      [
        37.82209799999999,
        55.41624600000002
      ],
      [
        37.82034099999999,
        55.41635700000002
      ],
      [
        37.818000999999995,
        55.41657900000002
      ],
      [
        37.81565799999999,
        55.41680000000002
      ],
      [
        37.81331699999999,
        55.417022000000024
      ],
      [
        37.81097599999999,
        55.41724200000002
      ],
      [
        37.808632999999986,
        55.417464000000024
      ],
      [
        37.806291999999985,
        55.417686000000025
      ],
      [
        37.803950999999984,
        55.41790700000003
      ],
      [
        37.80160799999998,
        55.41812800000003
      ],
      [
        37.80021299999998,
        55.41826000000003
      ],
      [
        37.79889299999998,
        55.41842600000003
      ],
      [
        37.79693299999998,
        55.418785000000035
      ],
      [
        37.79542499999998,
        55.41912100000003
      ],
      [
        37.794342999999984,
        55.41940300000003
      ],
      [
        37.79227599999999,
        55.42006400000003
      ],
      [
        37.792000999999985,
        55.420153000000035
      ],
      [
        37.79022999999999,
        55.420882000000034
      ],
      [
        37.790264999999984,
        55.420865000000035
      ],
      [
        37.789025999999986,
        55.421433000000036
      ],
      [
        37.78735299999999,
        55.42238800000003
      ],
      [
        37.78643699999999,
        55.423006000000036
      ],
      [
        37.785056999999995,
        55.42410300000004
      ],
      [
        37.784977,
        55.42416700000004
      ],
      [
        37.784394999999996,
        55.42471400000004
      ],
      [
        37.783356,
        55.42583700000004
      ],
      [
        37.782461,
        55.427084000000036
      ],
      [
        37.781563999999996,
        55.42833200000003
      ],
      [
        37.780668999999996,
        55.42958000000003
      ],
      [
        37.779773999999996,
        55.43082800000003
      ],
      [
        37.779461,
        55.43126300000003
      ],
      [
        37.778521999999995,
        55.43241000000003
      ],
      [
        37.77763099999999,
        55.43366000000003
      ],
      [
        37.77749299999999,
        55.433853000000035
      ],
      [
        37.77743399999999,
        55.43381500000003
      ],
      [
        37.776557999999994,
        55.43505800000003
      ],
      [
        37.775845999999994,
        55.436343000000036
      ],
      [
        37.775637999999994,
        55.43671900000004
      ],
      [
        37.77474599999999,
        55.43796800000004
      ],
      [
        37.773855999999995,
        55.43921700000004
      ],
      [
        37.773371999999995,
        55.439894000000045
      ],
      [
        37.773368999999995,
        55.439897000000045
      ],
      [
        37.773368999999995,
        55.439897000000045
      ],
      [
        37.77247799999999,
        55.441146000000046
      ],
      [
        37.77158599999999,
        55.44239500000005
      ],
      [
        37.77151699999999,
        55.442492000000044
      ],
      [
        37.77096899999999,
        55.443195000000046
      ],
      [
        37.77099099999999,
        55.44316500000004
      ],
      [
        37.770361999999984,
        55.443856000000046
      ],
      [
        37.769840999999985,
        55.44449700000005
      ],
      [
        37.76923999999998,
        55.44530100000005
      ],
      [
        37.768363999999984,
        55.44655300000005
      ],
      [
        37.76822699999998,
        55.44674800000005
      ],
      [
        37.767316999999984,
        55.44799300000005
      ],
      [
        37.76640599999998,
        55.449237000000046
      ],
      [
        37.76549499999998,
        55.45048300000005
      ],
      [
        37.76458399999998,
        55.45172700000005
      ],
      [
        37.76403799999998,
        55.45247300000005
      ],
      [
        37.763160999999975,
        55.45372500000005
      ],
      [
        37.762783999999975,
        55.45426300000005
      ],
      [
        37.76267599999998,
        55.45432500000005
      ],
      [
        37.761806999999976,
        55.45557900000005
      ],
      [
        37.76172199999998,
        55.45570200000005
      ],
      [
        37.760827999999975,
        55.45695000000005
      ],
      [
        37.75993499999998,
        55.45819900000005
      ],
      [
        37.75903999999998,
        55.45944700000005
      ],
      [
        37.75814699999998,
        55.46069600000005
      ],
      [
        37.75725399999998,
        55.461944000000045
      ],
      [
        37.75635899999998,
        55.46319300000005
      ],
      [
        37.755465999999984,
        55.46444200000005
      ],
      [
        37.754570999999984,
        55.465690000000045
      ],
      [
        37.75399499999998,
        55.466495000000045
      ],
      [
        37.753509999999984,
        55.46708100000004
      ],
      [
        37.75231199999998,
        55.468245000000046
      ],
      [
        37.751114999999984,
        55.46940900000005
      ],
      [
        37.74991799999999,
        55.47057300000005
      ],
      [
        37.748719999999985,
        55.471737000000054
      ],
      [
        37.74752299999999,
        55.472902000000055
      ],
      [
        37.746324999999985,
        55.47406600000006
      ],
      [
        37.74512799999999,
        55.47523000000006
      ],
      [
        37.74393199999999,
        55.47639300000006
      ],
      [
        37.74273299999999,
        55.47755700000006
      ],
      [
        37.74153599999999,
        55.478721000000064
      ],
      [
        37.74033899999999,
        55.47988500000007
      ],
      [
        37.73941599999999,
        55.48078000000007
      ],
      [
        37.738212999999995,
        55.48194200000007
      ],
      [
        37.73700899999999,
        55.48310400000007
      ],
      [
        37.735806,
        55.48426700000007
      ],
      [
        37.734603,
        55.48542900000007
      ],
      [
        37.733399,
        55.48659100000007
      ],
      [
        37.732196,
        55.48775300000007
      ],
      [
        37.730992,
        55.48891500000007
      ],
      [
        37.730858,
        55.48904400000007
      ],
      [
        37.729845999999995,
        55.49001800000007
      ],
      [
        37.729265999999996,
        55.49064000000007
      ],
      [
        37.72900799999999,
        55.49099700000007
      ],
      [
        37.72871799999999,
        55.49151500000007
      ],
      [
        37.728548999999994,
        55.491950000000074
      ],
      [
        37.728443999999996,
        55.49233600000007
      ],
      [
        37.728325999999996,
        55.493132000000074
      ],
      [
        37.728243,
        55.49447800000007
      ],
      [
        37.728161,
        55.495825000000075
      ],
      [
        37.728153,
        55.49594400000007
      ],
      [
        37.728056,
        55.49689800000007
      ],
      [
        37.727944,
        55.497328000000074
      ],
      [
        37.727776,
        55.49773200000008
      ],
      [
        37.727140999999996,
        55.498721000000074
      ],
      [
        37.72662,
        55.499292000000075
      ],
      [
        37.725457999999996,
        55.500468000000076
      ],
      [
        37.72429699999999,
        55.50164300000008
      ],
      [
        37.723133999999995,
        55.50281900000008
      ],
      [
        37.72197299999999,
        55.50399500000008
      ],
      [
        37.72081099999999,
        55.50517100000008
      ],
      [
        37.71964899999999,
        55.50634700000008
      ],
      [
        37.71848699999999,
        55.507523000000084
      ],
      [
        37.71732499999999,
        55.50869800000009
      ],
      [
        37.71616199999999,
        55.50987400000009
      ],
      [
        37.71561199999999,
        55.51043100000009
      ],
      [
        37.714926999999996,
        55.51107300000009
      ],
      [
        37.713744999999996,
        55.51207500000009
      ],
      [
        37.712348999999996,
        55.51316600000009
      ],
      [
        37.710950999999994,
        55.51425700000009
      ],
      [
        37.709554,
        55.51534700000009
      ],
      [
        37.708554,
        55.51612600000009
      ],
      [
        37.707817999999996,
        55.516848000000095
      ],
      [
        37.706773999999996,
        55.51805900000009
      ],
      [
        37.705729,
        55.51927000000009
      ],
      [
        37.704684,
        55.52048000000009
      ],
      [
        37.703664,
        55.52166300000009
      ],
      [
        37.703266000000006,
        55.52215700000009
      ],
      [
        37.702417000000004,
        55.52341600000009
      ],
      [
        37.702254,
        55.52365600000009
      ],
      [
        37.701851000000005,
        55.52439600000009
      ],
      [
        37.70123100000001,
        55.525697000000086
      ],
      [
        37.700610000000005,
        55.52699700000009
      ],
      [
        37.69999000000001,
        55.528298000000085
      ],
      [
        37.699369000000004,
        55.52959900000008
      ],
      [
        37.698748,
        55.53090000000008
      ],
      [
        37.698127,
        55.53220000000008
      ],
      [
        37.697506,
        55.53350100000008
      ],
      [
        37.696884999999995,
        55.53480100000008
      ],
      [
        37.696265,
        55.53610200000008
      ],
      [
        37.695643,
        55.537403000000076
      ],
      [
        37.695023,
        55.538704000000074
      ],
      [
        37.694939,
        55.53887700000007
      ],
      [
        37.694136,
        55.54014600000007
      ],
      [
        37.693559,
        55.54106000000007
      ],
      [
        37.692707,
        55.54231900000007
      ],
      [
        37.691856,
        55.54357700000007
      ],
      [
        37.691434,
        55.54420300000007
      ],
      [
        37.691193,
        55.544539000000064
      ],
      [
        37.690562,
        55.545273000000066
      ],
      [
        37.689816,
        55.545875000000066
      ],
      [
        37.688229,
        55.54688100000006
      ],
      [
        37.686644,
        55.54788600000006
      ],
      [
        37.685864,
        55.548380000000066
      ],
      [
        37.685864,
        55.548380000000066
      ],
      [
        37.685821000000004,
        55.548408000000066
      ],
      [
        37.68423800000001,
        55.54941400000006
      ],
      [
        37.68265600000001,
        55.55042200000006
      ],
      [
        37.68137600000001,
        55.55123500000006
      ],
      [
        37.680639000000006,
        55.55182700000006
      ],
      [
        37.679385,
        55.55297400000006
      ],
      [
        37.67813,
        55.55411800000006
      ],
      [
        37.677641,
        55.55456600000006
      ],
      [
        37.676209,
        55.55564300000006
      ],
      [
        37.675252,
        55.55636200000006
      ],
      [
        37.674402,
        55.55716000000006
      ],
      [
        37.673949,
        55.55776800000006
      ],
      [
        37.673245,
        55.55905400000006
      ],
      [
        37.672539,
        55.56034200000006
      ],
      [
        37.671835,
        55.56162900000006
      ],
      [
        37.671498,
        55.56224300000006
      ],
      [
        37.67065,
        55.56350300000006
      ],
      [
        37.670547,
        55.563654000000064
      ],
      [
        37.670211,
        55.56397800000006
      ],
      [
        37.669354,
        55.56503600000006
      ],
      [
        37.66868,
        55.565713000000066
      ],
      [
        37.667969,
        55.56636200000007
      ],
      [
        37.667969,
        55.56636200000007
      ],
      [
        37.66796,
        55.56637100000007
      ],
      [
        37.667985,
        55.566349000000066
      ],
      [
        37.666729000000004,
        55.56749400000007
      ],
      [
        37.666320000000006,
        55.56786700000007
      ],
      [
        37.66598100000001,
        55.56821000000007
      ],
      [
        37.66538500000001,
        55.56894400000007
      ],
      [
        37.66490300000001,
        55.56971500000007
      ],
      [
        37.664713000000006,
        55.570103000000074
      ],
      [
        37.664429000000005,
        55.57089000000008
      ],
      [
        37.664249000000005,
        55.57164900000008
      ],
      [
        37.66399800000001,
        55.57245200000008
      ],
      [
        37.66367300000001,
        55.57309000000008
      ],
      [
        37.66322200000001,
        55.573772000000076
      ],
      [
        37.66214400000001,
        55.574974000000076
      ],
      [
        37.661462000000014,
        55.57573500000007
      ],
      [
        37.660989000000015,
        55.57632700000007
      ],
      [
        37.66082100000001,
        55.57661100000007
      ],
      [
        37.66054500000001,
        55.577260000000074
      ],
      [
        37.66045300000001,
        55.577617000000075
      ],
      [
        37.66031000000001,
        55.578962000000075
      ],
      [
        37.66019800000001,
        55.58001400000008
      ],
      [
        37.65984600000001,
        55.58134700000008
      ],
      [
        37.65957900000001,
        55.582350000000076
      ],
      [
        37.65957900000001,
        55.582350000000076
      ],
      [
        37.659574000000006,
        55.58236800000007
      ],
      [
        37.65923300000001,
        55.583341000000075
      ],
      [
        37.65873700000001,
        55.58443400000007
      ],
      [
        37.65799700000001,
        55.58571500000007
      ],
      [
        37.65725600000001,
        55.58699600000007
      ],
      [
        37.65651600000001,
        55.58827600000007
      ],
      [
        37.65577600000001,
        55.58955600000007
      ],
      [
        37.65577000000001,
        55.58956700000007
      ],
      [
        37.655006000000014,
        55.59084300000007
      ],
      [
        37.65424500000002,
        55.59211900000007
      ],
      [
        37.65385300000002,
        55.59277200000007
      ],
      [
        37.65385300000002,
        55.59277200000007
      ],
      [
        37.65382500000002,
        55.592821000000065
      ],
      [
        37.65384800000002,
        55.592781000000066
      ],
      [
        37.65310100000002,
        55.59406100000007
      ],
      [
        37.652354000000024,
        55.59534100000007
      ],
      [
        37.65224300000003,
        55.59553000000007
      ],
      [
        37.65154400000003,
        55.59681900000007
      ],
      [
        37.65108400000003,
        55.597664000000066
      ],
      [
        37.65033800000003,
        55.59894400000007
      ],
      [
        37.649591000000036,
        55.60022400000007
      ],
      [
        37.649017000000036,
        55.60120800000007
      ],
      [
        37.64845300000004,
        55.60190500000007
      ],
      [
        37.64813700000004,
        55.602231000000074
      ],
      [
        37.64694000000004,
        55.60339800000008
      ],
      [
        37.64574400000004,
        55.60456200000008
      ],
      [
        37.64502400000004,
        55.605264000000076
      ],
      [
        37.64451000000004,
        55.60583200000008
      ],
      [
        37.64392000000004,
        55.606770000000076
      ],
      [
        37.64338100000003,
        55.60794500000008
      ],
      [
        37.642896000000036,
        55.60866200000008
      ],
      [
        37.64252900000004,
        55.60910000000008
      ],
      [
        37.64202500000004,
        55.60955600000008
      ],
      [
        37.64141900000004,
        55.61000100000008
      ],
      [
        37.63980900000004,
        55.61099400000008
      ],
      [
        37.638198000000045,
        55.61198900000009
      ],
      [
        37.637748000000045,
        55.61226600000008
      ],
      [
        37.636687000000045,
        55.612992000000084
      ],
      [
        37.63594800000004,
        55.61359300000009
      ],
      [
        37.635525000000044,
        55.61399700000009
      ],
      [
        37.63488200000005,
        55.61469500000009
      ],
      [
        37.634494000000046,
        55.61519700000009
      ],
      [
        37.63392200000005,
        55.616098000000086
      ],
      [
        37.63321600000005,
        55.61738600000009
      ],
      [
        37.632511000000044,
        55.61867200000009
      ],
      [
        37.632361000000046,
        55.61894300000009
      ],
      [
        37.63198200000004,
        55.61970300000009
      ],
      [
        37.63125700000004,
        55.62098600000009
      ],
      [
        37.63053100000004,
        55.622270000000086
      ],
      [
        37.62980600000004,
        55.623554000000084
      ],
      [
        37.62953800000004,
        55.62402800000008
      ],
      [
        37.62888600000004,
        55.62526400000008
      ],
      [
        37.62859600000004,
        55.62600100000008
      ],
      [
        37.628436000000036,
        55.62657600000008
      ],
      [
        37.628093000000035,
        55.62790900000008
      ],
      [
        37.62774900000004,
        55.62924300000008
      ],
      [
        37.627407000000034,
        55.63057500000008
      ],
      [
        37.627291000000035,
        55.63101900000008
      ],
      [
        37.627291000000035,
        55.63101900000008
      ],
      [
        37.626950000000036,
        55.63235200000008
      ],
      [
        37.626607000000035,
        55.63368600000008
      ],
      [
        37.62626500000003,
        55.635019000000085
      ],
      [
        37.62592300000003,
        55.636353000000085
      ],
      [
        37.62557900000003,
        55.63768600000009
      ],
      [
        37.62555700000003,
        55.63777500000009
      ],
      [
        37.62537000000003,
        55.63911800000009
      ],
      [
        37.62528600000003,
        55.63971900000009
      ],
      [
        37.62513400000003,
        55.64041400000009
      ],
      [
        37.62486800000003,
        55.641429000000095
      ],
      [
        37.62438000000003,
        55.64274700000009
      ],
      [
        37.62410800000003,
        55.643486000000095
      ],
      [
        37.62376700000003,
        55.64481800000009
      ],
      [
        37.62342700000003,
        55.64615200000009
      ],
      [
        37.62308700000003,
        55.64748700000009
      ],
      [
        37.622747000000025,
        55.64882000000009
      ],
      [
        37.62245100000003,
        55.64997500000009
      ],
      [
        37.622266000000025,
        55.65094800000009
      ],
      [
        37.62216900000003,
        55.65184400000009
      ],
      [
        37.62215100000003,
        55.65226500000009
      ],
      [
        37.62219600000003,
        55.653612000000095
      ],
      [
        37.622206000000034,
        55.6539320000001
      ],
      [
        37.622206000000034,
        55.6539320000001
      ],
      [
        37.622206000000034,
        55.653933000000094
      ],
      [
        37.62227200000003,
        55.6552800000001
      ],
      [
        37.62233900000003,
        55.6566280000001
      ],
      [
        37.62240600000003,
        55.657974000000095
      ],
      [
        37.62247200000003,
        55.6593210000001
      ],
      [
        37.62254000000003,
        55.660667000000096
      ],
      [
        37.622606000000026,
        55.6620140000001
      ],
      [
        37.62267300000003,
        55.6633610000001
      ],
      [
        37.62273100000003,
        55.6645290000001
      ],
      [
        37.62278300000003,
        55.6658770000001
      ],
      [
        37.62283600000003,
        55.667224000000104
      ],
      [
        37.62288900000003,
        55.66857100000011
      ],
      [
        37.62289400000003,
        55.66870800000011
      ],
      [
        37.62291200000003,
        55.66993400000011
      ],
      [
        37.622761000000025,
        55.67127900000011
      ],
      [
        37.62261000000002,
        55.67262400000011
      ],
      [
        37.62258800000002,
        55.67282100000011
      ],
      [
        37.622345000000024,
        55.67416200000011
      ],
      [
        37.62220200000002,
        55.674954000000106
      ],
      [
        37.622015000000026,
        55.676297000000105
      ],
      [
        37.621973000000025,
        55.6765960000001
      ],
      [
        37.62174400000003,
        55.6779360000001
      ],
      [
        37.621514000000026,
        55.6792780000001
      ],
      [
        37.621284000000024,
        55.6806190000001
      ],
      [
        37.621056000000024,
        55.6819610000001
      ],
      [
        37.621045000000024,
        55.682016000000104
      ],
      [
        37.621045000000024,
        55.682016000000104
      ],
      [
        37.62083500000002,
        55.68310400000011
      ],
      [
        37.62061400000002,
        55.683766000000105
      ],
      [
        37.62030900000002,
        55.6844480000001
      ],
      [
        37.62004100000002,
        55.6849160000001
      ],
      [
        37.61918800000002,
        55.6861740000001
      ],
      [
        37.61833500000002,
        55.6874330000001
      ],
      [
        37.61764600000002,
        55.6884480000001
      ],
      [
        37.61733500000002,
        55.688973000000104
      ],
      [
        37.61705900000002,
        55.6895510000001
      ],
      [
        37.61704300000002,
        55.689592000000104
      ],
      [
        37.61704300000002,
        55.689592000000104
      ],
      [
        37.61692100000002,
        55.6899140000001
      ],
      [
        37.61719000000002,
        55.6899460000001
      ],
      [
        37.61719000000002,
        55.6899460000001
      ],
      [
        37.61715400000002,
        55.6899420000001
      ],
      [
        37.61717500000002,
        55.6898860000001
      ],
      [
        37.617238000000015,
        55.6897190000001
      ],
      [
        37.61720500000001,
        55.6897140000001
      ],
      [
        37.61719700000001,
        55.6897090000001
      ],
      [
        37.617196000000014,
        55.6897020000001
      ],
      [
        37.617207000000015,
        55.6896770000001
      ],
      [
        37.61725000000001,
        55.6895820000001
      ],
      [
        37.61726500000001,
        55.6895440000001
      ],
      [
        37.61727100000001,
        55.6895400000001
      ],
      [
        37.61727900000001,
        55.6895380000001
      ],
      [
        37.61731500000001,
        55.6895430000001
      ],
      [
        37.61730900000001,
        55.6895560000001
      ],
      [
        37.617263000000015,
        55.689659000000105
      ],
      [
        37.617249000000015,
        55.68968600000011
      ],
      [
        37.61730900000001,
        55.68969700000011
      ],
      [
        37.61741100000001,
        55.689718000000106
      ],
      [
        37.61744500000001,
        55.689724000000105
      ],
      [
        37.61744500000001,
        55.689724000000105
      ]
    ]
  }
}
