{
  "type": "Feature",
  "id": "c13ae28c-482c-432f-8cdf-a23af58b1344",
  "properties": {
    "id": "c13ae28c-482c-432f-8cdf-a23af58b1344",
    "name": "Дубровицы",
    "color": "#fea690",
    "routeType": "Aspect",
    "isSelected": false
  },
  "geometry": {
    "type": "MultiLineString",
    "coordinates": [
      [
        [
          37.58948986270189,
          55.73610541950334
        ],
        [
          37.58899365403414,
          55.73634755059133
        ],
        [
          37.589685663959976,
          55.73687569379334
        ],
        [
          37.592826530716366,
          55.73579367349996
        ],
        [
          37.59455655553095,
          55.73517471407267
        ],
        [
          37.59487573840372,
          55.735159580467204
        ],
        [
          37.60567967631565,
          55.73176042336477
        ],
        [
          37.606806204101915,
          55.73112475102092
        ],
        [
          37.61159126498443,
          55.72970201810945
        ],
        [
          37.6118165705417,
          55.730059219775185
        ],
        [
          37.61178438403351,
          55.73048301410462
        ],
        [
          37.61185948588593,
          55.73063436810261
        ],
        [
          37.61240665652498,
          55.73062225980446
        ],
        [
          37.61246030070527,
          55.730380093049384
        ],
        [
          37.616354868194904,
          55.730277171721646
        ],
        [
          37.62016360499589,
          55.730185980139204
        ],
        [
          37.62372557856765,
          55.72998013618341
        ],
        [
          37.623838231346284,
          55.7302041427826
        ],
        [
          37.62410108782975,
          55.72997408192666
        ],
        [
          37.62533490397659,
          55.7299861904267
        ],
        [
          37.63217453696457,
          55.730749018313745
        ],
        [
          37.6363480541917,
          55.73125150786674
        ],
        [
          37.638343617698716,
          55.7316601542177
        ],
        [
          37.640264079353365,
          55.73284974473153
        ],
        [
          37.6411438439102,
          55.73322810557826
        ],
        [
          37.64287655093382,
          55.734142210201384
        ],
        [
          37.64327351786803,
          55.73453266555121
        ],
        [
          37.64342372157287,
          55.734529638780586
        ],
        [
          37.64552120902251,
          55.735861395089884
        ],
        [
          37.649012608835655,
          55.738325620699335
        ],
        [
          37.650219602892335,
          55.739130654739306
        ],
        [
          37.64976362735978,
          55.73935460861428
        ],
        [
          37.65152315647356,
          55.7404410692237
        ],
        [
          37.651748462030795,
          55.74032909557815
        ],
        [
          37.65149096996538,
          55.74050159538426
        ],
        [
          37.651748462030795,
          55.74064988407921
        ],
        [
          37.652333183596056,
          55.74068014700866
        ],
        [
          37.652805252382684,
          55.7411371143784
        ],
        [
          37.65321294815295,
          55.7416909153126
        ],
        [
          37.65363137275926,
          55.74204800680526
        ],
        [
          37.65367965252152,
          55.74220234194593
        ],
        [
          37.65384594948047,
          55.742507984238976
        ],
        [
          37.65332560093157,
          55.74273797091394
        ],
        [
          37.65240828544847,
          55.74309505279068
        ],
        [
          37.65216152221911,
          55.74309807889426
        ],
        [
          37.65363137275926,
          55.74265929141519
        ],
        [
          37.65392641575092,
          55.7424807488847
        ],
        [
          37.65367965252152,
          55.74207826864587
        ],
        [
          37.65476326496344,
          55.741742360869
        ],
        [
          37.65529970676641,
          55.741860382842404
        ],
        [
          37.65524606258612,
          55.74197537826657
        ],
        [
          37.65746693165045,
          55.74245956579307
        ],
        [
          37.659183545419936,
          55.74291651223113
        ],
        [
          37.66012768299317,
          55.74332503595949
        ],
        [
          37.65969316513275,
          55.74338858370269
        ],
        [
          37.659612698862304,
          55.74351567888988
        ],
        [
          37.6596985295508,
          55.74370026877852
        ],
        [
          37.65966366083361,
          55.743485418162464
        ],
        [
          37.65984336883759,
          55.74334167941518
        ],
        [
          37.66004453451371,
          55.74332049681172
        ],
        [
          37.66024704129435,
          55.74339085325071
        ],
        [
          37.66000564248301,
          55.743481635564386
        ],
        [
          37.66009683758946,
          55.74336210546127
        ],
        [
          37.66026581675741,
          55.74326678373311
        ],
        [
          37.66180540473196,
          55.74367832983715
        ],
        [
          37.66324575097296,
          55.744154931085184
        ],
        [
          37.664989186832635,
          55.744823675998006
        ],
        [
          37.66668434293004,
          55.74550300010858
        ],
        [
          37.668033494064495,
          55.746083971648765
        ],
        [
          37.6677464976999,
          55.74644102277577
        ],
        [
          37.66804958731858,
          55.74600681186387
        ],
        [
          37.668105913707905,
          55.745419787299944
        ],
        [
          37.66819979102342,
          55.74532749654979
        ],
        [
          37.66849483401504,
          55.74533354840897
        ],
        [
          37.670021010944524,
          55.74549240937547
        ],
        [
          37.672823919365094,
          55.745683041671576
        ],
        [
          37.675763620445366,
          55.745875185976
        ],
        [
          37.677644844711246,
          55.74600006089064
        ],
        [
          37.67835294789119,
          55.746021242026984
        ],
        [
          37.67931317871852,
          55.745987957378944
        ],
        [
          37.67953311985774,
          55.746219436386255
        ],
        [
          37.68004542177959,
          55.74608327243134
        ],
        [
          37.6810619789962,
          55.7459213879785
        ],
        [
          37.68129533118048,
          55.74593500445219
        ],
        [
          37.68139725512305,
          55.74607419479854
        ],
        [
          37.684669550121214,
          55.74534041396945
        ],
        [
          37.68632179087439,
          55.74503781990882
        ],
        [
          37.68750196284093,
          55.744953093149526
        ],
        [
          37.687410767734434,
          55.7451285983682
        ],
        [
          37.68752610272208,
          55.74547960643972
        ],
        [
          37.68803572243492,
          55.74580943009354
        ],
        [
          37.687531467140104,
          55.74601670316284
        ]
      ],
      [
        [
          37.56540126103546,
          55.4315427509657
        ],
        [
          37.56528056162979,
          55.43133075289865
        ],
        [
          37.56435519951965,
          55.431493945756614
        ],
        [
          37.56444907683517,
          55.431663238566195
        ],
        [
          37.564371292773735,
          55.431997246559845
        ],
        [
          37.564186220351694,
          55.43211620762767
        ],
        [
          37.56352907914305,
          55.432226017524606
        ],
        [
          37.561769550029275,
          55.43195149220126
        ],
        [
          37.56156838435316,
          55.431861508485525
        ],
        [
          37.56127602357054,
          55.4319164138281
        ],
        [
          37.558309500400036,
          55.43142531331118
        ],
        [
          37.55820757645746,
          55.431323127029984
        ],
        [
          37.55789644021175,
          55.43129262361098
        ],
        [
          37.557735507670856,
          55.431312450836025
        ],
        [
          37.55708909529827,
          55.431216364959894
        ],
        [
          37.55696034926553,
          55.43114163133833
        ],
        [
          37.555815046016136,
          55.43099826439535
        ],
        [
          37.555458312217176,
          55.4309952140293
        ],
        [
          37.55485213297981,
          55.43101351622202
        ],
        [
          37.55468315381185,
          55.431100451515185
        ],
        [
          37.55320525664461,
          55.4316723894611
        ],
        [
          37.55162275332583,
          55.43229159824194
        ],
        [
          37.550670569125536,
          55.43267440470041
        ],
        [
          37.548763518515955,
          55.43344610679153
        ],
        [
          37.548256581012105,
          55.43360624069812
        ],
        [
          37.547084455672604,
          55.433982934079545
        ],
        [
          37.547030811492284,
          55.43403021113303
        ],
        [
          37.546462183181106,
          55.434080538250605
        ],
        [
          37.54580772418145,
          55.43395090764438
        ],
        [
          37.5458318640626,
          55.433836527347864
        ],
        [
          37.54564813274508,
          55.43389905527865
        ],
        [
          37.5454898824132,
          55.433911255834204
        ],
        [
          37.54518545169001,
          55.43368706991374
        ],
        [
          37.54411525029305,
          55.43406528759044
        ],
        [
          37.542475079480425,
          55.434728684804114
        ],
        [
          37.53967753547781,
          55.43571537212572
        ],
        [
          37.539318119469755,
          55.435453071249285
        ],
        [
          37.538985525551915,
          55.435593371929535
        ],
        [
          37.53861806291688,
          55.43535089543869
        ],
        [
          37.538473223630064,
          55.43527159462651
        ],
        [
          37.53836593526949,
          55.435262444522486
        ],
        [
          37.53800383705248,
          55.43520449381429
        ],
        [
          37.5377919425403,
          55.435286844789225
        ],
        [
          37.53702483076199,
          55.43515111806288
        ],
        [
          37.53651521104916,
          55.435108417428395
        ],
        [
          37.53604850668058,
          55.43513434281914
        ],
        [
          37.535892938557716,
          55.43528379473834
        ],
        [
          37.53525189060315,
          55.4352898948046
        ],
        [
          37.53381959098919,
          55.43504589140971
        ],
        [
          37.53336093324765,
          55.43498794037632
        ],
        [
          37.533267055932136,
          55.434931514293766
        ],
        [
          37.53212979930981,
          55.435021490981605
        ],
        [
          37.53178915876492,
          55.4351221426256
        ],
        [
          37.53111860651119,
          55.43548662141632
        ],
        [
          37.53049096960172,
          55.43550492151194
        ],
        [
          37.52789190906628,
          55.43524109421265
        ],
        [
          37.52571395534619,
          55.43511604250389
        ],
        [
          37.52291909355263,
          55.43535089536809
        ],
        [
          37.52169064182377,
          55.435143492900025
        ],
        [
          37.52126685279943,
          55.43519229357782
        ],
        [
          37.5208135594759,
          55.43521211883586
        ],
        [
          37.52054265636541,
          55.43514196787786
        ],
        [
          37.5203683127794,
          55.43467683335263
        ]
      ],
      [
        [
          37.520352219525144,
          55.43463565717987
        ],
        [
          37.520328079644024,
          55.43417814196736
        ],
        [
          37.52056679624632,
          55.43415831618775
        ],
        [
          37.52050778764801,
          55.43388685450739
        ],
        [
          37.52062848705363,
          55.43378314954444
        ],
        [
          37.52099594968869,
          55.433651992883355
        ],
        [
          37.52039245266024,
          55.43155495189956
        ],
        [
          37.52128831047123,
          55.43056358450629
        ],
        [
          37.52321413654388,
          55.42861128024302
        ],
        [
          37.52539209026392,
          55.42622262612441
        ],
        [
          37.5262611259847,
          55.42535925821077
        ],
        [
          37.526169930878204,
          55.425286038858886
        ],
        [
          37.52657226223041,
          55.424956550082165
        ],
        [
          37.52671173709918,
          55.424959600916786
        ],
        [
          37.530241524162605,
          55.42097806029683
        ],
        [
          37.53078869480165,
          55.42051733494002
        ],
        [
          37.53156117099794,
          55.420306803013254
        ],
        [
          37.53424338001284,
          55.41967520046441
        ],
        [
          37.53349504369752,
          55.418907804940226
        ],
        [
          37.53404891985909,
          55.41874989962066
        ],
        [
          37.53427154320729,
          55.41863394942414
        ],
        [
          37.53439760703099,
          55.41775668361484
        ],
        [
          37.53442174691137,
          55.417662852934214
        ],
        [
          37.53481334942755,
          55.41783678238661
        ],
        [
          37.535639469804124,
          55.417815422670714
        ],
        [
          37.537034218491875,
          55.417386700200126
        ],
        [
          37.53872132796225,
          55.4173973801701
        ],
        [
          37.53924167651114,
          55.41734245454933
        ],
        [
          37.539346282662706,
          55.41620730787371
        ],
        [
          37.5400865723508,
          55.4162424002642
        ],
        [
          37.54001415270742,
          55.41632784247533
        ]
      ],
      [
        [
          37.54005975026042,
          55.41633394540117
        ],
        [
          37.540086572350575,
          55.41621798808764
        ],
        [
          37.539233629883846,
          55.41621493657476
        ],
        [
          37.53922021883878,
          55.416153906267695
        ],
        [
          37.53733194369229,
          55.41614322594836
        ],
        [
          37.53671503561885,
          55.41613254562614
        ],
        [
          37.53620005148801,
          55.41652771540042
        ],
        [
          37.53558314341456,
          55.41644990236111
        ],
        [
          37.53369352716325,
          55.417022053314035
        ],
        [
          37.533747171343514,
          55.41719445987594
        ],
        [
          37.534138773859695,
          55.41714563685382
        ],
        [
          37.53436407941693,
          55.41735618569803
        ],
        [
          37.534294341982516,
          55.41867132763752
        ],
        [
          37.533690844954165,
          55.4188696630937
        ],
        [
          37.534549151838924,
          55.41956535493422
        ],
        [
          37.53410658735147,
          55.4196706230232
        ],
        [
          37.53084502118928,
          55.420553948475465
        ],
        [
          37.5266419996629,
          55.424950447773604
        ],
        [
          37.52693704265455,
          55.42503739648091
        ],
        [
          37.52699873346178,
          55.425033582915795
        ],
        [
          37.52711943286745,
          55.425016803354055
        ],
        [
          37.527737682045334,
          55.42524637763409
        ],
        [
          37.52927056449733,
          55.42568569213742
        ],
        [
          37.52953275042835,
          55.425662429870734
        ],
        [
          37.52939327555956,
          55.42564679462031
        ],
        [
          37.52932554978194,
          55.42570475941996
        ],
        [
          37.52674794691855,
          55.424966845856765
        ],
        [
          37.526466314971984,
          55.42497142210156
        ],
        [
          37.52625844377335,
          55.425300148045764
        ],
        [
          37.52048901218212,
          55.43150195162134
        ],
        [
          37.52078941959177,
          55.43273426434245
        ],
        [
          37.5210844625833,
          55.43371032618861
        ],
        [
          37.52119175094388,
          55.43404736692317
        ],
        [
          37.52117431658528,
          55.434105319331564
        ],
        [
          37.5207438220384,
          55.434108369456276
        ],
        [
          37.52063385146878,
          55.43391468606804
        ],
        [
          37.52059898275161,
          55.433831569675704
        ],
        [
          37.51984796422743,
          55.433836144888645
        ],
        [
          37.518151467025476,
          55.433932986877934
        ],
        [
          37.515775029838224,
          55.4339863642542
        ],
        [
          37.51539415615812,
          55.43398026398562
        ],
        [
          37.51488185423627,
          55.43396653837787
        ],
        [
          37.51486710208666,
          55.43424867489553
        ],
        [
          37.514805411279305,
          55.43435009104506
        ],
        [
          37.51453182595976,
          55.434354666197656
        ],
        [
          37.51352867978819,
          55.435141585525514
        ],
        [
          37.51267305511239,
          55.435270449678555
        ],
        [
          37.51138157147168,
          55.43542371358497
        ],
        [
          37.51129171746965,
          55.43552817669361
        ],
        [
          37.510851835191204,
          55.43560442696797
        ],
        [
          37.51055142778152,
          55.43549767652597
        ],
        [
          37.51036635535951,
          55.43541532598689
        ],
        [
          37.51035294431442,
          55.43526129951545
        ],
        [
          37.51029125350709,
          55.435165223291925
        ],
        [
          37.510052536904766,
          55.43504169637375
        ],
        [
          37.50973067182298,
          55.43487546817975
        ],
        [
          37.50936857360597,
          55.43472448966954
        ],
        [
          37.50888577598329,
          55.434600961366186
        ],
        [
          37.50885009462854,
          55.43450014290303
        ],
        [
          37.509434816193775,
          55.43514218248422
        ],
        [
          37.50779598648567,
          55.43539991037565
        ],
        [
          37.507036921334475,
          55.435598161458884
        ],
        [
          37.50669896299858,
          55.43589401121574
        ],
        [
          37.50535517628213,
          55.436096834756434
        ],
        [
          37.504242059540935,
          55.43633320674191
        ],
        [
          37.50338107044717,
          55.436391155780015
        ],
        [
          37.50281780655404,
          55.436369806142174
        ],
        [
          37.5012433498623,
          55.43654365284999
        ],
        [
          37.50095098907968,
          55.43653450304213
        ],
        [
          37.49954305242476,
          55.43745498389314
        ],
        [
          37.4988161737817,
          55.43855139501634
        ],
        [
          37.49848626207287,
          55.43903325726319
        ],
        [
          37.49830118965083,
          55.43914457270297
        ],
        [
          37.498062473048506,
          55.4391643959674
        ],
        [
          37.497579675425776,
          55.43912932402534
        ],
        [
          37.49620638441015,
          55.43882434934203
        ],
        [
          37.49580673526693,
          55.43880300102598
        ],
        [
          37.495460730304025,
          55.43886704593934
        ],
        [
          37.49507717441486,
          55.43899208569574
        ],
        [
          37.49381117175979,
          55.440137248473604
        ],
        [
          37.493432980288645,
          55.44039646843391
        ],
        [
          37.49358586620245,
          55.44062671527568
        ],
        [
          37.49376825641548,
          55.44089203120982
        ],
        [
          37.493669014681885,
          55.44124197102092
        ],
        [
          37.49381519507315,
          55.44171465167478
        ]
      ],
      [
        [
          37.493980150927364,
          55.441663571865256
        ],
        [
          37.49436370681648,
          55.44147297526139
        ],
        [
          37.494208138693615,
          55.441335745134175
        ],
        [
          37.49429665159108,
          55.44117716749548
        ],
        [
          37.494739216078536,
          55.441168018766376
        ],
        [
          37.49500743698003,
          55.44131897252429
        ],
        [
          37.4954929168116,
          55.4413159229356
        ],
        [
          37.495427202690735,
          55.441399023500686
        ],
        [
          37.49586574386466,
          55.441453153132045
        ],
        [
          37.4957825953852,
          55.44148288627812
        ],
        [
          37.49610982488499,
          55.44158885806546
        ],
        [
          37.496325742710695,
          55.441624690191865
        ],
        [
          37.49638206909992,
          55.44170931484782
        ],
        [
          37.496812563646806,
          55.4417039781617
        ],
        [
          37.49659262250759,
          55.44188694984349
        ],
        [
          37.49564312051631,
          55.44196166302346
        ],
        [
          37.49465874980786,
          55.44210651471931
        ],
        [
          37.49456084917876,
          55.44151033218022
        ],
        [
          37.494363706816124,
          55.44148136143713
        ],
        [
          37.4940163607487,
          55.441682631380516
        ],
        [
          37.49387554477542,
          55.441682631380516
        ],
        [
          37.49367572020377,
          55.441411221663266
        ],
        [
          37.493631463755015,
          55.441219861442214
        ],
        [
          37.4928884918579,
          55.4413532800155
        ],
        [
          37.49210394572104,
          55.441474499931815
        ],
        [
          37.49067701052513,
          55.441684918515335
        ],
        [
          37.493154030550286,
          55.44129381348704
        ],
        [
          37.4936576152928,
          55.44122824773676
        ],
        [
          37.49382994722202,
          55.44169406709465
        ]
      ],
      [
        [
          37.49377026807143,
          55.44170283447995
        ],
        [
          37.49371125947309,
          55.44099228634971
        ],
        [
          37.49375953923533,
          55.44086420333985
        ],
        [
          37.49343230973551,
          55.44038541317545
        ],
        [
          37.49437644730872,
          55.43960774792234
        ],
        [
          37.49517038117713,
          55.43894595791884
        ],
        [
          37.495682683098956,
          55.43881176872623
        ],
        [
          37.49617352734868,
          55.43883769166827
        ],
        [
          37.497522678483186,
          55.43913199216616
        ],
        [
          37.49772116195029,
          55.439164014367826
        ],
        [
          37.49798670064275,
          55.43918383762244
        ],
        [
          37.49839439641303,
          55.43915486517
        ],
        [
          37.498592879880135,
          55.438941383283066
        ],
        [
          37.49958773177938,
          55.437456692291924
        ],
        [
          37.500961022795,
          55.436556971893566
        ],
        [
          37.50170131248313,
          55.436505122971745
        ],
        [
          37.50308801454379,
          55.43635262574049
        ],
        [
          37.50365664285494,
          55.436404474863494
        ],
        [
          37.50456322950197,
          55.43629467663971
        ],
        [
          37.50546713393995,
          55.436064404362675
        ],
        [
          37.506475644529544,
          55.43596223014137
        ],
        [
          37.50706841272179,
          55.43560385576698
        ],
        [
          37.50748415511912,
          55.43545898009476
        ],
        [
          37.50936438363852,
          55.43515550194978
        ],
        [
          37.50966210883916,
          55.435292753659716
        ],
        [
          37.51024683040442,
          55.43540865473038
        ],
        [
          37.510871785104875,
          55.43559318072394
        ],
        [
          37.511330442846415,
          55.4355291304752
        ],
        [
          37.5113626293546,
          55.435411704742215
        ],
        [
          37.51325895112812,
          55.43520582762068
        ],
        [
          37.51359959167303,
          55.43512347645834
        ],
        [
          37.5145222715741,
          55.43434570707568
        ],
        [
          37.514809267938695,
          55.434364007708425
        ],
        [
          37.51496483606156,
          55.433959866751984
        ],
        [
          37.517338591039746,
          55.4339110645381
        ],
        [
          37.52017368596847,
          55.43381193486063
        ],
        [
          37.520565288484654,
          55.43380888471293
        ],
        [
          37.520546513021564,
          55.434022394480664
        ],
        [
          37.52055992406663,
          55.4341291489296
        ],
        [
          37.52039630931672,
          55.43421455227999
        ],
        [
          37.52036412280854,
          55.43466901698186
        ],
        [
          37.520565288484654,
          55.435150926837515
        ],
        [
          37.52095957320985,
          55.43519362742583
        ],
        [
          37.521699862897954,
          55.43513415159371
        ],
        [
          37.52296318334398,
          55.43536747933629
        ],
        [
          37.52561588805961,
          55.435100601066964
        ],
        [
          37.53051896613884,
          55.43551235532816
        ],
        [
          37.53112514537621,
          55.43549710524705
        ],
        [
          37.53160794299889,
          55.435274453388914
        ],
        [
          37.53206928294944,
          55.43499689930643
        ],
        [
          37.5333030990963,
          55.434923697897226
        ],
        [
          37.53349621814538,
          55.435002999411346
        ],
        [
          37.535411315382,
          55.435311053769226
        ],
        [
          37.535958486021045,
          55.43527750341113
        ],
        [
          37.53607650321771,
          55.43513415155845
        ],
        [
          37.53680606406975,
          55.43510670114403
        ],
        [
          37.53777702373314,
          55.43528055344486
        ],
        [
          37.53813643974114,
          55.43520735256981
        ],
        [
          37.5385441355114,
          55.43527140334294
        ],
        [
          37.53895719569969,
          55.4355977556613
        ],
        [
          37.53934879821587,
          55.435463555036016
        ],
        [
          37.53968675655176,
          55.43571670582659
        ],
        [
          37.541596489370356,
          55.43502434977988
        ],
        [
          37.543259458959554,
          55.434383833319615
        ],
        [
          37.54523892921254,
          55.43364265125217
        ],
        [
          37.54734178108016,
          55.432770295557994
        ],
        [
          37.54572172683517,
          55.4315501852549
        ],
        [
          37.54620988887588,
          55.43143732313825
        ],
        [
          37.54774947685045,
          55.43268488906951
        ],
        [
          37.553821998060144,
          55.43015006200691
        ],
        [
          37.55476077121532,
          55.431074331953795
        ],
        [
          37.55561371368206,
          55.43102247579919
        ],
        [
          37.55698968690662,
          55.431176518869975
        ],
        [
          37.5579955152872,
          55.43133056134889
        ],
        [
          37.55876530927447,
          55.431496804535
        ],
        [
          37.56129999679355,
          55.431902495958546
        ],
        [
          37.56161649745731,
          55.431864367243065
        ],
        [
          37.561823027551455,
          55.43195587609808
        ],
        [
          37.56295760196472,
          55.4318613169325
        ],
        [
          37.563515501439824,
          55.43180031090607
        ],
        [
          37.56333579343579,
          55.43156543681451
        ],
        [
          37.56411631625911,
          55.43145104957628
        ],
        [
          37.56437380832453,
          55.431408344922026
        ],
        [
          37.56490756791846,
          55.43130005790629
        ],
        [
          37.565401094377194,
          55.43123600066144
        ],
        [
          37.565277712762516,
          55.43101790021172
        ]
      ],
      [
        [
          37.66234551970817,
          55.757995060383294
        ],
        [
          37.66180371348717,
          55.75794968620914
        ],
        [
          37.66090249125817,
          55.75785288779371
        ],
        [
          37.66125654284812,
          55.75745964174997
        ],
        [
          37.66146039073325,
          55.75727511723372
        ],
        [
          37.66162668769217,
          55.75735376713473
        ],
        [
          37.66076838080741,
          55.75904470147399
        ],
        [
          37.66019975249626,
          55.759038651750686
        ],
        [
          37.66015683715202,
          55.75875733857619
        ],
        [
          37.65979742114402,
          55.75857887002187
        ],
        [
          37.65949701373437,
          55.758367126599175
        ],
        [
          37.65846168105461,
          55.75845484901178
        ],
        [
          37.65783404414512,
          55.75846089882604
        ],
        [
          37.65739952628467,
          55.75851837200814
        ],
        [
          37.657372704194515,
          55.758149332160066
        ],
        [
          37.657174220727384,
          55.75668221282218
        ],
        [
          37.656745067284994,
          55.75480663935539
        ],
        [
          37.65621935431805,
          55.75478546299005
        ],
        [
          37.654347172425645,
          55.75447689205988
        ],
        [
          37.65363906924573,
          55.754071510837505
        ],
        [
          37.65254472796763,
          55.75357536686077
        ],
        [
          37.65053843562451,
          55.75323048256198
        ],
        [
          37.64933680598578,
          55.753045937945096
        ],
        [
          37.64779185359321,
          55.75310341914733
        ],
        [
          37.64723395411811,
          55.75310039382302
        ],
        [
          37.64697646205269,
          55.752797860201774
        ],
        [
          37.64600550238928,
          55.751596778471935
        ],
        [
          37.64590357844673,
          55.75140314973044
        ],
        [
          37.645495882676464,
          55.75114295958915
        ],
        [
          37.64496480529152,
          55.750955379568936
        ],
        [
          37.644492736504894,
          55.750819232212756
        ],
        [
          37.64416818921409,
          55.750837385208584
        ],
        [
          37.64324014489494,
          55.75067249507087
        ],
        [
          37.64277880494436,
          55.75053634671692
        ],
        [
          37.6425025374158,
          55.7506377016371
        ],
        [
          37.64232819382984,
          55.75062257405295
        ],
        [
          37.64216457907993,
          55.7505076042207
        ],
        [
          37.64197146003086,
          55.750209588729305
        ],
        [
          37.64116411511738,
          55.74931401572109
        ],
        [
          37.6409924537404,
          55.748973632047544
        ],
        [
          37.63963525597883,
          55.74816577619228
        ],
        [
          37.63943140809371,
          55.74811585196544
        ],
        [
          37.63930534427001,
          55.74794641168686
        ],
        [
          37.638951292680034,
          55.74804626051187
        ],
        [
          37.638768902467035,
          55.74785866553785
        ],
        [
          37.6352230221493,
          55.748832939229224
        ],
        [
          37.633232823060204,
          55.749310990057694
        ],
        [
          37.63104414050406,
          55.74956816687055
        ],
        [
          37.62729977671927,
          55.749776932672084
        ],
        [
          37.62441371981924,
          55.7495923716531
        ],
        [
          37.620658627198395,
          55.7492232469783
        ],
        [
          37.61676942412676,
          55.74862114264994
        ],
        [
          37.613164535210736,
          55.74769830133024
        ],
        [
          37.611372819588745,
          55.74711432810209
        ],
        [
          37.61040185992533,
          55.74649101021858
        ],
        [
          37.60833119456582,
          55.74445456705966
        ],
        [
          37.6073334128123,
          55.743235070796636
        ],
        [
          37.60712956492714,
          55.74199435293794
        ],
        [
          37.60650192801767,
          55.740375307864866
        ],
        [
          37.605997672722836,
          55.739037653382795
        ],
        [
          37.60540758673955,
          55.73843236473323
        ],
        [
          37.60175441806123,
          55.736661841309484
        ],
        [
          37.59913121764462,
          55.73538459313428
        ],
        [
          37.59839092795652,
          55.73487005001477
        ],
        [
          37.59803151194852,
          55.73508494826102
        ],
        [
          37.597816935227335,
          55.73497598591846
        ],
        [
          37.595166912720565,
          55.736313780192035
        ],
        [
          37.59485845868387,
          55.736201794641524
        ],
        [
          37.59476458136833,
          55.73613974846128
        ],
        [
          37.594448080704574,
          55.73620936124209
        ],
        [
          37.59418790643014,
          55.73577503598489
        ],
        [
          37.59387677018441,
          55.735888536078754
        ],
        [
          37.593522718594436,
          55.73596420262803
        ],
        [
          37.593691697762395,
          55.73588550941371
        ],
        [
          37.59330814187325,
          55.73557527499737
        ],
        [
          37.59294604365624,
          55.73577503597863
        ],
        [
          37.58969252412114,
          55.73685403018871
        ],
        [
          37.58892004792486,
          55.73630318694801
        ],
        [
          37.58949940507207,
          55.73608224213824
        ]
      ]
    ]
  }
}
