{
  "type": "Feature",
  "id": "e04cbe66-9ff5-4afe-adfe-701eea3b57f4",
  "properties": {
    "id": "e04cbe66-9ff5-4afe-adfe-701eea3b57f4",
    "name": "Кижи - Петрозаводск",
    "color": "#858585",
    "routeType": "Ship",
    "isSelected": false
  },
  "geometry": {
    "type": "LineString",
    "coordinates": [
      [
        34.390299,
        61.79124
      ],
      [
        34.390277,
        61.791247
      ],
      [
        34.390325,
        61.79128
      ],
      [
        34.390192,
        61.791323
      ],
      [
        34.390192,
        61.791323
      ],
      [
        34.390188,
        61.791323
      ],
      [
        34.390184000000005,
        61.791329999999995
      ],
      [
        34.39016600000001,
        61.79136199999999
      ],
      [
        34.39005600000001,
        61.79157299999999
      ],
      [
        34.38999100000001,
        61.79174799999999
      ],
      [
        34.39006600000001,
        61.79208299999999
      ],
      [
        34.39040900000001,
        61.79272299999999
      ],
      [
        34.39080700000001,
        61.79317499999999
      ],
      [
        34.39114700000001,
        61.79339399999999
      ],
      [
        34.39199400000001,
        61.793744999999994
      ],
      [
        34.39265100000001,
        61.79389799999999
      ],
      [
        34.39323100000001,
        61.79399499999999
      ],
      [
        34.39373500000001,
        61.794009999999986
      ],
      [
        34.394861000000006,
        61.793928999999984
      ],
      [
        34.39739300000001,
        61.79360399999999
      ],
      [
        34.400076000000006,
        61.79314699999999
      ],
      [
        34.402758000000006,
        61.79269099999999
      ],
      [
        34.402886,
        61.79266899999999
      ],
      [
        34.40549,
        61.79211999999999
      ],
      [
        34.408092,
        61.79156899999999
      ],
      [
        34.408272000000004,
        61.79153199999999
      ],
      [
        34.410845,
        61.79095099999999
      ],
      [
        34.411964000000005,
        61.79069799999999
      ],
      [
        34.414559000000004,
        61.79014199999999
      ],
      [
        34.417154000000004,
        61.78958499999999
      ],
      [
        34.41975,
        61.78902799999999
      ],
      [
        34.422346,
        61.78846999999999
      ],
      [
        34.424941,
        61.78791299999999
      ],
      [
        34.427535999999996,
        61.78735599999999
      ],
      [
        34.429235999999996,
        61.78698999999999
      ],
      [
        34.43184899999999,
        61.786450999999985
      ],
      [
        34.43446099999999,
        61.78591299999999
      ],
      [
        34.43707299999999,
        61.78537399999998
      ],
      [
        34.437110999999994,
        61.785364999999985
      ],
      [
        34.439724999999996,
        61.784826999999986
      ],
      [
        34.442336999999995,
        61.78428899999999
      ],
      [
        34.44494999999999,
        61.78374999999998
      ],
      [
        34.44756199999999,
        61.783211999999985
      ],
      [
        34.45000699999999,
        61.782707999999985
      ],
      [
        34.45262499999999,
        61.782175999999986
      ],
      [
        34.45524199999999,
        61.78164299999999
      ],
      [
        34.45785999999999,
        61.78111099999999
      ],
      [
        34.46047899999999,
        61.78057899999999
      ],
      [
        34.460944999999995,
        61.78048299999999
      ],
      [
        34.46353,
        61.77991599999999
      ],
      [
        34.466114,
        61.779348999999996
      ],
      [
        34.468699,
        61.77878
      ],
      [
        34.471283,
        61.778213
      ],
      [
        34.473867,
        61.777645
      ],
      [
        34.473991999999996,
        61.777618
      ],
      [
        34.47660499999999,
        61.77708
      ],
      [
        34.47868599999999,
        61.776652999999996
      ],
      [
        34.481298999999986,
        61.776117
      ],
      [
        34.48339099999998,
        61.775687
      ],
      [
        34.485978999999986,
        61.775123
      ],
      [
        34.488565999999985,
        61.77456
      ],
      [
        34.490298999999986,
        61.774183
      ],
      [
        34.49288199999999,
        61.773613
      ],
      [
        34.495463999999984,
        61.773044
      ],
      [
        34.49804599999998,
        61.772475
      ],
      [
        34.50062699999998,
        61.771904
      ],
      [
        34.50320999999998,
        61.771335
      ],
      [
        34.50579099999998,
        61.770766
      ],
      [
        34.50837299999998,
        61.770196
      ],
      [
        34.51095399999998,
        61.769625999999995
      ],
      [
        34.513535999999974,
        61.76905599999999
      ],
      [
        34.51611699999997,
        61.76848699999999
      ],
      [
        34.51664899999997,
        61.768367999999995
      ],
      [
        34.51928299999997,
        61.767855999999995
      ],
      [
        34.52191799999997,
        61.767343
      ],
      [
        34.52455199999997,
        61.766830999999996
      ],
      [
        34.52718599999997,
        61.766316999999994
      ],
      [
        34.52981999999997,
        61.76580499999999
      ],
      [
        34.530983999999975,
        61.76557799999999
      ],
      [
        34.533598999999974,
        61.76504499999999
      ],
      [
        34.53621499999998,
        61.764511999999996
      ],
      [
        34.538829999999976,
        61.763979
      ],
      [
        34.54144699999998,
        61.763446
      ],
      [
        34.544061999999975,
        61.762912
      ],
      [
        34.54465199999998,
        61.762792
      ],
      [
        34.54729499999998,
        61.76229
      ],
      [
        34.54993699999998,
        61.761786
      ],
      [
        34.55020899999998,
        61.761735
      ],
      [
        34.55282199999998,
        61.7612
      ],
      [
        34.55543599999998,
        61.760664000000006
      ],
      [
        34.55799899999998,
        61.760138000000005
      ],
      [
        34.56058999999998,
        61.75958000000001
      ],
      [
        34.563180999999986,
        61.759021000000004
      ],
      [
        34.565772999999986,
        61.758462
      ],
      [
        34.566817999999984,
        61.758237
      ],
      [
        34.569439999999986,
        61.757713
      ],
      [
        34.572062999999986,
        61.757188
      ],
      [
        34.57383499999999,
        61.756833
      ],
      [
        34.57649899999999,
        61.756359
      ],
      [
        34.57902699999999,
        61.755909
      ],
      [
        34.58159399999999,
        61.755325
      ],
      [
        34.58359799999999,
        61.754871
      ],
      [
        34.586190999999985,
        61.754315
      ],
      [
        34.58878399999998,
        61.753758
      ],
      [
        34.591042999999985,
        61.753274
      ],
      [
        34.59368999999999,
        61.752776999999995
      ],
      [
        34.59633599999999,
        61.75227999999999
      ],
      [
        34.59797399999999,
        61.751971999999995
      ],
      [
        34.60060199999999,
        61.75145499999999
      ],
      [
        34.60323199999999,
        61.75093799999999
      ],
      [
        34.60585999999999,
        61.750418999999994
      ],
      [
        34.60848899999999,
        61.74990199999999
      ],
      [
        34.61111699999999,
        61.74938499999999
      ],
      [
        34.611816999999995,
        61.74924799999999
      ],
      [
        34.61447499999999,
        61.74876599999999
      ],
      [
        34.61713399999999,
        61.74828399999999
      ],
      [
        34.619792999999994,
        61.74780299999999
      ],
      [
        34.62108599999999,
        61.74756799999999
      ],
      [
        34.62375199999999,
        61.74709699999999
      ],
      [
        34.62641799999999,
        61.74662499999999
      ],
      [
        34.62908499999999,
        61.746152999999985
      ],
      [
        34.63175099999999,
        61.745679999999986
      ],
      [
        34.634416999999985,
        61.745207999999984
      ],
      [
        34.637081999999985,
        61.74473599999998
      ],
      [
        34.637286999999986,
        61.74469999999998
      ],
      [
        34.639909999999986,
        61.74417699999998
      ],
      [
        34.64253199999999,
        61.74365399999998
      ],
      [
        34.64391699999999,
        61.74337799999998
      ],
      [
        34.646607999999986,
        61.74293799999998
      ],
      [
        34.649298999999985,
        61.74249999999998
      ],
      [
        34.651378999999984,
        61.74216099999998
      ],
      [
        34.65410699999998,
        61.741776999999985
      ],
      [
        34.65683699999998,
        61.74139499999998
      ],
      [
        34.65689299999998,
        61.74138699999998
      ],
      [
        34.65971599999998,
        61.74121599999998
      ],
      [
        34.661076999999985,
        61.741132999999984
      ],
      [
        34.66392099999999,
        61.74119299999998
      ],
      [
        34.66444699999999,
        61.74120399999998
      ],
      [
        34.66717899999999,
        61.741579999999985
      ],
      [
        34.66792199999999,
        61.74168199999998
      ],
      [
        34.67054399999999,
        61.742207999999984
      ],
      [
        34.672084999999996,
        61.742516999999985
      ],
      [
        34.674572999999995,
        61.74317099999998
      ],
      [
        34.67505499999999,
        61.74329799999998
      ],
      [
        34.677347999999995,
        61.74409799999998
      ],
      [
        34.679638999999995,
        61.74489599999998
      ],
      [
        34.680333999999995,
        61.74513899999998
      ],
      [
        34.682612999999996,
        61.74594699999998
      ],
      [
        34.68489099999999,
        61.74675499999998
      ],
      [
        34.685269999999996,
        61.74688899999998
      ],
      [
        34.687461,
        61.747748999999985
      ],
      [
        34.689654,
        61.74860899999999
      ],
      [
        34.691364,
        61.74927899999999
      ],
      [
        34.693538,
        61.750148999999986
      ],
      [
        34.69571199999999,
        61.751018999999985
      ],
      [
        34.69754399999999,
        61.75175199999998
      ],
      [
        34.69971099999999,
        61.75262499999998
      ],
      [
        34.701877999999994,
        61.753498999999984
      ],
      [
        34.704044999999994,
        61.75437299999999
      ],
      [
        34.705439999999996,
        61.754933999999984
      ],
      [
        34.707606999999996,
        61.755808999999985
      ],
      [
        34.709773,
        61.75668299999999
      ],
      [
        34.711791,
        61.75749699999999
      ],
      [
        34.713933,
        61.75838499999999
      ],
      [
        34.714538,
        61.75863599999999
      ],
      [
        34.716789,
        61.75946199999999
      ],
      [
        34.719038999999995,
        61.76028699999999
      ],
      [
        34.719474,
        61.76044599999999
      ],
      [
        34.721733,
        61.76126699999999
      ],
      [
        34.723993,
        61.76208599999999
      ],
      [
        34.726253,
        61.76290599999999
      ],
      [
        34.726984,
        61.763170999999986
      ],
      [
        34.729117,
        61.76406399999998
      ],
      [
        34.731189,
        61.764929999999985
      ],
      [
        34.733445,
        61.76575299999998
      ],
      [
        34.7357,
        61.76657599999998
      ],
      [
        34.737627,
        61.767277999999976
      ],
      [
        34.739846,
        61.768122999999974
      ],
      [
        34.742067,
        61.768966999999975
      ],
      [
        34.742519,
        61.769138999999974
      ],
      [
        34.744725,
        61.769990999999976
      ],
      [
        34.745544,
        61.77030799999998
      ],
      [
        34.747768,
        61.77115099999998
      ],
      [
        34.749991,
        61.77199199999998
      ],
      [
        34.750694,
        61.772258999999984
      ],
      [
        34.752912,
        61.77310499999999
      ],
      [
        34.755132,
        61.77395099999999
      ],
      [
        34.75735,
        61.77479499999999
      ],
      [
        34.757604,
        61.77489199999999
      ],
      [
        34.759844,
        61.77572399999999
      ],
      [
        34.762086000000004,
        61.77655599999999
      ],
      [
        34.762174,
        61.776588999999994
      ],
      [
        34.764426,
        61.777415
      ],
      [
        34.766677,
        61.778241
      ],
      [
        34.768930000000005,
        61.779066
      ],
      [
        34.769298000000006,
        61.779201
      ],
      [
        34.77146200000001,
        61.780078
      ],
      [
        34.77362500000001,
        61.780954
      ],
      [
        34.77579000000001,
        61.781831000000004
      ],
      [
        34.77729000000001,
        61.782439000000004
      ],
      [
        34.77949600000001,
        61.783293
      ],
      [
        34.78138800000001,
        61.784024
      ],
      [
        34.78364400000001,
        61.784848000000004
      ],
      [
        34.78589900000001,
        61.785672000000005
      ],
      [
        34.78767500000001,
        61.78632
      ],
      [
        34.789879000000006,
        61.787175000000005
      ],
      [
        34.79208200000001,
        61.788031000000004
      ],
      [
        34.79398400000001,
        61.788769
      ],
      [
        34.79618700000001,
        61.789623
      ],
      [
        34.79839200000001,
        61.790478
      ],
      [
        34.80059500000001,
        61.791333
      ],
      [
        34.80265300000001,
        61.792131000000005
      ],
      [
        34.80488100000001,
        61.792972000000006
      ],
      [
        34.80711000000001,
        61.793812
      ],
      [
        34.80933800000001,
        61.794653000000004
      ],
      [
        34.81046300000001,
        61.795077000000006
      ],
      [
        34.812705000000015,
        61.79590900000001
      ],
      [
        34.81494900000001,
        61.79674100000001
      ],
      [
        34.817191000000015,
        61.797573000000014
      ],
      [
        34.817416000000016,
        61.79765600000001
      ],
      [
        34.81967800000002,
        61.79847700000001
      ],
      [
        34.82194100000002,
        61.79929600000001
      ],
      [
        34.82383200000002,
        61.799982000000014
      ],
      [
        34.82602700000002,
        61.80084200000002
      ],
      [
        34.828223000000015,
        61.80170200000002
      ],
      [
        34.83042000000002,
        61.80256100000002
      ],
      [
        34.831406000000015,
        61.80294700000002
      ],
      [
        34.833596000000014,
        61.80381100000002
      ],
      [
        34.835785000000016,
        61.804673000000015
      ],
      [
        34.83797600000002,
        61.80553600000002
      ],
      [
        34.84016600000002,
        61.80640000000002
      ],
      [
        34.84235600000002,
        61.80726300000002
      ],
      [
        34.84454700000002,
        61.80812500000002
      ],
      [
        34.84526800000002,
        61.808410000000016
      ],
      [
        34.84746600000002,
        61.80926800000002
      ],
      [
        34.849665000000016,
        61.81012600000002
      ],
      [
        34.85186400000001,
        61.81098500000002
      ],
      [
        34.85406300000001,
        61.81184300000002
      ],
      [
        34.85626200000001,
        61.812702000000016
      ],
      [
        34.858461000000005,
        61.81355900000002
      ],
      [
        34.85998800000001,
        61.81415500000002
      ],
      [
        34.86219900000001,
        61.81500700000002
      ],
      [
        34.864410000000014,
        61.81585800000002
      ],
      [
        34.866621000000016,
        61.81671000000002
      ],
      [
        34.868833000000016,
        61.817562000000024
      ],
      [
        34.87104400000002,
        61.81841300000002
      ],
      [
        34.87325500000002,
        61.81926400000002
      ],
      [
        34.87546700000002,
        61.82011600000002
      ],
      [
        34.87556600000002,
        61.820154000000024
      ],
      [
        34.87776500000002,
        61.821012000000024
      ],
      [
        34.87996300000002,
        61.82187100000002
      ],
      [
        34.88216100000002,
        61.822731000000026
      ],
      [
        34.88436100000002,
        61.823590000000024
      ],
      [
        34.88656000000002,
        61.824448000000025
      ],
      [
        34.888759000000015,
        61.82530700000002
      ],
      [
        34.89060700000002,
        61.82602900000003
      ],
      [
        34.89282900000002,
        61.82687500000003
      ],
      [
        34.89505000000002,
        61.82772100000003
      ],
      [
        34.89727000000002,
        61.82856800000003
      ],
      [
        34.89949100000002,
        61.82941500000003
      ],
      [
        34.90171300000002,
        61.83026000000003
      ],
      [
        34.903935000000025,
        61.831106000000034
      ],
      [
        34.90552100000003,
        61.831711000000034
      ],
      [
        34.90773500000003,
        61.832561000000034
      ],
      [
        34.90995000000003,
        61.833411000000034
      ],
      [
        34.91216400000003,
        61.83426200000003
      ],
      [
        34.914378000000035,
        61.83511200000003
      ],
      [
        34.91659400000003,
        61.83596200000003
      ],
      [
        34.918808000000034,
        61.83681200000003
      ],
      [
        34.920606000000035,
        61.837503000000034
      ],
      [
        34.92284700000003,
        61.83833700000003
      ],
      [
        34.92509000000003,
        61.83917100000003
      ],
      [
        34.927332000000035,
        61.84000600000003
      ],
      [
        34.92957400000004,
        61.84084000000003
      ],
      [
        34.93181600000004,
        61.841674000000026
      ],
      [
        34.93405900000004,
        61.842508000000024
      ],
      [
        34.93630100000004,
        61.843343000000026
      ],
      [
        34.936742000000045,
        61.843506000000026
      ],
      [
        34.938937000000045,
        61.844368000000024
      ],
      [
        34.94113300000004,
        61.84523000000002
      ],
      [
        34.94332900000004,
        61.84609100000002
      ],
      [
        34.94552400000004,
        61.84695200000002
      ],
      [
        34.94772000000004,
        61.84781400000002
      ],
      [
        34.94991700000004,
        61.84867600000002
      ],
      [
        34.95178400000004,
        61.84940700000002
      ],
      [
        34.95402600000004,
        61.85024200000002
      ],
      [
        34.956268000000044,
        61.851077000000025
      ],
      [
        34.958511000000044,
        61.85191100000002
      ],
      [
        34.96075300000005,
        61.852746000000025
      ],
      [
        34.96299600000005,
        61.85358100000003
      ],
      [
        34.96523800000005,
        61.85441600000003
      ],
      [
        34.96748200000005,
        61.85524900000003
      ],
      [
        34.96815600000004,
        61.85550000000003
      ],
      [
        34.97040000000004,
        61.856334000000025
      ],
      [
        34.97264500000004,
        61.857167000000025
      ],
      [
        34.974890000000045,
        61.85800100000002
      ],
      [
        34.97713500000005,
        61.85883400000002
      ],
      [
        34.97938000000005,
        61.85966800000002
      ],
      [
        34.98162600000005,
        61.86050100000002
      ],
      [
        34.98369100000005,
        61.861268000000024
      ],
      [
        34.98595100000005,
        61.862092000000025
      ],
      [
        34.98821100000005,
        61.86291600000003
      ],
      [
        34.99047300000005,
        61.86374000000003
      ],
      [
        34.99273300000005,
        61.86456500000003
      ],
      [
        34.99499300000005,
        61.86538900000003
      ],
      [
        34.99725400000005,
        61.86621300000003
      ],
      [
        34.999506000000046,
        61.86703400000003
      ],
      [
        35.00172500000004,
        61.867883000000035
      ],
      [
        35.00394400000004,
        61.86873100000003
      ],
      [
        35.006163000000036,
        61.86958100000003
      ],
      [
        35.00838300000004,
        61.870430000000034
      ],
      [
        35.01060300000004,
        61.87127900000004
      ],
      [
        35.012822000000035,
        61.872127000000035
      ],
      [
        35.014525000000035,
        61.87277900000004
      ],
      [
        35.016751000000035,
        61.87362500000004
      ],
      [
        35.01897600000004,
        61.87447000000004
      ],
      [
        35.02120100000004,
        61.87531600000004
      ],
      [
        35.02342600000004,
        61.87616200000004
      ],
      [
        35.02565200000004,
        61.877008000000046
      ],
      [
        35.027877000000046,
        61.877853000000044
      ],
      [
        35.029718000000045,
        61.878553000000046
      ],
      [
        35.03195900000004,
        61.87939000000004
      ],
      [
        35.034201000000046,
        61.880225000000046
      ],
      [
        35.036442000000044,
        61.88106200000004
      ],
      [
        35.03868300000004,
        61.88189900000004
      ],
      [
        35.04092400000004,
        61.88273600000004
      ],
      [
        35.04316700000004,
        61.88357100000004
      ],
      [
        35.045296000000036,
        61.884366000000036
      ],
      [
        35.04756600000004,
        61.88518600000003
      ],
      [
        35.04983700000004,
        61.886004000000035
      ],
      [
        35.05210700000004,
        61.88682400000003
      ],
      [
        35.05437800000004,
        61.88764300000003
      ],
      [
        35.056648000000045,
        61.88846300000003
      ],
      [
        35.05892000000004,
        61.88928100000003
      ],
      [
        35.061190000000046,
        61.89010000000003
      ],
      [
        35.061604000000045,
        61.89025000000003
      ],
      [
        35.06384000000005,
        61.89108900000003
      ],
      [
        35.06607800000005,
        61.891929000000026
      ],
      [
        35.06831400000005,
        61.89276900000002
      ],
      [
        35.07055100000005,
        61.89360800000002
      ],
      [
        35.070637000000055,
        61.893641000000024
      ],
      [
        35.072838000000054,
        61.89450300000002
      ],
      [
        35.07503700000005,
        61.89536400000002
      ],
      [
        35.07694600000005,
        61.89611100000002
      ],
      [
        35.07915900000005,
        61.896965000000016
      ],
      [
        35.08137400000005,
        61.89781900000001
      ],
      [
        35.083587000000044,
        61.898671000000014
      ],
      [
        35.08469200000005,
        61.89909700000001
      ],
      [
        35.08696300000005,
        61.89991700000001
      ],
      [
        35.089235000000045,
        61.90073700000001
      ],
      [
        35.091506000000045,
        61.90155500000001
      ],
      [
        35.092353000000045,
        61.90186100000001
      ],
      [
        35.09458900000005,
        61.90270200000001
      ],
      [
        35.09682600000005,
        61.90354100000001
      ],
      [
        35.09857600000005,
        61.90419900000001
      ],
      [
        35.10089400000005,
        61.90498800000001
      ],
      [
        35.10321300000005,
        61.90577800000001
      ],
      [
        35.103511000000054,
        61.90587900000001
      ],
      [
        35.10585400000006,
        61.906652000000015
      ],
      [
        35.10819700000006,
        61.907426000000015
      ],
      [
        35.10866100000006,
        61.907578000000015
      ],
      [
        35.110959000000065,
        61.90838200000002
      ],
      [
        35.11325700000007,
        61.909185000000015
      ],
      [
        35.11555400000007,
        61.90998800000001
      ],
      [
        35.117854000000065,
        61.91079000000001
      ],
      [
        35.118102000000064,
        61.91087800000001
      ],
      [
        35.12046100000006,
        61.91164000000001
      ],
      [
        35.122821000000066,
        61.912402000000014
      ],
      [
        35.12518100000007,
        61.91316500000001
      ],
      [
        35.12655700000007,
        61.91361000000001
      ],
      [
        35.12896800000007,
        61.91433600000001
      ],
      [
        35.131379000000074,
        61.915061000000016
      ],
      [
        35.133616000000075,
        61.915734000000015
      ],
      [
        35.136042000000074,
        61.916449000000014
      ],
      [
        35.138468000000074,
        61.917164000000014
      ],
      [
        35.140894000000074,
        61.91787900000001
      ],
      [
        35.14332100000007,
        61.91859400000001
      ],
      [
        35.14574800000007,
        61.91930900000001
      ],
      [
        35.14597500000007,
        61.919376000000014
      ],
      [
        35.14839300000007,
        61.92009700000001
      ],
      [
        35.15081200000007,
        61.92081800000001
      ],
      [
        35.15204800000007,
        61.92118600000001
      ],
      [
        35.15444900000007,
        61.921920000000014
      ],
      [
        35.15685000000007,
        61.922654000000016
      ],
      [
        35.15857100000007,
        61.923180000000016
      ],
      [
        35.160946000000074,
        61.92393100000002
      ],
      [
        35.163321000000074,
        61.92468400000002
      ],
      [
        35.165051000000076,
        61.92523300000002
      ],
      [
        35.16746000000008,
        61.92596100000002
      ],
      [
        35.16829200000008,
        61.926213000000025
      ],
      [
        35.17052300000008,
        61.926942000000025
      ],
      [
        35.17236900000008,
        61.927640000000025
      ],
      [
        35.17363500000008,
        61.928327000000024
      ],
      [
        35.17464300000008,
        61.929126000000025
      ],
      [
        35.17543700000008,
        61.92998600000003
      ],
      [
        35.17599500000008,
        61.930885000000025
      ],
      [
        35.17629500000008,
        61.931856000000025
      ],
      [
        35.176274000000085,
        61.932604000000026
      ],
      [
        35.17613700000008,
        61.933950000000024
      ],
      [
        35.176038000000084,
        61.934929000000025
      ],
      [
        35.17581900000008,
        61.93627300000003
      ],
      [
        35.17571600000008,
        61.93690100000003
      ],
      [
        35.175554000000076,
        61.93824600000003
      ],
      [
        35.175394000000075,
        61.939592000000026
      ],
      [
        35.17533000000007,
        61.94012600000003
      ],
      [
        35.17514000000007,
        61.94147000000003
      ],
      [
        35.17502900000007,
        61.94225800000003
      ],
      [
        35.17491700000007,
        61.943605000000034
      ],
      [
        35.17485800000007,
        61.94432100000003
      ],
      [
        35.174857000000074,
        61.94525000000003
      ],
      [
        35.17494300000008,
        61.94600800000003
      ],
      [
        35.175158000000074,
        61.946696000000024
      ],
      [
        35.17548000000007,
        61.94736200000003
      ],
      [
        35.176402000000074,
        61.94830200000003
      ],
      [
        35.177797000000076,
        61.94937400000003
      ],
      [
        35.17951000000008,
        61.95045500000003
      ],
      [
        35.17994300000008,
        61.950728000000026
      ],
      [
        35.18161000000008,
        61.95182400000002
      ],
      [
        35.18221700000008,
        61.95222400000002
      ],
      [
        35.18339800000008,
        61.95312200000002
      ],
      [
        35.18406300000008,
        61.95377900000002
      ],
      [
        35.18457800000008,
        61.95444600000002
      ],
      [
        35.18500800000008,
        61.95541700000002
      ],
      [
        35.18545600000008,
        61.95674700000002
      ],
      [
        35.18552200000008,
        61.95694200000002
      ],
      [
        35.18588200000008,
        61.95827900000002
      ],
      [
        35.186209000000076,
        61.95948700000002
      ],
      [
        35.18653700000008,
        61.96082600000002
      ],
      [
        35.18686400000008,
        61.96216500000002
      ],
      [
        35.18713100000008,
        61.96325600000002
      ],
      [
        35.18749500000008,
        61.964592000000025
      ],
      [
        35.18781800000008,
        61.96578100000002
      ],
      [
        35.188143000000075,
        61.96712000000002
      ],
      [
        35.18846800000007,
        61.96845800000002
      ],
      [
        35.18879500000007,
        61.96979700000002
      ],
      [
        35.18906300000007,
        61.97090100000002
      ],
      [
        35.18936100000007,
        61.972242000000016
      ],
      [
        35.18965900000007,
        61.97358100000002
      ],
      [
        35.18992100000007,
        61.974758000000016
      ],
      [
        35.19023600000007,
        61.976098000000015
      ],
      [
        35.19050000000007,
        61.97722200000001
      ],
      [
        35.19078500000007,
        61.97856300000001
      ],
      [
        35.19107000000007,
        61.979904000000005
      ],
      [
        35.191144000000065,
        61.980251
      ],
      [
        35.19143000000007,
        61.981591
      ],
      [
        35.19168000000007,
        61.982764
      ],
      [
        35.19203200000007,
        61.984102
      ],
      [
        35.192382000000066,
        61.985439
      ],
      [
        35.19253800000006,
        61.986035
      ],
      [
        35.192968000000064,
        61.987327
      ],
      [
        35.193612000000066,
        61.988559
      ],
      [
        35.19432000000007,
        61.989587
      ],
      [
        35.19539200000007,
        61.990667
      ],
      [
        35.19672000000007,
        61.991862000000005
      ],
      [
        35.197152000000074,
        61.992251
      ],
      [
        35.19861600000007,
        61.993410000000004
      ],
      [
        35.198911000000074,
        61.993644
      ],
      [
        35.200340000000075,
        61.994813
      ],
      [
        35.20073600000008,
        61.995137
      ],
      [
        35.202105000000074,
        61.996322
      ],
      [
        35.20260200000008,
        61.996752
      ],
      [
        35.203988000000074,
        61.997932
      ],
      [
        35.20453400000007,
        61.998397
      ],
      [
        35.20587800000008,
        61.999587
      ],
      [
        35.206185000000076,
        61.999859
      ],
      [
        35.207044000000074,
        62.000767
      ],
      [
        35.20779600000007,
        62.002068
      ],
      [
        35.20837400000007,
        62.003068
      ],
      [
        35.20908100000007,
        62.004373
      ],
      [
        35.20978900000007,
        62.00568
      ],
      [
        35.209898000000074,
        62.005882
      ],
      [
        35.21063100000007,
        62.007184
      ],
      [
        35.21136400000007,
        62.008487
      ],
      [
        35.21204400000007,
        62.009695
      ],
      [
        35.21286500000007,
        62.010986
      ],
      [
        35.21365300000007,
        62.012226000000005
      ],
      [
        35.21440000000007,
        62.013527
      ],
      [
        35.21502700000007,
        62.014616000000004
      ],
      [
        35.21576500000007,
        62.015918000000006
      ],
      [
        35.21650400000007,
        62.01722000000001
      ],
      [
        35.21657200000007,
        62.01733900000001
      ],
      [
        35.21730700000007,
        62.01864100000001
      ],
      [
        35.21804300000007,
        62.01994300000001
      ],
      [
        35.218779000000076,
        62.02124600000001
      ],
      [
        35.21910400000007,
        62.02182000000001
      ],
      [
        35.21971500000007,
        62.02267100000001
      ],
      [
        35.22036900000007,
        62.02341300000001
      ],
      [
        35.22122700000007,
        62.02423500000001
      ],
      [
        35.22251500000007,
        62.02524300000001
      ],
      [
        35.224076000000075,
        62.026373000000014
      ],
      [
        35.224253000000076,
        62.026502000000015
      ],
      [
        35.22578300000008,
        62.02764300000001
      ],
      [
        35.22606700000008,
        62.027853000000015
      ],
      [
        35.22762200000008,
        62.028942000000015
      ],
      [
        35.229200000000084,
        62.030068000000014
      ],
      [
        35.230778000000086,
        62.03119400000001
      ],
      [
        35.23218900000008,
        62.03219900000001
      ],
      [
        35.233694000000085,
        62.03334700000001
      ],
      [
        35.235149000000085,
        62.03445700000001
      ],
      [
        35.23635200000008,
        62.03568000000001
      ],
      [
        35.23643700000008,
        62.035767000000014
      ],
      [
        35.23669500000008,
        62.036876000000014
      ],
      [
        35.23673700000008,
        62.03784300000002
      ],
      [
        35.236308000000086,
        62.039152000000016
      ],
      [
        35.23572800000009,
        62.040472000000015
      ],
      [
        35.23514700000009,
        62.041792000000015
      ],
      [
        35.23467700000009,
        62.04286000000001
      ],
      [
        35.23411400000009,
        62.04418100000001
      ],
      [
        35.23373400000009,
        62.045077000000006
      ],
      [
        35.23323900000009,
        62.046403000000005
      ],
      [
        35.23274300000009,
        62.047731000000006
      ],
      [
        35.23224900000009,
        62.04905900000001
      ],
      [
        35.23193100000009,
        62.049912000000006
      ],
      [
        35.23130100000009,
        62.05122600000001
      ],
      [
        35.230686000000084,
        62.052510000000005
      ],
      [
        35.23004300000009,
        62.053457
      ],
      [
        35.229022000000086,
        62.054716
      ],
      [
        35.228068000000086,
        62.055894
      ],
      [
        35.22696300000008,
        62.057138
      ],
      [
        35.22585800000008,
        62.058382
      ],
      [
        35.22475200000008,
        62.059625000000004
      ],
      [
        35.22472100000008,
        62.05966
      ],
      [
        35.22363400000008,
        62.060908
      ],
      [
        35.222547000000084,
        62.062154
      ],
      [
        35.221460000000086,
        62.063401999999996
      ],
      [
        35.221159000000085,
        62.063748
      ],
      [
        35.22019000000009,
        62.065017
      ],
      [
        35.21972200000009,
        62.06563
      ],
      [
        35.21882800000009,
        62.066911
      ],
      [
        35.21852000000009,
        62.067352
      ],
      [
        35.21789700000009,
        62.068579
      ],
      [
        35.217469000000094,
        62.069807
      ],
      [
        35.2174200000001,
        62.070803999999995
      ],
      [
        35.2177790000001,
        62.071678999999996
      ],
      [
        35.2184230000001,
        62.072992
      ],
      [
        35.2186200000001,
        62.073394
      ],
      [
        35.218796000000104,
        62.073752
      ],
      [
        35.21914100000011,
        62.07419
      ],
      [
        35.21914000000011,
        62.074192000000004
      ],
      [
        35.21914400000011,
        62.074194000000006
      ],
      [
        35.21914400000011,
        62.074194000000006
      ],
      [
        35.21919100000011,
        62.07419000000001
      ],
      [
        35.21982100000011,
        62.07410800000001
      ],
      [
        35.21984900000011,
        62.07415500000001
      ]
    ]
  }
}
