{
  "type": "Feature",
  "id": "e32605be-daed-4f42-9c80-7ea88e9f73ca",
  "properties": {
    "id": "e32605be-daed-4f42-9c80-7ea88e9f73ca",
    "name": "Стрешнево",
    "color": "#ff3300",
    "routeType": "Twiter Gravel V1",
    "isSelected": false
  },
  "geometry": {
    "type": "MultiLineString",
    "coordinates": [
      [
        [
          37.440863,
          55.826833
        ],
        [
          37.440863,
          55.826839
        ],
        [
          37.440796,
          55.826851
        ],
        [
          37.440644999999996,
          55.826772999999996
        ],
        [
          37.440507,
          55.82670099999999
        ],
        [
          37.440431999999994,
          55.826660999999994
        ],
        [
          37.44036299999999,
          55.82661999999999
        ],
        [
          37.43998499999999,
          55.826708999999994
        ],
        [
          37.43945099999999,
          55.82682499999999
        ],
        [
          37.43937299999999,
          55.82684799999999
        ],
        [
          37.43934699999999,
          55.82686299999999
        ],
        [
          37.43908599999999,
          55.82691299999999
        ],
        [
          37.43789999999999,
          55.82714299999999
        ],
        [
          37.43766199999999,
          55.827197999999996
        ],
        [
          37.43750299999999,
          55.827234
        ],
        [
          37.43747799999999,
          55.827240999999994
        ],
        [
          37.43738999999999,
          55.82725799999999
        ],
        [
          37.43743299999999,
          55.827285999999994
        ],
        [
          37.43747599999999,
          55.82745299999999
        ],
        [
          37.43753899999999,
          55.82765399999999
        ],
        [
          37.437550999999985,
          55.827696999999986
        ],
        [
          37.437595999999985,
          55.82785399999999
        ],
        [
          37.43763699999999,
          55.827936999999984
        ],
        [
          37.43787299999999,
          55.82789799999998
        ],
        [
          37.437603999999986,
          55.827891999999984
        ],
        [
          37.43787299999999,
          55.82789799999998
        ],
        [
          37.43811999999999,
          55.82785999999998
        ],
        [
          37.43787299999999,
          55.82789799999998
        ],
        [
          37.43763699999999,
          55.827936999999984
        ],
        [
          37.43777099999999,
          55.828203999999985
        ],
        [
          37.43787599999999,
          55.828186999999986
        ],
        [
          37.43810299999999,
          55.82814999999999
        ],
        [
          37.43825399999999,
          55.82812699999999
        ],
        [
          37.438272999999995,
          55.82812599999999
        ],
        [
          37.438295999999994,
          55.82812699999999
        ],
        [
          37.43831599999999,
          55.82813199999999
        ],
        [
          37.438331999999996,
          55.82813999999999
        ],
        [
          37.43839199999999,
          55.82817499999999
        ],
        [
          37.438483999999995,
          55.82822999999999
        ],
        [
          37.438511,
          55.82823699999999
        ],
        [
          37.438539999999996,
          55.828237999999985
        ],
        [
          37.439367999999995,
          55.828096999999985
        ],
        [
          37.439755,
          55.82804499999999
        ],
        [
          37.439886,
          55.82803599999999
        ],
        [
          37.440289,
          55.82800699999999
        ],
        [
          37.440312,
          55.82800199999999
        ],
        [
          37.440384,
          55.827983999999994
        ],
        [
          37.440934,
          55.827845999999994
        ],
        [
          37.44157,
          55.827631
        ],
        [
          37.441586,
          55.827645999999994
        ],
        [
          37.4416,
          55.827656
        ],
        [
          37.441721,
          55.827701
        ],
        [
          37.441998,
          55.827704999999995
        ],
        [
          37.442012,
          55.827698999999996
        ],
        [
          37.442119,
          55.827667
        ],
        [
          37.442282999999996,
          55.827619
        ],
        [
          37.442547999999995,
          55.827526999999996
        ],
        [
          37.442817,
          55.827445999999995
        ],
        [
          37.443180999999996,
          55.82733699999999
        ],
        [
          37.443211999999995,
          55.827329999999996
        ],
        [
          37.443633,
          55.827239999999996
        ],
        [
          37.444032,
          55.827186
        ],
        [
          37.44415,
          55.827172
        ],
        [
          37.444246,
          55.827163
        ],
        [
          37.444873,
          55.827101
        ],
        [
          37.44486,
          55.827061
        ],
        [
          37.444873,
          55.827101
        ],
        [
          37.445068,
          55.827082
        ],
        [
          37.445812,
          55.827040999999994
        ],
        [
          37.445944,
          55.82703599999999
        ],
        [
          37.445949999999996,
          55.82706399999999
        ],
        [
          37.445958,
          55.82709599999999
        ],
        [
          37.445964999999994,
          55.82712599999999
        ],
        [
          37.445961999999994,
          55.82714299999999
        ],
        [
          37.446012999999994,
          55.827144999999994
        ],
        [
          37.446054999999994,
          55.82715199999999
        ],
        [
          37.446085,
          55.827164999999994
        ],
        [
          37.446101,
          55.827180999999996
        ],
        [
          37.446112,
          55.82719899999999
        ],
        [
          37.446179,
          55.827451999999994
        ],
        [
          37.446217000000004,
          55.82765199999999
        ],
        [
          37.446282000000004,
          55.82799099999999
        ],
        [
          37.446301000000005,
          55.82809699999999
        ],
        [
          37.446319,
          55.82819599999999
        ],
        [
          37.446275,
          55.82831199999999
        ],
        [
          37.446333,
          55.82873799999999
        ],
        [
          37.446336,
          55.82875199999999
        ],
        [
          37.446343,
          55.82877699999999
        ],
        [
          37.446355,
          55.82882499999999
        ],
        [
          37.446369999999995,
          55.828873999999985
        ],
        [
          37.44638799999999,
          55.82894499999998
        ],
        [
          37.446397999999995,
          55.828988999999986
        ],
        [
          37.446481999999996,
          55.82942399999999
        ],
        [
          37.44652,
          55.829582999999985
        ],
        [
          37.44654,
          55.82966299999998
        ],
        [
          37.446583,
          55.82980899999998
        ],
        [
          37.446585,
          55.829819999999984
        ],
        [
          37.446689,
          55.830378999999986
        ],
        [
          37.446781,
          55.830758999999986
        ],
        [
          37.446804,
          55.83084799999999
        ],
        [
          37.446892,
          55.83113399999999
        ],
        [
          37.446954999999996,
          55.83144199999999
        ],
        [
          37.447072999999996,
          55.83207499999999
        ],
        [
          37.44723,
          55.83270299999999
        ],
        [
          37.447233999999995,
          55.832728999999986
        ],
        [
          37.44732799999999,
          55.83272499999999
        ],
        [
          37.44738199999999,
          55.83272299999999
        ],
        [
          37.44743299999999,
          55.83271899999999
        ],
        [
          37.44761499999999,
          55.83271099999999
        ],
        [
          37.44766599999999,
          55.83271299999999
        ],
        [
          37.44761499999999,
          55.83271099999999
        ],
        [
          37.44770599999999,
          55.83269999999999
        ],
        [
          37.44825199999999,
          55.83266599999999
        ],
        [
          37.44853299999999,
          55.83264099999999
        ],
        [
          37.44878399999999,
          55.83261499999999
        ],
        [
          37.44923199999999,
          55.83258599999999
        ],
        [
          37.44950199999999,
          55.83256899999999
        ],
        [
          37.44970199999999,
          55.83255599999999
        ],
        [
          37.449682999999986,
          55.83247799999999
        ],
        [
          37.44965699999999,
          55.83235099999999
        ],
        [
          37.44985299999999,
          55.83233399999999
        ],
        [
          37.44988099999999,
          55.83232499999999
        ],
        [
          37.44990699999999,
          55.83231099999999
        ],
        [
          37.44991799999999,
          55.83229499999999
        ],
        [
          37.44992199999999,
          55.832275999999986
        ],
        [
          37.44992199999999,
          55.832273999999984
        ],
        [
          37.449925999999984,
          55.832273999999984
        ],
        [
          37.44992199999999,
          55.832273999999984
        ],
        [
          37.449882999999986,
          55.83209699999998
        ],
        [
          37.44992199999999,
          55.832275999999986
        ],
        [
          37.44991799999999,
          55.83229499999999
        ],
        [
          37.44990699999999,
          55.83231099999999
        ],
        [
          37.44988099999999,
          55.83232499999999
        ],
        [
          37.44985299999999,
          55.83233399999999
        ],
        [
          37.44965699999999,
          55.83235099999999
        ],
        [
          37.449682999999986,
          55.83247799999999
        ],
        [
          37.44970199999999,
          55.83255599999999
        ],
        [
          37.45034599999999,
          55.83251599999999
        ],
        [
          37.45038399999999,
          55.83251399999999
        ],
        [
          37.45045799999999,
          55.83250999999999
        ],
        [
          37.45055199999999,
          55.83250399999999
        ],
        [
          37.45157099999999,
          55.832440999999996
        ],
        [
          37.45226799999999,
          55.832395999999996
        ],
        [
          37.45237199999999,
          55.832389
        ],
        [
          37.45304999999999,
          55.832345
        ],
        [
          37.45327199999999,
          55.832336
        ],
        [
          37.45332499999999,
          55.832332
        ],
        [
          37.45338499999999,
          55.832329
        ],
        [
          37.45360399999999,
          55.832316
        ],
        [
          37.453664999999994,
          55.832312
        ],
        [
          37.45371899999999,
          55.83231
        ],
        [
          37.45372999999999,
          55.832373
        ],
        [
          37.453731999999995,
          55.832373
        ],
        [
          37.45372999999999,
          55.832373
        ],
        [
          37.45373699999999,
          55.832418
        ],
        [
          37.45375499999999,
          55.832511
        ],
        [
          37.45376499999999,
          55.832561999999996
        ],
        [
          37.45381399999999,
          55.832826999999995
        ],
        [
          37.45382699999999,
          55.832896
        ],
        [
          37.45383499999999,
          55.832944
        ],
        [
          37.45383899999999,
          55.832964
        ],
        [
          37.45385599999999,
          55.832978
        ],
        [
          37.453909999999986,
          55.833003999999995
        ],
        [
          37.453921999999984,
          55.83302499999999
        ],
        [
          37.454050999999986,
          55.83374799999999
        ],
        [
          37.454039999999985,
          55.83374899999999
        ],
        [
          37.454205999999985,
          55.83461999999999
        ],
        [
          37.45421099999999,
          55.83464499999999
        ],
        [
          37.45421599999999,
          55.834684999999986
        ],
        [
          37.454227999999986,
          55.834744999999984
        ],
        [
          37.45423299999999,
          55.834777999999986
        ],
        [
          37.454261999999986,
          55.83479699999999
        ],
        [
          37.45423299999999,
          55.834777999999986
        ],
        [
          37.45423299999999,
          55.83479099999999
        ],
        [
          37.45422399999999,
          55.834819999999986
        ],
        [
          37.45422499999999,
          55.83484699999999
        ],
        [
          37.454228999999984,
          55.83489099999999
        ],
        [
          37.45430799999998,
          55.83488499999999
        ],
        [
          37.454377999999984,
          55.83488499999999
        ],
        [
          37.45443599999999,
          55.834889999999994
        ],
        [
          37.45449099999999,
          55.83489899999999
        ],
        [
          37.45461899999999,
          55.83493299999999
        ],
        [
          37.454669999999986,
          55.83493899999999
        ],
        [
          37.454723999999985,
          55.834937999999994
        ],
        [
          37.454785999999984,
          55.83492999999999
        ],
        [
          37.45488899999999,
          55.83490299999999
        ],
        [
          37.45492799999999,
          55.83489599999999
        ],
        [
          37.45497299999999,
          55.834889999999994
        ],
        [
          37.45655499999999,
          55.834782999999995
        ],
        [
          37.45731799999999,
          55.834731
        ],
        [
          37.45799299999999,
          55.8347
        ],
        [
          37.458550999999986,
          55.834700999999995
        ],
        [
          37.458896999999986,
          55.83472
        ],
        [
          37.458972999999986,
          55.834731
        ],
        [
          37.45902899999999,
          55.834706999999995
        ],
        [
          37.45905099999999,
          55.83469899999999
        ],
        [
          37.45919999999999,
          55.834664
        ],
        [
          37.45901699999999,
          55.83463
        ],
        [
          37.45897799999999,
          55.834618999999996
        ],
        [
          37.45895799999999,
          55.834610999999995
        ],
        [
          37.45894699999999,
          55.834604
        ],
        [
          37.458936999999985,
          55.834596
        ],
        [
          37.45892699999998,
          55.834584
        ],
        [
          37.45892499999998,
          55.834573999999996
        ],
        [
          37.45892399999998,
          55.83456399999999
        ],
        [
          37.45892799999998,
          55.834545999999996
        ],
        [
          37.458934999999975,
          55.83453299999999
        ],
        [
          37.458943999999974,
          55.834528999999996
        ],
        [
          37.458957999999974,
          55.834526999999994
        ],
        [
          37.45897599999997,
          55.83452499999999
        ],
        [
          37.45929599999997,
          55.834509999999995
        ],
        [
          37.46089499999997,
          55.834419
        ],
        [
          37.460924999999975,
          55.834421999999996
        ],
        [
          37.460946999999976,
          55.834427
        ],
        [
          37.46101299999997,
          55.834455999999996
        ],
        [
          37.461143999999976,
          55.83453599999999
        ],
        [
          37.461335999999974,
          55.83444099999999
        ],
        [
          37.46137099999997,
          55.83442599999999
        ],
        [
          37.461386999999974,
          55.83441499999999
        ],
        [
          37.461405999999975,
          55.83439799999999
        ],
        [
          37.46139699999998,
          55.834385999999995
        ],
        [
          37.46137299999997,
          55.834332999999994
        ],
        [
          37.46133799999998,
          55.83430499999999
        ],
        [
          37.46162399999998,
          55.83428099999999
        ],
        [
          37.46162299999998,
          55.83427899999999
        ],
        [
          37.46162399999998,
          55.83428099999999
        ],
        [
          37.46164099999998,
          55.83427999999999
        ],
        [
          37.46156299999998,
          55.83417899999999
        ],
        [
          37.460828999999976,
          55.83316999999999
        ],
        [
          37.46057799999998,
          55.83282299999999
        ],
        [
          37.46052599999998,
          55.83274899999999
        ],
        [
          37.46047799999998,
          55.83268499999999
        ],
        [
          37.46040999999998,
          55.83258999999999
        ],
        [
          37.46033699999998,
          55.83248899999999
        ],
        [
          37.46025899999998,
          55.83250499999999
        ],
        [
          37.46017099999998,
          55.83252199999999
        ],
        [
          37.45995699999998,
          55.83221899999999
        ],
        [
          37.45975699999998,
          55.83194299999999
        ],
        [
          37.45962699999998,
          55.83177399999999
        ],
        [
          37.45949799999998,
          55.83159899999999
        ],
        [
          37.45942199999998,
          55.83149399999999
        ],
        [
          37.459361999999985,
          55.83140799999999
        ],
        [
          37.45907299999998,
          55.83100699999999
        ],
        [
          37.45859999999998,
          55.83033999999999
        ],
        [
          37.45824599999998,
          55.829862999999996
        ],
        [
          37.45822899999998,
          55.829829999999994
        ],
        [
          37.45820399999998,
          55.82978299999999
        ],
        [
          37.45818799999998,
          55.829761999999995
        ],
        [
          37.45817099999998,
          55.829741
        ],
        [
          37.45824499999998,
          55.829715
        ],
        [
          37.458309999999976,
          55.829691
        ],
        [
          37.458360999999975,
          55.829671999999995
        ],
        [
          37.458368999999976,
          55.829668999999996
        ],
        [
          37.45885199999998,
          55.829474
        ],
        [
          37.45900199999998,
          55.829437
        ],
        [
          37.45910199999998,
          55.829417
        ],
        [
          37.46087099999998,
          55.829012999999996
        ],
        [
          37.460940999999984,
          55.828995
        ],
        [
          37.460948999999985,
          55.828988
        ],
        [
          37.46095099999999,
          55.828983
        ],
        [
          37.460956999999986,
          55.828957
        ],
        [
          37.46096199999999,
          55.828949
        ],
        [
          37.46097199999999,
          55.828943
        ],
        [
          37.46106299999999,
          55.828908000000006
        ],
        [
          37.46117199999999,
          55.828874000000006
        ],
        [
          37.46131499999999,
          55.828838000000005
        ],
        [
          37.46120499999999,
          55.828717000000005
        ],
        [
          37.460995999999994,
          55.82847700000001
        ],
        [
          37.460970999999994,
          55.82844300000001
        ],
        [
          37.460958999999995,
          55.82842200000001
        ],
        [
          37.460944,
          55.82838300000001
        ],
        [
          37.460808,
          55.82822800000001
        ],
        [
          37.460685,
          55.82808900000001
        ],
        [
          37.460499999999996,
          55.827886000000014
        ],
        [
          37.460027999999994,
          55.82738000000001
        ],
        [
          37.45985699999999,
          55.82719100000001
        ],
        [
          37.45983699999999,
          55.82716100000001
        ],
        [
          37.459827999999995,
          55.82713400000001
        ],
        [
          37.45982299999999,
          55.82711600000001
        ],
        [
          37.45982099999999,
          55.82708700000001
        ],
        [
          37.45982299999999,
          55.827058000000015
        ],
        [
          37.45983499999999,
          55.827016000000015
        ],
        [
          37.45986099999999,
          55.82697000000002
        ],
        [
          37.45989699999999,
          55.82692500000002
        ],
        [
          37.46000499999999,
          55.82683400000002
        ],
        [
          37.46020199999999,
          55.826689000000016
        ],
        [
          37.46062099999999,
          55.826284000000015
        ],
        [
          37.46065899999999,
          55.826247000000016
        ],
        [
          37.46104999999999,
          55.825870000000016
        ],
        [
          37.46111599999999,
          55.82580500000002
        ],
        [
          37.46127699999999,
          55.825659000000016
        ],
        [
          37.461328999999985,
          55.82560700000002
        ],
        [
          37.461384999999986,
          55.82554400000002
        ],
        [
          37.46144499999998,
          55.825450000000025
        ],
        [
          37.46149299999998,
          55.82538600000002
        ],
        [
          37.46159799999998,
          55.825261000000026
        ],
        [
          37.46175499999998,
          55.825087000000025
        ],
        [
          37.46188699999998,
          55.82493900000002
        ],
        [
          37.46198399999998,
          55.82485400000002
        ],
        [
          37.46202299999998,
          55.82482400000002
        ],
        [
          37.46205399999998,
          55.82480100000002
        ],
        [
          37.46217399999998,
          55.82471600000002
        ],
        [
          37.46223399999998,
          55.82467700000002
        ],
        [
          37.46227899999998,
          55.82464900000002
        ],
        [
          37.46231599999998,
          55.82463300000002
        ],
        [
          37.46235499999998,
          55.82462100000002
        ],
        [
          37.462488999999984,
          55.82459500000002
        ],
        [
          37.46272699999999,
          55.824555000000025
        ],
        [
          37.46274599999999,
          55.82459100000003
        ],
        [
          37.46298099999999,
          55.824569000000025
        ],
        [
          37.46337199999999,
          55.824501000000026
        ],
        [
          37.46371499999999,
          55.824417000000025
        ],
        [
          37.463927999999996,
          55.824335000000026
        ],
        [
          37.464113,
          55.824254000000025
        ],
        [
          37.464143,
          55.82423300000003
        ],
        [
          37.46426,
          55.82409400000003
        ],
        [
          37.464338000000005,
          55.82391400000003
        ],
        [
          37.464477,
          55.82355400000003
        ],
        [
          37.464611000000005,
          55.82318000000003
        ],
        [
          37.46468600000001,
          55.82304700000003
        ],
        [
          37.46472400000001,
          55.822995000000034
        ],
        [
          37.46477300000001,
          55.822919000000034
        ],
        [
          37.465942000000005,
          55.821345000000036
        ],
        [
          37.465889000000004,
          55.821334000000036
        ],
        [
          37.465845,
          55.821334000000036
        ],
        [
          37.465889000000004,
          55.821334000000036
        ],
        [
          37.465942000000005,
          55.821345000000036
        ],
        [
          37.46647900000001,
          55.820642000000035
        ],
        [
          37.46653400000001,
          55.82065100000003
        ],
        [
          37.46672400000001,
          55.820679000000034
        ],
        [
          37.46701500000001,
          55.820678000000036
        ],
        [
          37.46742200000001,
          55.82061500000004
        ],
        [
          37.467658000000014,
          55.82056700000004
        ],
        [
          37.46787800000001,
          55.82050500000004
        ],
        [
          37.468069000000014,
          55.820436000000036
        ],
        [
          37.46821400000002,
          55.82036700000003
        ],
        [
          37.46895900000002,
          55.82063000000003
        ],
        [
          37.46910700000002,
          55.82067400000003
        ],
        [
          37.469421000000025,
          55.82077000000003
        ],
        [
          37.469863000000025,
          55.820904000000034
        ],
        [
          37.47004200000003,
          55.82097200000003
        ],
        [
          37.47017700000003,
          55.821027000000036
        ],
        [
          37.470243000000025,
          55.82106500000004
        ],
        [
          37.470361000000025,
          55.82117100000004
        ],
        [
          37.47038500000003,
          55.821184000000045
        ],
        [
          37.47053200000003,
          55.82123900000005
        ],
        [
          37.470651000000025,
          55.82130700000005
        ],
        [
          37.47097400000003,
          55.82136800000005
        ],
        [
          37.471188000000026,
          55.82140000000005
        ],
        [
          37.471405000000026,
          55.821415000000044
        ],
        [
          37.47167200000003,
          55.821420000000046
        ],
        [
          37.47204900000003,
          55.821392000000046
        ],
        [
          37.47242300000003,
          55.82136900000005
        ],
        [
          37.472615000000026,
          55.82136200000005
        ],
        [
          37.473049000000024,
          55.82136100000005
        ],
        [
          37.47316500000002,
          55.82136200000005
        ],
        [
          37.47332400000002,
          55.82137600000005
        ],
        [
          37.473390000000016,
          55.821386000000054
        ],
        [
          37.473480000000016,
          55.821405000000055
        ],
        [
          37.47354900000002,
          55.82141800000006
        ],
        [
          37.47393900000002,
          55.82147100000006
        ],
        [
          37.47402700000002,
          55.82149000000006
        ],
        [
          37.474113000000024,
          55.82151500000006
        ],
        [
          37.474197000000025,
          55.821542000000065
        ],
        [
          37.47497600000003,
          55.821809000000066
        ],
        [
          37.47646900000003,
          55.82213200000007
        ],
        [
          37.47748600000003,
          55.82225000000007
        ],
        [
          37.47824800000003,
          55.82230400000007
        ],
        [
          37.47873000000003,
          55.822322000000064
        ],
        [
          37.47920200000003,
          55.82225600000007
        ],
        [
          37.47966800000003,
          55.82211200000007
        ],
        [
          37.47970300000003,
          55.82210000000007
        ],
        [
          37.47987900000003,
          55.82203900000007
        ],
        [
          37.480382000000034,
          55.821829000000065
        ],
        [
          37.48070900000003,
          55.82169200000006
        ],
        [
          37.480970000000035,
          55.82155200000006
        ],
        [
          37.481243000000035,
          55.82135500000006
        ],
        [
          37.48131500000004,
          55.82131000000006
        ],
        [
          37.481389000000036,
          55.82112900000006
        ],
        [
          37.48141800000003,
          55.82108800000006
        ],
        [
          37.48146400000003,
          55.82099900000006
        ],
        [
          37.48149600000003,
          55.82095900000006
        ],
        [
          37.481525000000026,
          55.82091400000006
        ],
        [
          37.48166200000003,
          55.82058000000006
        ],
        [
          37.481708000000026,
          55.820513000000055
        ],
        [
          37.481748000000024,
          55.82055600000005
        ],
        [
          37.48180500000002,
          55.820586000000056
        ],
        [
          37.48185600000002,
          55.82059600000006
        ],
        [
          37.48194900000002,
          55.82060400000006
        ],
        [
          37.48215400000002,
          55.82059600000006
        ],
        [
          37.48235400000002,
          55.82059200000006
        ],
        [
          37.482542000000024,
          55.82059900000006
        ],
        [
          37.48277100000002,
          55.82061200000006
        ],
        [
          37.48329100000002,
          55.82065400000006
        ],
        [
          37.48370200000002,
          55.82069700000006
        ],
        [
          37.484171000000025,
          55.82078800000006
        ],
        [
          37.48441500000003,
          55.82081900000006
        ],
        [
          37.484548000000025,
          55.82082700000006
        ],
        [
          37.484624000000025,
          55.82079000000006
        ],
        [
          37.48468500000003,
          55.82075100000006
        ],
        [
          37.48483700000003,
          55.82067100000006
        ],
        [
          37.48489500000003,
          55.82064900000006
        ],
        [
          37.48499800000003,
          55.82064700000006
        ],
        [
          37.48506300000003,
          55.82065200000006
        ],
        [
          37.48516200000003,
          55.82067200000006
        ],
        [
          37.48537800000003,
          55.820732000000056
        ],
        [
          37.48551000000003,
          55.820800000000055
        ],
        [
          37.48554800000004,
          55.82083200000005
        ],
        [
          37.485580000000034,
          55.82086900000005
        ],
        [
          37.485726000000035,
          55.82098200000005
        ],
        [
          37.486044000000035,
          55.821203000000054
        ],
        [
          37.486238000000036,
          55.821363000000055
        ],
        [
          37.48630200000004,
          55.82143500000006
        ],
        [
          37.48651900000004,
          55.82170700000006
        ],
        [
          37.48651200000004,
          55.82170900000006
        ],
        [
          37.48651900000004,
          55.82170700000006
        ],
        [
          37.48654300000004,
          55.82173900000006
        ],
        [
          37.48679000000004,
          55.82199200000006
        ],
        [
          37.48699400000004,
          55.82227600000006
        ],
        [
          37.48700400000004,
          55.82229300000006
        ],
        [
          37.48711100000004,
          55.82247900000006
        ],
        [
          37.48729600000004,
          55.822815000000055
        ],
        [
          37.48729600000004,
          55.822939000000055
        ],
        [
          37.48737800000004,
          55.823122000000055
        ],
        [
          37.487391000000045,
          55.823260000000055
        ],
        [
          37.48742300000004,
          55.82349500000006
        ],
        [
          37.48755200000004,
          55.82373700000006
        ],
        [
          37.48758400000004,
          55.82394200000006
        ],
        [
          37.48766500000004,
          55.82413000000006
        ],
        [
          37.48774500000004,
          55.82428700000006
        ],
        [
          37.48776000000004,
          55.82439400000006
        ],
        [
          37.487778000000034,
          55.82441900000006
        ],
        [
          37.48805500000003,
          55.82460500000006
        ],
        [
          37.48808400000003,
          55.824618000000065
        ],
        [
          37.48818600000003,
          55.82464200000007
        ],
        [
          37.488201000000025,
          55.82462300000007
        ],
        [
          37.48818600000003,
          55.82464200000007
        ],
        [
          37.488449000000024,
          55.824705000000066
        ],
        [
          37.48854500000002,
          55.824700000000064
        ],
        [
          37.488904000000026,
          55.824680000000065
        ],
        [
          37.48942400000003,
          55.82461400000007
        ],
        [
          37.489822000000025,
          55.824578000000066
        ],
        [
          37.48963800000003,
          55.82426200000007
        ],
        [
          37.48954200000003,
          55.82411900000007
        ],
        [
          37.48939900000003,
          55.82395200000007
        ],
        [
          37.48932200000003,
          55.82386300000007
        ],
        [
          37.48894500000003,
          55.823518000000064
        ],
        [
          37.48889600000003,
          55.82347400000006
        ],
        [
          37.48854400000003,
          55.82324700000006
        ],
        [
          37.488521000000034,
          55.823237000000056
        ],
        [
          37.48848300000003,
          55.823226000000055
        ],
        [
          37.48825900000003,
          55.823170000000054
        ],
        [
          37.48820500000003,
          55.82314300000005
        ],
        [
          37.48795800000003,
          55.82294000000005
        ],
        [
          37.48776300000003,
          55.82269900000005
        ],
        [
          37.48761100000003,
          55.82250800000005
        ],
        [
          37.48764900000003,
          55.822498000000046
        ],
        [
          37.48761100000003,
          55.82250800000005
        ],
        [
          37.48755900000003,
          55.82244200000005
        ],
        [
          37.48748900000003,
          55.82231600000005
        ],
        [
          37.48746700000003,
          55.82232800000005
        ],
        [
          37.48745600000003,
          55.82233400000005
        ],
        [
          37.48740900000003,
          55.822363000000045
        ],
        [
          37.48739100000003,
          55.82237300000005
        ],
        [
          37.48736600000003,
          55.82238900000005
        ],
        [
          37.48711100000003,
          55.82247900000005
        ],
        [
          37.48700400000003,
          55.82229300000005
        ],
        [
          37.48682000000003,
          55.82228100000005
        ],
        [
          37.48669400000003,
          55.822278000000054
        ],
        [
          37.48649100000003,
          55.82228700000005
        ],
        [
          37.48557800000003,
          55.82237700000005
        ],
        [
          37.48556500000003,
          55.822483000000055
        ],
        [
          37.48556500000003,
          55.82254900000005
        ],
        [
          37.48558300000003,
          55.822638000000055
        ],
        [
          37.48519700000003,
          55.822534000000054
        ],
        [
          37.48503100000003,
          55.822478000000054
        ],
        [
          37.48482600000003,
          55.82239200000005
        ],
        [
          37.48461200000003,
          55.82232000000005
        ],
        [
          37.48410700000003,
          55.82227800000005
        ],
        [
          37.48395200000003,
          55.822265000000044
        ],
        [
          37.48379200000003,
          55.822262000000045
        ],
        [
          37.48362600000003,
          55.82228000000004
        ],
        [
          37.483512000000026,
          55.822310000000044
        ],
        [
          37.48329700000003,
          55.822400000000044
        ],
        [
          37.48321400000003,
          55.82242900000004
        ],
        [
          37.483134000000035,
          55.822451000000044
        ],
        [
          37.483081000000034,
          55.82246300000004
        ],
        [
          37.48303100000003,
          55.82248100000004
        ],
        [
          37.482878000000035,
          55.822564000000035
        ],
        [
          37.482811000000034,
          55.82259300000003
        ],
        [
          37.48273600000003,
          55.822620000000036
        ],
        [
          37.482566000000034,
          55.82266200000004
        ],
        [
          37.48248000000003,
          55.822716000000035
        ],
        [
          37.48231400000003,
          55.82280800000004
        ],
        [
          37.48227300000003,
          55.82283600000004
        ],
        [
          37.482147000000026,
          55.822958000000035
        ],
        [
          37.48169900000003,
          55.82320500000004
        ],
        [
          37.48158900000003,
          55.82325800000004
        ],
        [
          37.48146400000003,
          55.82330000000004
        ],
        [
          37.48107400000003,
          55.823383000000035
        ],
        [
          37.48058400000003,
          55.82350500000003
        ],
        [
          37.48066000000003,
          55.823631000000034
        ],
        [
          37.48069100000003,
          55.823684000000036
        ],
        [
          37.48072900000003,
          55.82378400000004
        ],
        [
          37.480824000000034,
          55.82396000000004
        ],
        [
          37.481136000000035,
          55.82390700000004
        ],
        [
          37.480824000000034,
          55.82396000000004
        ],
        [
          37.48086500000004,
          55.824035000000045
        ],
        [
          37.48104400000004,
          55.824364000000045
        ],
        [
          37.48129500000004,
          55.82470600000005
        ],
        [
          37.48150200000004,
          55.82493300000005
        ],
        [
          37.48180900000004,
          55.82542500000005
        ],
        [
          37.48204100000004,
          55.82579100000005
        ],
        [
          37.48215000000004,
          55.82596000000005
        ],
        [
          37.48227900000004,
          55.826153000000055
        ],
        [
          37.48260300000004,
          55.82652000000005
        ],
        [
          37.48272900000004,
          55.82669400000005
        ],
        [
          37.482739000000045,
          55.826721000000056
        ],
        [
          37.48277200000005,
          55.82676500000006
        ],
        [
          37.48280300000005,
          55.82680900000006
        ],
        [
          37.482821000000044,
          55.82689300000006
        ],
        [
          37.48291200000004,
          55.826878000000065
        ],
        [
          37.482928000000044,
          55.82687900000006
        ],
        [
          37.482939000000044,
          55.826884000000064
        ],
        [
          37.48296600000005,
          55.82692500000007
        ],
        [
          37.482992000000046,
          55.826976000000066
        ],
        [
          37.48354200000004,
          55.82687900000007
        ],
        [
          37.48453600000004,
          55.82671200000007
        ],
        [
          37.485531000000044,
          55.82656300000007
        ],
        [
          37.485882000000046,
          55.82654400000007
        ],
        [
          37.486400000000046,
          55.82653700000007
        ],
        [
          37.48708600000005,
          55.826542000000074
        ],
        [
          37.48776100000005,
          55.82656000000007
        ],
        [
          37.487872000000046,
          55.82656700000007
        ],
        [
          37.48810100000004,
          55.82658100000007
        ],
        [
          37.48822000000004,
          55.82659300000007
        ],
        [
          37.48831400000004,
          55.82660400000007
        ],
        [
          37.48845500000004,
          55.82662600000007
        ],
        [
          37.488552000000034,
          55.82664600000007
        ],
        [
          37.488810000000036,
          55.82671000000007
        ],
        [
          37.489731000000035,
          55.82695400000007
        ],
        [
          37.490226000000035,
          55.82708300000007
        ],
        [
          37.490522000000034,
          55.827155000000076
        ],
        [
          37.49042200000003,
          55.827288000000074
        ],
        [
          37.49042000000003,
          55.82728900000007
        ],
        [
          37.49042200000003,
          55.827288000000074
        ],
        [
          37.49023600000003,
          55.82751100000007
        ],
        [
          37.49006400000003,
          55.827718000000075
        ],
        [
          37.49002200000003,
          55.82776800000008
        ],
        [
          37.48996000000003,
          55.827842000000075
        ],
        [
          37.48994700000003,
          55.82785800000008
        ],
        [
          37.48988400000003,
          55.82793300000008
        ],
        [
          37.48985100000003,
          55.82797400000008
        ],
        [
          37.48984700000003,
          55.827979000000084
        ],
        [
          37.489776000000035,
          55.82806400000008
        ],
        [
          37.48968800000004,
          55.828170000000085
        ],
        [
          37.489385000000034,
          55.82853200000009
        ],
        [
          37.48930700000003,
          55.82862400000009
        ],
        [
          37.48925400000003,
          55.82869400000009
        ],
        [
          37.48923000000003,
          55.82872500000009
        ],
        [
          37.489225000000026,
          55.82873100000009
        ],
        [
          37.489155000000025,
          55.82881800000009
        ],
        [
          37.48900800000003,
          55.82901900000009
        ],
        [
          37.48913100000003,
          55.82904600000009
        ],
        [
          37.48910600000003,
          55.82907800000009
        ],
        [
          37.48909200000003,
          55.82913700000009
        ],
        [
          37.488983000000026,
          55.82913700000009
        ],
        [
          37.48895700000003,
          55.82914700000009
        ],
        [
          37.48874600000003,
          55.82935300000009
        ],
        [
          37.488384000000025,
          55.82982700000009
        ],
        [
          37.488305000000025,
          55.829915000000085
        ],
        [
          37.48825900000003,
          55.829952000000084
        ],
        [
          37.488198000000025,
          55.829999000000086
        ],
        [
          37.48812300000002,
          55.83005200000009
        ],
        [
          37.48808900000002,
          55.83008000000009
        ],
        [
          37.48806200000002,
          55.83010800000009
        ],
        [
          37.48795000000002,
          55.83024500000009
        ],
        [
          37.48778600000002,
          55.83045300000009
        ],
        [
          37.48776700000002,
          55.83051700000009
        ],
        [
          37.48776000000002,
          55.83057100000009
        ],
        [
          37.487739000000026,
          55.83074900000009
        ],
        [
          37.487734000000025,
          55.83076200000009
        ],
        [
          37.48736400000003,
          55.831206000000094
        ],
        [
          37.48725700000003,
          55.83131700000009
        ],
        [
          37.48722600000003,
          55.83133700000009
        ],
        [
          37.48704500000003,
          55.83143900000009
        ],
        [
          37.48700100000003,
          55.831471000000086
        ],
        [
          37.486974000000025,
          55.831499000000086
        ],
        [
          37.48680700000003,
          55.83169800000009
        ],
        [
          37.48674400000003,
          55.831781000000085
        ],
        [
          37.48674400000003,
          55.83179400000009
        ],
        [
          37.48675900000003,
          55.83181300000009
        ],
        [
          37.48664300000003,
          55.83183900000009
        ],
        [
          37.48654900000003,
          55.831879000000086
        ],
        [
          37.48641200000003,
          55.83195100000009
        ],
        [
          37.48641000000003,
          55.83195000000009
        ],
        [
          37.48641200000003,
          55.83195100000009
        ],
        [
          37.48639100000003,
          55.83196200000009
        ],
        [
          37.48607100000003,
          55.83188400000009
        ],
        [
          37.48594500000003,
          55.83187200000009
        ],
        [
          37.48593200000003,
          55.83182200000009
        ],
        [
          37.48554800000003,
          55.83151700000009
        ],
        [
          37.48517400000003,
          55.831420000000094
        ],
        [
          37.48528300000003,
          55.83128900000009
        ],
        [
          37.48514900000003,
          55.83118600000009
        ],
        [
          37.484832000000026,
          55.83094300000009
        ],
        [
          37.48465000000002,
          55.83091400000009
        ],
        [
          37.48443900000002,
          55.83078500000009
        ],
        [
          37.48428700000002,
          55.83065100000009
        ],
        [
          37.48422000000002,
          55.830610000000085
        ],
        [
          37.48414100000002,
          55.83057800000009
        ],
        [
          37.484056000000024,
          55.83054600000009
        ],
        [
          37.48400000000002,
          55.83049900000009
        ],
        [
          37.48385400000002,
          55.83037800000009
        ],
        [
          37.48352200000002,
          55.83010200000009
        ],
        [
          37.48350800000002,
          55.83007600000009
        ],
        [
          37.48351100000002,
          55.83003800000009
        ],
        [
          37.483507000000024,
          55.83000700000009
        ],
        [
          37.48347800000003,
          55.82995900000009
        ],
        [
          37.48342300000002,
          55.82989900000009
        ],
        [
          37.48336100000002,
          55.82982500000009
        ],
        [
          37.48299900000002,
          55.829489000000095
        ],
        [
          37.48292900000002,
          55.8294150000001
        ],
        [
          37.48287200000002,
          55.829326000000094
        ],
        [
          37.48270900000002,
          55.829044000000096
        ],
        [
          37.48262500000002,
          55.8288570000001
        ],
        [
          37.48256300000002,
          55.8286800000001
        ],
        [
          37.48251900000002,
          55.8284970000001
        ],
        [
          37.48252400000002,
          55.828318000000095
        ],
        [
          37.48256600000002,
          55.828104000000096
        ],
        [
          37.48259900000002,
          55.8281060000001
        ],
        [
          37.48256600000002,
          55.828104000000096
        ],
        [
          37.48278100000002,
          55.8270140000001
        ],
        [
          37.482855000000015,
          55.8270000000001
        ],
        [
          37.48283700000002,
          55.8269370000001
        ],
        [
          37.482821000000015,
          55.8268930000001
        ],
        [
          37.48280300000002,
          55.8268090000001
        ],
        [
          37.48277200000002,
          55.826765000000094
        ],
        [
          37.48273900000002,
          55.82672100000009
        ],
        [
          37.48272900000001,
          55.82669400000009
        ],
        [
          37.48260300000001,
          55.82652000000009
        ],
        [
          37.48227900000001,
          55.82615300000009
        ],
        [
          37.48215000000001,
          55.82596000000009
        ],
        [
          37.48204100000001,
          55.82579100000009
        ],
        [
          37.48180900000001,
          55.82542500000009
        ],
        [
          37.48150200000001,
          55.82493300000009
        ],
        [
          37.48129500000001,
          55.824706000000084
        ],
        [
          37.48104400000001,
          55.82436400000008
        ],
        [
          37.48086500000001,
          55.82403500000008
        ],
        [
          37.48072900000001,
          55.82378400000008
        ],
        [
          37.48069100000001,
          55.82368400000008
        ],
        [
          37.48066000000001,
          55.82363100000008
        ],
        [
          37.48058400000001,
          55.823505000000075
        ],
        [
          37.48016500000001,
          55.822799000000074
        ],
        [
          37.479946000000005,
          55.82243100000007
        ],
        [
          37.47970300000001,
          55.82210000000007
        ],
        [
          37.47946900000001,
          55.82188200000007
        ],
        [
          37.479445000000005,
          55.821865000000074
        ],
        [
          37.479294,
          55.82176200000007
        ],
        [
          37.479282000000005,
          55.82175400000007
        ],
        [
          37.479213,
          55.82171500000007
        ],
        [
          37.479116000000005,
          55.821671000000066
        ],
        [
          37.47894900000001,
          55.82160200000006
        ],
        [
          37.478924000000006,
          55.821584000000065
        ],
        [
          37.478894000000004,
          55.821570000000065
        ],
        [
          37.478587000000005,
          55.82143700000007
        ],
        [
          37.477982000000004,
          55.82118800000007
        ],
        [
          37.477529000000004,
          55.82102400000007
        ],
        [
          37.477375,
          55.82094800000007
        ],
        [
          37.477234,
          55.82086200000007
        ],
        [
          37.47711,
          55.82078000000007
        ],
        [
          37.476526,
          55.82024800000007
        ],
        [
          37.47616,
          55.81999800000007
        ],
        [
          37.476124,
          55.81997200000007
        ],
        [
          37.476023999999995,
          55.819920000000074
        ],
        [
          37.475446999999996,
          55.819607000000076
        ],
        [
          37.473755999999995,
          55.81869200000008
        ],
        [
          37.473693999999995,
          55.818634000000074
        ],
        [
          37.47361599999999,
          55.81855300000007
        ],
        [
          37.47355799999999,
          55.818454000000074
        ],
        [
          37.47353499999999,
          55.81843300000008
        ],
        [
          37.47332299999999,
          55.818276000000075
        ],
        [
          37.473164999999995,
          55.81818500000008
        ],
        [
          37.472981999999995,
          55.818099000000075
        ],
        [
          37.472725999999994,
          55.81803300000008
        ],
        [
          37.47267899999999,
          55.818028000000076
        ],
        [
          37.47263099999999,
          55.81803200000007
        ],
        [
          37.47202899999999,
          55.818127000000075
        ],
        [
          37.47174799999999,
          55.81819100000008
        ],
        [
          37.47161899999999,
          55.81811500000008
        ],
        [
          37.47062699999999,
          55.81784100000008
        ],
        [
          37.46909099999999,
          55.81741700000008
        ],
        [
          37.46904699999999,
          55.817438000000074
        ],
        [
          37.46909099999999,
          55.81741700000008
        ],
        [
          37.47062699999999,
          55.81784100000008
        ],
        [
          37.47161899999999,
          55.81811500000008
        ],
        [
          37.47174799999999,
          55.81819100000008
        ],
        [
          37.47202899999999,
          55.818127000000075
        ],
        [
          37.47263099999999,
          55.81803200000007
        ],
        [
          37.47267899999999,
          55.818028000000076
        ],
        [
          37.472725999999994,
          55.81803300000008
        ],
        [
          37.473189999999995,
          55.81789700000008
        ],
        [
          37.473758,
          55.81775600000008
        ],
        [
          37.474813999999995,
          55.81748900000008
        ],
        [
          37.475117999999995,
          55.81739500000008
        ],
        [
          37.475311,
          55.81732000000008
        ],
        [
          37.475711999999994,
          55.81712600000008
        ],
        [
          37.475927999999996,
          55.81703200000008
        ],
        [
          37.476046999999994,
          55.81697400000008
        ],
        [
          37.476147999999995,
          55.81691400000008
        ],
        [
          37.476203999999996,
          55.81687600000008
        ],
        [
          37.47664999999999,
          55.81659900000008
        ],
        [
          37.47695199999999,
          55.81636200000008
        ],
        [
          37.47711899999999,
          55.81621900000008
        ],
        [
          37.477209999999985,
          55.81614100000008
        ],
        [
          37.47727599999998,
          55.81608500000008
        ],
        [
          37.477339999999984,
          55.81604300000008
        ],
        [
          37.47753299999999,
          55.81591800000008
        ],
        [
          37.47754599999999,
          55.81591000000008
        ],
        [
          37.47771299999999,
          55.81584100000008
        ],
        [
          37.477946999999986,
          55.81575600000008
        ],
        [
          37.478312999999986,
          55.81575200000008
        ],
        [
          37.478940999999985,
          55.81567000000008
        ],
        [
          37.47946899999999,
          55.81556600000008
        ],
        [
          37.47990499999999,
          55.81559500000008
        ],
        [
          37.480234999999986,
          55.81561100000008
        ],
        [
          37.48036699999999,
          55.81560900000008
        ],
        [
          37.48050999999999,
          55.81559500000008
        ],
        [
          37.48060599999999,
          55.81559900000008
        ],
        [
          37.48069599999999,
          55.815608000000076
        ],
        [
          37.48093199999999,
          55.815676000000074
        ],
        [
          37.48113099999999,
          55.81571900000007
        ],
        [
          37.48117399999999,
          55.81572600000007
        ],
        [
          37.48116299999999,
          55.81574600000007
        ],
        [
          37.48117399999999,
          55.81572600000007
        ],
        [
          37.481402999999986,
          55.81576400000007
        ],
        [
          37.48171499999999,
          55.81580900000007
        ],
        [
          37.48234199999999,
          55.815954000000076
        ],
        [
          37.482497999999985,
          55.816036000000075
        ],
        [
          37.482598999999986,
          55.816160000000075
        ],
        [
          37.482824999999984,
          55.816362000000076
        ],
        [
          37.48327599999998,
          55.81665300000007
        ],
        [
          37.48514199999998,
          55.81725800000007
        ],
        [
          37.485182999999985,
          55.81725300000007
        ],
        [
          37.48535899999999,
          55.81723100000007
        ],
        [
          37.485469999999985,
          55.81720700000007
        ],
        [
          37.48550599999999,
          55.817197000000064
        ],
        [
          37.48567899999998,
          55.81715900000006
        ],
        [
          37.48584499999998,
          55.81713400000006
        ],
        [
          37.48603199999998,
          55.81707600000006
        ],
        [
          37.48618599999998,
          55.81702800000006
        ],
        [
          37.486814999999986,
          55.81702200000006
        ],
        [
          37.48692399999999,
          55.81702100000006
        ],
        [
          37.48726599999999,
          55.81702200000006
        ],
        [
          37.48726599999999,
          55.81701800000006
        ],
        [
          37.48726399999999,
          55.81698900000006
        ],
        [
          37.48726199999999,
          55.816960000000066
        ],
        [
          37.48726499999999,
          55.81695400000007
        ],
        [
          37.48728999999999,
          55.816938000000064
        ],
        [
          37.48732099999999,
          55.816924000000064
        ],
        [
          37.48733399999999,
          55.81692300000007
        ],
        [
          37.48739399999999,
          55.816921000000065
        ],
        [
          37.48746099999999,
          55.81691900000006
        ],
        [
          37.48749799999999,
          55.816918000000065
        ],
        [
          37.48748099999999,
          55.816656000000066
        ],
        [
          37.48746699999999,
          55.81655100000007
        ],
        [
          37.48742699999999,
          55.81627700000007
        ],
        [
          37.48741299999999,
          55.816118000000074
        ],
        [
          37.48741299999999,
          55.81606500000007
        ],
        [
          37.48745499999999,
          55.815938000000074
        ],
        [
          37.48746099999999,
          55.815923000000076
        ],
        [
          37.48747199999999,
          55.81591100000008
        ],
        [
          37.48750899999999,
          55.81589100000008
        ],
        [
          37.48749199999999,
          55.81588000000008
        ],
        [
          37.48743299999999,
          55.81584800000008
        ],
        [
          37.48736799999999,
          55.81581800000008
        ],
        [
          37.48733299999999,
          55.81580100000008
        ],
        [
          37.48732699999999,
          55.81579000000008
        ],
        [
          37.48732999999999,
          55.81577600000008
        ],
        [
          37.48740699999999,
          55.81572200000008
        ],
        [
          37.48742599999999,
          55.81569000000008
        ],
        [
          37.487418999999996,
          55.81565300000008
        ],
        [
          37.487421999999995,
          55.81565300000008
        ]
      ],
      [
        [
          37.323256,
          55.815594
        ],
        [
          37.323176000000004,
          55.815624
        ],
        [
          37.323041,
          55.815512
        ],
        [
          37.322632000000006,
          55.815187
        ],
        [
          37.322239,
          55.814884
        ],
        [
          37.322172,
          55.814845999999996
        ],
        [
          37.322038,
          55.814749
        ],
        [
          37.321847,
          55.814572999999996
        ],
        [
          37.321683,
          55.814423
        ],
        [
          37.321374,
          55.814161999999996
        ],
        [
          37.321256,
          55.81406199999999
        ],
        [
          37.321188,
          55.81401499999999
        ],
        [
          37.321067,
          55.81393099999999
        ],
        [
          37.321011999999996,
          55.81390899999999
        ],
        [
          37.320797,
          55.81389199999999
        ],
        [
          37.320736,
          55.813875999999986
        ],
        [
          37.320705999999994,
          55.81384899999998
        ],
        [
          37.32069599999999,
          55.81381599999998
        ],
        [
          37.32069699999999,
          55.81372899999998
        ],
        [
          37.32069699999999,
          55.81368999999998
        ],
        [
          37.32068899999999,
          55.81366999999998
        ],
        [
          37.32065999999999,
          55.81363599999998
        ],
        [
          37.320618999999986,
          55.81359499999998
        ],
        [
          37.32054499999999,
          55.813547999999976
        ],
        [
          37.32036399999999,
          55.813395999999976
        ],
        [
          37.32042299999999,
          55.813350999999976
        ],
        [
          37.32023199999999,
          55.81319999999997
        ],
        [
          37.32019999999999,
          55.81323499999997
        ],
        [
          37.320148999999994,
          55.81321199999997
        ],
        [
          37.320069,
          55.81315599999997
        ],
        [
          37.319551,
          55.81273599999997
        ],
        [
          37.319230999999995,
          55.81247999999997
        ],
        [
          37.319188999999994,
          55.812470999999974
        ],
        [
          37.319230999999995,
          55.81247999999997
        ],
        [
          37.31903499999999,
          55.812320999999976
        ],
        [
          37.31899299999999,
          55.812295999999975
        ],
        [
          37.31893899999999,
          55.81226999999998
        ],
        [
          37.318878999999995,
          55.812247999999975
        ],
        [
          37.31881799999999,
          55.812227999999976
        ],
        [
          37.31871699999999,
          55.81220499999998
        ],
        [
          37.31854299999999,
          55.812177999999975
        ],
        [
          37.31717799999999,
          55.81199099999998
        ],
        [
          37.31692399999999,
          55.81195099999998
        ],
        [
          37.31678699999999,
          55.81191699999998
        ],
        [
          37.31663199999999,
          55.81189599999998
        ],
        [
          37.31652999999999,
          55.81189299999998
        ],
        [
          37.31531799999999,
          55.81173299999998
        ],
        [
          37.31524099999999,
          55.811725999999986
        ],
        [
          37.31510699999999,
          55.81171999999999
        ],
        [
          37.314919999999994,
          55.81172499999999
        ],
        [
          37.31472399999999,
          55.81173799999999
        ],
        [
          37.31433299999999,
          55.81177099999999
        ],
        [
          37.31403499999999,
          55.81179699999999
        ],
        [
          37.31374099999999,
          55.811823999999994
        ],
        [
          37.313483999999995,
          55.811848
        ],
        [
          37.31341499999999,
          55.811853
        ],
        [
          37.313430999999994,
          55.81191
        ],
        [
          37.313441999999995,
          55.811958999999995
        ],
        [
          37.313342999999996,
          55.811964999999994
        ],
        [
          37.312461,
          55.811992999999994
        ],
        [
          37.312025,
          55.81201299999999
        ],
        [
          37.311997999999996,
          55.812020999999994
        ],
        [
          37.311969,
          55.812037999999994
        ],
        [
          37.311871,
          55.812048
        ],
        [
          37.311195,
          55.812101
        ],
        [
          37.31108,
          55.812113
        ],
        [
          37.310863999999995,
          55.812141
        ],
        [
          37.310652,
          55.812166
        ],
        [
          37.310401999999996,
          55.812199
        ],
        [
          37.31036099999999,
          55.812205
        ],
        [
          37.310325999999996,
          55.812211999999995
        ],
        [
          37.30969699999999,
          55.812366
        ],
        [
          37.309515999999995,
          55.81241
        ],
        [
          37.30848399999999,
          55.812768
        ],
        [
          37.308254999999996,
          55.812867
        ],
        [
          37.308144999999996,
          55.812920999999996
        ],
        [
          37.308105999999995,
          55.81294
        ],
        [
          37.308105,
          55.812957999999995
        ],
        [
          37.308001,
          55.812965999999996
        ],
        [
          37.307952,
          55.812988
        ],
        [
          37.307929,
          55.812999
        ],
        [
          37.307888,
          55.812971
        ],
        [
          37.307825,
          55.812931
        ],
        [
          37.307103,
          55.813285
        ],
        [
          37.306905,
          55.813383
        ],
        [
          37.3068,
          55.813435
        ],
        [
          37.306726000000005,
          55.813472
        ],
        [
          37.306583,
          55.813544
        ],
        [
          37.30654800000001,
          55.813562
        ],
        [
          37.306250000000006,
          55.813708999999996
        ],
        [
          37.30582400000001,
          55.813917
        ],
        [
          37.305642000000006,
          55.814006
        ],
        [
          37.30556200000001,
          55.814045
        ],
        [
          37.30545000000001,
          55.8141
        ],
        [
          37.30519900000001,
          55.814222
        ],
        [
          37.30518300000001,
          55.814228
        ],
        [
          37.305175000000006,
          55.814228
        ],
        [
          37.305167000000004,
          55.814228
        ],
        [
          37.305154,
          55.814221
        ],
        [
          37.304826,
          55.814015000000005
        ],
        [
          37.304758,
          55.81405
        ],
        [
          37.304748,
          55.814043000000005
        ],
        [
          37.304725,
          55.814029000000005
        ],
        [
          37.304812,
          55.813984000000005
        ],
        [
          37.304677,
          55.813908000000005
        ],
        [
          37.304655,
          55.813895
        ],
        [
          37.304758,
          55.813841000000004
        ],
        [
          37.304735,
          55.813827
        ],
        [
          37.304594,
          55.813900000000004
        ],
        [
          37.304527,
          55.813914000000004
        ],
        [
          37.304486,
          55.813934
        ],
        [
          37.304429,
          55.813964000000006
        ],
        [
          37.304362,
          55.81400000000001
        ],
        [
          37.304355,
          55.81400500000001
        ],
        [
          37.304351000000004,
          55.814012000000005
        ],
        [
          37.304353000000006,
          55.814020000000006
        ],
        [
          37.304359000000005,
          55.814024
        ],
        [
          37.304384000000006,
          55.814040000000006
        ],
        [
          37.30417500000001,
          55.814147000000006
        ],
        [
          37.304170000000006,
          55.814144000000006
        ]
      ],
      [
        [
          37.30418,
          55.81443
        ],
        [
          37.304198,
          55.814442
        ],
        [
          37.304391,
          55.814347
        ],
        [
          37.304675,
          55.814206999999996
        ],
        [
          37.304816,
          55.814136
        ],
        [
          37.304855,
          55.814125999999995
        ],
        [
          37.30489600000001,
          55.814128
        ],
        [
          37.304931,
          55.814142
        ],
        [
          37.305177,
          55.814313
        ],
        [
          37.305273,
          55.814265999999996
        ],
        [
          37.305414999999996,
          55.81419699999999
        ],
        [
          37.305521,
          55.814142999999994
        ],
        [
          37.305631999999996,
          55.814086999999994
        ],
        [
          37.306149,
          55.81382299999999
        ],
        [
          37.306307,
          55.813745999999995
        ],
        [
          37.306602999999996,
          55.813596999999994
        ],
        [
          37.306656999999994,
          55.81356999999999
        ],
        [
          37.306650999999995,
          55.813565999999994
        ],
        [
          37.306656999999994,
          55.81356999999999
        ],
        [
          37.306704999999994,
          55.81354499999999
        ],
        [
          37.306816999999995,
          55.81349099999999
        ],
        [
          37.30696699999999,
          55.81341799999999
        ],
        [
          37.30701499999999,
          55.813447999999994
        ],
        [
          37.307061999999995,
          55.813477999999996
        ],
        [
          37.307410999999995,
          55.813314
        ],
        [
          37.30745699999999,
          55.813269999999996
        ],
        [
          37.30752299999999,
          55.813204999999996
        ],
        [
          37.30792899999999,
          55.812999
        ],
        [
          37.307951999999986,
          55.812988
        ],
        [
          37.30800099999998,
          55.812965999999996
        ],
        [
          37.30810499999998,
          55.812957999999995
        ],
        [
          37.30810599999998,
          55.81294
        ],
        [
          37.30814499999998,
          55.812920999999996
        ],
        [
          37.30825499999998,
          55.812867
        ],
        [
          37.30848399999998,
          55.812768
        ],
        [
          37.30951599999998,
          55.81241
        ],
        [
          37.30969699999998,
          55.812366
        ],
        [
          37.31032599999998,
          55.812211999999995
        ],
        [
          37.31036099999998,
          55.812205
        ],
        [
          37.31040199999998,
          55.812199
        ],
        [
          37.31065199999998,
          55.812166
        ],
        [
          37.31086399999998,
          55.812141
        ],
        [
          37.31107999999998,
          55.812113
        ],
        [
          37.311194999999984,
          55.812101
        ],
        [
          37.31187099999998,
          55.812048
        ],
        [
          37.31196899999998,
          55.812037999999994
        ],
        [
          37.31199799999998,
          55.812020999999994
        ],
        [
          37.312024999999984,
          55.81201299999999
        ],
        [
          37.312460999999985,
          55.811992999999994
        ],
        [
          37.31334299999998,
          55.811964999999994
        ],
        [
          37.31344199999998,
          55.811958999999995
        ],
        [
          37.31343099999998,
          55.81191
        ],
        [
          37.31341499999998,
          55.811853
        ],
        [
          37.31348399999998,
          55.811848
        ],
        [
          37.31374099999998,
          55.811823999999994
        ],
        [
          37.314034999999976,
          55.81179699999999
        ],
        [
          37.314332999999976,
          55.81177099999999
        ],
        [
          37.31472399999998,
          55.81173799999999
        ],
        [
          37.31491999999998,
          55.81172499999999
        ],
        [
          37.315106999999976,
          55.81171999999999
        ],
        [
          37.31524099999998,
          55.811725999999986
        ],
        [
          37.31531799999998,
          55.81173299999998
        ],
        [
          37.31652999999998,
          55.81189299999998
        ],
        [
          37.31663199999998,
          55.81189599999998
        ],
        [
          37.31678699999998,
          55.81191699999998
        ],
        [
          37.31692399999998,
          55.81195099999998
        ],
        [
          37.31717799999998,
          55.81199099999998
        ],
        [
          37.31854299999998,
          55.812177999999975
        ],
        [
          37.31871699999998,
          55.81220499999998
        ],
        [
          37.31881799999998,
          55.812227999999976
        ],
        [
          37.31887899999998,
          55.812247999999975
        ],
        [
          37.31893899999998,
          55.81226999999998
        ],
        [
          37.31899299999998,
          55.812295999999975
        ],
        [
          37.31903499999998,
          55.812320999999976
        ],
        [
          37.31920999999998,
          55.81246299999997
        ],
        [
          37.31918899999998,
          55.812470999999974
        ],
        [
          37.31920999999998,
          55.81246299999997
        ],
        [
          37.319230999999974,
          55.81247999999997
        ],
        [
          37.319550999999976,
          55.81273599999997
        ],
        [
          37.320068999999975,
          55.81315599999997
        ],
        [
          37.32014899999997,
          55.81321199999997
        ],
        [
          37.32019999999997,
          55.81323499999997
        ],
        [
          37.32023199999997,
          55.81319999999997
        ],
        [
          37.32042299999997,
          55.813350999999976
        ],
        [
          37.32036399999997,
          55.813395999999976
        ],
        [
          37.32054499999997,
          55.813547999999976
        ],
        [
          37.320618999999965,
          55.81359499999998
        ],
        [
          37.32065999999997,
          55.81363599999998
        ],
        [
          37.320688999999966,
          55.81366999999998
        ],
        [
          37.32069699999997,
          55.81368999999998
        ],
        [
          37.32069699999997,
          55.81372899999998
        ],
        [
          37.32069599999997,
          55.81381599999998
        ],
        [
          37.32070599999997,
          55.81384899999998
        ],
        [
          37.320735999999975,
          55.813875999999986
        ],
        [
          37.32079699999998,
          55.81389199999999
        ],
        [
          37.321011999999975,
          55.81390899999999
        ],
        [
          37.32106699999998,
          55.81393099999999
        ],
        [
          37.32118799999998,
          55.81401499999999
        ],
        [
          37.32125599999998,
          55.81406199999999
        ],
        [
          37.32137399999998,
          55.814161999999996
        ],
        [
          37.32168299999998,
          55.814423
        ],
        [
          37.32184699999998,
          55.814572999999996
        ],
        [
          37.32203799999998,
          55.814749
        ],
        [
          37.32217199999998,
          55.814845999999996
        ],
        [
          37.32223899999998,
          55.814884
        ],
        [
          37.322631999999984,
          55.815187
        ],
        [
          37.32304099999998,
          55.815512
        ],
        [
          37.32316599999998,
          55.815616
        ],
        [
          37.32317499999998,
          55.815612
        ]
      ]
    ]
  }
}
