{
  "type": "Feature",
  "id": "e75c29f3-bd8a-4bb0-ab56-283643e0cbce",
  "properties": {
    "id": "e75c29f3-bd8a-4bb0-ab56-283643e0cbce",
    "name": "До Валаама",
    "color": "#858585",
    "routeType": "Ship",
    "isSelected": false
  },
  "geometry": {
    "type": "LineString",
    "coordinates": [
      [
        31.406906080372323,
        61.63324784990408
      ],
      [
        31.404717397816178,
        61.633492897169695
      ],
      [
        31.401756239063722,
        61.632686275901506
      ],
      [
        31.400661897785653,
        61.63064410245856
      ],
      [
        31.385233831531913,
        61.61190084894701
      ],
      [
        31.365149450428387,
        61.59702071597224
      ],
      [
        31.359312963612002,
        61.577714919210436
      ],
      [
        31.362231207020194,
        61.56642034705573
      ],
      [
        31.33201880467624,
        61.539640647636
      ],
      [
        31.25786108983248,
        61.518659323436886
      ],
      [
        31.14525122655124,
        61.48913028494771
      ],
      [
        31.039507818348106,
        61.45365830645456
      ],
      [
        30.933299772088837,
        61.419928647898764
      ],
      [
        30.921626798456042,
        61.40446234418845
      ],
      [
        30.92591833287978,
        61.398537043555486
      ],
      [
        30.931154004876852,
        61.39409232816274
      ],
      [
        30.936046354120005,
        61.39149928460728
      ],
      [
        30.941067449395817,
        61.38954406933646
      ],
      [
        30.943513624017406,
        61.38704327310997
      ],
      [
        30.944114438836717,
        61.38651838916035
      ]
    ]
  }
}
