{
  "type": "Feature",
  "id": "ed83050e-7fb8-4ee2-9706-ff3f325facf8",
  "properties": {
    "id": "ed83050e-7fb8-4ee2-9706-ff3f325facf8",
    "name": "Кемь - Соловки",
    "color": "#858585",
    "routeType": "Ship",
    "isSelected": false
  },
  "geometry": {
    "type": "LineString",
    "coordinates": [
      [
        34.791947118584986,
        64.99014349594727
      ],
      [
        34.81426309758889,
        64.99755393071742
      ],
      [
        34.85958170110452,
        64.99886144069634
      ],
      [
        34.88224100286232,
        64.9990067156239
      ],
      [
        34.9402625482725,
        65.00481706349909
      ],
      [
        35.05252908879982,
        65.01236862213857
      ],
      [
        35.11982034856546,
        65.01803088663203
      ],
      [
        35.29148172551854,
        65.01948255542915
      ],
      [
        35.52665781194433,
        65.02122445353535
      ],
      [
        35.64338754827244,
        65.02267594825767
      ],
      [
        35.67325662786225,
        65.02833602167924
      ],
      [
        35.682011358086854,
        65.02949691364996
      ],
      [
        35.69128107244232,
        65.030585203884
      ]
    ]
  }
}
