{
  "type": "Feature",
  "id": "ef4d93c9-c7ad-4196-93c5-3e4989a281e2",
  "properties": {
    "id": "ef4d93c9-c7ad-4196-93c5-3e4989a281e2",
    "name": "Тимирязево - Сокольники",
    "color": "#ff3300",
    "routeType": "Twiter Gravel V1",
    "isSelected": false
  },
  "geometry": {
    "type": "MultiLineString",
    "coordinates": [
      [
        [
          37.49330826479859,
          55.815370459973515
        ],
        [
          37.493222434110116,
          55.81546711497339
        ],
        [
          37.4894727059073,
          55.81553356513956
        ],
        [
          37.489515621251535,
          55.815581892466206
        ],
        [
          37.49290593344636,
          55.81553054467964
        ],
        [
          37.49587782103487,
          55.81543993076632
        ],
        [
          37.499750930852315,
          55.81530400950219
        ],
        [
          37.499713379926106,
          55.81521641555012
        ],
        [
          37.50017471987668,
          55.815143923853846
        ],
        [
          37.50049658495847,
          55.81507445251768
        ],
        [
          37.500807721204175,
          55.815008001557835
        ],
        [
          37.50189669806422,
          55.815004981056966
        ],
        [
          37.501918155736355,
          55.81518923117991
        ],
        [
          37.50175722319546,
          55.81523151796978
        ],
        [
          37.50078089911405,
          55.81633397870703
        ],
        [
          37.499520260877,
          55.817853208815414
        ],
        [
          37.499697286671974,
          55.81798006032539
        ],
        [
          37.50160165507251,
          55.81845725989875
        ],
        [
          37.503972727841685,
          55.81908244285961
        ],
        [
          37.50871487338002,
          55.820305597731654
        ],
        [
          37.51140244681292,
          55.8209851115282
        ],
        [
          37.51749106127673,
          55.822576637204016
        ],
        [
          37.518242079800906,
          55.822718572751654
        ],
        [
          37.51989968497211,
          55.82317457492819
        ],
        [
          37.529223043507784,
          55.82561756799959
        ],
        [
          37.52940006930279,
          55.82556925318946
        ],
        [
          37.529475171155205,
          55.82572023677107
        ],
        [
          37.52926595885205,
          55.82587121976418
        ],
        [
          37.52927132327007,
          55.82593765209474
        ],
        [
          37.52964146811413,
          55.82601616288393
        ],
        [
          37.53025837618755,
          55.825910475246005
        ],
        [
          37.530295927113755,
          55.825789689021
        ],
        [
          37.53045149523662,
          55.82564776472533
        ],
        [
          37.52974339205668,
          55.82494719462623
        ],
        [
          37.52972461659358,
          55.824889819770455
        ],
        [
          37.5291345306103,
          55.82428586896607
        ],
        [
          37.5291693993275,
          55.82420584477802
        ],
        [
          37.52909697968409,
          55.824225473367754
        ],
        [
          37.52981581170006,
          55.82496984253282
        ],
        [
          37.53046758849067,
          55.82568249089262
        ],
        [
          37.530459541863635,
          55.825831964204376
        ],
        [
          37.530362982339085,
          55.82600106462939
        ],
        [
          37.53031202036781,
          55.826032770876886
        ],
        [
          37.531886477059544,
          55.82667594914545
        ],
        [
          37.532404143399425,
          55.82693865268018
        ],
        [
          37.53314443308753,
          55.82698092664783
        ],
        [
          37.535043437070065,
          55.827104728716236
        ],
        [
          37.53513463217654,
          55.82695827986607
        ],
        [
          37.535268742627274,
          55.82689184928593
        ],
        [
          37.53555305678285,
          55.82679220320209
        ],
        [
          37.5369156189624,
          55.82666990992429
        ],
        [
          37.53774173933895,
          55.82579270857288
        ],
        [
          37.53828890997797,
          55.82543034766629
        ],
        [
          37.53894873339565,
          55.824726753891994
        ],
        [
          37.540525872296406,
          55.82404730571486
        ],
        [
          37.54091747481256,
          55.824255671089446
        ],
        [
          37.55241878706838,
          55.83009548520326
        ],
        [
          37.552509982174854,
          55.83011813010613
        ],
        [
          37.5525904484453,
          55.83001245366039
        ],
        [
          37.553057152813906,
          55.830146813663085
        ],
        [
          37.55260922390842,
          55.82999886666784
        ],
        [
          37.558156032151,
          55.82331801798234
        ],
        [
          37.558574456757334,
          55.823432772226724
        ],
        [
          37.55855836350323,
          55.823559605469754
        ],
        [
          37.55912162739636,
          55.8236351012506
        ],
        [
          37.55903579670789,
          55.82375287437494
        ],
        [
          37.55866565186383,
          55.82377401310294
        ],
        [
          37.558483261650835,
          55.82385252827741
        ],
        [
          37.55818285424115,
          55.82411223118234
        ],
        [
          37.55778052288892,
          55.82423604241948
        ],
        [
          37.557533759659556,
          55.824287378670064
        ],
        [
          37.55520023781654,
          55.82714096324021
        ],
        [
          37.55586810786121,
          55.82733572403496
        ],
        [
          37.556908804958965,
          55.82602975103791
        ],
        [
          37.55846985060562,
          55.82647665541951
        ],
        [
          37.55870588499893,
          55.82661555708236
        ],
        [
          37.558550316876065,
          55.82690241763565
        ],
        [
          37.55846985060562,
          55.82711680676726
        ],
        [
          37.558105070179565,
          55.82755765955616
        ],
        [
          37.557917315548515,
          55.82768447929397
        ],
        [
          37.557724196499436,
          55.82785357163181
        ],
        [
          37.555948574131584,
          55.8273734682451
        ],
        [
          37.55536653477529,
          55.82717568805611
        ],
        [
          37.55529545623637,
          55.8272783526978
        ],
        [
          37.56224505979369,
          55.823997478784904
        ],
        [
          37.56213643032854,
          55.82397407532113
        ],
        [
          37.562030483072455,
          55.824171116891875
        ],
        [
          37.56362773854082,
          55.824470829536914
        ],
        [
          37.56521292406851,
          55.82478790330568
        ],
        [
          37.56606050211722,
          55.82318136915049
        ],
        [
          37.5662750788384,
          55.82315117050211
        ],
        [
          37.566436011379295,
          55.82308473339281
        ],
        [
          37.56661840159232,
          55.822779725195176
        ],
        [
          37.56693490225608,
          55.82256531204624
        ],
        [
          37.566575486248084,
          55.822060983512365
        ],
        [
          37.56642260033423,
          55.821926595459914
        ],
        [
          37.56623752791219,
          55.82186619618338
        ],
        [
          37.5660926886254,
          55.82183599650978
        ],
        [
          37.56602831560903,
          55.82166838789353
        ],
        [
          37.5659558959656,
          55.82156117839201
        ],
        [
          37.56597467142869,
          55.82144490860418
        ],
        [
          37.565880794113184,
          55.82134222850141
        ],
        [
          37.56543554741666,
          55.82111270726214
        ],
        [
          37.565489191596974,
          55.82071708197818
        ],
        [
          37.56554820019529,
          55.82020064900215
        ],
        [
          37.565634030883764,
          55.8200315232564
        ],
        [
          37.565923709457365,
          55.81977179299511
        ],
        [
          37.56641723591613,
          55.81933085157503
        ],
        [
          37.566824931686384,
          55.818871783956155
        ],
        [
          37.5670368261985,
          55.81860600547388
        ],
        [
          37.567066330497674,
          55.81851690887224
        ],
        [
          37.56714411455911,
          55.81845650428002
        ],
        [
          37.567278225009844,
          55.81842177159684
        ],
        [
          37.567283589427895,
          55.81839156923835
        ],
        [
          37.56730236489099,
          55.81829492152661
        ],
        [
          37.567806620185806,
          55.817654624389384
        ],
        [
          37.56797828156275,
          55.817719560666085
        ],
        [
          37.567771751468605,
          55.81772409109993
        ],
        [
          37.56726749617379,
          55.81834324540943
        ],
        [
          37.56732417241548,
          55.81845709568442
        ],
        [
          37.568021546759375,
          55.819361644579246
        ],
        [
          37.56881011620974,
          55.82040660632315
        ],
        [
          37.56885839597203,
          55.82052740933309
        ],
        [
          37.56880475179171,
          55.82069653291421
        ],
        [
          37.56782306329227,
          55.82294641030924
        ],
        [
          37.567592393316986,
          55.823455257067714
        ],
        [
          37.56934655801273,
          55.823746670748235
        ],
        [
          37.56946457520934,
          55.82376931936946
        ],
        [
          37.56944848195526,
          55.823859913798394
        ],
        [
          37.57245792046995,
          55.82441857476189
        ],
        [
          37.57242036954374,
          55.82485341879416
        ],
        [
          37.57241768733473,
          55.825135762830584
        ],
        [
          37.572508882441255,
          55.825138782541764
        ],
        [
          37.57252302280664,
          55.82530025866709
        ],
        [
          37.57414307705161,
          55.82529723896213
        ],
        [
          37.574140394842594,
          55.82552220586365
        ],
        [
          37.574000919973805,
          55.82557354040978
        ],
        [
          37.57468488327255,
          55.82586342831553
        ],
        [
          37.575594152128616,
          55.825895134675676
        ],
        [
          37.57576044908753,
          55.82583776124304
        ],
        [
          37.5759723435997,
          55.82582115312826
        ],
        [
          37.577576304590586,
          55.825910232926915
        ],
        [
          37.57765677086103,
          55.82530025863524
        ],
        [
          37.57780429235684,
          55.82525798283335
        ],
        [
          37.577855254328085,
          55.825194569037635
        ],
        [
          37.57796522489765,
          55.82470537345284
        ],
        [
          37.57833000532368,
          55.824728021532664
        ],
        [
          37.578319276487626,
          55.82459515260863
        ],
        [
          37.578965688860215,
          55.82466611674975
        ],
        [
          37.579550410425476,
          55.82471896229596
        ],
        [
          37.57965233436803,
          55.82425995851887
        ],
        [
          37.57992591968755,
          55.824305255186104
        ],
        [
          37.58070107809282,
          55.824383769277475
        ],
        [
          37.58139308801866,
          55.8245272080836
        ],
        [
          37.5831848036406,
          55.8249937579944
        ],
        [
          37.58387413135742,
          55.82518550989092
        ],
        [
          37.58493092170931,
          55.82449550059102
        ],
        [
          37.589455808317375,
          55.82163115116327
        ],
        [
          37.58987423292371,
          55.82179121001129
        ],
        [
          37.58941825739116,
          55.822053946686665
        ],
        [
          37.58895155302259,
          55.82234990080771
        ],
        [
          37.58857067934246,
          55.82262773323122
        ],
        [
          37.58851703516217,
          55.8226820915031
        ],
        [
          37.58851703516217,
          55.822762873812906
        ],
        [
          37.588616276895706,
          55.822808927203845
        ],
        [
          37.588539833938796,
          55.82275607904567
        ],
        [
          37.58854519835682,
          55.82261414362908
        ],
        [
          37.58948799482548,
          55.82198901762946
        ],
        [
          37.59037580600941,
          55.822469187754294
        ],
        [
          37.591003442918904,
          55.82275758894948
        ],
        [
          37.59120460859502,
          55.82271078052241
        ],
        [
          37.59123947731219,
          55.82266246208677
        ],
        [
          37.59064939132893,
          55.822423888927425
        ],
        [
          37.5912555705663,
          55.82268360140977
        ],
        [
          37.59139504543506,
          55.82274852925196
        ],
        [
          37.59163912645541,
          55.82286781501568
        ],
        [
          37.59183760992249,
          55.822855735455015
        ],
        [
          37.59207900873383,
          55.82295690160594
        ],
        [
          37.59415772072033,
          55.823964018874854
        ],
        [
          37.59421941152766,
          55.82430525505881
        ],
        [
          37.5939726482983,
          55.82452267832432
        ],
        [
          37.59391363969998,
          55.8245272079627
        ],
        [
          37.594015563642536,
          55.82440188777192
        ],
        [
          37.59456273428158,
          55.82397609807088
        ],
        [
          37.595080400621406,
          55.82358201193693
        ],
        [
          37.595297659551605,
          55.82328455730063
        ],
        [
          37.59575363508415,
          55.82292670275078
        ],
        [
          37.59658243766972,
          55.822401239449604
        ],
        [
          37.59687748066135,
          55.822220043557444
        ],
        [
          37.597145701562845,
          55.82214907493539
        ],
        [
          37.59818639866063,
          55.82214303504025
        ],
        [
          37.59886499754137,
          55.82214303504025
        ],
        [
          37.5989213239307,
          55.822076596202066
        ],
        [
          37.600334848081545,
          55.822059986468346
        ],
        [
          37.60204073301499,
          55.82200260734906
        ],
        [
          37.60254767051878,
          55.82203431686934
        ],
        [
          37.60253694168273,
          55.82194220819103
        ],
        [
          37.602223123227986,
          55.821902948681455
        ],
        [
          37.60246988645735,
          55.8218153696463
        ],
        [
          37.60273274294077,
          55.821644740944755
        ],
        [
          37.60280248037517,
          55.82144391152523
        ],
        [
          37.60267641655147,
          55.8214076715191
        ],
        [
          37.60312970987498,
          55.82146052151671
        ],
        [
          37.603607143079635,
          55.82141975152491
        ],
        [
          37.61016782633001,
          55.821350291427336
        ],
        [
          37.619593108808346,
          55.82127781118696
        ],
        [
          37.61994716039832,
          55.82123855101047
        ],
        [
          37.62059089056189,
          55.82123553099526
        ],
        [
          37.62044068685703,
          55.81987952036419
        ],
        [
          37.62022342792678,
          55.817614363351254
        ],
        [
          37.620523835336435,
          55.81761587350003
        ],
        [
          37.620499695455266,
          55.81668561069992
        ],
        [
          37.62143846861047,
          55.81667050884697
        ],
        [
          37.6220017325036,
          55.816682590323445
        ],
        [
          37.6220017325035,
          55.81644247011379
        ],
        [
          37.622940505658704,
          55.81640320503751
        ],
        [
          37.6229244124046,
          55.81605736860861
        ],
        [
          37.62290831915052,
          55.81583989782611
        ],
        [
          37.62297805658491,
          55.815738713090624
        ],
        [
          37.622916365777556,
          55.81541250378627
        ],
        [
          37.62294587007668,
          55.81527205170593
        ],
        [
          37.62306656948235,
          55.81511196592557
        ],
        [
          37.62408312669896,
          55.81525996977058
        ],
        [
          37.62450691572332,
          55.81490506160051
        ],
        [
          37.624801958714954,
          55.81481142571497
        ],
        [
          37.62496825567388,
          55.81472987169483
        ],
        [
          37.625617350255474,
          55.8142012766622
        ],
        [
          37.62603041044377,
          55.81387505441558
        ],
        [
          37.626153792058474,
          55.81395358965187
        ],
        [
          37.626244987164974,
          55.813869013236975
        ],
        [
          37.62612160555029,
          55.81382068377415
        ],
        [
          37.626813615476074,
          55.8131017758922
        ],
        [
          37.628036702786886,
          55.81358809738507
        ],
        [
          37.62891110292572,
          55.8140864950547
        ],
        [
          37.6300215374579,
          55.814512393449625
        ],
        [
          37.63125535360476,
          55.8149684922141
        ],
        [
          37.631770337735595,
          55.81499567673916
        ],
        [
          37.63232287279267,
          55.814923184629954
        ],
        [
          37.63247307649751,
          55.81479330259516
        ],
        [
          37.63284322134157,
          55.81495338968558
        ],
        [
          37.6336264263739,
          55.81407743332951
        ],
        [
          37.634613479291396,
          55.81401702181648
        ],
        [
          37.637542451535666,
          55.81384484848769
        ],
        [
          37.63745662084714,
          55.813482375815134
        ],
        [
          37.63764437547819,
          55.813482375815134
        ],
        [
          37.637580002461824,
          55.81309875521732
        ],
        [
          37.63759073129788,
          55.81338571586488
        ],
        [
          37.638454402600686,
          55.81332228264152
        ],
        [
          37.638400758420374,
          55.81305646610013
        ],
        [
          37.638454402600686,
          55.81348539643468
        ],
        [
          37.63852414003505,
          55.81361528285305
        ],
        [
          37.63986524454252,
          55.81351862322796
        ],
        [
          37.6429229628195,
          55.813301138204295
        ],
        [
          37.64592703691614,
          55.813165209432
        ],
        [
          37.64911886564386,
          55.81297792902673
        ],
        [
          37.650926674519845,
          55.81286314380852
        ],
        [
          37.65127536169179,
          55.81278460636242
        ],
        [
          37.65212830415852,
          55.81247951708103
        ],
        [
          37.65313681474812,
          55.81172131449927
        ],
        [
          37.65380736700185,
          55.81124403195757
        ],
        [
          37.65386637560017,
          55.81105674226833
        ],
        [
          37.653957570706666,
          55.81092986809366
        ],
        [
          37.6542687069524,
          55.81086643085058
        ],
        [
          37.6559048544515,
          55.8096973544907
        ],
        [
          37.65694555154928,
          55.80893305553227
        ],
        [
          37.65724059454091,
          55.80877898553884
        ],
        [
          37.65739079824575,
          55.80861887293595
        ],
        [
          37.65724059454091,
          55.80853428487877
        ],
        [
          37.65824910513051,
          55.80827749857433
        ],
        [
          37.65814718118793,
          55.80813248908615
        ],
        [
          37.66338821760303,
          55.8043288173131
        ],
        [
          37.67084475866445,
          55.79888399272654
        ],
        [
          37.67531331888316,
          55.79561431331087
        ],
        [
          37.67486807218669,
          55.7953453532828
        ],
        [
          37.674610580121275,
          55.79503106055685
        ],
        [
          37.674551571522905,
          55.79465330149971
        ],
        [
          37.674648131047434,
          55.79438433481284
        ],
        [
          37.6748036991703,
          55.79415465391825
        ],
        [
          37.675222123776614,
          55.79386452873233
        ],
        [
          37.67601069322695,
          55.79364391125132
        ],
        [
          37.676579321538135,
          55.793610667413446
        ],
        [
          37.67712649217715,
          55.79366204423543
        ],
        [
          37.67749663702121,
          55.79375573121775
        ],
        [
          37.677775586758756,
          55.79385244012341
        ],
        [
          37.678108180676624,
          55.794060967880604
        ],
        [
          37.678397859250225,
          55.794375268468514
        ],
        [
          37.67849978319278,
          55.79479836139141
        ],
        [
          37.67833885065188,
          55.79517611902922
        ],
        [
          37.678059900914334,
          55.795463212373
        ],
        [
          37.67749127260318,
          55.79573217157731
        ],
        [
          37.676772440587186,
          55.79585607350451
        ],
        [
          37.6759302269565,
          55.79580469958274
        ],
        [
          37.675372327481426,
          55.79563546735906
        ],
        [
          37.67483320346942,
          55.79528189050209
        ],
        [
          37.67453547826878,
          55.79479685034714
        ],
        [
          37.674594486867065,
          55.79442664427128
        ],
        [
          37.674956585084075,
          55.794056434667745
        ],
        [
          37.67559495082963,
          55.793736087172846
        ],
        [
          37.676362062607886,
          55.793597067628056
        ],
        [
          37.6772015940295,
          55.79366204421011
        ],
        [
          37.677711213742285,
          55.79268738394097
        ],
        [
          37.67787751070121,
          55.79240933683475
        ],
        [
          37.67744835725882,
          55.79231866886915
        ],
        [
          37.67668660989861,
          55.79190461579873
        ],
        [
          37.676616872464216,
          55.79210710945843
        ],
        [
          37.67565664163688,
          55.791895548893706
        ],
        [
          37.67538305631736,
          55.79166283093965
        ],
        [
          37.67390247694113,
          55.79165376397811
        ],
        [
          37.668913568173394,
          55.79171723265804
        ],
        [
          37.66520139089679,
          55.79149055829531
        ],
        [
          37.66518529764269,
          55.79138477647565
        ],
        [
          37.665131653462396,
          55.79120645789803
        ],
        [
          37.66520139089679,
          55.790459928844314
        ],
        [
          37.666365469609254,
          55.789686183157606
        ],
        [
          37.6642304312334,
          55.78884592623312
        ],
        [
          37.66350623479938,
          55.78844997151679
        ],
        [
          37.66213830820178,
          55.7877910455421
        ],
        [
          37.66195055357073,
          55.787322536318676
        ],
        [
          37.66195055357073,
          55.78709583627898
        ],
        [
          37.66225632539844,
          55.78701724662264
        ],
        [
          37.662149037037835,
          55.78710490430601
        ],
        [
          37.66177889219379,
          55.78713210837437
        ],
        [
          37.66119953504658,
          55.78723487912709
        ],
        [
          37.66083475462055,
          55.78723185646179
        ],
        [
          37.6605397116289,
          55.7871381537203
        ],
        [
          37.65904303899854,
          55.786424796390556
        ],
        [
          37.659026945744465,
          55.786355273577016
        ],
        [
          37.65919324270338,
          55.78630086433165
        ],
        [
          37.65910204759688,
          55.78619809110449
        ],
        [
          37.66035732141582,
          55.78511291010726
        ],
        [
          37.659509743367096,
          55.7848076030218
        ],
        [
          37.65712794176187,
          55.784027698760646
        ],
        [
          37.657680476818946,
          55.78375261251195
        ],
        [
          37.65790041795818,
          55.783652855478316
        ],
        [
          37.65837785116281,
          55.783244755851534
        ],
        [
          37.65607115140998,
          55.782371105916766
        ],
        [
          37.65779312959753,
          55.78096536490677
        ],
        [
          37.65856024137576,
          55.780536074700684
        ],
        [
          37.65920933595731,
          55.779925386085424
        ],
        [
          37.659348810826096,
          55.779686549807046
        ],
        [
          37.6594614636046,
          55.779411432721474
        ],
        [
          37.659375632916074,
          55.77923305909376
        ],
        [
          37.65903767458021,
          55.779021428309946
        ],
        [
          37.65868362299024,
          55.77890654254395
        ],
        [
          37.65920933595716,
          55.77845606612722
        ],
        [
          37.659338081989866,
          55.778335131970586
        ],
        [
          37.659246886883366,
          55.77816280014619
        ],
        [
          37.65896257272779,
          55.777905812670674
        ],
        [
          37.65879091135084,
          55.77779394699632
        ],
        [
          37.65850123277721,
          55.77771836190291
        ],
        [
          37.65841003767071,
          55.77757021469278
        ],
        [
          37.65855487695753,
          55.77727694201697
        ],
        [
          37.65845831743295,
          55.77674178925095
        ],
        [
          37.65841003767069,
          55.77653316837931
        ],
        [
          37.65841003767069,
          55.77638199312752
        ],
        [
          37.657610739384246,
          55.77625802898681
        ],
        [
          37.656505669270096,
          55.775916369664984
        ],
        [
          37.655250395451134,
          55.77563517876832
        ],
        [
          37.65379663816506,
          55.77529653755846
        ],
        [
          37.6531207214933,
          55.7751272158486
        ],
        [
          37.652621830616546,
          55.775069767243494
        ],
        [
          37.65196737161691,
          55.77592241675233
        ]
      ],
      [
        [
          37.323256,
          55.815594
        ],
        [
          37.323176000000004,
          55.815624
        ],
        [
          37.323041,
          55.815512
        ],
        [
          37.322632000000006,
          55.815187
        ],
        [
          37.322239,
          55.814884
        ],
        [
          37.322172,
          55.814845999999996
        ],
        [
          37.322038,
          55.814749
        ],
        [
          37.321847,
          55.814572999999996
        ],
        [
          37.321683,
          55.814423
        ],
        [
          37.321374,
          55.814161999999996
        ],
        [
          37.321256,
          55.81406199999999
        ],
        [
          37.321188,
          55.81401499999999
        ],
        [
          37.321067,
          55.81393099999999
        ],
        [
          37.321011999999996,
          55.81390899999999
        ],
        [
          37.320797,
          55.81389199999999
        ],
        [
          37.320736,
          55.813875999999986
        ],
        [
          37.320705999999994,
          55.81384899999998
        ],
        [
          37.32069599999999,
          55.81381599999998
        ],
        [
          37.32069699999999,
          55.81372899999998
        ],
        [
          37.32069699999999,
          55.81368999999998
        ],
        [
          37.32068899999999,
          55.81366999999998
        ],
        [
          37.32065999999999,
          55.81363599999998
        ],
        [
          37.320618999999986,
          55.81359499999998
        ],
        [
          37.32054499999999,
          55.813547999999976
        ],
        [
          37.32036399999999,
          55.813395999999976
        ],
        [
          37.32042299999999,
          55.813350999999976
        ],
        [
          37.32023199999999,
          55.81319999999997
        ],
        [
          37.32019999999999,
          55.81323499999997
        ],
        [
          37.320148999999994,
          55.81321199999997
        ],
        [
          37.320069,
          55.81315599999997
        ],
        [
          37.319551,
          55.81273599999997
        ],
        [
          37.319230999999995,
          55.81247999999997
        ],
        [
          37.319188999999994,
          55.812470999999974
        ],
        [
          37.319230999999995,
          55.81247999999997
        ],
        [
          37.31903499999999,
          55.812320999999976
        ],
        [
          37.31899299999999,
          55.812295999999975
        ],
        [
          37.31893899999999,
          55.81226999999998
        ],
        [
          37.318878999999995,
          55.812247999999975
        ],
        [
          37.31881799999999,
          55.812227999999976
        ],
        [
          37.31871699999999,
          55.81220499999998
        ],
        [
          37.31854299999999,
          55.812177999999975
        ],
        [
          37.31717799999999,
          55.81199099999998
        ],
        [
          37.31692399999999,
          55.81195099999998
        ],
        [
          37.31678699999999,
          55.81191699999998
        ],
        [
          37.31663199999999,
          55.81189599999998
        ],
        [
          37.31652999999999,
          55.81189299999998
        ],
        [
          37.31531799999999,
          55.81173299999998
        ],
        [
          37.31524099999999,
          55.811725999999986
        ],
        [
          37.31510699999999,
          55.81171999999999
        ],
        [
          37.314919999999994,
          55.81172499999999
        ],
        [
          37.31472399999999,
          55.81173799999999
        ],
        [
          37.31433299999999,
          55.81177099999999
        ],
        [
          37.31403499999999,
          55.81179699999999
        ],
        [
          37.31374099999999,
          55.811823999999994
        ],
        [
          37.313483999999995,
          55.811848
        ],
        [
          37.31341499999999,
          55.811853
        ],
        [
          37.313430999999994,
          55.81191
        ],
        [
          37.313441999999995,
          55.811958999999995
        ],
        [
          37.313342999999996,
          55.811964999999994
        ],
        [
          37.312461,
          55.811992999999994
        ],
        [
          37.312025,
          55.81201299999999
        ],
        [
          37.311997999999996,
          55.812020999999994
        ],
        [
          37.311969,
          55.812037999999994
        ],
        [
          37.311871,
          55.812048
        ],
        [
          37.311195,
          55.812101
        ],
        [
          37.31108,
          55.812113
        ],
        [
          37.310863999999995,
          55.812141
        ],
        [
          37.310652,
          55.812166
        ],
        [
          37.310401999999996,
          55.812199
        ],
        [
          37.31036099999999,
          55.812205
        ],
        [
          37.310325999999996,
          55.812211999999995
        ],
        [
          37.30969699999999,
          55.812366
        ],
        [
          37.309515999999995,
          55.81241
        ],
        [
          37.30848399999999,
          55.812768
        ],
        [
          37.308254999999996,
          55.812867
        ],
        [
          37.308144999999996,
          55.812920999999996
        ],
        [
          37.308105999999995,
          55.81294
        ],
        [
          37.308105,
          55.812957999999995
        ],
        [
          37.308001,
          55.812965999999996
        ],
        [
          37.307952,
          55.812988
        ],
        [
          37.307929,
          55.812999
        ],
        [
          37.307888,
          55.812971
        ],
        [
          37.307825,
          55.812931
        ],
        [
          37.307103,
          55.813285
        ],
        [
          37.306905,
          55.813383
        ],
        [
          37.3068,
          55.813435
        ],
        [
          37.306726000000005,
          55.813472
        ],
        [
          37.306583,
          55.813544
        ],
        [
          37.30654800000001,
          55.813562
        ],
        [
          37.306250000000006,
          55.813708999999996
        ],
        [
          37.30582400000001,
          55.813917
        ],
        [
          37.305642000000006,
          55.814006
        ],
        [
          37.30556200000001,
          55.814045
        ],
        [
          37.30545000000001,
          55.8141
        ],
        [
          37.30519900000001,
          55.814222
        ],
        [
          37.30518300000001,
          55.814228
        ],
        [
          37.305175000000006,
          55.814228
        ],
        [
          37.305167000000004,
          55.814228
        ],
        [
          37.305154,
          55.814221
        ],
        [
          37.304826,
          55.814015000000005
        ],
        [
          37.304758,
          55.81405
        ],
        [
          37.304748,
          55.814043000000005
        ],
        [
          37.304725,
          55.814029000000005
        ],
        [
          37.304812,
          55.813984000000005
        ],
        [
          37.304677,
          55.813908000000005
        ],
        [
          37.304655,
          55.813895
        ],
        [
          37.304758,
          55.813841000000004
        ],
        [
          37.304735,
          55.813827
        ],
        [
          37.304594,
          55.813900000000004
        ],
        [
          37.304527,
          55.813914000000004
        ],
        [
          37.304486,
          55.813934
        ],
        [
          37.304429,
          55.813964000000006
        ],
        [
          37.304362,
          55.81400000000001
        ],
        [
          37.304355,
          55.81400500000001
        ],
        [
          37.304351000000004,
          55.814012000000005
        ],
        [
          37.304353000000006,
          55.814020000000006
        ],
        [
          37.304359000000005,
          55.814024
        ],
        [
          37.304384000000006,
          55.814040000000006
        ],
        [
          37.30417500000001,
          55.814147000000006
        ],
        [
          37.304170000000006,
          55.814144000000006
        ]
      ],
      [
        [
          37.30418,
          55.81443
        ],
        [
          37.304198,
          55.814442
        ],
        [
          37.304391,
          55.814347
        ],
        [
          37.304675,
          55.814206999999996
        ],
        [
          37.304816,
          55.814136
        ],
        [
          37.304855,
          55.814125999999995
        ],
        [
          37.30489600000001,
          55.814128
        ],
        [
          37.304931,
          55.814142
        ],
        [
          37.305177,
          55.814313
        ],
        [
          37.305273,
          55.814265999999996
        ],
        [
          37.305414999999996,
          55.81419699999999
        ],
        [
          37.305521,
          55.814142999999994
        ],
        [
          37.305631999999996,
          55.814086999999994
        ],
        [
          37.306149,
          55.81382299999999
        ],
        [
          37.306307,
          55.813745999999995
        ],
        [
          37.306602999999996,
          55.813596999999994
        ],
        [
          37.306656999999994,
          55.81356999999999
        ],
        [
          37.306650999999995,
          55.813565999999994
        ],
        [
          37.306656999999994,
          55.81356999999999
        ],
        [
          37.306704999999994,
          55.81354499999999
        ],
        [
          37.306816999999995,
          55.81349099999999
        ],
        [
          37.30696699999999,
          55.81341799999999
        ],
        [
          37.30701499999999,
          55.813447999999994
        ],
        [
          37.307061999999995,
          55.813477999999996
        ],
        [
          37.307410999999995,
          55.813314
        ],
        [
          37.30745699999999,
          55.813269999999996
        ],
        [
          37.30752299999999,
          55.813204999999996
        ],
        [
          37.30792899999999,
          55.812999
        ],
        [
          37.307951999999986,
          55.812988
        ],
        [
          37.30800099999998,
          55.812965999999996
        ],
        [
          37.30810499999998,
          55.812957999999995
        ],
        [
          37.30810599999998,
          55.81294
        ],
        [
          37.30814499999998,
          55.812920999999996
        ],
        [
          37.30825499999998,
          55.812867
        ],
        [
          37.30848399999998,
          55.812768
        ],
        [
          37.30951599999998,
          55.81241
        ],
        [
          37.30969699999998,
          55.812366
        ],
        [
          37.31032599999998,
          55.812211999999995
        ],
        [
          37.31036099999998,
          55.812205
        ],
        [
          37.31040199999998,
          55.812199
        ],
        [
          37.31065199999998,
          55.812166
        ],
        [
          37.31086399999998,
          55.812141
        ],
        [
          37.31107999999998,
          55.812113
        ],
        [
          37.311194999999984,
          55.812101
        ],
        [
          37.31187099999998,
          55.812048
        ],
        [
          37.31196899999998,
          55.812037999999994
        ],
        [
          37.31199799999998,
          55.812020999999994
        ],
        [
          37.312024999999984,
          55.81201299999999
        ],
        [
          37.312460999999985,
          55.811992999999994
        ],
        [
          37.31334299999998,
          55.811964999999994
        ],
        [
          37.31344199999998,
          55.811958999999995
        ],
        [
          37.31343099999998,
          55.81191
        ],
        [
          37.31341499999998,
          55.811853
        ],
        [
          37.31348399999998,
          55.811848
        ],
        [
          37.31374099999998,
          55.811823999999994
        ],
        [
          37.314034999999976,
          55.81179699999999
        ],
        [
          37.314332999999976,
          55.81177099999999
        ],
        [
          37.31472399999998,
          55.81173799999999
        ],
        [
          37.31491999999998,
          55.81172499999999
        ],
        [
          37.315106999999976,
          55.81171999999999
        ],
        [
          37.31524099999998,
          55.811725999999986
        ],
        [
          37.31531799999998,
          55.81173299999998
        ],
        [
          37.31652999999998,
          55.81189299999998
        ],
        [
          37.31663199999998,
          55.81189599999998
        ],
        [
          37.31678699999998,
          55.81191699999998
        ],
        [
          37.31692399999998,
          55.81195099999998
        ],
        [
          37.31717799999998,
          55.81199099999998
        ],
        [
          37.31854299999998,
          55.812177999999975
        ],
        [
          37.31871699999998,
          55.81220499999998
        ],
        [
          37.31881799999998,
          55.812227999999976
        ],
        [
          37.31887899999998,
          55.812247999999975
        ],
        [
          37.31893899999998,
          55.81226999999998
        ],
        [
          37.31899299999998,
          55.812295999999975
        ],
        [
          37.31903499999998,
          55.812320999999976
        ],
        [
          37.31920999999998,
          55.81246299999997
        ],
        [
          37.31918899999998,
          55.812470999999974
        ],
        [
          37.31920999999998,
          55.81246299999997
        ],
        [
          37.319230999999974,
          55.81247999999997
        ],
        [
          37.319550999999976,
          55.81273599999997
        ],
        [
          37.320068999999975,
          55.81315599999997
        ],
        [
          37.32014899999997,
          55.81321199999997
        ],
        [
          37.32019999999997,
          55.81323499999997
        ],
        [
          37.32023199999997,
          55.81319999999997
        ],
        [
          37.32042299999997,
          55.813350999999976
        ],
        [
          37.32036399999997,
          55.813395999999976
        ],
        [
          37.32054499999997,
          55.813547999999976
        ],
        [
          37.320618999999965,
          55.81359499999998
        ],
        [
          37.32065999999997,
          55.81363599999998
        ],
        [
          37.320688999999966,
          55.81366999999998
        ],
        [
          37.32069699999997,
          55.81368999999998
        ],
        [
          37.32069699999997,
          55.81372899999998
        ],
        [
          37.32069599999997,
          55.81381599999998
        ],
        [
          37.32070599999997,
          55.81384899999998
        ],
        [
          37.320735999999975,
          55.813875999999986
        ],
        [
          37.32079699999998,
          55.81389199999999
        ],
        [
          37.321011999999975,
          55.81390899999999
        ],
        [
          37.32106699999998,
          55.81393099999999
        ],
        [
          37.32118799999998,
          55.81401499999999
        ],
        [
          37.32125599999998,
          55.81406199999999
        ],
        [
          37.32137399999998,
          55.814161999999996
        ],
        [
          37.32168299999998,
          55.814423
        ],
        [
          37.32184699999998,
          55.814572999999996
        ],
        [
          37.32203799999998,
          55.814749
        ],
        [
          37.32217199999998,
          55.814845999999996
        ],
        [
          37.32223899999998,
          55.814884
        ],
        [
          37.322631999999984,
          55.815187
        ],
        [
          37.32304099999998,
          55.815512
        ],
        [
          37.32316599999998,
          55.815616
        ],
        [
          37.32317499999998,
          55.815612
        ]
      ]
    ]
  }
}
