{
  "type": "Feature",
  "id": "f01d939d-90fc-4e3c-b21a-f26275a75130",
  "properties": {
    "id": "f01d939d-90fc-4e3c-b21a-f26275a75130",
    "name": "Первая поездка",
    "color": "#ff3300",
    "routeType": "Twiter Gravel V1",
    "isSelected": false
  },
  "geometry": {
    "type": "LineString",
    "coordinates": [
      [
        37.436926,
        55.82599
      ],
      [
        37.437408,
        55.82655
      ],
      [
        37.437746,
        55.826944
      ],
      [
        37.437711,
        55.826953
      ],
      [
        37.43763,
        55.826973
      ],
      [
        37.43766,
        55.827116
      ],
      [
        37.43732,
        55.82718
      ],
      [
        37.437363,
        55.827238
      ],
      [
        37.437375,
        55.827271
      ],
      [
        37.437404,
        55.827317
      ],
      [
        37.437447,
        55.827455
      ],
      [
        37.437651,
        55.82794
      ],
      [
        37.437767,
        55.828218
      ],
      [
        37.437831,
        55.828208
      ],
      [
        37.438099,
        55.828164
      ],
      [
        37.438248,
        55.828142
      ],
      [
        37.43827,
        55.828187
      ],
      [
        37.438633,
        55.828216
      ],
      [
        37.439857,
        55.828047
      ],
      [
        37.439976,
        55.828075
      ],
      [
        37.440115,
        55.828107
      ],
      [
        37.44048,
        55.828011
      ],
      [
        37.441018,
        55.827868
      ],
      [
        37.441445,
        55.827755
      ],
      [
        37.441775,
        55.827751
      ],
      [
        37.441826,
        55.827724
      ],
      [
        37.441999,
        55.8277
      ],
      [
        37.441991,
        55.827714
      ],
      [
        37.441973,
        55.827747
      ],
      [
        37.442434,
        55.827638
      ],
      [
        37.442597,
        55.82759
      ],
      [
        37.443239,
        55.827394
      ],
      [
        37.443648,
        55.827294
      ],
      [
        37.443721,
        55.827284
      ],
      [
        37.443985,
        55.827248
      ],
      [
        37.444023,
        55.827243
      ],
      [
        37.444181,
        55.827223
      ],
      [
        37.444251,
        55.827218
      ],
      [
        37.445564,
        55.827121
      ],
      [
        37.445922,
        55.82709
      ],
      [
        37.445959,
        55.827086
      ],
      [
        37.446164,
        55.827058
      ],
      [
        37.446497,
        55.826999
      ],
      [
        37.447221,
        55.826949
      ],
      [
        37.447454,
        55.826934
      ],
      [
        37.447527,
        55.826929
      ],
      [
        37.447617,
        55.826923
      ],
      [
        37.448427,
        55.826868
      ],
      [
        37.448532,
        55.826861
      ],
      [
        37.44866,
        55.826852
      ],
      [
        37.448839,
        55.82684
      ],
      [
        37.449754,
        55.826779
      ],
      [
        37.449882,
        55.826771
      ],
      [
        37.449958,
        55.826766
      ],
      [
        37.450104,
        55.826757
      ],
      [
        37.450159,
        55.826753
      ],
      [
        37.45027,
        55.826746
      ],
      [
        37.450504,
        55.826731
      ],
      [
        37.450563,
        55.826728
      ],
      [
        37.450682,
        55.826721
      ],
      [
        37.451046,
        55.826698
      ],
      [
        37.451569,
        55.826666
      ],
      [
        37.45193,
        55.826643
      ],
      [
        37.452128,
        55.826631
      ],
      [
        37.452233,
        55.826624
      ],
      [
        37.452274,
        55.826621
      ],
      [
        37.452394,
        55.826611
      ],
      [
        37.452445,
        55.826607
      ],
      [
        37.452585,
        55.826598
      ],
      [
        37.452603,
        55.826663
      ],
      [
        37.452469,
        55.826673
      ],
      [
        37.45249,
        55.826759
      ],
      [
        37.452616,
        55.827369
      ],
      [
        37.452625,
        55.827411
      ],
      [
        37.452667,
        55.827613
      ],
      [
        37.452802,
        55.828256
      ],
      [
        37.452829,
        55.828387
      ],
      [
        37.45285,
        55.828483
      ],
      [
        37.452877,
        55.828596
      ],
      [
        37.45315,
        55.830006
      ],
      [
        37.453165,
        55.83008
      ],
      [
        37.453186,
        55.830175
      ],
      [
        37.453209,
        55.830286
      ],
      [
        37.453304,
        55.830754
      ],
      [
        37.453315,
        55.83081
      ],
      [
        37.45333,
        55.830882
      ],
      [
        37.453409,
        55.831282
      ],
      [
        37.453421,
        55.831346
      ],
      [
        37.453546,
        55.831959
      ],
      [
        37.453614,
        55.832301
      ],
      [
        37.453636,
        55.832415
      ],
      [
        37.453657,
        55.832505
      ],
      [
        37.453731,
        55.832885
      ],
      [
        37.453756,
        55.833007
      ],
      [
        37.453892,
        55.833685
      ],
      [
        37.453906,
        55.833755
      ],
      [
        37.453933,
        55.833882
      ],
      [
        37.454068,
        55.834526
      ],
      [
        37.45409,
        55.83463
      ],
      [
        37.454111,
        55.834735
      ],
      [
        37.454231,
        55.834724
      ],
      [
        37.454252,
        55.834902
      ],
      [
        37.454416,
        55.834899
      ],
      [
        37.454721,
        55.834949
      ],
      [
        37.454937,
        55.834902
      ],
      [
        37.455392,
        55.83487
      ],
      [
        37.456567,
        55.834787
      ],
      [
        37.457088,
        55.834761
      ],
      [
        37.457872,
        55.834721
      ],
      [
        37.458151,
        55.834707
      ],
      [
        37.458538,
        55.834709
      ],
      [
        37.459469,
        55.834816
      ],
      [
        37.460161,
        55.834937
      ],
      [
        37.460753,
        55.835099
      ],
      [
        37.460161,
        55.834937
      ],
      [
        37.459469,
        55.834816
      ],
      [
        37.458538,
        55.834709
      ],
      [
        37.458151,
        55.834707
      ],
      [
        37.457872,
        55.834721
      ],
      [
        37.457088,
        55.834761
      ],
      [
        37.457872,
        55.834721
      ],
      [
        37.458151,
        55.834707
      ],
      [
        37.458538,
        55.834709
      ],
      [
        37.458382,
        55.834519
      ],
      [
        37.458376,
        55.834482
      ],
      [
        37.45849,
        55.834475
      ],
      [
        37.461355,
        55.834304
      ],
      [
        37.461446,
        55.834298
      ],
      [
        37.461567,
        55.834254
      ],
      [
        37.461555,
        55.834162
      ],
      [
        37.460804,
        55.833146
      ],
      [
        37.460563,
        55.832811
      ],
      [
        37.46053,
        55.832763
      ],
      [
        37.460466,
        55.832682
      ],
      [
        37.460418,
        55.832612
      ],
      [
        37.460311,
        55.832468
      ],
      [
        37.460295,
        55.832445
      ],
      [
        37.460109,
        55.832189
      ],
      [
        37.460295,
        55.832445
      ],
      [
        37.460311,
        55.832468
      ],
      [
        37.460418,
        55.832612
      ],
      [
        37.460466,
        55.832682
      ],
      [
        37.46054,
        55.832667
      ],
      [
        37.461184,
        55.833541
      ],
      [
        37.46054,
        55.832667
      ],
      [
        37.460487,
        55.832595
      ],
      [
        37.460418,
        55.832612
      ],
      [
        37.460311,
        55.832468
      ],
      [
        37.460295,
        55.832445
      ],
      [
        37.460109,
        55.832189
      ],
      [
        37.459784,
        55.83174
      ],
      [
        37.45924,
        55.830974
      ],
      [
        37.458848,
        55.830433
      ],
      [
        37.458757,
        55.830307
      ],
      [
        37.458459,
        55.829906
      ],
      [
        37.458376,
        55.829797
      ],
      [
        37.458331,
        55.82974
      ],
      [
        37.458285,
        55.82968
      ],
      [
        37.458898,
        55.829459
      ],
      [
        37.45901,
        55.829433
      ],
      [
        37.4608,
        55.829025
      ],
      [
        37.460921,
        55.828997
      ],
      [
        37.460929,
        55.828961
      ],
      [
        37.461342,
        55.828838
      ],
      [
        37.460982,
        55.828438
      ],
      [
        37.460966,
        55.828421
      ],
      [
        37.460821,
        55.828265
      ],
      [
        37.459837,
        55.827206
      ],
      [
        37.459797,
        55.827031
      ],
      [
        37.459958,
        55.82684
      ],
      [
        37.46021,
        55.826655
      ],
      [
        37.461102,
        55.825804
      ],
      [
        37.461413,
        55.825546
      ],
      [
        37.461416,
        55.825488
      ],
      [
        37.461473,
        55.825388
      ],
      [
        37.461758,
        55.825051
      ],
      [
        37.461911,
        55.824907
      ],
      [
        37.462018,
        55.824816
      ],
      [
        37.462117,
        55.824754
      ],
      [
        37.46229,
        55.824651
      ],
      [
        37.462491,
        55.824601
      ],
      [
        37.462729,
        55.824568
      ],
      [
        37.463233,
        55.824494
      ],
      [
        37.463493,
        55.824457
      ],
      [
        37.463782,
        55.824365
      ],
      [
        37.464002,
        55.824251
      ],
      [
        37.46417,
        55.824087
      ],
      [
        37.464389,
        55.823534
      ],
      [
        37.464591,
        55.823068
      ],
      [
        37.464655,
        55.822957
      ],
      [
        37.464699,
        55.822965
      ],
      [
        37.464738,
        55.822972
      ],
      [
        37.464763,
        55.822927
      ],
      [
        37.465165,
        55.822973
      ],
      [
        37.465859,
        55.82305
      ],
      [
        37.465992,
        55.823064
      ],
      [
        37.466836,
        55.823021
      ],
      [
        37.467503,
        55.82345
      ],
      [
        37.46904,
        55.824141
      ],
      [
        37.469616,
        55.824312
      ],
      [
        37.470321,
        55.824517
      ],
      [
        37.470838,
        55.824668
      ],
      [
        37.471276,
        55.824737
      ],
      [
        37.471685,
        55.824801
      ],
      [
        37.472247,
        55.824818
      ],
      [
        37.472467,
        55.824824
      ],
      [
        37.473001,
        55.824887
      ],
      [
        37.47316,
        55.82492
      ],
      [
        37.473294,
        55.82497
      ],
      [
        37.473496,
        55.824925
      ],
      [
        37.473921,
        55.824914
      ],
      [
        37.474664,
        55.824637
      ],
      [
        37.475073,
        55.824542
      ],
      [
        37.475938,
        55.824596
      ],
      [
        37.476391,
        55.824456
      ],
      [
        37.477426,
        55.82404
      ],
      [
        37.477582,
        55.823969
      ],
      [
        37.478051,
        55.823757
      ],
      [
        37.479061,
        55.823419
      ],
      [
        37.479832,
        55.823073
      ],
      [
        37.480119,
        55.82285
      ],
      [
        37.48019,
        55.822795
      ],
      [
        37.479735,
        55.822124
      ],
      [
        37.480092,
        55.822013
      ],
      [
        37.480514,
        55.821787
      ],
      [
        37.481256,
        55.8214
      ],
      [
        37.48128,
        55.821389
      ],
      [
        37.481359,
        55.821172
      ],
      [
        37.481428,
        55.821077
      ],
      [
        37.481695,
        55.820708
      ],
      [
        37.481758,
        55.820414
      ],
      [
        37.481748,
        55.82022
      ],
      [
        37.481769,
        55.819802
      ],
      [
        37.481882,
        55.81966
      ],
      [
        37.482132,
        55.819448
      ],
      [
        37.482325,
        55.819307
      ],
      [
        37.482654,
        55.819059
      ],
      [
        37.483347,
        55.818537
      ],
      [
        37.483915,
        55.818242
      ],
      [
        37.484365,
        55.818014
      ],
      [
        37.484614,
        55.817816
      ],
      [
        37.484909,
        55.817487
      ],
      [
        37.484986,
        55.817432
      ],
      [
        37.485191,
        55.817287
      ],
      [
        37.485504,
        55.817252
      ],
      [
        37.485572,
        55.817235
      ],
      [
        37.485941,
        55.817116
      ],
      [
        37.485987,
        55.817102
      ],
      [
        37.48617,
        55.817043
      ],
      [
        37.486339,
        55.817
      ],
      [
        37.486762,
        55.816996
      ],
      [
        37.487266,
        55.81699
      ],
      [
        37.487267,
        55.817023
      ],
      [
        37.487268,
        55.817037
      ],
      [
        37.487358,
        55.817036
      ],
      [
        37.487406,
        55.817035
      ],
      [
        37.487398,
        55.816988
      ],
      [
        37.487392,
        55.816918
      ],
      [
        37.487384,
        55.816825
      ],
      [
        37.487362,
        55.816585
      ],
      [
        37.48735,
        55.816447
      ],
      [
        37.487334,
        55.816295
      ],
      [
        37.48731,
        55.816018
      ],
      [
        37.487434,
        55.815843
      ],
      [
        37.487367,
        55.815812
      ],
      [
        37.487336,
        55.815797
      ],
      [
        37.487554,
        55.815658
      ],
      [
        37.48746,
        55.815617
      ],
      [
        37.487372,
        55.815621
      ],
      [
        37.487356,
        55.815621
      ],
      [
        37.487355,
        55.815607
      ],
      [
        37.487324,
        55.815597
      ],
      [
        37.487303,
        55.815389
      ]
    ]
  }
}
