{
  "type": "Feature",
  "id": "f5a57ade-7804-4603-8ef5-24290742269e",
  "properties": {
    "id": "f5a57ade-7804-4603-8ef5-24290742269e",
    "name": "Москва - Калининград",
    "color": "#949494",
    "routeType": "airplane",
    "isSelected": false
  },
  "geometry": {
    "type": "LineString",
    "coordinates": [
      [
        37.41331394746832,
        55.972349986689
      ],
      [
        37.37331684663823,
        55.963492752421224
      ],
      [
        37.33589466646245,
        55.96753652498832
      ],
      [
        37.17587308979377,
        55.983485837981185
      ],
      [
        37.04541044330938,
        56.03964630662758
      ],
      [
        36.899841595653136,
        56.180837981613806
      ],
      [
        36.853149701121886,
        56.30777155252328
      ],
      [
        36.68251711175613,
        56.90615252175894
      ],
      [
        36.42159181878737,
        56.99920204717824
      ],
      [
        35.339438498474856,
        57.09949359789863
      ],
      [
        32.60933595941213,
        57.19056751533652
      ],
      [
        31.867758810974617,
        57.26207412092732
      ],
      [
        31.480490744568186,
        57.481677994892415
      ],
      [
        29.865500510193176,
        58.46805547110808
      ],
      [
        28.338400900818176,
        59.56149452874194
      ],
      [
        27.90444093988067,
        59.81145312507801
      ],
      [
        27.15737062738067,
        60.04168951772014
      ],
      [
        26.99532228753693,
        60.071900672912015
      ],
      [
        26.437766135193172,
        60.02107509006268
      ],
      [
        25.058981955505683,
        59.84602173835392
      ],
      [
        23.80654054925569,
        59.640850632946396
      ],
      [
        22.592551291443186,
        59.39801592069728
      ],
      [
        21.642233908630686,
        59.17598737017089
      ],
      [
        20.823752463318172,
        58.322410786501884
      ],
      [
        20.18105226800568,
        57.50681831756714
      ],
      [
        19.38454347894318,
        56.317002449761446
      ],
      [
        19.19237186905279,
        55.74516596083826
      ],
      [
        19.269276165927792,
        55.62724197379289
      ],
      [
        20.07127811905278,
        55.20540696796369
      ],
      [
        20.64806034561528,
        54.9469679123322
      ],
      [
        20.645313763584035,
        54.9153361531803
      ],
      [
        20.57527592178715,
        54.88605452552712
      ]
    ]
  }
}
