{
  "type": "Feature",
  "id": "f888b001-172e-4e90-8c98-6eee9422e8c5",
  "properties": {
    "id": "f888b001-172e-4e90-8c98-6eee9422e8c5",
    "name": "Калининград - Москва",
    "color": "#949494",
    "routeType": "airplane",
    "isSelected": false
  },
  "geometry": {
    "type": "LineString",
    "coordinates": [
      [
        37.41331394746832,
        55.972349986689
      ],
      [
        37.37675007417727,
        55.960411498002294
      ],
      [
        37.33589466646245,
        55.957137395251735
      ],
      [
        37.25657052363591,
        55.95664134396155
      ],
      [
        37.17724638080939,
        55.965004209286896
      ],
      [
        37.03717069721564,
        56.007344820393
      ],
      [
        36.85864286518435,
        56.145588818093394
      ],
      [
        36.83117704487187,
        56.26805467091352
      ],
      [
        36.89675051019361,
        56.96321053875549
      ],
      [
        36.663291037537334,
        57.026172762155305
      ],
      [
        35.570151389099834,
        57.02467490424616
      ],
      [
        32.73567873284958,
        57.10397790587186
      ],
      [
        32.0819922094121,
        57.187585052765954
      ],
      [
        31.44753176019319,
        57.44911765551282
      ],
      [
        29.70619875238063,
        58.42485771115237
      ],
      [
        28.338400900818176,
        59.56149452874194
      ],
      [
        27.99233156488063,
        59.81975287551431
      ],
      [
        27.333151877380637,
        60.099341288247416
      ],
      [
        27.011801779724426,
        60.11853608587329
      ],
      [
        26.349875510193186,
        60.07601822632437
      ],
      [
        24.971091330505647,
        59.86812676395722
      ],
      [
        23.905417502380683,
        59.696426947096874
      ],
      [
        22.63649660394319,
        59.453995379432044
      ],
      [
        21.400534689880672,
        59.24922055113597
      ],
      [
        20.823752463318172,
        58.322410786501884
      ],
      [
        20.33486086175563,
        57.41801016069708
      ],
      [
        19.834982932068183,
        56.35971778330908
      ],
      [
        19.66478397842773,
        55.90595749809766
      ],
      [
        19.68675663467777,
        55.67693770919655
      ],
      [
        20.07127811905278,
        55.20540696796369
      ],
      [
        20.64806034561528,
        54.9469679123322
      ],
      [
        20.645313763584035,
        54.9153361531803
      ],
      [
        20.57527592178715,
        54.88605452552712
      ]
    ]
  }
}
