<?xml version="1.0" encoding="UTF-8"?>
<gpx xmlns="http://www.topografix.com/GPX/1/1" xmlns:xsi="http://www.w3.org/2001/XMLSchema-instance" xsi:schemaLocation="http://www.topografix.com/GPX/1/1 http://www.topografix.com/GPX/1/1/gpx.xsd" version="1.1" creator="gpx.py -- https://github.com/tkrajina/gpxpy">
  <rte>
    <name>bicycle 1.6 km</name>
    <rtept lat="55.815594" lon="37.323256">
    </rtept>
    <rtept lat="55.815624" lon="37.323176000000004">
    </rtept>
    <rtept lat="55.815512" lon="37.323041">
    </rtept>
    <rtept lat="55.815187" lon="37.322632000000006">
    </rtept>
    <rtept lat="55.814884" lon="37.322239">
    </rtept>
    <rtept lat="55.814845999999996" lon="37.322172">
    </rtept>
    <rtept lat="55.814749" lon="37.322038">
    </rtept>
    <rtept lat="55.814572999999996" lon="37.321847">
    </rtept>
    <rtept lat="55.814423" lon="37.321683">
    </rtept>
    <rtept lat="55.814161999999996" lon="37.321374">
    </rtept>
    <rtept lat="55.81406199999999" lon="37.321256">
    </rtept>
    <rtept lat="55.81401499999999" lon="37.321188">
    </rtept>
    <rtept lat="55.81393099999999" lon="37.321067">
    </rtept>
    <rtept lat="55.81390899999999" lon="37.321011999999996">
    </rtept>
    <rtept lat="55.81389199999999" lon="37.320797">
    </rtept>
    <rtept lat="55.813875999999986" lon="37.320736">
    </rtept>
    <rtept lat="55.81384899999998" lon="37.320705999999994">
    </rtept>
    <rtept lat="55.81381599999998" lon="37.32069599999999">
    </rtept>
    <rtept lat="55.81372899999998" lon="37.32069699999999">
    </rtept>
    <rtept lat="55.81368999999998" lon="37.32069699999999">
    </rtept>
    <rtept lat="55.81366999999998" lon="37.32068899999999">
    </rtept>
    <rtept lat="55.81363599999998" lon="37.32065999999999">
    </rtept>
    <rtept lat="55.81359499999998" lon="37.320618999999986">
    </rtept>
    <rtept lat="55.813547999999976" lon="37.32054499999999">
    </rtept>
    <rtept lat="55.813395999999976" lon="37.32036399999999">
    </rtept>
    <rtept lat="55.813350999999976" lon="37.32042299999999">
    </rtept>
    <rtept lat="55.81319999999997" lon="37.32023199999999">
    </rtept>
    <rtept lat="55.81323499999997" lon="37.32019999999999">
    </rtept>
    <rtept lat="55.81321199999997" lon="37.320148999999994">
    </rtept>
    <rtept lat="55.81315599999997" lon="37.320069">
    </rtept>
    <rtept lat="55.81273599999997" lon="37.319551">
    </rtept>
    <rtept lat="55.81247999999997" lon="37.319230999999995">
    </rtept>
    <rtept lat="55.812470999999974" lon="37.319188999999994">
    </rtept>
    <rtept lat="55.81247999999997" lon="37.319230999999995">
    </rtept>
    <rtept lat="55.812320999999976" lon="37.31903499999999">
    </rtept>
    <rtept lat="55.812295999999975" lon="37.31899299999999">
    </rtept>
    <rtept lat="55.81226999999998" lon="37.31893899999999">
    </rtept>
    <rtept lat="55.812247999999975" lon="37.318878999999995">
    </rtept>
    <rtept lat="55.812227999999976" lon="37.31881799999999">
    </rtept>
    <rtept lat="55.81220499999998" lon="37.31871699999999">
    </rtept>
    <rtept lat="55.812177999999975" lon="37.31854299999999">
    </rtept>
    <rtept lat="55.81199099999998" lon="37.31717799999999">
    </rtept>
    <rtept lat="55.81195099999998" lon="37.31692399999999">
    </rtept>
    <rtept lat="55.81191699999998" lon="37.31678699999999">
    </rtept>
    <rtept lat="55.81189599999998" lon="37.31663199999999">
    </rtept>
    <rtept lat="55.81189299999998" lon="37.31652999999999">
    </rtept>
    <rtept lat="55.81173299999998" lon="37.31531799999999">
    </rtept>
    <rtept lat="55.811725999999986" lon="37.31524099999999">
    </rtept>
    <rtept lat="55.81171999999999" lon="37.31510699999999">
    </rtept>
    <rtept lat="55.81172499999999" lon="37.314919999999994">
    </rtept>
    <rtept lat="55.81173799999999" lon="37.31472399999999">
    </rtept>
    <rtept lat="55.81177099999999" lon="37.31433299999999">
    </rtept>
    <rtept lat="55.81179699999999" lon="37.31403499999999">
    </rtept>
    <rtept lat="55.811823999999994" lon="37.31374099999999">
    </rtept>
    <rtept lat="55.811848" lon="37.313483999999995">
    </rtept>
    <rtept lat="55.811853" lon="37.31341499999999">
    </rtept>
    <rtept lat="55.81191" lon="37.313430999999994">
    </rtept>
    <rtept lat="55.811958999999995" lon="37.313441999999995">
    </rtept>
    <rtept lat="55.811964999999994" lon="37.313342999999996">
    </rtept>
    <rtept lat="55.811992999999994" lon="37.312461">
    </rtept>
    <rtept lat="55.81201299999999" lon="37.312025">
    </rtept>
    <rtept lat="55.812020999999994" lon="37.311997999999996">
    </rtept>
    <rtept lat="55.812037999999994" lon="37.311969">
    </rtept>
    <rtept lat="55.812048" lon="37.311871">
    </rtept>
    <rtept lat="55.812101" lon="37.311195">
    </rtept>
    <rtept lat="55.812113" lon="37.31108">
    </rtept>
    <rtept lat="55.812141" lon="37.310863999999995">
    </rtept>
    <rtept lat="55.812166" lon="37.310652">
    </rtept>
    <rtept lat="55.812199" lon="37.310401999999996">
    </rtept>
    <rtept lat="55.812205" lon="37.31036099999999">
    </rtept>
    <rtept lat="55.812211999999995" lon="37.310325999999996">
    </rtept>
    <rtept lat="55.812366" lon="37.30969699999999">
    </rtept>
    <rtept lat="55.81241" lon="37.309515999999995">
    </rtept>
    <rtept lat="55.812768" lon="37.30848399999999">
    </rtept>
    <rtept lat="55.812867" lon="37.308254999999996">
    </rtept>
    <rtept lat="55.812920999999996" lon="37.308144999999996">
    </rtept>
    <rtept lat="55.81294" lon="37.308105999999995">
    </rtept>
    <rtept lat="55.812957999999995" lon="37.308105">
    </rtept>
    <rtept lat="55.812965999999996" lon="37.308001">
    </rtept>
    <rtept lat="55.812988" lon="37.307952">
    </rtept>
    <rtept lat="55.812999" lon="37.307929">
    </rtept>
    <rtept lat="55.812971" lon="37.307888">
    </rtept>
    <rtept lat="55.812931" lon="37.307825">
    </rtept>
    <rtept lat="55.813285" lon="37.307103">
    </rtept>
    <rtept lat="55.813383" lon="37.306905">
    </rtept>
    <rtept lat="55.813435" lon="37.3068">
    </rtept>
    <rtept lat="55.813472" lon="37.306726000000005">
    </rtept>
    <rtept lat="55.813544" lon="37.306583">
    </rtept>
    <rtept lat="55.813562" lon="37.30654800000001">
    </rtept>
    <rtept lat="55.813708999999996" lon="37.306250000000006">
    </rtept>
    <rtept lat="55.813917" lon="37.30582400000001">
    </rtept>
    <rtept lat="55.814006" lon="37.305642000000006">
    </rtept>
    <rtept lat="55.814045" lon="37.30556200000001">
    </rtept>
    <rtept lat="55.8141" lon="37.30545000000001">
    </rtept>
    <rtept lat="55.814222" lon="37.30519900000001">
    </rtept>
    <rtept lat="55.814228" lon="37.30518300000001">
    </rtept>
    <rtept lat="55.814228" lon="37.305175000000006">
    </rtept>
    <rtept lat="55.814228" lon="37.305167000000004">
    </rtept>
    <rtept lat="55.814221" lon="37.305154">
    </rtept>
    <rtept lat="55.814015000000005" lon="37.304826">
    </rtept>
    <rtept lat="55.81405" lon="37.304758">
    </rtept>
    <rtept lat="55.814043000000005" lon="37.304748">
    </rtept>
    <rtept lat="55.814029000000005" lon="37.304725">
    </rtept>
    <rtept lat="55.813984000000005" lon="37.304812">
    </rtept>
    <rtept lat="55.813908000000005" lon="37.304677">
    </rtept>
    <rtept lat="55.813895" lon="37.304655">
    </rtept>
    <rtept lat="55.813841000000004" lon="37.304758">
    </rtept>
    <rtept lat="55.813827" lon="37.304735">
    </rtept>
    <rtept lat="55.813900000000004" lon="37.304594">
    </rtept>
    <rtept lat="55.813914000000004" lon="37.304527">
    </rtept>
    <rtept lat="55.813934" lon="37.304486">
    </rtept>
    <rtept lat="55.813964000000006" lon="37.304429">
    </rtept>
    <rtept lat="55.81400000000001" lon="37.304362">
    </rtept>
    <rtept lat="55.81400500000001" lon="37.304355">
    </rtept>
    <rtept lat="55.814012000000005" lon="37.304351000000004">
    </rtept>
    <rtept lat="55.814020000000006" lon="37.304353000000006">
    </rtept>
    <rtept lat="55.814024" lon="37.304359000000005">
    </rtept>
    <rtept lat="55.814040000000006" lon="37.304384000000006">
    </rtept>
    <rtept lat="55.814147000000006" lon="37.30417500000001">
    </rtept>
    <rtept lat="55.814144000000006" lon="37.304170000000006">
    </rtept>
  </rte>
</gpx>