<?xml version="1.0" encoding="UTF-8"?>
<gpx xmlns="http://www.topografix.com/GPX/1/1" xmlns:xsi="http://www.w3.org/2001/XMLSchema-instance" xsi:schemaLocation="http://www.topografix.com/GPX/1/1 http://www.topografix.com/GPX/1/1/gpx.xsd" version="1.1" creator="gpx.py -- https://github.com/tkrajina/gpxpy">
  <rte>
    <name>bicycle 1.5 km</name>
    <rtept lat="55.81443" lon="37.30418">
    </rtept>
    <rtept lat="55.814442" lon="37.304198">
    </rtept>
    <rtept lat="55.814347" lon="37.304391">
    </rtept>
    <rtept lat="55.814206999999996" lon="37.304675">
    </rtept>
    <rtept lat="55.814136" lon="37.304816">
    </rtept>
    <rtept lat="55.814125999999995" lon="37.304855">
    </rtept>
    <rtept lat="55.814128" lon="37.30489600000001">
    </rtept>
    <rtept lat="55.814142" lon="37.304931">
    </rtept>
    <rtept lat="55.814313" lon="37.305177">
    </rtept>
    <rtept lat="55.814265999999996" lon="37.305273">
    </rtept>
    <rtept lat="55.81419699999999" lon="37.305414999999996">
    </rtept>
    <rtept lat="55.814142999999994" lon="37.305521">
    </rtept>
    <rtept lat="55.814086999999994" lon="37.305631999999996">
    </rtept>
    <rtept lat="55.81382299999999" lon="37.306149">
    </rtept>
    <rtept lat="55.813745999999995" lon="37.306307">
    </rtept>
    <rtept lat="55.813596999999994" lon="37.306602999999996">
    </rtept>
    <rtept lat="55.81356999999999" lon="37.306656999999994">
    </rtept>
    <rtept lat="55.813565999999994" lon="37.306650999999995">
    </rtept>
    <rtept lat="55.81356999999999" lon="37.306656999999994">
    </rtept>
    <rtept lat="55.81354499999999" lon="37.306704999999994">
    </rtept>
    <rtept lat="55.81349099999999" lon="37.306816999999995">
    </rtept>
    <rtept lat="55.81341799999999" lon="37.30696699999999">
    </rtept>
    <rtept lat="55.813447999999994" lon="37.30701499999999">
    </rtept>
    <rtept lat="55.813477999999996" lon="37.307061999999995">
    </rtept>
    <rtept lat="55.813314" lon="37.307410999999995">
    </rtept>
    <rtept lat="55.813269999999996" lon="37.30745699999999">
    </rtept>
    <rtept lat="55.813204999999996" lon="37.30752299999999">
    </rtept>
    <rtept lat="55.812999" lon="37.30792899999999">
    </rtept>
    <rtept lat="55.812988" lon="37.307951999999986">
    </rtept>
    <rtept lat="55.812965999999996" lon="37.30800099999998">
    </rtept>
    <rtept lat="55.812957999999995" lon="37.30810499999998">
    </rtept>
    <rtept lat="55.81294" lon="37.30810599999998">
    </rtept>
    <rtept lat="55.812920999999996" lon="37.30814499999998">
    </rtept>
    <rtept lat="55.812867" lon="37.30825499999998">
    </rtept>
    <rtept lat="55.812768" lon="37.30848399999998">
    </rtept>
    <rtept lat="55.81241" lon="37.30951599999998">
    </rtept>
    <rtept lat="55.812366" lon="37.30969699999998">
    </rtept>
    <rtept lat="55.812211999999995" lon="37.31032599999998">
    </rtept>
    <rtept lat="55.812205" lon="37.31036099999998">
    </rtept>
    <rtept lat="55.812199" lon="37.31040199999998">
    </rtept>
    <rtept lat="55.812166" lon="37.31065199999998">
    </rtept>
    <rtept lat="55.812141" lon="37.31086399999998">
    </rtept>
    <rtept lat="55.812113" lon="37.31107999999998">
    </rtept>
    <rtept lat="55.812101" lon="37.311194999999984">
    </rtept>
    <rtept lat="55.812048" lon="37.31187099999998">
    </rtept>
    <rtept lat="55.812037999999994" lon="37.31196899999998">
    </rtept>
    <rtept lat="55.812020999999994" lon="37.31199799999998">
    </rtept>
    <rtept lat="55.81201299999999" lon="37.312024999999984">
    </rtept>
    <rtept lat="55.811992999999994" lon="37.312460999999985">
    </rtept>
    <rtept lat="55.811964999999994" lon="37.31334299999998">
    </rtept>
    <rtept lat="55.811958999999995" lon="37.31344199999998">
    </rtept>
    <rtept lat="55.81191" lon="37.31343099999998">
    </rtept>
    <rtept lat="55.811853" lon="37.31341499999998">
    </rtept>
    <rtept lat="55.811848" lon="37.31348399999998">
    </rtept>
    <rtept lat="55.811823999999994" lon="37.31374099999998">
    </rtept>
    <rtept lat="55.81179699999999" lon="37.314034999999976">
    </rtept>
    <rtept lat="55.81177099999999" lon="37.314332999999976">
    </rtept>
    <rtept lat="55.81173799999999" lon="37.31472399999998">
    </rtept>
    <rtept lat="55.81172499999999" lon="37.31491999999998">
    </rtept>
    <rtept lat="55.81171999999999" lon="37.315106999999976">
    </rtept>
    <rtept lat="55.811725999999986" lon="37.31524099999998">
    </rtept>
    <rtept lat="55.81173299999998" lon="37.31531799999998">
    </rtept>
    <rtept lat="55.81189299999998" lon="37.31652999999998">
    </rtept>
    <rtept lat="55.81189599999998" lon="37.31663199999998">
    </rtept>
    <rtept lat="55.81191699999998" lon="37.31678699999998">
    </rtept>
    <rtept lat="55.81195099999998" lon="37.31692399999998">
    </rtept>
    <rtept lat="55.81199099999998" lon="37.31717799999998">
    </rtept>
    <rtept lat="55.812177999999975" lon="37.31854299999998">
    </rtept>
    <rtept lat="55.81220499999998" lon="37.31871699999998">
    </rtept>
    <rtept lat="55.812227999999976" lon="37.31881799999998">
    </rtept>
    <rtept lat="55.812247999999975" lon="37.31887899999998">
    </rtept>
    <rtept lat="55.81226999999998" lon="37.31893899999998">
    </rtept>
    <rtept lat="55.812295999999975" lon="37.31899299999998">
    </rtept>
    <rtept lat="55.812320999999976" lon="37.31903499999998">
    </rtept>
    <rtept lat="55.81246299999997" lon="37.31920999999998">
    </rtept>
    <rtept lat="55.812470999999974" lon="37.31918899999998">
    </rtept>
    <rtept lat="55.81246299999997" lon="37.31920999999998">
    </rtept>
    <rtept lat="55.81247999999997" lon="37.319230999999974">
    </rtept>
    <rtept lat="55.81273599999997" lon="37.319550999999976">
    </rtept>
    <rtept lat="55.81315599999997" lon="37.320068999999975">
    </rtept>
    <rtept lat="55.81321199999997" lon="37.32014899999997">
    </rtept>
    <rtept lat="55.81323499999997" lon="37.32019999999997">
    </rtept>
    <rtept lat="55.81319999999997" lon="37.32023199999997">
    </rtept>
    <rtept lat="55.813350999999976" lon="37.32042299999997">
    </rtept>
    <rtept lat="55.813395999999976" lon="37.32036399999997">
    </rtept>
    <rtept lat="55.813547999999976" lon="37.32054499999997">
    </rtept>
    <rtept lat="55.81359499999998" lon="37.320618999999965">
    </rtept>
    <rtept lat="55.81363599999998" lon="37.32065999999997">
    </rtept>
    <rtept lat="55.81366999999998" lon="37.320688999999966">
    </rtept>
    <rtept lat="55.81368999999998" lon="37.32069699999997">
    </rtept>
    <rtept lat="55.81372899999998" lon="37.32069699999997">
    </rtept>
    <rtept lat="55.81381599999998" lon="37.32069599999997">
    </rtept>
    <rtept lat="55.81384899999998" lon="37.32070599999997">
    </rtept>
    <rtept lat="55.813875999999986" lon="37.320735999999975">
    </rtept>
    <rtept lat="55.81389199999999" lon="37.32079699999998">
    </rtept>
    <rtept lat="55.81390899999999" lon="37.321011999999975">
    </rtept>
    <rtept lat="55.81393099999999" lon="37.32106699999998">
    </rtept>
    <rtept lat="55.81401499999999" lon="37.32118799999998">
    </rtept>
    <rtept lat="55.81406199999999" lon="37.32125599999998">
    </rtept>
    <rtept lat="55.814161999999996" lon="37.32137399999998">
    </rtept>
    <rtept lat="55.814423" lon="37.32168299999998">
    </rtept>
    <rtept lat="55.814572999999996" lon="37.32184699999998">
    </rtept>
    <rtept lat="55.814749" lon="37.32203799999998">
    </rtept>
    <rtept lat="55.814845999999996" lon="37.32217199999998">
    </rtept>
    <rtept lat="55.814884" lon="37.32223899999998">
    </rtept>
    <rtept lat="55.815187" lon="37.322631999999984">
    </rtept>
    <rtept lat="55.815512" lon="37.32304099999998">
    </rtept>
    <rtept lat="55.815616" lon="37.32316599999998">
    </rtept>
    <rtept lat="55.815612" lon="37.32317499999998">
    </rtept>
  </rte>
</gpx>