<?xml version="1.0" encoding="UTF-8"?>
<gpx version="1.1" creator="Yandex Map Constructor" xmlns="http://www.topografix.com/GPX/1/1"><metadata><name><![CDATA[28 августа 2024]]></name><desc/><time>2026-07-04T14:02:53.270Z</time></metadata><rte><desc><![CDATA[bicycle 33.2 km]]></desc><rtept lon="37.480517" lat="55.743676"/><rtept lon="37.480481" lat="55.743667"/><rtept lon="37.480340999999996" lat="55.74390400000001"/><rtept lon="37.480267999999995" lat="55.74398500000001"/><rtept lon="37.480157999999996" lat="55.744068000000006"/><rtept lon="37.480034999999994" lat="55.744141000000006"/><rtept lon="37.47969799999999" lat="55.744313000000005"/><rtept lon="37.47947899999999" lat="55.74441600000001"/><rtept lon="37.479367999999994" lat="55.74445800000001"/><rtept lon="37.479077999999994" lat="55.74462200000001"/><rtept lon="37.47890999999999" lat="55.74469700000001"/><rtept lon="37.478283999999995" lat="55.74503400000001"/><rtept lon="37.476662" lat="55.74593800000001"/><rtept lon="37.476303" lat="55.74617400000001"/><rtept lon="37.475733" lat="55.74637300000001"/><rtept lon="37.475771" lat="55.74665500000001"/><rtept lon="37.475803" lat="55.746772000000014"/><rtept lon="37.475867" lat="55.74684600000001"/><rtept lon="37.476049" lat="55.74702700000001"/><rtept lon="37.47614" lat="55.74715700000001"/><rtept lon="37.476162" lat="55.74723900000001"/><rtept lon="37.476162" lat="55.747330000000005"/><rtept lon="37.47609" lat="55.747777000000006"/><rtept lon="37.475998" lat="55.747778000000004"/><rtept lon="37.475744999999996" lat="55.747812"/><rtept lon="37.475153999999996" lat="55.747778000000004"/><rtept lon="37.47465699999999" lat="55.747336000000004"/><rtept lon="37.474644999999995" lat="55.74731500000001"/><rtept lon="37.474223" lat="55.74722200000001"/><rtept lon="37.474189" lat="55.74719000000001"/><rtept lon="37.47420100000001" lat="55.74713400000001"/><rtept lon="37.47414300000001" lat="55.74708700000001"/><rtept lon="37.473796000000014" lat="55.746950000000005"/><rtept lon="37.47352100000001" lat="55.746885000000006"/><rtept lon="37.473371000000014" lat="55.74687900000001"/><rtept lon="37.47228000000002" lat="55.746027000000005"/><rtept lon="37.46943200000002" lat="55.744441"/><rtept lon="37.46673000000002" lat="55.743111"/><rtept lon="37.46627700000002" lat="55.742889"/><rtept lon="37.46451800000002" lat="55.74211"/><rtept lon="37.46431400000002" lat="55.742034999999994"/><rtept lon="37.46385900000002" lat="55.74188999999999"/><rtept lon="37.46361700000002" lat="55.741823999999994"/><rtept lon="37.461944000000024" lat="55.741401999999994"/><rtept lon="37.45957000000002" lat="55.74080499999999"/><rtept lon="37.45895300000002" lat="55.740706999999986"/><rtept lon="37.45883600000002" lat="55.740720999999986"/><rtept lon="37.45822900000002" lat="55.740594999999985"/><rtept lon="37.45787400000002" lat="55.740524999999984"/><rtept lon="37.45741500000002" lat="55.74044199999999"/><rtept lon="37.45678400000002" lat="55.74035199999999"/><rtept lon="37.45570200000002" lat="55.74024499999998"/><rtept lon="37.45541700000001" lat="55.74008599999998"/><rtept lon="37.45503100000001" lat="55.74006499999998"/><rtept lon="37.45411400000001" lat="55.74002899999998"/><rtept lon="37.45354800000001" lat="55.74002399999998"/><rtept lon="37.45279900000001" lat="55.74003799999998"/><rtept lon="37.452630000000006" lat="55.740015999999976"/><rtept lon="37.45200400000001" lat="55.74001999999997"/><rtept lon="37.45185700000001" lat="55.74002699999997"/><rtept lon="37.45103300000001" lat="55.740106999999966"/><rtept lon="37.450786000000015" lat="55.740143999999965"/><rtept lon="37.449283000000015" lat="55.74053099999997"/><rtept lon="37.447845000000015" lat="55.74090599999997"/><rtept lon="37.44768900000002" lat="55.740948999999965"/><rtept lon="37.44734800000002" lat="55.74100999999997"/><rtept lon="37.44673900000002" lat="55.74104899999997"/><rtept lon="37.44650200000002" lat="55.74108199999997"/><rtept lon="37.44614400000002" lat="55.74117999999997"/><rtept lon="37.44571800000002" lat="55.74132099999997"/><rtept lon="37.44558700000002" lat="55.74135599999997"/><rtept lon="37.445267000000015" lat="55.741401999999965"/><rtept lon="37.44488600000001" lat="55.741480999999965"/><rtept lon="37.44376800000001" lat="55.74198399999997"/><rtept lon="37.44359200000001" lat="55.74205999999997"/><rtept lon="37.44317800000001" lat="55.74229899999997"/><rtept lon="37.441651000000014" lat="55.74305299999997"/><rtept lon="37.44110400000002" lat="55.74332899999997"/><rtept lon="37.43982000000002" lat="55.74412199999997"/><rtept lon="37.439582000000016" lat="55.74418699999997"/><rtept lon="37.43942100000002" lat="55.74425999999997"/><rtept lon="37.43937000000002" lat="55.74431799999997"/><rtept lon="37.43931900000002" lat="55.74443899999997"/><rtept lon="37.43874300000002" lat="55.74480999999997"/><rtept lon="37.438687000000016" lat="55.744819999999976"/><rtept lon="37.438569000000015" lat="55.74480799999998"/><rtept lon="37.438476000000016" lat="55.74482399999998"/><rtept lon="37.438411000000016" lat="55.74486299999998"/><rtept lon="37.43838200000002" lat="55.74490799999998"/><rtept lon="37.43842000000002" lat="55.744996999999984"/><rtept lon="37.43837300000002" lat="55.74502599999998"/><rtept lon="37.43712600000002" lat="55.74572699999998"/><rtept lon="37.436660000000025" lat="55.74598499999998"/><rtept lon="37.43650400000003" lat="55.74607499999998"/><rtept lon="37.43624200000003" lat="55.746248999999985"/><rtept lon="37.43610100000003" lat="55.746355999999984"/><rtept lon="37.43600500000003" lat="55.74656199999998"/><rtept lon="37.43556300000003" lat="55.74686299999999"/><rtept lon="37.43529100000003" lat="55.74707299999999"/><rtept lon="37.435199000000026" lat="55.747156999999994"/><rtept lon="37.435098000000025" lat="55.747274"/><rtept lon="37.435058000000026" lat="55.747338"/><rtept lon="37.43500100000003" lat="55.747476"/><rtept lon="37.43497900000003" lat="55.747626999999994"/><rtept lon="37.43498400000003" lat="55.747724999999996"/><rtept lon="37.43501500000003" lat="55.747918"/><rtept lon="37.43515500000003" lat="55.748336"/><rtept lon="37.43536100000003" lat="55.74888"/><rtept lon="37.43539200000003" lat="55.748898000000004"/><rtept lon="37.43544900000003" lat="55.74904300000001"/><rtept lon="37.435548000000026" lat="55.749252000000006"/><rtept lon="37.43585900000003" lat="55.74963100000001"/><rtept lon="37.43622500000003" lat="55.749885000000006"/><rtept lon="37.436542000000024" lat="55.750085000000006"/><rtept lon="37.43706100000002" lat="55.750373"/><rtept lon="37.43778000000002" lat="55.75070300000001"/><rtept lon="37.438791000000016" lat="55.75133000000001"/><rtept lon="37.438989000000014" lat="55.75143700000001"/><rtept lon="37.439002000000016" lat="55.75150100000001"/><rtept lon="37.438665000000015" lat="55.75138700000001"/><rtept lon="37.438431000000016" lat="55.75130200000001"/><rtept lon="37.43814500000001" lat="55.75119000000001"/><rtept lon="37.43749500000001" lat="55.75091600000001"/><rtept lon="37.43712400000001" lat="55.75075300000001"/><rtept lon="37.436985000000014" lat="55.75068700000001"/><rtept lon="37.436714000000016" lat="55.75054400000001"/><rtept lon="37.436427000000016" lat="55.75036800000001"/><rtept lon="37.43617800000002" lat="55.75020300000001"/><rtept lon="37.43595300000002" lat="55.750045000000014"/><rtept lon="37.435977000000015" lat="55.75003400000002"/><rtept lon="37.435693000000015" lat="55.74978400000002"/><rtept lon="37.435564000000014" lat="55.74964400000002"/><rtept lon="37.435352000000016" lat="55.749380000000016"/><rtept lon="37.43528500000002" lat="55.749307000000016"/><rtept lon="37.43512900000002" lat="55.749225000000024"/><rtept lon="37.43495700000001" lat="55.749191000000025"/><rtept lon="37.43483000000001" lat="55.74919300000003"/><rtept lon="37.43464200000001" lat="55.74922100000003"/><rtept lon="37.43332700000001" lat="55.74947900000003"/><rtept lon="37.432594000000016" lat="55.74963400000003"/><rtept lon="37.432214000000016" lat="55.74970400000002"/><rtept lon="37.43194000000002" lat="55.74973900000003"/><rtept lon="37.43173500000002" lat="55.74974900000002"/><rtept lon="37.43144800000002" lat="55.749742000000026"/><rtept lon="37.43122300000002" lat="55.74972700000003"/><rtept lon="37.430849000000016" lat="55.74966000000003"/><rtept lon="37.43025500000002" lat="55.749483000000026"/><rtept lon="37.429870000000015" lat="55.74934600000003"/><rtept lon="37.42967500000002" lat="55.74925100000004"/><rtept lon="37.42939000000002" lat="55.749097000000035"/><rtept lon="37.42820000000002" lat="55.74838300000003"/><rtept lon="37.42714800000002" lat="55.74773700000003"/><rtept lon="37.42668600000002" lat="55.74741900000003"/><rtept lon="37.42626900000002" lat="55.747136000000026"/><rtept lon="37.42581200000002" lat="55.74685900000003"/><rtept lon="37.42539400000002" lat="55.74663700000003"/><rtept lon="37.425027000000014" lat="55.746430000000025"/><rtept lon="37.424940000000014" lat="55.74636400000003"/><rtept lon="37.424720000000015" lat="55.74617100000003"/><rtept lon="37.42423200000002" lat="55.74566500000003"/><rtept lon="37.42409900000002" lat="55.74556700000003"/><rtept lon="37.42358000000002" lat="55.745225000000026"/><rtept lon="37.42349700000002" lat="55.745161000000024"/><rtept lon="37.423513000000014" lat="55.74510900000003"/><rtept lon="37.42342900000001" lat="55.74505000000003"/><rtept lon="37.423411000000016" lat="55.74496000000003"/><rtept lon="37.42336000000002" lat="55.74492500000003"/><rtept lon="37.42353900000001" lat="55.744836000000035"/><rtept lon="37.423724000000014" lat="55.744763000000034"/><rtept lon="37.42386400000001" lat="55.744735000000034"/><rtept lon="37.42412100000001" lat="55.74466700000003"/><rtept lon="37.424266" lat="55.74459400000002"/><rtept lon="37.424525" lat="55.74452300000002"/><rtept lon="37.424731" lat="55.744457000000025"/><rtept lon="37.424966" lat="55.744373000000024"/><rtept lon="37.425201" lat="55.744255000000024"/><rtept lon="37.425357" lat="55.744190000000025"/><rtept lon="37.425681999999995" lat="55.74403100000003"/><rtept lon="37.425870999999994" lat="55.74392100000002"/><rtept lon="37.42608599999999" lat="55.74377200000002"/><rtept lon="37.42637799999999" lat="55.74358700000002"/><rtept lon="37.426441999999994" lat="55.74362600000002"/><rtept lon="37.427018" lat="55.74334900000002"/><rtept lon="37.4286" lat="55.742575000000016"/><rtept lon="37.428707" lat="55.742651000000016"/><rtept lon="37.428906000000005" lat="55.74254400000001"/><rtept lon="37.428955" lat="55.74257600000001"/><rtept lon="37.428834" lat="55.74261500000001"/><rtept lon="37.42849100000001" lat="55.742379"/><rtept lon="37.428346000000005" lat="55.742290000000004"/><rtept lon="37.42808" lat="55.742111"/><rtept lon="37.426982" lat="55.74138500000001"/><rtept lon="37.42688" lat="55.74132000000001"/><rtept lon="37.426959999999994" lat="55.74127300000001"/><rtept lon="37.427004999999994" lat="55.74130400000001"/><rtept lon="37.42690499999999" lat="55.74135400000001"/><rtept lon="37.42696399999999" lat="55.74139300000001"/><rtept lon="37.42717499999999" lat="55.74129200000001"/><rtept lon="37.426833999999985" lat="55.74108900000001"/><rtept lon="37.42659299999998" lat="55.74110200000001"/><rtept lon="37.426296999999984" lat="55.74111100000001"/><rtept lon="37.42595099999998" lat="55.741149000000014"/><rtept lon="37.42542099999997" lat="55.74079600000002"/><rtept lon="37.425284999999974" lat="55.74078500000002"/><rtept lon="37.42505899999997" lat="55.74075000000002"/><rtept lon="37.42502299999997" lat="55.74073600000002"/><rtept lon="37.424570999999965" lat="55.74044600000003"/><rtept lon="37.424328999999965" lat="55.740396000000025"/><rtept lon="37.423143999999965" lat="55.74097200000002"/><rtept lon="37.422282999999965" lat="55.741387000000024"/><rtept lon="37.42221099999996" lat="55.741246000000025"/><rtept lon="37.42214599999996" lat="55.74114400000003"/><rtept lon="37.42203599999996" lat="55.741029000000026"/><rtept lon="37.421854999999965" lat="55.74090200000003"/><rtept lon="37.42163499999997" lat="55.74080000000003"/><rtept lon="37.42152399999996" lat="55.740784000000026"/><rtept lon="37.421328999999965" lat="55.740776000000025"/><rtept lon="37.42082599999996" lat="55.740773000000026"/><rtept lon="37.42044999999996" lat="55.74093300000003"/><rtept lon="37.42014499999996" lat="55.74107100000003"/><rtept lon="37.42006599999996" lat="55.741024000000024"/><rtept lon="37.41982999999996" lat="55.74113700000002"/><rtept lon="37.419321999999966" lat="55.74138800000002"/><rtept lon="37.418972999999966" lat="55.74155200000002"/><rtept lon="37.41878599999997" lat="55.74163400000002"/><rtept lon="37.41826199999996" lat="55.74166400000002"/><rtept lon="37.417844999999964" lat="55.74168000000002"/><rtept lon="37.41752599999997" lat="55.74147600000002"/><rtept lon="37.41709299999997" lat="55.741694000000024"/><rtept lon="37.416933999999976" lat="55.741637000000026"/><rtept lon="37.416697999999975" lat="55.741615000000024"/><rtept lon="37.41643699999997" lat="55.74160700000002"/><rtept lon="37.416244999999975" lat="55.74161600000002"/><rtept lon="37.416041999999976" lat="55.74169900000002"/><rtept lon="37.41547999999998" lat="55.74194800000002"/><rtept lon="37.41438699999998" lat="55.74246100000002"/><rtept lon="37.414280999999974" lat="55.74238300000002"/><rtept lon="37.413859999999985" lat="55.74211300000002"/><rtept lon="37.413738999999985" lat="55.74210000000002"/><rtept lon="37.41368199999999" lat="55.742119000000024"/><rtept lon="37.41332599999999" lat="55.742299000000024"/><rtept lon="37.41287699999999" lat="55.74224100000002"/><rtept lon="37.412792999999986" lat="55.74217600000002"/><rtept lon="37.41242599999998" lat="55.741922000000024"/><rtept lon="37.41217099999998" lat="55.741758000000026"/><rtept lon="37.41107199999998" lat="55.74102500000003"/><rtept lon="37.40994599999998" lat="55.740308000000034"/><rtept lon="37.409397999999975" lat="55.74057400000004"/><rtept lon="37.40931199999997" lat="55.74051400000004"/><rtept lon="37.409144999999974" lat="55.74059000000004"/><rtept lon="37.408316999999975" lat="55.74097700000004"/><rtept lon="37.40821999999998" lat="55.74100100000005"/><rtept lon="37.40769499999998" lat="55.74125700000005"/><rtept lon="37.40704499999998" lat="55.741582000000044"/><rtept lon="37.40688699999998" lat="55.741658000000044"/><rtept lon="37.40551099999998" lat="55.74233400000004"/><rtept lon="37.40513499999998" lat="55.74251400000004"/><rtept lon="37.40491699999998" lat="55.742378000000045"/><rtept lon="37.403686999999984" lat="55.74296100000004"/><rtept lon="37.403472999999984" lat="55.74306800000004"/><rtept lon="37.40329899999998" lat="55.743147000000036"/><rtept lon="37.40319499999998" lat="55.74307500000003"/><rtept lon="37.40259599999998" lat="55.74305000000003"/><rtept lon="37.40229999999998" lat="55.74302700000003"/><rtept lon="37.40227299999998" lat="55.74303900000003"/><rtept lon="37.40178199999998" lat="55.74271200000003"/><rtept lon="37.40146399999998" lat="55.742514000000035"/><rtept lon="37.401527999999985" lat="55.74248800000004"/><rtept lon="37.401136999999984" lat="55.74222900000004"/><rtept lon="37.40083899999998" lat="55.74206800000004"/><rtept lon="37.40065999999998" lat="55.74215500000004"/><rtept lon="37.40050599999998" lat="55.742055000000036"/><rtept lon="37.40042599999998" lat="55.74203100000004"/><rtept lon="37.400154999999984" lat="55.74188100000004"/><rtept lon="37.39952799999998" lat="55.74185400000004"/><rtept lon="37.39921299999998" lat="55.74199900000004"/><rtept lon="37.39893499999998" lat="55.74180600000004"/><rtept lon="37.39848599999998" lat="55.74180300000004"/><rtept lon="37.397886999999976" lat="55.741827000000036"/><rtept lon="37.39766899999998" lat="55.74168500000004"/><rtept lon="37.39656899999998" lat="55.74092200000004"/><rtept lon="37.39631899999998" lat="55.74073600000004"/><rtept lon="37.39625399999998" lat="55.74069600000004"/><rtept lon="37.39604599999998" lat="55.74078900000004"/><rtept lon="37.39589699999998" lat="55.74082100000004"/><rtept lon="37.394616999999975" lat="55.73997600000004"/><rtept lon="37.39385899999998" lat="55.73947900000004"/><rtept lon="37.39320599999998" lat="55.73970400000004"/><rtept lon="37.39305099999998" lat="55.73974100000004"/><rtept lon="37.391019999999976" lat="55.73993700000004"/><rtept lon="37.388844999999975" lat="55.74003900000004"/><rtept lon="37.388430999999976" lat="55.74008500000004"/><rtept lon="37.386455999999974" lat="55.74031900000004"/><rtept lon="37.386511999999975" lat="55.74092400000004"/><rtept lon="37.386480999999975" lat="55.741126000000044"/><rtept lon="37.38638699999998" lat="55.74135200000004"/><rtept lon="37.38630199999998" lat="55.74157400000004"/><rtept lon="37.386153999999976" lat="55.741759000000044"/><rtept lon="37.38612299999998" lat="55.741981000000045"/><rtept lon="37.38634999999998" lat="55.74234000000005"/><rtept lon="37.38636399999998" lat="55.74245700000005"/><rtept lon="37.38576499999998" lat="55.74247700000005"/><rtept lon="37.38515399999998" lat="55.74242900000005"/><rtept lon="37.38464899999998" lat="55.74237900000005"/><rtept lon="37.38403799999998" lat="55.74242800000005"/><rtept lon="37.383490999999985" lat="55.742581000000044"/><rtept lon="37.38126899999998" lat="55.74379700000004"/><rtept lon="37.37800799999998" lat="55.744886000000044"/><rtept lon="37.37746499999998" lat="55.74518500000004"/><rtept lon="37.37744499999998" lat="55.745204000000044"/><rtept lon="37.37733999999998" lat="55.745392000000045"/><rtept lon="37.377318999999986" lat="55.74541300000004"/><rtept lon="37.37690499999999" lat="55.74562800000004"/><rtept lon="37.376649999999984" lat="55.745741000000045"/><rtept lon="37.376305999999985" lat="55.745778000000044"/><rtept lon="37.37605499999999" lat="55.745817000000045"/><rtept lon="37.374442999999985" lat="55.745879000000045"/><rtept lon="37.37156499999998" lat="55.745893000000045"/><rtept lon="37.37125399999998" lat="55.745826000000044"/><rtept lon="37.37069499999998" lat="55.74559600000004"/><rtept lon="37.37063199999997" lat="55.745538000000046"/><rtept lon="37.37059299999997" lat="55.745440000000045"/><rtept lon="37.37050399999997" lat="55.74539700000005"/><rtept lon="37.37034099999997" lat="55.74538500000005"/><rtept lon="37.370316999999964" lat="55.74545700000005"/><rtept lon="37.37028699999996" lat="55.745470000000054"/><rtept lon="37.37007999999996" lat="55.74544600000005"/><rtept lon="37.36919099999996" lat="55.74535300000005"/><rtept lon="37.36864699999996" lat="55.74536400000005"/><rtept lon="37.36847899999996" lat="55.74538100000005"/><rtept lon="37.36817199999996" lat="55.745515000000054"/><rtept lon="37.36798599999996" lat="55.74565900000005"/><rtept lon="37.36731899999996" lat="55.74589100000005"/><rtept lon="37.36687899999996" lat="55.74601100000005"/><rtept lon="37.36683199999996" lat="55.746016000000054"/><rtept lon="37.36654899999996" lat="55.74599200000005"/><rtept lon="37.36617099999996" lat="55.74611700000005"/><rtept lon="37.36565299999996" lat="55.74612500000005"/><rtept lon="37.365068999999956" lat="55.74608000000005"/><rtept lon="37.36443099999995" lat="55.74602100000005"/><rtept lon="37.36399499999995" lat="55.74598500000005"/><rtept lon="37.363734999999956" lat="55.74599800000005"/><rtept lon="37.36356999999995" lat="55.74604500000005"/><rtept lon="37.363295999999956" lat="55.746069000000055"/><rtept lon="37.36296899999996" lat="55.74605700000006"/><rtept lon="37.362603999999955" lat="55.74601200000006"/><rtept lon="37.36218399999996" lat="55.74595500000006"/><rtept lon="37.36191899999995" lat="55.745927000000066"/><rtept lon="37.36184399999995" lat="55.74593400000006"/><rtept lon="37.36169699999995" lat="55.745970000000064"/><rtept lon="37.36156399999995" lat="55.746045000000066"/><rtept lon="37.36141299999995" lat="55.74614600000007"/><rtept lon="37.36126899999995" lat="55.746209000000064"/><rtept lon="37.36118299999995" lat="55.74623000000006"/><rtept lon="37.361008999999946" lat="55.74624900000006"/><rtept lon="37.36078499999994" lat="55.74625600000006"/><rtept lon="37.360598999999944" lat="55.74622000000006"/><rtept lon="37.36037799999994" lat="55.74615400000006"/><rtept lon="37.36024899999994" lat="55.74610300000006"/><rtept lon="37.36011599999994" lat="55.74606600000006"/><rtept lon="37.35994399999994" lat="55.746060000000064"/><rtept lon="37.35953299999994" lat="55.74612600000006"/><rtept lon="37.35907199999994" lat="55.74615600000006"/><rtept lon="37.35874099999994" lat="55.746197000000066"/><rtept lon="37.35849799999994" lat="55.74625000000007"/><rtept lon="37.35798499999994" lat="55.74630100000007"/><rtept lon="37.35734099999994" lat="55.746321000000066"/><rtept lon="37.356576999999945" lat="55.74636200000007"/><rtept lon="37.356190999999946" lat="55.74636400000007"/><rtept lon="37.35598699999995" lat="55.746374000000074"/><rtept lon="37.35572399999995" lat="55.74642500000007"/><rtept lon="37.35537499999995" lat="55.74646200000007"/><rtept lon="37.35504699999995" lat="55.746431000000065"/><rtept lon="37.35494099999995" lat="55.74649400000006"/><rtept lon="37.354811999999946" lat="55.746670000000066"/><rtept lon="37.35459199999995" lat="55.746802000000066"/><rtept lon="37.354550999999944" lat="55.74681600000007"/><rtept lon="37.354358999999945" lat="55.746839000000065"/><rtept lon="37.35315299999994" lat="55.74707700000007"/><rtept lon="37.35311199999994" lat="55.74707900000007"/><rtept lon="37.35232199999994" lat="55.74699500000007"/><rtept lon="37.35227099999994" lat="55.74645900000007"/><rtept lon="37.35231499999994" lat="55.746272000000076"/><rtept lon="37.35244299999994" lat="55.745909000000076"/><rtept lon="37.35280799999994" lat="55.74552200000007"/><rtept lon="37.35278599999994" lat="55.74531100000007"/><rtept lon="37.35049199999994" lat="55.74546700000007"/><rtept lon="37.35012299999994" lat="55.74548900000007"/><rtept lon="37.34997099999994" lat="55.74551800000007"/><rtept lon="37.34976599999994" lat="55.74558800000007"/><rtept lon="37.349009999999936" lat="55.74572200000007"/><rtept lon="37.34810499999993" lat="55.74587800000007"/><rtept lon="37.34748399999993" lat="55.74598200000007"/><rtept lon="37.34645999999993" lat="55.74608100000007"/><rtept lon="37.34573599999993" lat="55.74610500000007"/><rtept lon="37.34435899999993" lat="55.74609100000007"/><rtept lon="37.34403399999994" lat="55.746056000000074"/><rtept lon="37.34302799999994" lat="55.74600000000007"/><rtept lon="37.34248999999994" lat="55.745943000000075"/><rtept lon="37.34234299999994" lat="55.74597200000007"/><rtept lon="37.34235999999994" lat="55.74610800000007"/><rtept lon="37.34230999999994" lat="55.74640000000007"/><rtept lon="37.34222499999994" lat="55.746540000000074"/><rtept lon="37.34227599999994" lat="55.74676900000007"/><rtept lon="37.34218399999994" lat="55.74696100000007"/><rtept lon="37.34207499999994" lat="55.74709500000007"/><rtept lon="37.341883999999936" lat="55.74715700000007"/><rtept lon="37.341687999999934" lat="55.747249000000075"/><rtept lon="37.341253999999935" lat="55.747558000000076"/><rtept lon="37.341214999999934" lat="55.747570000000074"/><rtept lon="37.34001399999993" lat="55.74771800000007"/><rtept lon="37.33942299999993" lat="55.74775100000007"/><rtept lon="37.33935899999993" lat="55.74772600000007"/><rtept lon="37.33925199999993" lat="55.74772700000007"/><rtept lon="37.33911199999993" lat="55.74762200000007"/><rtept lon="37.33883799999993" lat="55.74743100000007"/><rtept lon="37.338504999999934" lat="55.74718500000007"/><rtept lon="37.33826399999993" lat="55.746928000000075"/><rtept lon="37.338000999999934" lat="55.746686000000075"/><rtept lon="37.337721999999935" lat="55.74634200000008"/><rtept lon="37.33740599999994" lat="55.74591100000008"/><rtept lon="37.33723899999994" lat="55.745597000000075"/><rtept lon="37.337133999999935" lat="55.745268000000074"/><rtept lon="37.33707699999994" lat="55.74521200000007"/><rtept lon="37.33689399999994" lat="55.744716000000075"/><rtept lon="37.33659199999994" lat="55.74392900000007"/><rtept lon="37.33624299999994" lat="55.74312700000007"/><rtept lon="37.33600699999994" lat="55.74324300000007"/><rtept lon="37.335582999999936" lat="55.74338200000007"/><rtept lon="37.335177999999935" lat="55.743529000000066"/><rtept lon="37.334544999999935" lat="55.74372000000007"/><rtept lon="37.334046999999934" lat="55.743873000000065"/><rtept lon="37.333058999999935" lat="55.744168000000066"/><rtept lon="37.33275099999994" lat="55.74422100000007"/><rtept lon="37.332537999999936" lat="55.744219000000065"/><rtept lon="37.332526999999935" lat="55.74430000000007"/><rtept lon="37.332427999999936" lat="55.74436600000006"/><rtept lon="37.331836999999936" lat="55.74462500000006"/><rtept lon="37.331240999999935" lat="55.744877000000066"/><rtept lon="37.33113499999993" lat="55.74493000000007"/><rtept lon="37.33096899999993" lat="55.745032000000066"/><rtept lon="37.33091499999993" lat="55.74508200000007"/><rtept lon="37.33086799999993" lat="55.74518900000007"/><rtept lon="37.330860999999935" lat="55.74524800000007"/><rtept lon="37.330759999999934" lat="55.74533700000007"/><rtept lon="37.33067599999993" lat="55.74538600000007"/><rtept lon="37.33054399999993" lat="55.74544200000007"/><rtept lon="37.33016799999993" lat="55.745578000000066"/><rtept lon="37.33007499999993" lat="55.74561900000007"/><rtept lon="37.32997699999993" lat="55.745716000000066"/><rtept lon="37.32994299999993" lat="55.74586700000007"/><rtept lon="37.32984599999993" lat="55.74598400000007"/><rtept lon="37.32974999999993" lat="55.74604100000007"/><rtept lon="37.329467999999935" lat="55.74616500000007"/><rtept lon="37.32925499999993" lat="55.74622500000007"/><rtept lon="37.32899899999993" lat="55.746262000000065"/><rtept lon="37.32853999999993" lat="55.746274000000064"/><rtept lon="37.32833499999993" lat="55.746290000000066"/><rtept lon="37.32814999999993" lat="55.74628400000007"/><rtept lon="37.327984999999934" lat="55.74623600000007"/><rtept lon="37.32304499999994" lat="55.74634800000006"/><rtept lon="37.320472999999936" lat="55.74640500000006"/><rtept lon="37.32004399999994" lat="55.74642400000006"/><rtept lon="37.31941099999994" lat="55.74641800000006"/><rtept lon="37.318986999999936" lat="55.74646600000006"/><rtept lon="37.318761999999936" lat="55.74646000000006"/><rtept lon="37.318494999999935" lat="55.74646600000006"/><rtept lon="37.31811399999994" lat="55.746499000000064"/><rtept lon="37.31766899999994" lat="55.746454000000064"/><rtept lon="37.31731999999994" lat="55.746487000000066"/><rtept lon="37.31692799999994" lat="55.74648100000007"/><rtept lon="37.31668799999994" lat="55.74642100000007"/><rtept lon="37.31626299999994" lat="55.74642400000007"/><rtept lon="37.31568999999994" lat="55.74641700000007"/><rtept lon="37.31532399999994" lat="55.74638100000007"/><rtept lon="37.31492799999994" lat="55.74638700000007"/><rtept lon="37.314728999999936" lat="55.74641400000007"/><rtept lon="37.31407999999994" lat="55.74657200000007"/><rtept lon="37.31357699999994" lat="55.746627000000075"/><rtept lon="37.31316199999994" lat="55.746618000000076"/><rtept lon="37.312783999999944" lat="55.746619000000074"/><rtept lon="37.311612999999944" lat="55.74660600000007"/><rtept lon="37.31047999999994" lat="55.74656600000007"/><rtept lon="37.30976199999994" lat="55.746506000000075"/><rtept lon="37.309346999999946" lat="55.74653700000007"/><rtept lon="37.309087999999946" lat="55.746538000000065"/><rtept lon="37.30895799999994" lat="55.74645800000006"/><rtept lon="37.308955999999945" lat="55.74641000000006"/><rtept lon="37.30902499999995" lat="55.74630400000006"/><rtept lon="37.30904999999995" lat="55.74620800000006"/><rtept lon="37.308963999999946" lat="55.74613200000006"/><rtept lon="37.30876599999995" lat="55.74605200000006"/><rtept lon="37.30813499999995" lat="55.74577100000006"/><rtept lon="37.30738699999995" lat="55.74520000000006"/><rtept lon="37.30668599999995" lat="55.744633000000064"/><rtept lon="37.305875999999955" lat="55.74404600000007"/><rtept lon="37.30503599999996" lat="55.74345800000007"/><rtept lon="37.30429299999996" lat="55.74290900000007"/><rtept lon="37.30420599999996" lat="55.74283500000007"/><rtept lon="37.304085999999955" lat="55.74276100000007"/><rtept lon="37.30342399999996" lat="55.74245800000007"/><rtept lon="37.30321999999996" lat="55.74234000000007"/><rtept lon="37.30311299999996" lat="55.74226000000007"/><rtept lon="37.30289299999996" lat="55.74200400000007"/><rtept lon="37.301940999999964" lat="55.74136800000007"/><rtept lon="37.301402999999965" lat="55.74115500000007"/><rtept lon="37.301191999999965" lat="55.74106800000007"/><rtept lon="37.301025999999965" lat="55.74098500000007"/><rtept lon="37.30087599999997" lat="55.740889000000074"/><rtept lon="37.30076799999997" lat="55.740754000000074"/><rtept lon="37.300667999999966" lat="55.74073000000007"/><rtept lon="37.30001599999997" lat="55.74049900000007"/><rtept lon="37.29922999999997" lat="55.74019700000007"/><rtept lon="37.298919999999974" lat="55.74012700000008"/><rtept lon="37.29864899999997" lat="55.74009700000008"/><rtept lon="37.29848099999997" lat="55.740061000000075"/><rtept lon="37.297952999999964" lat="55.739845000000074"/><rtept lon="37.297704999999965" lat="55.739721000000074"/><rtept lon="37.29734399999997" lat="55.739555000000074"/><rtept lon="37.29729199999997" lat="55.73953700000008"/><rtept lon="37.29748799999997" lat="55.73947400000008"/><rtept lon="37.29767199999997" lat="55.73943800000008"/><rtept lon="37.297835999999975" lat="55.739436000000076"/><rtept lon="37.29764899999997" lat="55.739298000000076"/><rtept lon="37.29754199999997" lat="55.73915900000007"/><rtept lon="37.29762899999997" lat="55.73900500000007"/><rtept lon="37.298064999999966" lat="55.738201000000075"/><rtept lon="37.29825799999996" lat="55.73822200000007"/><rtept lon="37.29840399999996" lat="55.738218000000074"/><rtept lon="37.298748999999965" lat="55.73819400000007"/><rtept lon="37.29936199999997" lat="55.73814100000007"/><rtept lon="37.299682999999966" lat="55.73812600000007"/><rtept lon="37.30004299999997" lat="55.73810100000007"/><rtept lon="37.30102999999996" lat="55.738011000000064"/><rtept lon="37.30094899999996" lat="55.73766400000006"/><rtept lon="37.30096299999996" lat="55.73761700000006"/><rtept lon="37.30108199999996" lat="55.73746100000006"/><rtept lon="37.30110799999996" lat="55.73744200000006"/><rtept lon="37.30130399999996" lat="55.73737900000006"/><rtept lon="37.30150099999996" lat="55.73727300000006"/><rtept lon="37.30188999999996" lat="55.737004000000056"/><rtept lon="37.30210699999996" lat="55.73682600000006"/><rtept lon="37.30219899999996" lat="55.736664000000054"/><rtept lon="37.30256999999996" lat="55.73645100000005"/><rtept lon="37.30264099999996" lat="55.73635400000005"/><rtept lon="37.30274399999996" lat="55.73627500000005"/><rtept lon="37.302888999999965" lat="55.736200000000046"/><rtept lon="37.303051999999965" lat="55.73605800000005"/><rtept lon="37.303420999999965" lat="55.73587600000005"/><rtept lon="37.303715999999966" lat="55.73577700000005"/><rtept lon="37.30407699999997" lat="55.73561300000005"/><rtept lon="37.30432499999997" lat="55.73552900000006"/><rtept lon="37.304559999999974" lat="55.73545800000006"/><rtept lon="37.30479099999997" lat="55.735372000000055"/><rtept lon="37.304916999999975" lat="55.73535100000006"/><rtept lon="37.305028999999976" lat="55.73531500000006"/><rtept lon="37.30526999999998" lat="55.73528600000006"/><rtept lon="37.30544399999997" lat="55.735316000000054"/><rtept lon="37.30564899999997" lat="55.73541300000006"/><rtept lon="37.30586799999997" lat="55.73557000000007"/><rtept lon="37.30592799999997" lat="55.735587000000066"/><rtept lon="37.30622899999997" lat="55.73560100000007"/><rtept lon="37.306551999999975" lat="55.735503000000065"/><rtept lon="37.306590999999976" lat="55.735497000000066"/><rtept lon="37.306931999999975" lat="55.73549300000007"/><rtept lon="37.30729299999997" lat="55.73537400000007"/><rtept lon="37.30734499999998" lat="55.73536800000007"/><rtept lon="37.30817799999998" lat="55.73544400000007"/><rtept lon="37.308239999999984" lat="55.73547300000008"/><rtept lon="37.308306999999985" lat="55.73557300000008"/><rtept lon="37.308494999999986" lat="55.73550500000008"/><rtept lon="37.30882099999999" lat="55.73547200000008"/><rtept lon="37.30901799999999" lat="55.73549500000008"/><rtept lon="37.30919799999999" lat="55.735555000000076"/><rtept lon="37.309314999999984" lat="55.73557400000008"/><rtept lon="37.30959999999999" lat="55.735530000000075"/><rtept lon="37.30972899999999" lat="55.73550300000007"/><rtept lon="37.309841999999996" lat="55.73542200000008"/><rtept lon="37.310004" lat="55.73532600000007"/><rtept lon="37.310052" lat="55.73526800000007"/><rtept lon="37.310109999999995" lat="55.73513000000007"/><rtept lon="37.310162999999996" lat="55.73507600000007"/><rtept lon="37.310311999999996" lat="55.73500100000007"/><rtept lon="37.310447999999994" lat="55.734920000000066"/><rtept lon="37.310514999999995" lat="55.73483200000007"/><rtept lon="37.310579999999995" lat="55.734718000000065"/><rtept lon="37.310694" lat="55.734611000000065"/><rtept lon="37.3109" lat="55.734501000000066"/><rtept lon="37.311139999999995" lat="55.73444700000007"/><rtept lon="37.311353999999994" lat="55.73433800000007"/><rtept lon="37.31157699999999" lat="55.734148000000076"/><rtept lon="37.311651999999995" lat="55.73405400000008"/><rtept lon="37.311780999999996" lat="55.73398900000008"/><rtept lon="37.311941999999995" lat="55.733971000000075"/><rtept lon="37.312045999999995" lat="55.733923000000075"/><rtept lon="37.312259999999995" lat="55.73371700000008"/><rtept lon="37.312484" lat="55.733631000000074"/><rtept lon="37.312585" lat="55.73355100000007"/><rtept lon="37.312646" lat="55.733459000000074"/><rtept lon="37.312636" lat="55.73337000000007"/><rtept lon="37.312831" lat="55.73294500000007"/><rtept lon="37.312932" lat="55.73269200000007"/><rtept lon="37.312951000000005" lat="55.73258300000007"/><rtept lon="37.312943000000004" lat="55.732469000000066"/><rtept lon="37.31290800000001" lat="55.732351000000065"/><rtept lon="37.31285100000001" lat="55.73222300000007"/><rtept lon="37.31283500000001" lat="55.732117000000066"/><rtept lon="37.312881000000004" lat="55.73201500000007"/><rtept lon="37.313058000000005" lat="55.731805000000065"/><rtept lon="37.313424000000005" lat="55.73147500000007"/><rtept lon="37.31374400000001" lat="55.731470000000066"/><rtept lon="37.31388200000001" lat="55.731462000000064"/><rtept lon="37.31398900000001" lat="55.73143500000006"/><rtept lon="37.314066000000004" lat="55.73139400000006"/><rtept lon="37.314265000000006" lat="55.73120200000006"/><rtept lon="37.314376" lat="55.73112600000006"/><rtept lon="37.314835" lat="55.731079000000065"/><rtept lon="37.31532" lat="55.731034000000065"/><rtept lon="37.315473" lat="55.73100800000007"/><rtept lon="37.315602" lat="55.731000000000066"/><rtept lon="37.31572" lat="55.730969000000066"/><rtept lon="37.315826" lat="55.731071000000064"/><rtept lon="37.316093" lat="55.73112000000006"/><rtept lon="37.316227000000005" lat="55.73112900000006"/><rtept lon="37.316356000000006" lat="55.73118500000006"/><rtept lon="37.316508000000006" lat="55.73135600000006"/><rtept lon="37.316531000000005" lat="55.73142400000006"/><rtept lon="37.316523000000004" lat="55.73150100000006"/><rtept lon="37.316561" lat="55.73156500000006"/><rtept lon="37.316677" lat="55.73161800000006"/><rtept lon="37.316886" lat="55.73166600000006"/><rtept lon="37.317074" lat="55.73171800000006"/><rtept lon="37.31718" lat="55.73179300000005"/><rtept lon="37.317245" lat="55.73199700000005"/><rtept lon="37.317363" lat="55.73210500000005"/><rtept lon="37.317482" lat="55.732263000000046"/><rtept lon="37.317578" lat="55.73235500000005"/><rtept lon="37.31756" lat="55.73244100000005"/><rtept lon="37.317571" lat="55.73251700000005"/><rtept lon="37.317518" lat="55.73262100000005"/><rtept lon="37.317324" lat="55.73272900000005"/><rtept lon="37.317271" lat="55.732806000000046"/><rtept lon="37.317351" lat="55.73287800000005"/><rtept lon="37.317464" lat="55.73302500000005"/><rtept lon="37.317491000000004" lat="55.733133000000045"/><rtept lon="37.317432000000004" lat="55.73319300000004"/><rtept lon="37.31733500000001" lat="55.73323500000004"/><rtept lon="37.317223000000006" lat="55.73325300000004"/><rtept lon="37.31708400000001" lat="55.73329600000004"/><rtept lon="37.316933000000006" lat="55.73332600000004"/><rtept lon="37.316802" lat="55.73330900000004"/><rtept lon="37.316676" lat="55.73332300000004"/><rtept lon="37.31632200000001" lat="55.73340700000004"/><rtept lon="37.315972" lat="55.73343600000004"/><rtept lon="37.315576" lat="55.73350000000004"/><rtept lon="37.315361" lat="55.73350000000004"/><rtept lon="37.315179" lat="55.73347800000004"/><rtept lon="37.315028000000005" lat="55.73342000000004"/><rtept lon="37.315012" lat="55.733272000000035"/><rtept lon="37.313141" lat="55.73333000000004"/><rtept lon="37.312636000000005" lat="55.733370000000036"/><rtept lon="37.31243200000001" lat="55.73339700000004"/><rtept lon="37.31197100000001" lat="55.73343300000003"/><rtept lon="37.311688000000004" lat="55.73347000000003"/><rtept lon="37.31118300000001" lat="55.73349100000003"/><rtept lon="37.310588" lat="55.73349400000003"/><rtept lon="37.310459" lat="55.73347500000003"/><rtept lon="37.310368000000004" lat="55.73344600000003"/><rtept lon="37.310244000000004" lat="55.733433000000026"/><rtept lon="37.30998100000001" lat="55.73342700000003"/><rtept lon="37.30984200000001" lat="55.733433000000026"/><rtept lon="37.30971300000001" lat="55.73342100000003"/><rtept lon="37.30932700000001" lat="55.73340600000003"/><rtept lon="37.309123000000014" lat="55.73342100000003"/><rtept lon="37.30900600000001" lat="55.733442000000025"/><rtept lon="37.30884900000001" lat="55.733448000000024"/><rtept lon="37.30865700000001" lat="55.73340900000002"/><rtept lon="37.308442000000014" lat="55.73330000000002"/><rtept lon="37.308329000000015" lat="55.733172000000025"/><rtept lon="37.30828600000002" lat="55.733028000000026"/><rtept lon="37.308180000000014" lat="55.73279200000003"/><rtept lon="37.308174000000015" lat="55.73269200000003"/><rtept lon="37.308270000000014" lat="55.732589000000026"/><rtept lon="37.30836400000001" lat="55.73253500000003"/><rtept lon="37.30862100000002" lat="55.73226900000003"/><rtept lon="37.30867900000002" lat="55.73223300000003"/><rtept lon="37.30860000000002" lat="55.73217200000003"/><rtept lon="37.308458000000016" lat="55.73212000000003"/><rtept lon="37.30831900000002" lat="55.73204300000003"/><rtept lon="37.30820900000002" lat="55.73205200000003"/><rtept lon="37.30805900000002" lat="55.73213300000003"/><rtept lon="37.307984000000026" lat="55.73214600000003"/><rtept lon="37.307917000000025" lat="55.732133000000026"/><rtept lon="37.30766700000002" lat="55.73202300000003"/><rtept lon="37.30761100000002" lat="55.73201400000003"/><rtept lon="37.307267000000024" lat="55.73203300000003"/><rtept lon="37.306873000000024" lat="55.73204400000003"/><rtept lon="37.306757000000026" lat="55.73203300000003"/><rtept lon="37.30661200000002" lat="55.73199100000003"/><rtept lon="37.305660000000024" lat="55.73243600000003"/><rtept lon="37.30488700000002" lat="55.73286400000003"/><rtept lon="37.303949000000024" lat="55.73336400000002"/><rtept lon="37.303332000000026" lat="55.733690000000024"/><rtept lon="37.302998000000024" lat="55.73387600000002"/><rtept lon="37.301754000000024" lat="55.734579000000025"/><rtept lon="37.301441000000025" lat="55.73474100000003"/><rtept lon="37.30133200000003" lat="55.734821000000025"/><rtept lon="37.29978300000003" lat="55.736234000000024"/><rtept lon="37.299706000000036" lat="55.73631900000002"/><rtept lon="37.29965400000004" lat="55.73640700000002"/><rtept lon="37.299562000000044" lat="55.736639000000025"/><rtept lon="37.299506000000044" lat="55.73671100000003"/><rtept lon="37.29920900000004" lat="55.737002000000025"/><rtept lon="37.29891700000004" lat="55.736887000000024"/><rtept lon="37.298805000000044" lat="55.73684900000002"/><rtept lon="37.298670000000044" lat="55.73686000000002"/><rtept lon="37.298624000000046" lat="55.73687900000002"/><rtept lon="37.29825400000005" lat="55.737191000000024"/><rtept lon="37.29785600000005" lat="55.73706500000002"/><rtept lon="37.297627000000055" lat="55.737008000000024"/><rtept lon="37.29670900000006" lat="55.73685100000002"/><rtept lon="37.296628000000055" lat="55.736847000000026"/><rtept lon="37.29547500000005" lat="55.736906000000026"/><rtept lon="37.295443000000056" lat="55.736904000000024"/><rtept lon="37.294053000000055" lat="55.736647000000026"/><rtept lon="37.29308300000005" lat="55.73661300000003"/><rtept lon="37.292322000000055" lat="55.73658900000002"/><rtept lon="37.291213000000056" lat="55.73675800000002"/><rtept lon="37.29062900000005" lat="55.73687400000002"/><rtept lon="37.29000100000005" lat="55.73688800000002"/><rtept lon="37.289108000000056" lat="55.73726300000002"/><rtept lon="37.28893600000006" lat="55.73724500000002"/><rtept lon="37.28859400000005" lat="55.73724800000002"/><rtept lon="37.28761700000005" lat="55.73722700000002"/><rtept lon="37.28717100000005" lat="55.73718100000002"/><rtept lon="37.286742000000054" lat="55.737118000000024"/><rtept lon="37.28612600000005" lat="55.736999000000026"/><rtept lon="37.28515000000005" lat="55.736828000000024"/><rtept lon="37.28462500000005" lat="55.73677000000002"/><rtept lon="37.28394300000005" lat="55.73663500000002"/><rtept lon="37.283629000000055" lat="55.73686300000002"/><rtept lon="37.28333400000005" lat="55.737028000000024"/><rtept lon="37.28318300000005" lat="55.73712200000002"/><rtept lon="37.282952000000044" lat="55.73731400000002"/><rtept lon="37.28262600000005" lat="55.73744700000002"/><rtept lon="37.28226400000005" lat="55.73727800000002"/><rtept lon="37.282043000000044" lat="55.73723000000002"/><rtept lon="37.280453000000044" lat="55.73715300000002"/><rtept lon="37.277827000000045" lat="55.73704000000002"/><rtept lon="37.275953000000044" lat="55.73700200000002"/><rtept lon="37.275829000000044" lat="55.736975000000015"/><rtept lon="37.274979000000044" lat="55.737017000000016"/><rtept lon="37.274211000000044" lat="55.73707800000002"/><rtept lon="37.272302000000046" lat="55.73729500000002"/><rtept lon="37.26957700000005" lat="55.73768600000002"/><rtept lon="37.26928200000005" lat="55.73773000000002"/><rtept lon="37.269294000000045" lat="55.737914000000025"/><rtept lon="37.26927800000004" lat="55.737996000000024"/><rtept lon="37.269511000000044" lat="55.73802600000002"/><rtept lon="37.268869000000045" lat="55.73880300000002"/><rtept lon="37.26885400000005" lat="55.73884000000002"/><rtept lon="37.268472000000045" lat="55.738753000000024"/><rtept lon="37.26834900000005" lat="55.73883200000002"/><rtept lon="37.26821300000005" lat="55.738854000000025"/><rtept lon="37.26810100000005" lat="55.73907000000003"/><rtept lon="37.26804000000005" lat="55.73922700000003"/><rtept lon="37.26751700000005" lat="55.73915400000003"/><rtept lon="37.26680400000005" lat="55.73904600000003"/><rtept lon="37.265479000000056" lat="55.73885000000003"/><rtept lon="37.26199100000006" lat="55.73833200000003"/><rtept lon="37.25984000000006" lat="55.73805400000003"/><rtept lon="37.25978400000006" lat="55.73802500000003"/><rtept lon="37.25823600000006" lat="55.737734000000025"/><rtept lon="37.25797800000006" lat="55.73770200000003"/><rtept lon="37.257931000000056" lat="55.738139000000025"/><rtept lon="37.257906000000055" lat="55.738747000000025"/><rtept lon="37.25789000000005" lat="55.73926300000002"/><rtept lon="37.25786600000005" lat="55.739825000000025"/><rtept lon="37.25788100000005" lat="55.740078000000025"/><rtept lon="37.257854000000044" lat="55.74035500000002"/><rtept lon="37.257837000000045" lat="55.74069000000002"/><rtept lon="37.25781600000005" lat="55.74096100000002"/><rtept lon="37.257806000000045" lat="55.74160500000002"/><rtept lon="37.25620400000005" lat="55.741559000000024"/><rtept lon="37.25553100000005" lat="55.741544000000026"/><rtept lon="37.25476000000005" lat="55.74153200000003"/><rtept lon="37.25451400000005" lat="55.741519000000025"/><rtept lon="37.25356500000005" lat="55.74139700000003"/><rtept lon="37.25307000000005" lat="55.74135500000003"/><rtept lon="37.25277800000005" lat="55.74135100000003"/><rtept lon="37.25243200000005" lat="55.74135700000003"/><rtept lon="37.25236400000004" lat="55.74138300000003"/><rtept lon="37.25225500000005" lat="55.74151700000003"/><rtept lon="37.25222600000005" lat="55.74157300000003"/><rtept lon="37.25221100000005" lat="55.74167400000003"/><rtept lon="37.252252000000055" lat="55.74183000000003"/><rtept lon="37.252261000000054" lat="55.74194000000003"/><rtept lon="37.25214100000005" lat="55.74196200000003"/><rtept lon="37.25164000000005" lat="55.74206900000003"/><rtept lon="37.25138900000005" lat="55.74211700000003"/><rtept lon="37.25164600000005" lat="55.74270500000003"/><rtept lon="37.25167600000005" lat="55.74302300000003"/><rtept lon="37.251689000000056" lat="55.74310400000003"/><rtept lon="37.25149700000006" lat="55.74321900000003"/><rtept lon="37.251259000000054" lat="55.743294000000034"/><rtept lon="37.25010300000005" lat="55.74369700000003"/><rtept lon="37.24870600000005" lat="55.744400000000034"/><rtept lon="37.24817100000005" lat="55.744754000000036"/><rtept lon="37.24812200000005" lat="55.744808000000035"/><rtept lon="37.24786100000005" lat="55.744881000000035"/><rtept lon="37.24775900000005" lat="55.74495000000004"/><rtept lon="37.24763200000005" lat="55.745109000000035"/><rtept lon="37.24748900000005" lat="55.745388000000034"/><rtept lon="37.24726400000005" lat="55.74556400000004"/><rtept lon="37.24659600000005" lat="55.74637200000004"/><rtept lon="37.24645100000005" lat="55.746677000000034"/><rtept lon="37.24618100000005" lat="55.74712200000003"/><rtept lon="37.24598300000005" lat="55.747315000000036"/><rtept lon="37.245824000000056" lat="55.747639000000035"/><rtept lon="37.24540300000005" lat="55.74812200000004"/><rtept lon="37.24493600000005" lat="55.74857700000004"/><rtept lon="37.244780000000056" lat="55.74878400000004"/><rtept lon="37.24430800000005" lat="55.74936100000004"/><rtept lon="37.24383100000006" lat="55.74994900000004"/><rtept lon="37.24314400000006" lat="55.750644000000044"/><rtept lon="37.242717000000056" lat="55.75103100000005"/><rtept lon="37.242394000000054" lat="55.751313000000046"/><rtept lon="37.24206500000005" lat="55.751510000000046"/><rtept lon="37.23971000000005" lat="55.752490000000044"/><rtept lon="37.239090000000054" lat="55.75275800000004"/><rtept lon="37.23895600000005" lat="55.75280600000004"/><rtept lon="37.238651000000054" lat="55.752898000000044"/><rtept lon="37.238499000000054" lat="55.752977000000044"/><rtept lon="37.23829200000005" lat="55.75301800000005"/><rtept lon="37.23783300000005" lat="55.75312400000005"/><rtept lon="37.23739800000005" lat="55.75317300000005"/><rtept lon="37.23670800000005" lat="55.75332200000005"/><rtept lon="37.23640800000005" lat="55.75333600000005"/><rtept lon="37.23514100000005" lat="55.753300000000046"/><rtept lon="37.23507100000005" lat="55.75326000000005"/><rtept lon="37.23523100000004" lat="55.75319600000005"/><rtept lon="37.23564500000004" lat="55.753097000000054"/><rtept lon="37.23571800000004" lat="55.75310100000005"/><rtept lon="37.236046000000044" lat="55.75322500000005"/><rtept lon="37.23616900000005" lat="55.75323600000005"/><rtept lon="37.23632500000004" lat="55.75319300000005"/><rtept lon="37.23643200000004" lat="55.75319400000005"/><rtept lon="37.23640800000005" lat="55.753336000000054"/><rtept lon="37.236338000000046" lat="55.75439500000005"/><rtept lon="37.236339000000044" lat="55.754895000000054"/><rtept lon="37.236333000000045" lat="55.754945000000056"/><rtept lon="37.236254000000045" lat="55.75592000000005"/><rtept lon="37.236229000000044" lat="55.75601300000005"/><rtept lon="37.23637300000004" lat="55.75599300000005"/><rtept lon="37.23637400000004" lat="55.75611400000005"/><rtept lon="37.23639600000004" lat="55.75634300000005"/><rtept lon="37.236426000000044" lat="55.75654000000005"/><rtept lon="37.23645300000005" lat="55.75665600000005"/><rtept lon="37.236519000000044" lat="55.75685300000005"/><rtept lon="37.23658400000004" lat="55.75701600000005"/><rtept lon="37.23666100000004" lat="55.75716200000005"/><rtept lon="37.23660000000004" lat="55.75717400000005"/><rtept lon="37.23637400000004" lat="55.75729400000005"/><rtept lon="37.23610600000004" lat="55.75736800000005"/><rtept lon="37.23573800000005" lat="55.75744800000005"/><rtept lon="37.23563100000005" lat="55.757537000000056"/><rtept lon="37.236355000000046" lat="55.75781400000005"/><rtept lon="37.236279000000046" lat="55.757875000000055"/><rtept lon="37.23696200000005" lat="55.75814900000005"/><rtept lon="37.236983000000045" lat="55.758193000000055"/><rtept lon="37.237377000000045" lat="55.75836000000005"/><rtept lon="37.23741800000005" lat="55.758331000000055"/><rtept lon="37.237681000000045" lat="55.75843300000005"/><rtept lon="37.237858000000045" lat="55.758444000000054"/><rtept lon="37.23904100000005" lat="55.75919600000005"/><rtept lon="37.23989600000005" lat="55.75976800000005"/><rtept lon="37.240210000000054" lat="55.75996200000005"/><rtept lon="37.24031500000005" lat="55.76009400000005"/><rtept lon="37.24042800000005" lat="55.76016300000005"/><rtept lon="37.241502000000054" lat="55.76085200000005"/><rtept lon="37.241637000000054" lat="55.76091700000005"/><rtept lon="37.24168000000005" lat="55.76096800000005"/><rtept lon="37.24194800000005" lat="55.76114500000004"/><rtept lon="37.24272800000005" lat="55.76162400000004"/><rtept lon="37.24408400000005" lat="55.762450000000044"/><rtept lon="37.244124000000056" lat="55.76245600000004"/><rtept lon="37.244198000000054" lat="55.762424000000046"/><rtept lon="37.244921000000055" lat="55.76290900000004"/><rtept lon="37.24645000000005" lat="55.76390800000004"/><rtept lon="37.24704500000005" lat="55.764293000000045"/><rtept lon="37.24811400000005" lat="55.764996000000046"/><rtept lon="37.24910300000005" lat="55.76565000000004"/><rtept lon="37.249537000000046" lat="55.765934000000044"/><rtept lon="37.24942900000005" lat="55.76597800000005"/><rtept lon="37.250173000000046" lat="55.76647900000005"/><rtept lon="37.250430000000044" lat="55.76671100000004"/><rtept lon="37.250545000000045" lat="55.76687200000004"/><rtept lon="37.25140000000005" lat="55.76815600000004"/><rtept lon="37.25155800000005" lat="55.768120000000046"/><rtept lon="37.25153300000006" lat="55.76802800000005"/><rtept lon="37.25185900000006" lat="55.76796900000005"/><rtept lon="37.25265200000006" lat="55.76977600000005"/><rtept lon="37.252656000000066" lat="55.76985800000005"/><rtept lon="37.252687000000066" lat="55.76992500000005"/><rtept lon="37.25264700000007" lat="55.77012900000005"/><rtept lon="37.252712000000066" lat="55.77116200000005"/><rtept lon="37.25272000000007" lat="55.77117500000005"/><rtept lon="37.253295000000065" lat="55.77177400000005"/><rtept lon="37.25357800000007" lat="55.77207200000005"/><rtept lon="37.25435500000007" lat="55.77288300000004"/><rtept lon="37.25415400000007" lat="55.772941000000046"/><rtept lon="37.25464400000007" lat="55.77346100000005"/><rtept lon="37.25529300000007" lat="55.774168000000046"/><rtept lon="37.255331000000076" lat="55.77421700000004"/><rtept lon="37.25539400000008" lat="55.77434500000005"/><rtept lon="37.25545100000007" lat="55.774528000000046"/><rtept lon="37.25565700000007" lat="55.77550700000005"/><rtept lon="37.255985000000074" lat="55.77698700000005"/><rtept lon="37.25606200000007" lat="55.77736100000005"/><rtept lon="37.25623300000007" lat="55.77825600000005"/><rtept lon="37.256291000000076" lat="55.77857900000005"/><rtept lon="37.25632000000007" lat="55.77870500000005"/><rtept lon="37.25640800000007" lat="55.778980000000054"/><rtept lon="37.256539000000075" lat="55.77925400000006"/><rtept lon="37.256725000000074" lat="55.77951500000006"/><rtept lon="37.256815000000074" lat="55.77962800000006"/><rtept lon="37.25695100000007" lat="55.77977100000006"/><rtept lon="37.257217000000075" lat="55.78002200000006"/><rtept lon="37.257358000000075" lat="55.78013200000006"/><rtept lon="37.25765100000008" lat="55.78033700000006"/><rtept lon="37.25799200000008" lat="55.78054300000006"/><rtept lon="37.25838800000008" lat="55.78077500000006"/><rtept lon="37.25864100000008" lat="55.78091700000006"/><rtept lon="37.25943500000008" lat="55.78133700000006"/><rtept lon="37.25996200000008" lat="55.78157600000006"/><rtept lon="37.26016200000008" lat="55.78166200000006"/><rtept lon="37.260591000000076" lat="55.78182200000006"/><rtept lon="37.260831000000074" lat="55.78190200000006"/><rtept lon="37.261149000000074" lat="55.78200000000006"/><rtept lon="37.26160300000007" lat="55.78211700000006"/><rtept lon="37.26272100000007" lat="55.78238300000006"/><rtept lon="37.264234000000066" lat="55.78273500000006"/><rtept lon="37.26480500000007" lat="55.78286100000006"/><rtept lon="37.265138000000064" lat="55.782930000000064"/><rtept lon="37.26563500000006" lat="55.783017000000065"/><rtept lon="37.26640000000006" lat="55.783127000000064"/><rtept lon="37.26697100000006" lat="55.78318800000006"/><rtept lon="37.267333000000065" lat="55.783210000000054"/><rtept lon="37.267625000000066" lat="55.78322000000006"/><rtept lon="37.26802600000006" lat="55.783215000000055"/><rtept lon="37.26881100000006" lat="55.783184000000055"/><rtept lon="37.269480000000065" lat="55.783165000000054"/><rtept lon="37.27047800000007" lat="55.783156000000055"/><rtept lon="37.27081200000006" lat="55.783162000000054"/><rtept lon="37.27112000000006" lat="55.78318300000006"/><rtept lon="37.27148600000006" lat="55.783226000000056"/><rtept lon="37.27166800000006" lat="55.78325800000005"/><rtept lon="37.271999000000065" lat="55.78333200000005"/><rtept lon="37.272581000000066" lat="55.78347000000005"/><rtept lon="37.27292600000007" lat="55.78353100000005"/><rtept lon="37.27311000000007" lat="55.78354800000005"/><rtept lon="37.27333400000007" lat="55.78355500000005"/><rtept lon="37.273547000000065" lat="55.783544000000056"/><rtept lon="37.27401800000006" lat="55.78347900000005"/><rtept lon="37.274248000000064" lat="55.78343700000005"/><rtept lon="37.27462100000007" lat="55.78335800000005"/><rtept lon="37.27498100000007" lat="55.78327500000005"/><rtept lon="37.275621000000065" lat="55.783111000000055"/><rtept lon="37.27599600000007" lat="55.78302500000006"/><rtept lon="37.27622200000007" lat="55.78299800000006"/><rtept lon="37.27648900000006" lat="55.78299600000007"/><rtept lon="37.27674600000006" lat="55.78302400000007"/><rtept lon="37.27688200000006" lat="55.78305000000007"/><rtept lon="37.27711800000006" lat="55.78310800000007"/><rtept lon="37.27728100000006" lat="55.78315800000007"/><rtept lon="37.27744800000006" lat="55.78322200000007"/><rtept lon="37.27758300000006" lat="55.78329000000007"/><rtept lon="37.277699000000055" lat="55.78336700000007"/><rtept lon="37.27781100000006" lat="55.78346500000007"/><rtept lon="37.27799200000006" lat="55.78367500000007"/><rtept lon="37.27817700000006" lat="55.783950000000075"/><rtept lon="37.28049900000007" lat="55.787603000000075"/><rtept lon="37.28070600000007" lat="55.787921000000075"/><rtept lon="37.28142800000007" lat="55.78901100000007"/><rtept lon="37.28188200000007" lat="55.78969300000007"/><rtept lon="37.28240700000007" lat="55.790491000000074"/><rtept lon="37.28399500000007" lat="55.79294400000008"/><rtept lon="37.28411200000007" lat="55.79311200000008"/><rtept lon="37.28419500000007" lat="55.79321300000008"/><rtept lon="37.28437800000007" lat="55.79340300000008"/><rtept lon="37.28457100000007" lat="55.79356700000009"/><rtept lon="37.28477700000007" lat="55.79371100000009"/><rtept lon="37.28491500000007" lat="55.79379800000009"/><rtept lon="37.28523300000007" lat="55.79398000000009"/><rtept lon="37.28538200000007" lat="55.79405900000009"/><rtept lon="37.28562000000007" lat="55.794159000000086"/><rtept lon="37.28590500000007" lat="55.79424700000009"/><rtept lon="37.288591000000075" lat="55.79491700000009"/><rtept lon="37.290845000000076" lat="55.79545000000009"/><rtept lon="37.290840000000074" lat="55.795457000000084"/></rte><rte><rtept lon="37.59001041546076" lat="55.73579542270988"/><rtept lon="37.58980656757563" lat="55.735880169438204"/><rtept lon="37.590418111231024" lat="55.736594455948726"/><rtept lon="37.58874441280572" lat="55.737211879473044"/><rtept lon="37.587199460413146" lat="55.737883770398604"/><rtept lon="37.58605147495476" lat="55.73837406185118"/><rtept lon="37.58550430431574" lat="55.73884618849001"/><rtept lon="37.58327270641533" lat="55.73872513091786"/><rtept lon="37.57988239422051" lat="55.73877355399198"/><rtept lon="37.57625604763238" lat="55.73910040815775"/><rtept lon="37.57635260715693" lat="55.73943936513621"/><rtept lon="37.575633775140936" lat="55.73952410391887"/><rtept lon="37.57409955158442" lat="55.73966331723213"/><rtept lon="37.5724794973394" lat="55.73940910124048"/><rtept lon="37.57074142589776" lat="55.73970568640238"/><rtept lon="37.57150317325799" lat="55.74052884968598"/><rtept lon="37.573938619043474" lat="55.74321611430895"/><rtept lon="37.57529045238699" lat="55.74509224744558"/><rtept lon="37.57565523281301" lat="55.74578215749851"/><rtept lon="37.5758698095342" lat="55.747452415314"/><rtept lon="37.57567669048512" lat="55.7498366444439"/><rtept lon="37.57521038519931" lat="55.750762272564835"/><rtept lon="37.574266247626056" lat="55.751899846367465"/><rtept lon="37.572292141791095" lat="55.75307369079073"/><rtept lon="37.56997471320224" lat="55.753920772976535"/><rtept lon="37.56761436926912" lat="55.754332206229634"/><rtept lon="37.56463175284457" lat="55.754489517792265"/><rtept lon="37.56078010069915" lat="55.75407203570226"/><rtept lon="37.55813007819243" lat="55.75345488005423"/><rtept lon="37.556198887701704" lat="55.752843765282826"/><rtept lon="37.554181866522455" lat="55.7522386916799"/><rtept lon="37.551435284491205" lat="55.75116768830706"/><rtept lon="37.5472724961001" lat="55.74911636211807"/><rtept lon="37.54348521697107" lat="55.74730699040341"/><rtept lon="37.54047041403833" lat="55.74637504032234"/><rtept lon="37.537788205023425" lat="55.745769865960405"/><rtept lon="37.53456955420558" lat="55.74543701603697"/><rtept lon="37.532756380911515" lat="55.74534623829194"/><rtept lon="37.53111486899439" lat="55.74541280865903"/><rtept lon="37.528379015799196" lat="55.74580012489611"/><rtept lon="37.52550368773519" lat="55.74681076001352"/><rtept lon="37.52430205809652" lat="55.747391712016956"/><rtept lon="37.52365832793294" lat="55.74813604407545"/><rtept lon="37.52374415862141" lat="55.748402305738836"/><rtept lon="37.52494578826009" lat="55.748741181580186"/><rtept lon="37.52596502768574" lat="55.748971131360406"/><rtept lon="37.52709155547197" lat="55.749636767781936"/><rtept lon="37.527316861029206" lat="55.74996353058171"/><rtept lon="37.52695208060318" lat="55.75010270649509"/><rtept lon="37.526447825308395" lat="55.75026608627889"/><rtept lon="37.526018671866005" lat="55.750296341719"/><rtept lon="37.52552514540727" lat="55.75025398409624"/><rtept lon="37.52455955016191" lat="55.751760676842714"/><rtept lon="37.523717336531234" lat="55.752979905492886"/><rtept lon="37.52271955477766" lat="55.754534895940154"/><rtept lon="37.522601537581004" lat="55.75470430747543"/><rtept lon="37.522177748556636" lat="55.754810189313645"/><rtept lon="37.52186124789288" lat="55.754807164122276"/><rtept lon="37.518991284246944" lat="55.754002454849626"/><rtept lon="37.51466219889692" lat="55.75278325827823"/><rtept lon="37.51106267439889" lat="55.75178488022769"/><rtept lon="37.51052086817787" lat="55.75163058314333"/><rtept lon="37.50882571208044" lat="55.751122306074386"/><rtept lon="37.50897591578525" lat="55.75094985341703"/><rtept lon="37.50944798457188" lat="55.750735042895876"/><rtept lon="37.50974839198156" lat="55.75053838433494"/><rtept lon="37.510054163809244" lat="55.7505535119519"/><rtept lon="37.5098127649979" lat="55.750465771691545"/><rtept lon="37.50955527293249" lat="55.75059889476742"/><rtept lon="37.508772067900125" lat="55.75108902579662"/><rtept lon="37.5084233807282" lat="55.750907496506876"/><rtept lon="37.508090786810335" lat="55.750992210281"/><rtept lon="37.50790839659734" lat="55.75126752877094"/><rtept lon="37.50696425902408" lat="55.75175462593438"/><rtept lon="37.503809981222574" lat="55.75267737088915"/><rtept lon="37.50312333571476" lat="55.75282561311786"/><rtept lon="37.50106339919133" lat="55.75288309463986"/><rtept lon="37.49540393816992" lat="55.75282258775308"/><rtept lon="37.49399846064611" lat="55.75287704394413"/><rtept lon="37.492088727827465" lat="55.752943601388424"/><rtept lon="37.492051176901256" lat="55.75279838495811"/><rtept lon="37.49158447253266" lat="55.752595686116315"/><rtept lon="37.491107039328" lat="55.752638041185605"/><rtept lon="37.49062960612335" lat="55.752462569883576"/><rtept lon="37.49021118151703" lat="55.75241416386766"/><rtept lon="37.48976593482056" lat="55.75237180855425"/><rtept lon="37.48871450888673" lat="55.75236878317295"/><rtept lon="37.48771672713318" lat="55.75244744301007"/><rtept lon="37.487142734403946" lat="55.75234155472439"/><rtept lon="37.486804776068084" lat="55.75242929074784"/><rtept lon="37.48607521521603" lat="55.752571483192575"/><rtept lon="37.485517315740935" lat="55.75258661001776"/><rtept lon="37.484787754888885" lat="55.752650142619224"/><rtept lon="37.48422449099576" lat="55.75258963538209"/><rtept lon="37.48321598040616" lat="55.75235365625666"/><rtept lon="37.48266344534908" lat="55.75230222471852"/><rtept lon="37.482196740980505" lat="55.7522991993318"/><rtept lon="37.48186414706264" lat="55.75226592005609"/><rtept lon="37.48131161200559" lat="55.75234760548472"/><rtept lon="37.4806839750961" lat="55.7523294531821"/><rtept lon="37.480319194670074" lat="55.752217513795095"/><rtept lon="37.4801636265472" lat="55.75210254868347"/><rtept lon="37.48030310141599" lat="55.75185749033617"/><rtept lon="37.480651788587885" lat="55.75116163720588"/><rtept lon="37.480759076948466" lat="55.75071386426036"/><rtept lon="37.48081272112878" lat="55.750496026907015"/><rtept lon="37.48090391623528" lat="55.75035080131985"/><rtept lon="37.480807356710756" lat="55.74966702356766"/><rtept lon="37.48053913580926" lat="55.7493644632046"/><rtept lon="37.48045330512078" lat="55.749001387658296"/><rtept lon="37.48018508421921" lat="55.74823286652119"/><rtept lon="37.4799490498259" lat="55.74750063936201"/><rtept lon="37.479788117285" lat="55.74681681145319"/><rtept lon="37.47980957495713" lat="55.746471867144464"/><rtept lon="37.4795198963835" lat="55.74600588488184"/><rtept lon="37.47945552336716" lat="55.745043644069376"/><rtept lon="37.4796271847441" lat="55.74461395651844"/><rtept lon="37.47986321913742" lat="55.74429925276223"/><rtept lon="37.4805284069731" lat="55.743681941836634"/></rte><rte><rtept lon="37.29086940752978" lat="55.79546259195305"/><rtept lon="37.292897157545035" lat="55.795943090801735"/><rtept lon="37.29725306498522" lat="55.796973574539464"/><rtept lon="37.29806309210769" lat="55.79721532627814"/><rtept lon="37.298030905599504" lat="55.79762630079654"/><rtept lon="37.29830985533705" lat="55.79821857994051"/><rtept lon="37.29868536459913" lat="55.79908885124962"/><rtept lon="37.298803381795786" lat="55.799983276408206"/><rtept lon="37.2989321278285" lat="55.801022717556044"/><rtept lon="37.29892139899245" lat="55.80194127026592"/><rtept lon="37.298942856664574" lat="55.80270268562093"/><rtept lon="37.29921107756605" lat="55.80297461605234"/><rtept lon="37.300144486303225" lat="55.80308338769084"/><rtept lon="37.300884775991356" lat="55.80307130196831"/><rtept lon="37.30146413313854" lat="55.80334322980788"/><rtept lon="37.30251555907237" lat="55.80353055676994"/><rtept lon="37.30350261198984" lat="55.80366954070529"/><rtept lon="37.304028324956754" lat="55.80411670302989"/><rtept lon="37.303942494268284" lat="55.804297983584036"/><rtept lon="37.30325584876047" lat="55.80439466619964"/><rtept lon="37.30166798102361" lat="55.80470888302879"/><rtept lon="37.301485590810614" lat="55.8048539053056"/><rtept lon="37.30150704848272" lat="55.80578445212812"/><rtept lon="37.30104570853217" lat="55.80626180189465"/><rtept lon="37.301442675466355" lat="55.8069808366496"/><rtept lon="37.3017001675318" lat="55.807585057222944"/><rtept lon="37.30231171118719" lat="55.808231562806135"/><rtept lon="37.3053050564478" lat="55.810334141908584"/><rtept lon="37.30679636466008" lat="55.8116995488636"/><rtept lon="37.30560546385748" lat="55.81210432840075"/><rtept lon="37.305251412267516" lat="55.81226140589097"/><rtept lon="37.30505829321844" lat="55.81253931066026"/><rtept lon="37.304607682103935" lat="55.812829296120974"/><rtept lon="37.30419998633368" lat="55.813294476598635"/><rtept lon="37.30465059744817" lat="55.813662992234015"/><rtept lon="37.304714970464545" lat="55.81386235169083"/><rtept lon="37.303942494268234" lat="55.814339601981786"/></rte><rte><rtept lon="37.56109123694371" lat="55.721025295046665"/><rtept lon="37.56153111922215" lat="55.72120090834212"/><rtept lon="37.561144881124" lat="55.72136440966291"/><rtept lon="37.558999113912094" lat="55.721951797625756"/><rtept lon="37.55958919989538" lat="55.722466511742574"/><rtept lon="37.56049042212437" lat="55.723156823509"/><rtept lon="37.56366615759801" lat="55.72459796120694"/><rtept lon="37.564041666860085" lat="55.724791723546566"/><rtept lon="37.56381636130285" lat="55.72499153994802"/><rtept lon="37.566691689366806" lat="55.72605115521224"/><rtept lon="37.56982450949613" lat="55.72732871003262"/><rtept lon="37.57251744734706" lat="55.72879391085449"/><rtept lon="37.57360105978908" lat="55.729393295275194"/><rtept lon="37.572195582265245" lat="55.73033170685577"/><rtept lon="37.576433472508775" lat="55.73294703123273"/><rtept lon="37.57970576750691" lat="55.73452098422219"/><rtept lon="37.584962897176084" lat="55.73703917645298"/><rtept lon="37.58986597525524" lat="55.733927732479096"/><rtept lon="37.590391688222155" lat="55.734248573821645"/><rtept lon="37.592129759663806" lat="55.73363110322136"/><rtept lon="37.5930309818928" lat="55.73455730544338"/><rtept lon="37.59343867766306" lat="55.735126333771966"/><rtept lon="37.59351377951548" lat="55.73548953898763"/><rtept lon="37.5922906922047" lat="55.73592538076627"/><rtept lon="37.5902736710255" lat="55.7366396664459"/><rtept lon="37.589683585042216" lat="55.73587090081122"/><rtept lon="37.59009128081248" lat="55.73580431409579"/></rte></gpx>