<?xml version="1.0" encoding="UTF-8"?>
<gpx xmlns="http://www.topografix.com/GPX/1/1" xmlns:xsi="http://www.w3.org/2001/XMLSchema-instance" xsi:schemaLocation="http://www.topografix.com/GPX/1/1 http://www.topografix.com/GPX/1/1/gpx.xsd" version="1.1" creator="gpx.py -- https://github.com/tkrajina/gpxpy">
  <rte>
    <name></name>
    <rtept lat="55.75735617183628" lon="37.66167135491282">
    </rtept>
    <rtept lat="55.75715652175111" lon="37.66050459399126">
    </rtept>
    <rtept lat="55.757241221896564" lon="37.66045094981097">
    </rtept>
    <rtept lat="55.75743482153537" lon="37.66156674876115">
    </rtept>
    <rtept lat="55.75844515398934" lon="37.66100884928608">
    </rtept>
    <rtept lat="55.75825760923316" lon="37.65987159266374">
    </rtept>
    <rtept lat="55.75846935324674" lon="37.65957118525409">
    </rtept>
    <rtept lat="55.75851170189833" lon="37.658150955580666">
    </rtept>
    <rtept lat="55.75851472680114" lon="37.65809999360937">
    </rtept>
    <rtept lat="55.75869697676107" lon="37.65809462919134">
    </rtept>
    <rtept lat="55.75868412098281" lon="37.65804366722006">
    </rtept>
    <rtept lat="55.758518507929324" lon="37.658054396056116">
    </rtept>
    <rtept lat="55.758518507929324" lon="37.65735433950324">
    </rtept>
    <rtept lat="55.75835516285598" lon="37.65735433950324">
    </rtept>
    <rtept lat="55.75788705441236" lon="37.65738518490691">
    </rtept>
    <rtept lat="55.757088458981436" lon="37.65728862538238">
    </rtept>
    <rtept lat="55.75623842080218" lon="37.6570955063333">
    </rtept>
    <rtept lat="55.7548801361083" lon="37.65662343754665">
    </rtept>
    <rtept lat="55.75465022130651" lon="37.65523941769494">
    </rtept>
    <rtept lat="55.75440517903266" lon="37.65425772919551">
    </rtept>
    <rtept lat="55.75405122635214" lon="37.653662278794194">
    </rtept>
    <rtept lat="55.75375475067801" lon="37.65296490445033">
    </rtept>
    <rtept lat="55.75318599509651" lon="37.65050263657466">
    </rtept>
    <rtept lat="55.75305590621485" lon="37.64932782902614">
    </rtept>
    <rtept lat="55.75308918480744" lon="37.64779896988765">
    </rtept>
    <rtept lat="55.75314817858721" lon="37.647683634899956">
    </rtept>
    <rtept lat="55.75308162144944" lon="37.647018447064276">
    </rtept>
    <rtept lat="55.753116412675354" lon="37.646801188134056">
    </rtept>
    <rtept lat="55.753013551550936" lon="37.64673949732673">
    </rtept>
    <rtept lat="55.75283354392776" lon="37.644440844200965">
    </rtept>
    <rtept lat="55.75287589873768" lon="37.64422894968877">
    </rtept>
    <rtept lat="55.75274278345896" lon="37.64299513354194">
    </rtept>
    <rtept lat="55.75274278345896" lon="37.6426839972962">
    </rtept>
    <rtept lat="55.75275426097368" lon="37.642562572472926">
    </rtept>
    <rtept lat="55.752717956740035" lon="37.642533068173755">
    </rtept>
    <rtept lat="55.75264837353069" lon="37.64265644978844">
    </rtept>
    <rtept lat="55.75232768406637" lon="37.64216828774765">
    </rtept>
    <rtept lat="55.75187916819498" lon="37.64187190365148">
    </rtept>
    <rtept lat="55.751463170772965" lon="37.64165866803479">
    </rtept>
    <rtept lat="55.75138148348437" lon="37.64153528642011">
    </rtept>
    <rtept lat="55.75132551246525" lon="37.64162111710858">
    </rtept>
    <rtept lat="55.75121205744931" lon="37.64170426558804">
    </rtept>
    <rtept lat="55.751137933314006" lon="37.64154601525616">
    </rtept>
    <rtept lat="55.75058124150481" lon="37.6421682877476">
    </rtept>
    <rtept lat="55.75041786304023" lon="37.642141465657474">
    </rtept>
    <rtept lat="55.749867212064466" lon="37.64163184594463">
    </rtept>
    <rtept lat="55.74931655327044" lon="37.64111149739572">
    </rtept>
    <rtept lat="55.74896104139418" lon="37.640953247063834">
    </rtept>
    <rtept lat="55.74788843477146" lon="37.63948071431465">
    </rtept>
    <rtept lat="55.748035182417446" lon="37.63897377681085">
    </rtept>
    <rtept lat="55.74781884290426" lon="37.63872701358143">
    </rtept>
    <rtept lat="55.74854047418255" lon="37.636127953045964">
    </rtept>
    <rtept lat="55.749216707672694" lon="37.63363886308014">
    </rtept>
    <rtept lat="55.74951926918027" lon="37.63165402840907">
    </rtept>
    <rtept lat="55.74976736786322" lon="37.62774873208339">
    </rtept>
    <rtept lat="55.74964331870723" lon="37.624878768437405">
    </rtept>
    <rtept lat="55.74942850096097" lon="37.6225506110125">
    </rtept>
    <rtept lat="55.748864220505794" lon="37.61815447043704">
    </rtept>
    <rtept lat="55.748590397794686" lon="37.616593424790345">
    </rtept>
    <rtept lat="55.74761914375322" lon="37.61273640822692">
    </rtept>
    <rtept lat="55.7471077884101" lon="37.611304108612956">
    </rtept>
    <rtept lat="55.746430005262205" lon="37.61027414035125">
    </rtept>
    <rtept lat="55.74574615849573" lon="37.60949093531889">
    </rtept>
    <rtept lat="55.74376414526134" lon="37.6077635927133">
    </rtept>
    <rtept lat="55.743388913040384" lon="37.60743636321348">
    </rtept>
    <rtept lat="55.74286539752748" lon="37.60721373986526">
    </rtept>
    <rtept lat="55.74240239816095" lon="37.607165460103">
    </rtept>
    <rtept lat="55.742136095363655" lon="37.60720032882014">
    </rtept>
    <rtept lat="55.74082876431261" lon="37.606655840390104">
    </rtept>
    <rtept lat="55.73940941296961" lon="37.606164996140386">
    </rtept>
    <rtept lat="55.73892216100787" lon="37.60588068198481">
    </rtept>
    <rtept lat="55.738534776194456" lon="37.605537359230915">
    </rtept>
    <rtept lat="55.73830173816498" lon="37.605204765313054">
    </rtept>
    <rtept lat="55.73732720035571" lon="37.603225295060064">
    </rtept>
    <rtept lat="55.736137746859136" lon="37.60066110324179">
    </rtept>
    <rtept lat="55.735735200909126" lon="37.59982157182013">
    </rtept>
    <rtept lat="55.73510413364852" lon="37.598695044033846">
    </rtept>
    <rtept lat="55.73487712853551" lon="37.5984160942963">
    </rtept>
    <rtept lat="55.73507537973461" lon="37.59801376294406">
    </rtept>
    <rtept lat="55.7350741552068" lon="37.597925526117116">
    </rtept>
    <rtept lat="55.73634536031923" lon="37.595323783372685">
    </rtept>
    <rtept lat="55.73620008183298" lon="37.59515480420475">
    </rtept>
    <rtept lat="55.73625456132661" lon="37.59495900294666">
    </rtept>
    <rtept lat="55.73612138909625" lon="37.59489194772128">
    </rtept>
    <rtept lat="55.73620764842764" lon="37.59437159917239">
    </rtept>
    <rtept lat="55.73579148315907" lon="37.59417848012323">
    </rtept>
    <rtept lat="55.735842936557084" lon="37.59381638190622">
    </rtept>
    <rtept lat="55.73589741655134" lon="37.59364203832027">
    </rtept>
    <rtept lat="55.73557507547463" lon="37.593258482431125">
    </rtept>
    <rtept lat="55.735920116526394" lon="37.59241626880047">
    </rtept>
    <rtept lat="55.735848989893555" lon="37.59234384915706">
    </rtept>
    <rtept lat="55.736501231361416" lon="37.59042606971133">
    </rtept>
    <rtept lat="55.73586412321805" lon="37.58978502175677">
    </rtept>
    <rtept lat="55.73578996981027" lon="37.58992181441652">
    </rtept>
    <rtept lat="55.73582780319927" lon="37.589962047551744">
    </rtept>
  </rte>
  <rte>
    <name></name>
    <rtept lat="55.733743848909356" lon="37.81157313501788">
    </rtept>
    <rtept lat="55.73369541956831" lon="37.811522173046576">
    </rtept>
    <rtept lat="55.73339424823675" lon="37.81154363071866">
    </rtept>
    <rtept lat="55.7323195267241" lon="37.81052941735754">
    </rtept>
    <rtept lat="55.73231422957376" lon="37.81041810568341">
    </rtept>
    <rtept lat="55.73297258415052" lon="37.80824953969483">
    </rtept>
    <rtept lat="55.733297973664946" lon="37.80715519841675">
    </rtept>
    <rtept lat="55.73326770498038" lon="37.80624861176973">
    </rtept>
    <rtept lat="55.73315419722683" lon="37.80572289880281">
    </rtept>
    <rtept lat="55.73063878032458" lon="37.803209668955844">
    </rtept>
    <rtept lat="55.73050861593655" lon="37.80316943582062">
    </rtept>
    <rtept lat="55.73040720849499" lon="37.803147978148516">
    </rtept>
    <rtept lat="55.73029823303904" lon="37.80305946525103">
    </rtept>
    <rtept lat="55.72988957235222" lon="37.8026785915709">
    </rtept>
    <rtept lat="55.730092389671384" lon="37.80212605651383">
    </rtept>
    <rtept lat="55.73020439281205" lon="37.801965123972934">
    </rtept>
    <rtept lat="55.73074564296607" lon="37.80191563229371">
    </rtept>
    <rtept lat="55.73188682985928" lon="37.79824100594329">
    </rtept>
    <rtept lat="55.73327316038584" lon="37.79391192059327">
    </rtept>
    <rtept lat="55.73355768499133" lon="37.7931072578888">
    </rtept>
    <rtept lat="55.7338058856059" lon="37.792603002593985">
    </rtept>
    <rtept lat="55.73600935327492" lon="37.79372953038024">
    </rtept>
    <rtept lat="55.73586407352646" lon="37.79458783726503">
    </rtept>
    <rtept lat="55.736154632449015" lon="37.794775591896055">
    </rtept>
    <rtept lat="55.73624543166882" lon="37.795049177215574">
    </rtept>
    <rtept lat="55.736366496965225" lon="37.79556416134644">
    </rtept>
    <rtept lat="55.73650269497294" lon="37.79620252709199">
    </rtept>
    <rtept lat="55.73933550531206" lon="37.794662939117394">
    </rtept>
    <rtept lat="55.739383927625624" lon="37.794850693748444">
    </rtept>
    <rtept lat="55.73960788004102" lon="37.794716583297685">
    </rtept>
    <rtept lat="55.739665381128646" lon="37.79502235512539">
    </rtept>
  </rte>
  <rte>
    <name></name>
    <rtept lat="55.7106543803002" lon="37.65708044128576">
    </rtept>
    <rtept lat="55.71053020628388" lon="37.6572655137078">
    </rtept>
    <rtept lat="55.7107891540889" lon="37.65740498857656">
    </rtept>
    <rtept lat="55.71077249667962" lon="37.657740264703435">
    </rtept>
    <rtept lat="55.71083004042687" lon="37.658198922444974">
    </rtept>
    <rtept lat="55.71065286598532" lon="37.65843495683829">
    </rtept>
    <rtept lat="55.711423644640995" lon="37.660210579206144">
    </rtept>
    <rtept lat="55.71231363006949" lon="37.66249487352396">
    </rtept>
    <rtept lat="55.71289509778902" lon="37.663755511760925">
    </rtept>
    <rtept lat="55.71326153915028" lon="37.66453871679327">
    </rtept>
    <rtept lat="55.71328576655664" lon="37.66475329351447">
    </rtept>
    <rtept lat="55.7139883547771" lon="37.66463527631782">
    </rtept>
    <rtept lat="55.714064063957245" lon="37.665348743915786">
    </rtept>
    <rtept lat="55.71413371627281" lon="37.66661474657081">
    </rtept>
    <rtept lat="55.71436084252237" lon="37.66868541193029">
    </rtept>
    <rtept lat="55.714494089286156" lon="37.67006406736392">
    </rtept>
    <rtept lat="55.71483931746292" lon="37.672510241985506">
    </rtept>
    <rtept lat="55.71490802602481" lon="37.6731092912008">
    </rtept>
    <rtept lat="55.714682417128394" lon="37.673181710844204">
    </rtept>
    <rtept lat="55.714829695347966" lon="37.67428295340153">
    </rtept>
    <rtept lat="55.714990195163274" lon="37.67510370936007">
    </rtept>
    <rtept lat="55.715677611395506" lon="37.677922711034675">
    </rtept>
    <rtept lat="55.71570335140917" lon="37.67803268160429">
    </rtept>
    <rtept lat="55.71523245776251" lon="37.67840014423933">
    </rtept>
    <rtept lat="55.715267405584335" lon="37.67847002907918">
    </rtept>
    <rtept lat="55.714876756718795" lon="37.67879457636998">
    </rtept>
    <rtept lat="55.714542822337954" lon="37.67897849159737">
    </rtept>
    <rtept lat="55.71419153481523" lon="37.67914210634726">
    </rtept>
    <rtept lat="55.71351923433698" lon="37.67968927698628">
    </rtept>
    <rtept lat="55.71149772034326" lon="37.681312013440305">
    </rtept>
    <rtept lat="55.711306920339844" lon="37.68130664902228">
    </rtept>
    <rtept lat="55.71117063405018" lon="37.68138175087467">
    </rtept>
    <rtept lat="55.71108280485495" lon="37.6815855987598">
    </rtept>
    <rtept lat="55.709957665018955" lon="37.68260752039437">
    </rtept>
    <rtept lat="55.70825096416527" lon="37.68413637953278">
    </rtept>
    <rtept lat="55.707728489737555" lon="37.68466745691772">
    </rtept>
    <rtept lat="55.707619450715086" lon="37.684586990647276">
    </rtept>
    <rtept lat="55.70619937346801" lon="37.68583277682069">
    </rtept>
    <rtept lat="55.705623863671285" lon="37.686256565845056">
    </rtept>
    <rtept lat="55.705323989403986" lon="37.68676082113987">
    </rtept>
    <rtept lat="55.70488477544725" lon="37.68872956255677">
    </rtept>
    <rtept lat="55.70462767623349" lon="37.68978582278264">
    </rtept>
    <rtept lat="55.704474706439356" lon="37.689812644872774">
    </rtept>
    <rtept lat="55.704400493154296" lon="37.69021229401599">
    </rtept>
    <rtept lat="55.70447925010528" lon="37.69037859097491">
    </rtept>
    <rtept lat="55.70448530832569" lon="37.69049929038058">
    </rtept>
    <rtept lat="55.703552331259964" lon="37.69444481984149">
    </rtept>
    <rtept lat="55.70336452144881" lon="37.695254846963984">
    </rtept>
    <rtept lat="55.70350537886417" lon="37.69537018195163">
    </rtept>
    <rtept lat="55.70346448482837" lon="37.69558744088185">
    </rtept>
    <rtept lat="55.70346448482837" lon="37.695772513303865">
    </rtept>
    <rtept lat="55.703338773264015" lon="37.69587711945545">
    </rtept>
    <rtept lat="55.70310249499544" lon="37.69656912938127">
    </rtept>
    <rtept lat="55.70278594046786" lon="37.69719676629074">
    </rtept>
    <rtept lat="55.702484529684256" lon="37.697856589708366">
    </rtept>
    <rtept lat="55.70197106575847" lon="37.69960002556804">
    </rtept>
    <rtept lat="55.70136606806263" lon="37.70180080529053">
    </rtept>
    <rtept lat="55.700911662480685" lon="37.70327065583066">
    </rtept>
    <rtept lat="55.700426957358296" lon="37.70468686219054">
    </rtept>
    <rtept lat="55.69993921672285" lon="37.70653222199277">
    </rtept>
    <rtept lat="55.69993921672285" lon="37.70663951035337">
    </rtept>
    <rtept lat="55.69986953899202" lon="37.70688627358274">
    </rtept>
    <rtept lat="55.69979986113642" lon="37.706956011017134">
    </rtept>
    <rtept lat="55.69957567936337" lon="37.70754609700042">
    </rtept>
    <rtept lat="55.699239404282515" lon="37.708672624786644">
    </rtept>
    <rtept lat="55.69909670776342" lon="37.70891693943844">
    </rtept>
    <rtept lat="55.698487767584574" lon="37.70930317753659">
    </rtept>
    <rtept lat="55.698269637435445" lon="37.70969478005272">
    </rtept>
    <rtept lat="55.698181779115856" lon="37.709957636536195">
    </rtept>
    <rtept lat="55.69772430672967" lon="37.71038678997856">
    </rtept>
    <rtept lat="55.69528234327488" lon="37.71236626023152">
    </rtept>
    <rtept lat="55.69438809703775" lon="37.71307035577282">
    </rtept>
    <rtept lat="55.69415479435124" lon="37.71336003434643">
    </rtept>
    <rtept lat="55.69367606497979" lon="37.71415933263287">
    </rtept>
    <rtept lat="55.693130669901635" lon="37.71509274137005">
    </rtept>
    <rtept lat="55.69299128993671" lon="37.71518393647657">
    </rtept>
    <rtept lat="55.6922095408847" lon="37.71523758065686">
    </rtept>
    <rtept lat="55.6921156087406" lon="37.715259038328995">
    </rtept>
    <rtept lat="55.69151261957956" lon="37.71624072682843">
    </rtept>
    <rtept lat="55.69083083664656" lon="37.71743699204903">
    </rtept>
    <rtept lat="55.690667206970474" lon="37.71757110249977">
    </rtept>
    <rtept lat="55.69039751952204" lon="37.717597924589924">
    </rtept>
    <rtept lat="55.69001571162515" lon="37.717415534376926">
    </rtept>
    <rtept lat="55.689888441494105" lon="37.717372619032695">
    </rtept>
    <rtept lat="55.689815715518165" lon="37.717512093901455">
    </rtept>
    <rtept lat="55.68952481025581" lon="37.71797879827005">
    </rtept>
    <rtept lat="55.689276326956296" lon="37.718429409384555">
    </rtept>
    <rtept lat="55.68919147863717" lon="37.71886392724497">
    </rtept>
    <rtept lat="55.68921875130652" lon="37.71922870767094">
    </rtept>
    <rtept lat="55.68905814516582" lon="37.719480835318336">
    </rtept>
    <rtept lat="55.68928232438757" lon="37.71980466275501">
    </rtept>
    <rtept lat="55.688845959700785" lon="37.72085340647983">
    </rtept>
    <rtept lat="55.68875201944094" lon="37.72099824576665">
    </rtept>
    <rtept lat="55.68869292787106" lon="37.72115113168048">
    </rtept>
    <rtept lat="55.6886095934534" lon="37.72136034398366">
    </rtept>
    <rtept lat="55.68860050240903" lon="37.72241981654448">
    </rtept>
    <rtept lat="55.688724746407445" lon="37.72295089392943">
    </rtept>
    <rtept lat="55.68935959673527" lon="37.72469164758004">
    </rtept>
    <rtept lat="55.68932020297386" lon="37.72496523289951">
    </rtept>
    <rtept lat="55.68914899119007" lon="37.72557141213687">
    </rtept>
    <rtept lat="55.688605047853926" lon="37.727121728947395">
    </rtept>
    <rtept lat="55.68830201206894" lon="37.72795321374202">
    </rtept>
    <rtept lat="55.68799291312605" lon="37.72847356229084">
    </rtept>
    <rtept lat="55.68685346840387" lon="37.7296939673926">
    </rtept>
    <rtept lat="55.68599431715744" lon="37.73075343995345">
    </rtept>
    <rtept lat="55.6854609368301" lon="37.731496411850515">
    </rtept>
    <rtept lat="55.68523970306357" lon="37.731979209473174">
    </rtept>
    <rtept lat="55.68507245793145" lon="37.73253152864529">
    </rtept>
    <rtept lat="55.68527399370622" lon="37.732649545841944">
    </rtept>
    <rtept lat="55.6850982182014" lon="37.73342470424724">
    </rtept>
    <rtept lat="55.68491486532069" lon="37.73331205146861">
    </rtept>
    <rtept lat="55.68488910492944" lon="37.73340592878415">
    </rtept>
    <rtept lat="55.68509670289187" lon="37.73359636562419">
    </rtept>
    <rtept lat="55.6848921355646" lon="37.734658520394106">
    </rtept>
    <rtept lat="55.68498002388132" lon="37.734749715500605">
    </rtept>
    <rtept lat="55.68495123290287" lon="37.73483822839809">
    </rtept>
    <rtept lat="55.68499820764623" lon="37.73505012291026">
    </rtept>
    <rtept lat="55.68492283117675" lon="37.73550408761357">
    </rtept>
    <rtept lat="55.684913739277754" lon="37.73570257108067">
    </rtept>
    <rtept lat="55.68499556629222" lon="37.736576971219534">
    </rtept>
    <rtept lat="55.685019811300535" lon="37.73686128537511">
    </rtept>
    <rtept lat="55.68508042375525" lon="37.7369846669898">
    </rtept>
    <rtept lat="55.68515618919097" lon="37.73756938855506">
    </rtept>
    <rtept lat="55.68509860747327" lon="37.73768204133366">
    </rtept>
    <rtept lat="55.68531075021032" lon="37.7403159705863">
    </rtept>
    <rtept lat="55.68533196440933" lon="37.74240809361787">
    </rtept>
    <rtept lat="55.68535014799748" lon="37.74251538197842">
    </rtept>
    <rtept lat="55.68618658444412" lon="37.742681678937345">
    </rtept>
    <rtept lat="55.686586612915065" lon="37.742676314519315">
    </rtept>
    <rtept lat="55.68820486796995" lon="37.7429981796011">
    </rtept>
    <rtept lat="55.688243505222864" lon="37.74282785932858">
    </rtept>
    <rtept lat="55.68833896188684" lon="37.74266424457867">
    </rtept>
    <rtept lat="55.68851320757982" lon="37.742594507144275">
    </rtept>
    <rtept lat="55.68867608872387" lon="37.742733982013064">
    </rtept>
    <rtept lat="55.68874048340684" lon="37.742854681418734">
    </rtept>
    <rtept lat="55.68875715024862" lon="37.7429767219289">
    </rtept>
    <rtept lat="55.68876169574966" lon="37.74310278575262">
    </rtept>
    <rtept lat="55.688748816828614" lon="37.743235555098835">
    </rtept>
    <rtept lat="55.68871851346814" lon="37.74337502996762">
    </rtept>
    <rtept lat="55.688638209448854" lon="37.743534621403995">
    </rtept>
    <rtept lat="55.688562450788254" lon="37.74358692447979">
    </rtept>
    <rtept lat="55.68851017722648" lon="37.74362313430151">
    </rtept>
    <rtept lat="55.68864123976119" lon="37.74465176145872">
    </rtept>
    <rtept lat="55.68868669488326" lon="37.74489316027006">
    </rtept>
    <rtept lat="55.68860487562532" lon="37.745638814376186">
    </rtept>
    <rtept lat="55.68919275832466" lon="37.74582656900724">
    </rtept>
    <rtept lat="55.68937760620504" lon="37.74580511133511">
    </rtept>
    <rtept lat="55.68934427304557" lon="37.74599823038419">
    </rtept>
    <rtept lat="55.68891700001949" lon="37.74879845659572">
    </rtept>
    <rtept lat="55.68885033288331" lon="37.74969431440672">
    </rtept>
    <rtept lat="55.688768513969265" lon="37.75096031706173">
    </rtept>
    <rtept lat="55.688335173872346" lon="37.75322141926118">
    </rtept>
    <rtept lat="55.68820638305922" lon="37.753489640162655">
    </rtept>
    <rtept lat="55.68810335009579" lon="37.753918793604996">
    </rtept>
    <rtept lat="55.687916980965824" lon="37.7542084721786">
    </rtept>
    <rtept lat="55.687665185305654" lon="37.75515216555724">
    </rtept>
    <rtept lat="55.687750036951" lon="37.75603193011413">
    </rtept>
    <rtept lat="55.68772882405699" lon="37.75726038184297">
    </rtept>
    <rtept lat="55.68762275941364" lon="37.75789338317046">
    </rtept>
    <rtept lat="55.68779246270434" lon="37.75894480910432">
    </rtept>
    <rtept lat="55.68782428197659" lon="37.75885093178876">
    </rtept>
    <rtept lat="55.687650033194274" lon="37.75791215863353">
    </rtept>
    <rtept lat="55.68773033925171" lon="37.75703507628568">
    </rtept>
    <rtept lat="55.687733369665715" lon="37.75601583686">
    </rtept>
    <rtept lat="55.687662154873934" lon="37.75510925021298">
    </rtept>
    <rtept lat="55.68727425924686" lon="37.75561618771678">
    </rtept>
    <rtept lat="55.686710591528986" lon="37.75704312291272">
    </rtept>
    <rtept lat="55.686310564331734" lon="37.75857734646924">
    </rtept>
    <rtept lat="55.68620449581875" lon="37.760283231402695">
    </rtept>
    <rtept lat="55.6865196699454" lon="37.76137757268074">
    </rtept>
    <rtept lat="55.68650451740062" lon="37.76184964146735">
    </rtept>
    <rtept lat="55.68690151208958" lon="37.761731624270716">
    </rtept>
    <rtept lat="55.688683392758755" lon="37.761044978762904">
    </rtept>
    <rtept lat="55.688701574788034" lon="37.76116299595954">
    </rtept>
    <rtept lat="55.68671059144829" lon="37.76189255681156">
    </rtept>
    <rtept lat="55.68671059144829" lon="37.76275622811434">
    </rtept>
    <rtept lat="55.68683787196739" lon="37.76439774003146">
    </rtept>
    <rtept lat="55.686959091110175" lon="37.764982461596674">
    </rtept>
    <rtept lat="55.68642875452007" lon="37.7657442089569">
    </rtept>
    <rtept lat="55.68622873998745" lon="37.7658354040634">
    </rtept>
    <rtept lat="55.68677703383223" lon="37.76588151880255">
    </rtept>
    <rtept lat="55.687174025779925" lon="37.766192655048286">
    </rtept>
    <rtept lat="55.68758010495856" lon="37.76727626749031">
    </rtept>
    <rtept lat="55.688295278886045" lon="37.76969025560371">
    </rtept>
    <rtept lat="55.68946650660089" lon="37.773335980804184">
    </rtept>
    <rtept lat="55.689781541515515" lon="37.774154200695904">
    </rtept>
    <rtept lat="55.6899368417483" lon="37.774584695242815">
    </rtept>
    <rtept lat="55.69006941461525" lon="37.7750889505376">
    </rtept>
    <rtept lat="55.690230016584366" lon="37.77606527461902">
    </rtept>
    <rtept lat="55.690230016584366" lon="37.77692089929479">
    </rtept>
    <rtept lat="55.69014668545668" lon="37.77789185895818">
    </rtept>
    <rtept lat="55.690034566918264" lon="37.77933488740814">
    </rtept>
    <rtept lat="55.690316608539916" lon="37.78142562940618">
    </rtept>
    <rtept lat="55.69025297401821" lon="37.78201571538946">
    </rtept>
    <rtept lat="55.69010752328612" lon="37.78272918298743">
    </rtept>
    <rtept lat="55.690140855792116" lon="37.783807431011425">
    </rtept>
    <rtept lat="55.690222671822255" lon="37.7849232299616">
    </rtept>
    <rtept lat="55.69013782556549" lon="37.78511098459265">
    </rtept>
    <rtept lat="55.68999994997904" lon="37.78519949749011">
    </rtept>
    <rtept lat="55.689545411702326" lon="37.7850197894861">
    </rtept>
    <rtept lat="55.6894832910528" lon="37.78509220912951">
    </rtept>
    <rtept lat="55.689456018543915" lon="37.785389934330155">
    </rtept>
    <rtept lat="55.68973328816057" lon="37.785534773616966">
    </rtept>
    <rtept lat="55.690171158014515" lon="37.78579763010041">
    </rtept>
    <rtept lat="55.69049842084871" lon="37.78644672468204">
    </rtept>
    <rtept lat="55.690434786624174" lon="37.78764835432069">
    </rtept>
    <rtept lat="55.69017108993747" lon="37.78766415019843">
    </rtept>
    <rtept lat="55.69004382031436" lon="37.78760514160009">
    </rtept>
    <rtept lat="55.68982261259849" lon="37.787487124403455">
    </rtept>
    <rtept lat="55.689648372759315" lon="37.78741202255104">
    </rtept>
    <rtept lat="55.68955140416326" lon="37.787444209059196">
    </rtept>
    <rtept lat="55.68944534448479" lon="37.78753003974769">
    </rtept>
    <rtept lat="55.68876049502107" lon="37.78780898948514">
    </rtept>
    <rtept lat="55.68843321757807" lon="37.7880342950424">
    </rtept>
    <rtept lat="55.688269577824926" lon="37.788345431288136">
    </rtept>
    <rtept lat="55.68794381143556" lon="37.78923324247199">
    </rtept>
    <rtept lat="55.68759531416095" lon="37.78992525239783">
    </rtept>
    <rtept lat="55.687392275174105" lon="37.79064408441382">
    </rtept>
    <rtept lat="55.68736803164298" lon="37.791379009683894">
    </rtept>
    <rtept lat="55.6876316792335" lon="37.79243580003576">
    </rtept>
    <rtept lat="55.68807714867957" lon="37.793937837084066">
    </rtept>
    <rtept lat="55.68820745509632" lon="37.79483905931306">
    </rtept>
    <rtept lat="55.688525643381375" lon="37.795804654558424">
    </rtept>
    <rtept lat="55.6887620101384" lon="37.7956383575995">
    </rtept>
    <rtept lat="55.689498374298125" lon="37.79555252691103">
    </rtept>
    <rtept lat="55.68989230823518" lon="37.792532359560205">
    </rtept>
    <rtept lat="55.68999533645833" lon="37.79122344156095">
    </rtept>
    <rtept lat="55.69024078494413" lon="37.79039732118435">
    </rtept>
    <rtept lat="55.69033775182319" lon="37.789844786127304">
    </rtept>
    <rtept lat="55.69053774524852" lon="37.78961948057004">
    </rtept>
    <rtept lat="55.69077106961293" lon="37.78962484498807">
    </rtept>
    <rtept lat="55.69094984967322" lon="37.78985015054533">
    </rtept>
    <rtept lat="55.69248914232781" lon="37.790279303987695">
    </rtept>
    <rtept lat="55.69569183181931" lon="37.79124906615851">
    </rtept>
    <rtept lat="55.70169945055673" lon="37.792971044346075">
    </rtept>
    <rtept lat="55.70222049125167" lon="37.79317489223121">
    </rtept>
    <rtept lat="55.70227501836003" lon="37.79279938296913">
    </rtept>
    <rtept lat="55.70238710163344" lon="37.7926169927561">
    </rtept>
    <rtept lat="55.702853606924975" lon="37.79271891669868">
    </rtept>
    <rtept lat="55.7034230993105" lon="37.792874484821546">
    </rtept>
    <rtept lat="55.70382900900864" lon="37.793121248050916">
    </rtept>
    <rtept lat="55.705061858014396" lon="37.79351016835798">
    </rtept>
    <rtept lat="55.70672780813818" lon="37.79404392795191">
    </rtept>
    <rtept lat="55.70899641459444" lon="37.79473862008674">
    </rtept>
    <rtept lat="55.709214484609504" lon="37.794827132984224">
    </rtept>
    <rtept lat="55.70928717434499" lon="37.79481103973012">
    </rtept>
    <rtept lat="55.710356303515" lon="37.79515436248404">
    </rtept>
    <rtept lat="55.712860918829804" lon="37.79587855891801">
    </rtept>
    <rtept lat="55.71606489536009" lon="37.79687634067156">
    </rtept>
    <rtept lat="55.7165888601914" lon="37.79616630621093">
    </rtept>
    <rtept lat="55.716909844635744" lon="37.79637551851408">
    </rtept>
    <rtept lat="55.71723082642479" lon="37.79446578569544">
    </rtept>
    <rtept lat="55.71732772607074" lon="37.79443359918728">
    </rtept>
    <rtept lat="55.71780919260664" lon="37.79466963358057">
    </rtept>
    <rtept lat="55.717748631099695" lon="37.79517120666637">
    </rtept>
    <rtept lat="55.717812220672975" lon="37.79524362630978">
    </rtept>
    <rtept lat="55.7177077520334" lon="37.795941000653634">
    </rtept>
    <rtept lat="55.717815248745296" lon="37.79624945469036">
    </rtept>
    <rtept lat="55.7178682399728" lon="37.79681808300151">
    </rtept>
    <rtept lat="55.719280808073236" lon="37.7972311431898">
    </rtept>
    <rtept lat="55.71929897581136" lon="37.79782659359106">
    </rtept>
    <rtept lat="55.72036480195955" lon="37.79818600959906">
    </rtept>
    <rtept lat="55.72064460420567" lon="37.798178926986616">
    </rtept>
    <rtept lat="55.72071424473738" lon="37.79831840185538">
    </rtept>
    <rtept lat="55.72102913949159" lon="37.797556654495146">
    </rtept>
    <rtept lat="55.72116236343033" lon="37.797352806610014">
    </rtept>
    <rtept lat="55.721207780577856" lon="37.79720796732323">
    </rtept>
    <rtept lat="55.72123351693167" lon="37.79692097095859">
    </rtept>
    <rtept lat="55.721274392292045" lon="37.79682441143404">
    </rtept>
    <rtept lat="55.721366740170254" lon="37.79666616110215">
    </rtept>
    <rtept lat="55.72142578214138" lon="37.79641403345476">
    </rtept>
    <rtept lat="55.721468171193585" lon="37.79638989357365">
    </rtept>
    <rtept lat="55.72204193274748" lon="37.796843186897156">
    </rtept>
    <rtept lat="55.722176667076646" lon="37.79719455627806">
    </rtept>
    <rtept lat="55.72228717914184" lon="37.79730989126563">
    </rtept>
    <rtept lat="55.72253393786684" lon="37.79668761877416">
    </rtept>
    <rtept lat="55.72271559973115" lon="37.796942428630594">
    </rtept>
    <rtept lat="55.722629310445164" lon="37.7971623697698">
    </rtept>
    <rtept lat="55.723089517724375" lon="37.797637120765444">
    </rtept>
    <rtept lat="55.723522470909764" lon="37.79741449741719">
    </rtept>
    <rtept lat="55.723662914394474" lon="37.797086862297526">
    </rtept>
    <rtept lat="55.72382640536369" lon="37.79733898994492">
    </rtept>
    <rtept lat="55.724062557703576" lon="37.79699566719098">
    </rtept>
    <rtept lat="55.72425480891964" lon="37.79738995191617">
    </rtept>
    <rtept lat="55.72425026756314" lon="37.797636715145536">
    </rtept>
    <rtept lat="55.72446522452226" lon="37.798832980366186">
    </rtept>
    <rtept lat="55.72483004312028" lon="37.79986831304594">
    </rtept>
    <rtept lat="55.724923896301405" lon="37.800034610004865">
    </rtept>
    <rtept lat="55.72556994818652" lon="37.799838713402245">
    </rtept>
    <rtept lat="55.726239012950074" lon="37.799827984566164">
    </rtept>
    <rtept lat="55.72649936988193" lon="37.79991381525466">
    </rtept>
    <rtept lat="55.72736519549831" lon="37.799959412807915">
    </rtept>
    <rtept lat="55.727539266504834" lon="37.800117663139794">
    </rtept>
    <rtept lat="55.72768911829352" lon="37.80072652458605">
    </rtept>
    <rtept lat="55.727710309411606" lon="37.80180477261003">
    </rtept>
    <rtept lat="55.727928186905395" lon="37.8025627869983">
    </rtept>
    <rtept lat="55.72803111445205" lon="37.802820279063724">
    </rtept>
    <rtept lat="55.728267241323586" lon="37.80266471094085">
    </rtept>
    <rtept lat="55.72973846106314" lon="37.80287392324401">
    </rtept>
    <rtept lat="55.72992917064414" lon="37.802712990703114">
    </rtept>
    <rtept lat="55.73029545152514" lon="37.803061677875064">
    </rtept>
    <rtept lat="55.730477077128356" lon="37.80316360181764">
    </rtept>
    <rtept lat="55.730704107939026" lon="37.80327089017822">
    </rtept>
    <rtept lat="55.73222063974373" lon="37.80481584257081">
    </rtept>
    <rtept lat="55.73317411745855" lon="37.80575461572597">
    </rtept>
    <rtept lat="55.73333756843489" lon="37.80678994840572">
    </rtept>
    <rtept lat="55.73287748244967" lon="37.808581664027656">
    </rtept>
    <rtept lat="55.73231750202794" lon="37.81046457475612">
    </rtept>
    <rtept lat="55.73340415937635" lon="37.8115964669604">
    </rtept>
    <rtept lat="55.73370079036596" lon="37.81149454301785">
    </rtept>
    <rtept lat="55.73375375994107" lon="37.81154818719814">
    </rtept>
  </rte>
  <rte>
    <name></name>
    <rtept lat="55.71371700677877" lon="37.65847674419115">
    </rtept>
    <rtept lat="55.71363524012832" lon="37.65879592706392">
    </rtept>
    <rtept lat="55.71352016084764" lon="37.658828113572106">
    </rtept>
    <rtept lat="55.71280732030894" lon="37.658374607135606">
    </rtept>
    <rtept lat="55.71231670631744" lon="37.658098339607044">
    </rtept>
    <rtept lat="55.71107500137897" lon="37.65750288920573">
    </rtept>
    <rtept lat="55.71069036766295" lon="37.65737414317302">
    </rtept>
    <rtept lat="55.71056316512478" lon="37.657293676902576">
    </rtept>
    <rtept lat="55.71069188197014" lon="37.65707910018134">
    </rtept>
  </rte>
  <rte>
    <name></name>
    <rtept lat="55.73581833147189" lon="37.58996630977617">
    </rtept>
    <rtept lat="55.73579752310743" lon="37.58993747602925">
    </rtept>
    <rtept lat="55.73587205482159" lon="37.58978660177214">
    </rtept>
    <rtept lat="55.73650046129876" lon="37.59043100248788">
    </rtept>
    <rtept lat="55.736151263744375" lon="37.591439513077404">
    </rtept>
    <rtept lat="55.735847084773546" lon="37.59239974390469">
    </rtept>
    <rtept lat="55.73590534807915" lon="37.59245472918942">
    </rtept>
    <rtept lat="55.73537567832611" lon="37.593803880323904">
    </rtept>
    <rtept lat="55.73522289127625" lon="37.59374645517995">
    </rtept>
    <rtept lat="55.735204730971496" lon="37.5941554920547">
    </rtept>
    <rtept lat="55.735321259433746" lon="37.59421718286201">
    </rtept>
    <rtept lat="55.73532504281992" lon="37.59424668716118">
    </rtept>
    <rtept lat="55.73519565080341" lon="37.59451624916717">
    </rtept>
    <rtept lat="55.73480974221856" lon="37.59573128985084">
    </rtept>
    <rtept lat="55.73437918478652" lon="37.59724003242164">
    </rtept>
    <rtept lat="55.73390095021653" lon="37.59867501424461">
    </rtept>
    <rtept lat="55.733070079317145" lon="37.601282121407046">
    </rtept>
    <rtept lat="55.731919846209074" lon="37.604736806618156">
    </rtept>
    <rtept lat="55.73190319784869" lon="37.60487628148692">
    </rtept>
    <rtept lat="55.73159444514562" lon="37.605908931957664">
    </rtept>
    <rtept lat="55.73157628314553" lon="37.60597330497401">
    </rtept>
    <rtept lat="55.73124331164022" lon="37.6064587848057">
    </rtept>
    <rtept lat="55.730842228527564" lon="37.60767650769843">
    </rtept>
    <rtept lat="55.730223190249504" lon="37.609586240517025">
    </rtept>
    <rtept lat="55.72962079145875" lon="37.6115120665897">
    </rtept>
    <rtept lat="55.72949181306509" lon="37.611668535592514">
    </rtept>
    <rtept lat="55.72921179947579" lon="37.61161757362124">
    </rtept>
    <rtept lat="55.72893783827621" lon="37.61149687421557">
    </rtept>
    <rtept lat="55.728768314360906" lon="37.611298390748466">
    </rtept>
    <rtept lat="55.728456509508774" lon="37.611968943002196">
    </rtept>
    <rtept lat="55.728656307076456" lon="37.61229617250201">
    </rtept>
    <rtept lat="55.728621493937766" lon="37.61384648931261">
    </rtept>
    <rtept lat="55.72862452114973" lon="37.61395377767321">
    </rtept>
    <rtept lat="55.72869793142174" lon="37.613912203433465">
    </rtept>
    <rtept lat="55.72870020184032" lon="37.6139551187777">
    </rtept>
    <rtept lat="55.728561706058414" lon="37.61405972492924">
    </rtept>
    <rtept lat="55.72863435964162" lon="37.61451301825278">
    </rtept>
    <rtept lat="55.72879177527273" lon="37.614439257504856">
    </rtept>
    <rtept lat="55.72884096750176" lon="37.61489255082829">
    </rtept>
    <rtept lat="55.72883945389488" lon="37.615581878545136">
    </rtept>
    <rtept lat="55.728909836552795" lon="37.61567977917418">
    </rtept>
    <rtept lat="55.728921188576216" lon="37.61632350933776">
    </rtept>
    <rtept lat="55.72909525259731" lon="37.6188152815125">
    </rtept>
    <rtept lat="55.72913839007416" lon="37.619811722161494">
    </rtept>
    <rtept lat="55.729184554702734" lon="37.62047154557915">
    </rtept>
    <rtept lat="55.729291262896695" lon="37.620806821706026">
    </rtept>
    <rtept lat="55.729374510195534" lon="37.62151894819948">
    </rtept>
    <rtept lat="55.72950467836843" lon="37.6229606355449">
    </rtept>
    <rtept lat="55.72952359808276" lon="37.6232006932517">
    </rtept>
    <rtept lat="55.729511489438615" lon="37.62336028468807">
    </rtept>
    <rtept lat="55.72948424497553" lon="37.62338576567371">
    </rtept>
    <rtept lat="55.72939645713129" lon="37.62338040125568">
    </rtept>
    <rtept lat="55.729409322603615" lon="37.62344745648106">
    </rtept>
    <rtept lat="55.72940251147173" lon="37.623687514187885">
    </rtept>
    <rtept lat="55.729478947426294" lon="37.62424943697647">
    </rtept>
    <rtept lat="55.72949786716567" lon="37.62455789101314">
    </rtept>
    <rtept lat="55.729525111619196" lon="37.62458203089428">
    </rtept>
    <rtept lat="55.729525111619196" lon="37.624936082484254">
    </rtept>
    <rtept lat="55.729562951106324" lon="37.625346460463525">
    </rtept>
    <rtept lat="55.72989442342654" lon="37.62828616154385">
    </rtept>
    <rtept lat="55.73011237629694" lon="37.630254902960786">
    </rtept>
    <rtept lat="55.73049076378216" lon="37.633849063040685">
    </rtept>
    <rtept lat="55.730769254596275" lon="37.63630596649823">
    </rtept>
    <rtept lat="55.73084644462177" lon="37.63680753958397">
    </rtept>
    <rtept lat="55.730935742717016" lon="37.63695237887076">
    </rtept>
    <rtept lat="55.7310432028585" lon="37.637475409628664">
    </rtept>
    <rtept lat="55.731009905379686" lon="37.63780263912848">
    </rtept>
    <rtept lat="55.73071628092282" lon="37.63758001578026">
    </rtept>
    <rtept lat="55.73038178850415" lon="37.63749418509178">
    </rtept>
    <rtept lat="55.730295516236964" lon="37.63749418509178">
    </rtept>
    <rtept lat="55.73018048624956" lon="37.63735471022299">
    </rtept>
    <rtept lat="55.730137220806235" lon="37.63741031191574">
    </rtept>
    <rtept lat="55.730285549049455" lon="37.63965532086119">
    </rtept>
    <rtept lat="55.730423701647126" lon="37.64138634971029">
    </rtept>
    <rtept lat="55.730520568421525" lon="37.641659935029814">
    </rtept>
    <rtept lat="55.730021096529626" lon="37.64347847274191">
    </rtept>
    <rtept lat="55.72937934140633" lon="37.64593001178152">
    </rtept>
    <rtept lat="55.72875271178223" lon="37.64855857661609">
    </rtept>
    <rtept lat="55.728222944569765" lon="37.65067215731981">
    </rtept>
    <rtept lat="55.72818182516006" lon="37.65078285353069">
    </rtept>
    <rtept lat="55.728122793446914" lon="37.65080431120282">
    </rtept>
    <rtept lat="55.72793358863413" lon="37.65061119215374">
    </rtept>
    <rtept lat="55.72771562354843" lon="37.65041807310467">
    </rtept>
    <rtept lat="55.72749765724069" lon="37.65051195042018">
    </rtept>
    <rtept lat="55.72717676017495" lon="37.6509115995634">
    </rtept>
    <rtept lat="55.72698906442462" lon="37.651206642555">
    </rtept>
    <rtept lat="55.726895216215894" lon="37.65144535915733">
    </rtept>
    <rtept lat="55.727010255924256" lon="37.65159019844415">
    </rtept>
    <rtept lat="55.72709199445755" lon="37.65153655426383">
    </rtept>
    <rtept lat="55.727247902664956" lon="37.65181282179237">
    </rtept>
    <rtept lat="55.72739321460602" lon="37.65204349176766">
    </rtept>
    <rtept lat="55.72759150398271" lon="37.65218564884543">
    </rtept>
    <rtept lat="55.72768837781427" lon="37.652292937206035">
    </rtept>
    <rtept lat="55.72806527526874" lon="37.65323171036124">
    </rtept>
    <rtept lat="55.72824993855131" lon="37.65358576195121">
    </rtept>
    <rtept lat="55.728412502168815" lon="37.65332492711901">
    </rtept>
    <rtept lat="55.72888853385767" lon="37.65442597391962">
    </rtept>
    <rtept lat="55.72930401619914" lon="37.65537145259732">
    </rtept>
    <rtept lat="55.72951970199657" lon="37.656037981537494">
    </rtept>
    <rtept lat="55.7305276707075" lon="37.660241276020756">
    </rtept>
    <rtept lat="55.729628616845794" lon="37.66079381107783">
    </rtept>
    <rtept lat="55.72869778440649" lon="37.661356961256004">
    </rtept>
    <rtept lat="55.728307270425034" lon="37.66200605583761">
    </rtept>
    <rtept lat="55.72755347654185" lon="37.662445938116">
    </rtept>
    <rtept lat="55.727114513525756" lon="37.66267660809129">
    </rtept>
    <rtept lat="55.72664527173091" lon="37.662665879255236">
    </rtept>
    <rtept lat="55.72594896701779" lon="37.662934100156704">
    </rtept>
    <rtept lat="55.72507402731742" lon="37.663036024099206">
    </rtept>
    <rtept lat="55.72351785756279" lon="37.66313794804176">
    </rtept>
    <rtept lat="55.721416626808264" lon="37.6630896682795">
    </rtept>
    <rtept lat="55.7189470213255" lon="37.663035037741494">
    </rtept>
    <rtept lat="55.71808403627932" lon="37.662986757979205">
    </rtept>
    <rtept lat="55.718059811855305" lon="37.66194606088145">
    </rtept>
    <rtept lat="55.71780848263051" lon="37.661929967627344">
    </rtept>
    <rtept lat="55.71766313486772" lon="37.661892416701136">
    </rtept>
    <rtept lat="55.717562326095724" lon="37.66200506947969">
    </rtept>
    <rtept lat="55.717426061721575" lon="37.662359121069656">
    </rtept>
    <rtept lat="55.71736549962428" lon="37.66239130757782">
    </rtept>
    <rtept lat="55.71695973113978" lon="37.66147399209474">
    </rtept>
    <rtept lat="55.71692642159856" lon="37.66118967793917">
    </rtept>
    <rtept lat="55.71703240640343" lon="37.660916092619644">
    </rtept>
    <rtept lat="55.717129306543725" lon="37.66081953309509">
    </rtept>
    <rtept lat="55.717074800244525" lon="37.66056204102967">
    </rtept>
    <rtept lat="55.71675078898788" lon="37.66070688031643">
    </rtept>
    <rtept lat="55.71640860595837" lon="37.660722973570515">
    </rtept>
    <rtept lat="55.716172407066765" lon="37.66061032079191">
    </rtept>
    <rtept lat="55.71421008388159" lon="37.65922093652215">
    </rtept>
    <rtept lat="55.713669519103505" lon="37.65878910087068">
    </rtept>
    <rtept lat="55.71373462954099" lon="37.65845114253478">
    </rtept>
  </rte>
</gpx>