<?xml version="1.0" encoding="UTF-8"?>
<gpx version="1.1" creator="Yandex Map Constructor" xmlns="http://www.topografix.com/GPX/1/1"><metadata><name><![CDATA[23 июня 2025 (я, Соня)]]></name><desc/><time>2026-05-31T19:26:50.710Z</time></metadata><rte><rtept lon="37.58948986270189" lat="55.73610541950334"/><rtept lon="37.58899365403414" lat="55.73634755059133"/><rtept lon="37.589685663959976" lat="55.73687569379334"/><rtept lon="37.592826530716366" lat="55.73579367349996"/><rtept lon="37.59455655553095" lat="55.73517471407267"/><rtept lon="37.59487573840372" lat="55.735159580467204"/><rtept lon="37.60567967631565" lat="55.73176042336477"/><rtept lon="37.606806204101915" lat="55.73112475102092"/><rtept lon="37.61159126498443" lat="55.72970201810945"/><rtept lon="37.6118165705417" lat="55.730059219775185"/><rtept lon="37.61178438403351" lat="55.73048301410462"/><rtept lon="37.61185948588593" lat="55.73063436810261"/><rtept lon="37.61240665652498" lat="55.73062225980446"/><rtept lon="37.61246030070527" lat="55.730380093049384"/><rtept lon="37.616354868194904" lat="55.730277171721646"/><rtept lon="37.62016360499589" lat="55.730185980139204"/><rtept lon="37.62372557856765" lat="55.72998013618341"/><rtept lon="37.623838231346284" lat="55.7302041427826"/><rtept lon="37.62410108782975" lat="55.72997408192666"/><rtept lon="37.62533490397659" lat="55.7299861904267"/><rtept lon="37.63217453696457" lat="55.730749018313745"/><rtept lon="37.6363480541917" lat="55.73125150786674"/><rtept lon="37.638343617698716" lat="55.7316601542177"/><rtept lon="37.640264079353365" lat="55.73284974473153"/><rtept lon="37.6411438439102" lat="55.73322810557826"/><rtept lon="37.64287655093382" lat="55.734142210201384"/><rtept lon="37.64327351786803" lat="55.73453266555121"/><rtept lon="37.64342372157287" lat="55.734529638780586"/><rtept lon="37.64552120902251" lat="55.735861395089884"/><rtept lon="37.649012608835655" lat="55.738325620699335"/><rtept lon="37.650219602892335" lat="55.739130654739306"/><rtept lon="37.64976362735978" lat="55.73935460861428"/><rtept lon="37.65152315647356" lat="55.7404410692237"/><rtept lon="37.651748462030795" lat="55.74032909557815"/><rtept lon="37.65149096996538" lat="55.74050159538426"/><rtept lon="37.651748462030795" lat="55.74064988407921"/><rtept lon="37.652333183596056" lat="55.74068014700866"/><rtept lon="37.652805252382684" lat="55.7411371143784"/><rtept lon="37.65321294815295" lat="55.7416909153126"/><rtept lon="37.65363137275926" lat="55.74204800680526"/><rtept lon="37.65367965252152" lat="55.74220234194593"/><rtept lon="37.65384594948047" lat="55.742507984238976"/><rtept lon="37.65332560093157" lat="55.74273797091394"/><rtept lon="37.65240828544847" lat="55.74309505279068"/><rtept lon="37.65216152221911" lat="55.74309807889426"/><rtept lon="37.65363137275926" lat="55.74265929141519"/><rtept lon="37.65392641575092" lat="55.7424807488847"/><rtept lon="37.65367965252152" lat="55.74207826864587"/><rtept lon="37.65476326496344" lat="55.741742360869"/><rtept lon="37.65529970676641" lat="55.741860382842404"/><rtept lon="37.65524606258612" lat="55.74197537826657"/><rtept lon="37.65746693165045" lat="55.74245956579307"/><rtept lon="37.659183545419936" lat="55.74291651223113"/><rtept lon="37.66012768299317" lat="55.74332503595949"/><rtept lon="37.65969316513275" lat="55.74338858370269"/><rtept lon="37.659612698862304" lat="55.74351567888988"/><rtept lon="37.6596985295508" lat="55.74370026877852"/><rtept lon="37.65966366083361" lat="55.743485418162464"/><rtept lon="37.65984336883759" lat="55.74334167941518"/><rtept lon="37.66004453451371" lat="55.74332049681172"/><rtept lon="37.66024704129435" lat="55.74339085325071"/><rtept lon="37.66000564248301" lat="55.743481635564386"/><rtept lon="37.66009683758946" lat="55.74336210546127"/><rtept lon="37.66026581675741" lat="55.74326678373311"/><rtept lon="37.66180540473196" lat="55.74367832983715"/><rtept lon="37.66324575097296" lat="55.744154931085184"/><rtept lon="37.664989186832635" lat="55.744823675998006"/><rtept lon="37.66668434293004" lat="55.74550300010858"/><rtept lon="37.668033494064495" lat="55.746083971648765"/><rtept lon="37.6677464976999" lat="55.74644102277577"/><rtept lon="37.66804958731858" lat="55.74600681186387"/><rtept lon="37.668105913707905" lat="55.745419787299944"/><rtept lon="37.66819979102342" lat="55.74532749654979"/><rtept lon="37.66849483401504" lat="55.74533354840897"/><rtept lon="37.670021010944524" lat="55.74549240937547"/><rtept lon="37.672823919365094" lat="55.745683041671576"/><rtept lon="37.675763620445366" lat="55.745875185976"/><rtept lon="37.677644844711246" lat="55.74600006089064"/><rtept lon="37.67835294789119" lat="55.746021242026984"/><rtept lon="37.67931317871852" lat="55.745987957378944"/><rtept lon="37.67953311985774" lat="55.746219436386255"/><rtept lon="37.68004542177959" lat="55.74608327243134"/><rtept lon="37.6810619789962" lat="55.7459213879785"/><rtept lon="37.68129533118048" lat="55.74593500445219"/><rtept lon="37.68139725512305" lat="55.74607419479854"/><rtept lon="37.684669550121214" lat="55.74534041396945"/><rtept lon="37.68632179087439" lat="55.74503781990882"/><rtept lon="37.68750196284093" lat="55.744953093149526"/><rtept lon="37.687410767734434" lat="55.7451285983682"/><rtept lon="37.68752610272208" lat="55.74547960643972"/><rtept lon="37.68803572243492" lat="55.74580943009354"/><rtept lon="37.687531467140104" lat="55.74601670316284"/></rte><rte><rtept lon="37.56540126103546" lat="55.4315427509657"/><rtept lon="37.56528056162979" lat="55.43133075289865"/><rtept lon="37.56435519951965" lat="55.431493945756614"/><rtept lon="37.56444907683517" lat="55.431663238566195"/><rtept lon="37.564371292773735" lat="55.431997246559845"/><rtept lon="37.564186220351694" lat="55.43211620762767"/><rtept lon="37.56352907914305" lat="55.432226017524606"/><rtept lon="37.561769550029275" lat="55.43195149220126"/><rtept lon="37.56156838435316" lat="55.431861508485525"/><rtept lon="37.56127602357054" lat="55.4319164138281"/><rtept lon="37.558309500400036" lat="55.43142531331118"/><rtept lon="37.55820757645746" lat="55.431323127029984"/><rtept lon="37.55789644021175" lat="55.43129262361098"/><rtept lon="37.557735507670856" lat="55.431312450836025"/><rtept lon="37.55708909529827" lat="55.431216364959894"/><rtept lon="37.55696034926553" lat="55.43114163133833"/><rtept lon="37.555815046016136" lat="55.43099826439535"/><rtept lon="37.555458312217176" lat="55.4309952140293"/><rtept lon="37.55485213297981" lat="55.43101351622202"/><rtept lon="37.55468315381185" lat="55.431100451515185"/><rtept lon="37.55320525664461" lat="55.4316723894611"/><rtept lon="37.55162275332583" lat="55.43229159824194"/><rtept lon="37.550670569125536" lat="55.43267440470041"/><rtept lon="37.548763518515955" lat="55.43344610679153"/><rtept lon="37.548256581012105" lat="55.43360624069812"/><rtept lon="37.547084455672604" lat="55.433982934079545"/><rtept lon="37.547030811492284" lat="55.43403021113303"/><rtept lon="37.546462183181106" lat="55.434080538250605"/><rtept lon="37.54580772418145" lat="55.43395090764438"/><rtept lon="37.5458318640626" lat="55.433836527347864"/><rtept lon="37.54564813274508" lat="55.43389905527865"/><rtept lon="37.5454898824132" lat="55.433911255834204"/><rtept lon="37.54518545169001" lat="55.43368706991374"/><rtept lon="37.54411525029305" lat="55.43406528759044"/><rtept lon="37.542475079480425" lat="55.434728684804114"/><rtept lon="37.53967753547781" lat="55.43571537212572"/><rtept lon="37.539318119469755" lat="55.435453071249285"/><rtept lon="37.538985525551915" lat="55.435593371929535"/><rtept lon="37.53861806291688" lat="55.43535089543869"/><rtept lon="37.538473223630064" lat="55.43527159462651"/><rtept lon="37.53836593526949" lat="55.435262444522486"/><rtept lon="37.53800383705248" lat="55.43520449381429"/><rtept lon="37.5377919425403" lat="55.435286844789225"/><rtept lon="37.53702483076199" lat="55.43515111806288"/><rtept lon="37.53651521104916" lat="55.435108417428395"/><rtept lon="37.53604850668058" lat="55.43513434281914"/><rtept lon="37.535892938557716" lat="55.43528379473834"/><rtept lon="37.53525189060315" lat="55.4352898948046"/><rtept lon="37.53381959098919" lat="55.43504589140971"/><rtept lon="37.53336093324765" lat="55.43498794037632"/><rtept lon="37.533267055932136" lat="55.434931514293766"/><rtept lon="37.53212979930981" lat="55.435021490981605"/><rtept lon="37.53178915876492" lat="55.4351221426256"/><rtept lon="37.53111860651119" lat="55.43548662141632"/><rtept lon="37.53049096960172" lat="55.43550492151194"/><rtept lon="37.52789190906628" lat="55.43524109421265"/><rtept lon="37.52571395534619" lat="55.43511604250389"/><rtept lon="37.52291909355263" lat="55.43535089536809"/><rtept lon="37.52169064182377" lat="55.435143492900025"/><rtept lon="37.52126685279943" lat="55.43519229357782"/><rtept lon="37.5208135594759" lat="55.43521211883586"/><rtept lon="37.52054265636541" lat="55.43514196787786"/><rtept lon="37.5203683127794" lat="55.43467683335263"/></rte><rte><rtept lon="37.520352219525144" lat="55.43463565717987"/><rtept lon="37.520328079644024" lat="55.43417814196736"/><rtept lon="37.52056679624632" lat="55.43415831618775"/><rtept lon="37.52050778764801" lat="55.43388685450739"/><rtept lon="37.52062848705363" lat="55.43378314954444"/><rtept lon="37.52099594968869" lat="55.433651992883355"/><rtept lon="37.52039245266024" lat="55.43155495189956"/><rtept lon="37.52128831047123" lat="55.43056358450629"/><rtept lon="37.52321413654388" lat="55.42861128024302"/><rtept lon="37.52539209026392" lat="55.42622262612441"/><rtept lon="37.5262611259847" lat="55.42535925821077"/><rtept lon="37.526169930878204" lat="55.425286038858886"/><rtept lon="37.52657226223041" lat="55.424956550082165"/><rtept lon="37.52671173709918" lat="55.424959600916786"/><rtept lon="37.530241524162605" lat="55.42097806029683"/><rtept lon="37.53078869480165" lat="55.42051733494002"/><rtept lon="37.53156117099794" lat="55.420306803013254"/><rtept lon="37.53424338001284" lat="55.41967520046441"/><rtept lon="37.53349504369752" lat="55.418907804940226"/><rtept lon="37.53404891985909" lat="55.41874989962066"/><rtept lon="37.53427154320729" lat="55.41863394942414"/><rtept lon="37.53439760703099" lat="55.41775668361484"/><rtept lon="37.53442174691137" lat="55.417662852934214"/><rtept lon="37.53481334942755" lat="55.41783678238661"/><rtept lon="37.535639469804124" lat="55.417815422670714"/><rtept lon="37.537034218491875" lat="55.417386700200126"/><rtept lon="37.53872132796225" lat="55.4173973801701"/><rtept lon="37.53924167651114" lat="55.41734245454933"/><rtept lon="37.539346282662706" lat="55.41620730787371"/><rtept lon="37.5400865723508" lat="55.4162424002642"/><rtept lon="37.54001415270742" lat="55.41632784247533"/></rte><rte><rtept lon="37.54005975026042" lat="55.41633394540117"/><rtept lon="37.540086572350575" lat="55.41621798808764"/><rtept lon="37.539233629883846" lat="55.41621493657476"/><rtept lon="37.53922021883878" lat="55.416153906267695"/><rtept lon="37.53733194369229" lat="55.41614322594836"/><rtept lon="37.53671503561885" lat="55.41613254562614"/><rtept lon="37.53620005148801" lat="55.41652771540042"/><rtept lon="37.53558314341456" lat="55.41644990236111"/><rtept lon="37.53369352716325" lat="55.417022053314035"/><rtept lon="37.533747171343514" lat="55.41719445987594"/><rtept lon="37.534138773859695" lat="55.41714563685382"/><rtept lon="37.53436407941693" lat="55.41735618569803"/><rtept lon="37.534294341982516" lat="55.41867132763752"/><rtept lon="37.533690844954165" lat="55.4188696630937"/><rtept lon="37.534549151838924" lat="55.41956535493422"/><rtept lon="37.53410658735147" lat="55.4196706230232"/><rtept lon="37.53084502118928" lat="55.420553948475465"/><rtept lon="37.5266419996629" lat="55.424950447773604"/><rtept lon="37.52693704265455" lat="55.42503739648091"/><rtept lon="37.52699873346178" lat="55.425033582915795"/><rtept lon="37.52711943286745" lat="55.425016803354055"/><rtept lon="37.527737682045334" lat="55.42524637763409"/><rtept lon="37.52927056449733" lat="55.42568569213742"/><rtept lon="37.52953275042835" lat="55.425662429870734"/><rtept lon="37.52939327555956" lat="55.42564679462031"/><rtept lon="37.52932554978194" lat="55.42570475941996"/><rtept lon="37.52674794691855" lat="55.424966845856765"/><rtept lon="37.526466314971984" lat="55.42497142210156"/><rtept lon="37.52625844377335" lat="55.425300148045764"/><rtept lon="37.52048901218212" lat="55.43150195162134"/><rtept lon="37.52078941959177" lat="55.43273426434245"/><rtept lon="37.5210844625833" lat="55.43371032618861"/><rtept lon="37.52119175094388" lat="55.43404736692317"/><rtept lon="37.52117431658528" lat="55.434105319331564"/><rtept lon="37.5207438220384" lat="55.434108369456276"/><rtept lon="37.52063385146878" lat="55.43391468606804"/><rtept lon="37.52059898275161" lat="55.433831569675704"/><rtept lon="37.51984796422743" lat="55.433836144888645"/><rtept lon="37.518151467025476" lat="55.433932986877934"/><rtept lon="37.515775029838224" lat="55.4339863642542"/><rtept lon="37.51539415615812" lat="55.43398026398562"/><rtept lon="37.51488185423627" lat="55.43396653837787"/><rtept lon="37.51486710208666" lat="55.43424867489553"/><rtept lon="37.514805411279305" lat="55.43435009104506"/><rtept lon="37.51453182595976" lat="55.434354666197656"/><rtept lon="37.51352867978819" lat="55.435141585525514"/><rtept lon="37.51267305511239" lat="55.435270449678555"/><rtept lon="37.51138157147168" lat="55.43542371358497"/><rtept lon="37.51129171746965" lat="55.43552817669361"/><rtept lon="37.510851835191204" lat="55.43560442696797"/><rtept lon="37.51055142778152" lat="55.43549767652597"/><rtept lon="37.51036635535951" lat="55.43541532598689"/><rtept lon="37.51035294431442" lat="55.43526129951545"/><rtept lon="37.51029125350709" lat="55.435165223291925"/><rtept lon="37.510052536904766" lat="55.43504169637375"/><rtept lon="37.50973067182298" lat="55.43487546817975"/><rtept lon="37.50936857360597" lat="55.43472448966954"/><rtept lon="37.50888577598329" lat="55.434600961366186"/><rtept lon="37.50885009462854" lat="55.43450014290303"/><rtept lon="37.509434816193775" lat="55.43514218248422"/><rtept lon="37.50779598648567" lat="55.43539991037565"/><rtept lon="37.507036921334475" lat="55.435598161458884"/><rtept lon="37.50669896299858" lat="55.43589401121574"/><rtept lon="37.50535517628213" lat="55.436096834756434"/><rtept lon="37.504242059540935" lat="55.43633320674191"/><rtept lon="37.50338107044717" lat="55.436391155780015"/><rtept lon="37.50281780655404" lat="55.436369806142174"/><rtept lon="37.5012433498623" lat="55.43654365284999"/><rtept lon="37.50095098907968" lat="55.43653450304213"/><rtept lon="37.49954305242476" lat="55.43745498389314"/><rtept lon="37.4988161737817" lat="55.43855139501634"/><rtept lon="37.49848626207287" lat="55.43903325726319"/><rtept lon="37.49830118965083" lat="55.43914457270297"/><rtept lon="37.498062473048506" lat="55.4391643959674"/><rtept lon="37.497579675425776" lat="55.43912932402534"/><rtept lon="37.49620638441015" lat="55.43882434934203"/><rtept lon="37.49580673526693" lat="55.43880300102598"/><rtept lon="37.495460730304025" lat="55.43886704593934"/><rtept lon="37.49507717441486" lat="55.43899208569574"/><rtept lon="37.49381117175979" lat="55.440137248473604"/><rtept lon="37.493432980288645" lat="55.44039646843391"/><rtept lon="37.49358586620245" lat="55.44062671527568"/><rtept lon="37.49376825641548" lat="55.44089203120982"/><rtept lon="37.493669014681885" lat="55.44124197102092"/><rtept lon="37.49381519507315" lat="55.44171465167478"/></rte><rte><rtept lon="37.493980150927364" lat="55.441663571865256"/><rtept lon="37.49436370681648" lat="55.44147297526139"/><rtept lon="37.494208138693615" lat="55.441335745134175"/><rtept lon="37.49429665159108" lat="55.44117716749548"/><rtept lon="37.494739216078536" lat="55.441168018766376"/><rtept lon="37.49500743698003" lat="55.44131897252429"/><rtept lon="37.4954929168116" lat="55.4413159229356"/><rtept lon="37.495427202690735" lat="55.441399023500686"/><rtept lon="37.49586574386466" lat="55.441453153132045"/><rtept lon="37.4957825953852" lat="55.44148288627812"/><rtept lon="37.49610982488499" lat="55.44158885806546"/><rtept lon="37.496325742710695" lat="55.441624690191865"/><rtept lon="37.49638206909992" lat="55.44170931484782"/><rtept lon="37.496812563646806" lat="55.4417039781617"/><rtept lon="37.49659262250759" lat="55.44188694984349"/><rtept lon="37.49564312051631" lat="55.44196166302346"/><rtept lon="37.49465874980786" lat="55.44210651471931"/><rtept lon="37.49456084917876" lat="55.44151033218022"/><rtept lon="37.494363706816124" lat="55.44148136143713"/><rtept lon="37.4940163607487" lat="55.441682631380516"/><rtept lon="37.49387554477542" lat="55.441682631380516"/><rtept lon="37.49367572020377" lat="55.441411221663266"/><rtept lon="37.493631463755015" lat="55.441219861442214"/><rtept lon="37.4928884918579" lat="55.4413532800155"/><rtept lon="37.49210394572104" lat="55.441474499931815"/><rtept lon="37.49067701052513" lat="55.441684918515335"/><rtept lon="37.493154030550286" lat="55.44129381348704"/><rtept lon="37.4936576152928" lat="55.44122824773676"/><rtept lon="37.49382994722202" lat="55.44169406709465"/></rte><rte><rtept lon="37.49377026807143" lat="55.44170283447995"/><rtept lon="37.49371125947309" lat="55.44099228634971"/><rtept lon="37.49375953923533" lat="55.44086420333985"/><rtept lon="37.49343230973551" lat="55.44038541317545"/><rtept lon="37.49437644730872" lat="55.43960774792234"/><rtept lon="37.49517038117713" lat="55.43894595791884"/><rtept lon="37.495682683098956" lat="55.43881176872623"/><rtept lon="37.49617352734868" lat="55.43883769166827"/><rtept lon="37.497522678483186" lat="55.43913199216616"/><rtept lon="37.49772116195029" lat="55.439164014367826"/><rtept lon="37.49798670064275" lat="55.43918383762244"/><rtept lon="37.49839439641303" lat="55.43915486517"/><rtept lon="37.498592879880135" lat="55.438941383283066"/><rtept lon="37.49958773177938" lat="55.437456692291924"/><rtept lon="37.500961022795" lat="55.436556971893566"/><rtept lon="37.50170131248313" lat="55.436505122971745"/><rtept lon="37.50308801454379" lat="55.43635262574049"/><rtept lon="37.50365664285494" lat="55.436404474863494"/><rtept lon="37.50456322950197" lat="55.43629467663971"/><rtept lon="37.50546713393995" lat="55.436064404362675"/><rtept lon="37.506475644529544" lat="55.43596223014137"/><rtept lon="37.50706841272179" lat="55.43560385576698"/><rtept lon="37.50748415511912" lat="55.43545898009476"/><rtept lon="37.50936438363852" lat="55.43515550194978"/><rtept lon="37.50966210883916" lat="55.435292753659716"/><rtept lon="37.51024683040442" lat="55.43540865473038"/><rtept lon="37.510871785104875" lat="55.43559318072394"/><rtept lon="37.511330442846415" lat="55.4355291304752"/><rtept lon="37.5113626293546" lat="55.435411704742215"/><rtept lon="37.51325895112812" lat="55.43520582762068"/><rtept lon="37.51359959167303" lat="55.43512347645834"/><rtept lon="37.5145222715741" lat="55.43434570707568"/><rtept lon="37.514809267938695" lat="55.434364007708425"/><rtept lon="37.51496483606156" lat="55.433959866751984"/><rtept lon="37.517338591039746" lat="55.4339110645381"/><rtept lon="37.52017368596847" lat="55.43381193486063"/><rtept lon="37.520565288484654" lat="55.43380888471293"/><rtept lon="37.520546513021564" lat="55.434022394480664"/><rtept lon="37.52055992406663" lat="55.4341291489296"/><rtept lon="37.52039630931672" lat="55.43421455227999"/><rtept lon="37.52036412280854" lat="55.43466901698186"/><rtept lon="37.520565288484654" lat="55.435150926837515"/><rtept lon="37.52095957320985" lat="55.43519362742583"/><rtept lon="37.521699862897954" lat="55.43513415159371"/><rtept lon="37.52296318334398" lat="55.43536747933629"/><rtept lon="37.52561588805961" lat="55.435100601066964"/><rtept lon="37.53051896613884" lat="55.43551235532816"/><rtept lon="37.53112514537621" lat="55.43549710524705"/><rtept lon="37.53160794299889" lat="55.435274453388914"/><rtept lon="37.53206928294944" lat="55.43499689930643"/><rtept lon="37.5333030990963" lat="55.434923697897226"/><rtept lon="37.53349621814538" lat="55.435002999411346"/><rtept lon="37.535411315382" lat="55.435311053769226"/><rtept lon="37.535958486021045" lat="55.43527750341113"/><rtept lon="37.53607650321771" lat="55.43513415155845"/><rtept lon="37.53680606406975" lat="55.43510670114403"/><rtept lon="37.53777702373314" lat="55.43528055344486"/><rtept lon="37.53813643974114" lat="55.43520735256981"/><rtept lon="37.5385441355114" lat="55.43527140334294"/><rtept lon="37.53895719569969" lat="55.4355977556613"/><rtept lon="37.53934879821587" lat="55.435463555036016"/><rtept lon="37.53968675655176" lat="55.43571670582659"/><rtept lon="37.541596489370356" lat="55.43502434977988"/><rtept lon="37.543259458959554" lat="55.434383833319615"/><rtept lon="37.54523892921254" lat="55.43364265125217"/><rtept lon="37.54734178108016" lat="55.432770295557994"/><rtept lon="37.54572172683517" lat="55.4315501852549"/><rtept lon="37.54620988887588" lat="55.43143732313825"/><rtept lon="37.54774947685045" lat="55.43268488906951"/><rtept lon="37.553821998060144" lat="55.43015006200691"/><rtept lon="37.55476077121532" lat="55.431074331953795"/><rtept lon="37.55561371368206" lat="55.43102247579919"/><rtept lon="37.55698968690662" lat="55.431176518869975"/><rtept lon="37.5579955152872" lat="55.43133056134889"/><rtept lon="37.55876530927447" lat="55.431496804535"/><rtept lon="37.56129999679355" lat="55.431902495958546"/><rtept lon="37.56161649745731" lat="55.431864367243065"/><rtept lon="37.561823027551455" lat="55.43195587609808"/><rtept lon="37.56295760196472" lat="55.4318613169325"/><rtept lon="37.563515501439824" lat="55.43180031090607"/><rtept lon="37.56333579343579" lat="55.43156543681451"/><rtept lon="37.56411631625911" lat="55.43145104957628"/><rtept lon="37.56437380832453" lat="55.431408344922026"/><rtept lon="37.56490756791846" lat="55.43130005790629"/><rtept lon="37.565401094377194" lat="55.43123600066144"/><rtept lon="37.565277712762516" lat="55.43101790021172"/></rte><rte><rtept lon="37.66234551970817" lat="55.757995060383294"/><rtept lon="37.66180371348717" lat="55.75794968620914"/><rtept lon="37.66090249125817" lat="55.75785288779371"/><rtept lon="37.66125654284812" lat="55.75745964174997"/><rtept lon="37.66146039073325" lat="55.75727511723372"/><rtept lon="37.66162668769217" lat="55.75735376713473"/><rtept lon="37.66076838080741" lat="55.75904470147399"/><rtept lon="37.66019975249626" lat="55.759038651750686"/><rtept lon="37.66015683715202" lat="55.75875733857619"/><rtept lon="37.65979742114402" lat="55.75857887002187"/><rtept lon="37.65949701373437" lat="55.758367126599175"/><rtept lon="37.65846168105461" lat="55.75845484901178"/><rtept lon="37.65783404414512" lat="55.75846089882604"/><rtept lon="37.65739952628467" lat="55.75851837200814"/><rtept lon="37.657372704194515" lat="55.758149332160066"/><rtept lon="37.657174220727384" lat="55.75668221282218"/><rtept lon="37.656745067284994" lat="55.75480663935539"/><rtept lon="37.65621935431805" lat="55.75478546299005"/><rtept lon="37.654347172425645" lat="55.75447689205988"/><rtept lon="37.65363906924573" lat="55.754071510837505"/><rtept lon="37.65254472796763" lat="55.75357536686077"/><rtept lon="37.65053843562451" lat="55.75323048256198"/><rtept lon="37.64933680598578" lat="55.753045937945096"/><rtept lon="37.64779185359321" lat="55.75310341914733"/><rtept lon="37.64723395411811" lat="55.75310039382302"/><rtept lon="37.64697646205269" lat="55.752797860201774"/><rtept lon="37.64600550238928" lat="55.751596778471935"/><rtept lon="37.64590357844673" lat="55.75140314973044"/><rtept lon="37.645495882676464" lat="55.75114295958915"/><rtept lon="37.64496480529152" lat="55.750955379568936"/><rtept lon="37.644492736504894" lat="55.750819232212756"/><rtept lon="37.64416818921409" lat="55.750837385208584"/><rtept lon="37.64324014489494" lat="55.75067249507087"/><rtept lon="37.64277880494436" lat="55.75053634671692"/><rtept lon="37.6425025374158" lat="55.7506377016371"/><rtept lon="37.64232819382984" lat="55.75062257405295"/><rtept lon="37.64216457907993" lat="55.7505076042207"/><rtept lon="37.64197146003086" lat="55.750209588729305"/><rtept lon="37.64116411511738" lat="55.74931401572109"/><rtept lon="37.6409924537404" lat="55.748973632047544"/><rtept lon="37.63963525597883" lat="55.74816577619228"/><rtept lon="37.63943140809371" lat="55.74811585196544"/><rtept lon="37.63930534427001" lat="55.74794641168686"/><rtept lon="37.638951292680034" lat="55.74804626051187"/><rtept lon="37.638768902467035" lat="55.74785866553785"/><rtept lon="37.6352230221493" lat="55.748832939229224"/><rtept lon="37.633232823060204" lat="55.749310990057694"/><rtept lon="37.63104414050406" lat="55.74956816687055"/><rtept lon="37.62729977671927" lat="55.749776932672084"/><rtept lon="37.62441371981924" lat="55.7495923716531"/><rtept lon="37.620658627198395" lat="55.7492232469783"/><rtept lon="37.61676942412676" lat="55.74862114264994"/><rtept lon="37.613164535210736" lat="55.74769830133024"/><rtept lon="37.611372819588745" lat="55.74711432810209"/><rtept lon="37.61040185992533" lat="55.74649101021858"/><rtept lon="37.60833119456582" lat="55.74445456705966"/><rtept lon="37.6073334128123" lat="55.743235070796636"/><rtept lon="37.60712956492714" lat="55.74199435293794"/><rtept lon="37.60650192801767" lat="55.740375307864866"/><rtept lon="37.605997672722836" lat="55.739037653382795"/><rtept lon="37.60540758673955" lat="55.73843236473323"/><rtept lon="37.60175441806123" lat="55.736661841309484"/><rtept lon="37.59913121764462" lat="55.73538459313428"/><rtept lon="37.59839092795652" lat="55.73487005001477"/><rtept lon="37.59803151194852" lat="55.73508494826102"/><rtept lon="37.597816935227335" lat="55.73497598591846"/><rtept lon="37.595166912720565" lat="55.736313780192035"/><rtept lon="37.59485845868387" lat="55.736201794641524"/><rtept lon="37.59476458136833" lat="55.73613974846128"/><rtept lon="37.594448080704574" lat="55.73620936124209"/><rtept lon="37.59418790643014" lat="55.73577503598489"/><rtept lon="37.59387677018441" lat="55.735888536078754"/><rtept lon="37.593522718594436" lat="55.73596420262803"/><rtept lon="37.593691697762395" lat="55.73588550941371"/><rtept lon="37.59330814187325" lat="55.73557527499737"/><rtept lon="37.59294604365624" lat="55.73577503597863"/><rtept lon="37.58969252412114" lat="55.73685403018871"/><rtept lon="37.58892004792486" lat="55.73630318694801"/><rtept lon="37.58949940507207" lat="55.73608224213824"/></rte></gpx>