<?xml version="1.0" encoding="UTF-8"?>
<gpx version="1.1" creator="Yandex Map Constructor" xmlns="http://www.topografix.com/GPX/1/1"><metadata><name><![CDATA[25 мая 2025]]></name><desc><![CDATA[Арсений Папа]]></desc><time>2026-05-31T19:28:59.378Z</time></metadata><rte><rtept lon="37.589943202518825" lat="55.73581937390456"/><rtept lon="37.58981445648611" lat="55.73593438720591"/><rtept lon="37.590511830829975" lat="55.73661538004282"/><rtept lon="37.593875320934615" lat="55.735350237163686"/><rtept lon="37.59458878853258" lat="55.73513231366053"/><rtept lon="37.59470680572922" lat="55.73520192824575"/><rtept lon="37.60416698017137" lat="55.73224015828333"/><rtept lon="37.604279632949975" lat="55.732172051864374"/><rtept lon="37.603922899151016" lat="55.73192232733017"/><rtept lon="37.603367681884926" lat="55.73155303476929"/><rtept lon="37.60297071495067" lat="55.73136536014682"/><rtept lon="37.60260593452465" lat="55.73145919756506"/><rtept lon="37.60033411511234" lat="55.729388661075184"/><rtept lon="37.60142845639041" lat="55.729022371644064"/><rtept lon="37.6011012268906" lat="55.728538016692326"/><rtept lon="37.60193271168522" lat="55.7286227792445"/><rtept lon="37.60205609329991" lat="55.728347300274265"/><rtept lon="37.60246378907017" lat="55.72816263745413"/><rtept lon="37.60136408337407" lat="55.727257474216664"/><rtept lon="37.601562566841146" lat="55.727163626649606"/><rtept lon="37.60174763926319" lat="55.7270667515105"/><rtept lon="37.601828105533635" lat="55.72713032584777"/><rtept lon="37.60158402451328" lat="55.72721811880927"/><rtept lon="37.60147137173465" lat="55.72724839219829"/><rtept lon="37.601302392566716" lat="55.72722568715873"/><rtept lon="37.60038507708359" lat="55.72648852299136"/><rtept lon="37.59910834559249" lat="55.72546827684023"/><rtept lon="37.59873820074844" lat="55.725553046085174"/><rtept lon="37.598223216617576" lat="55.72528965532624"/><rtept lon="37.59623838194656" lat="55.72417249537167"/><rtept lon="37.59506893881602" lat="55.72349733978196"/><rtept lon="37.59439838656231" lat="55.72390001246011"/><rtept lon="37.593695647800395" lat="55.724369287387276"/><rtept lon="37.5930465532188" lat="55.72379404637015"/><rtept lon="37.592064864719354" lat="55.72291300283413"/><rtept lon="37.59118510016247" lat="55.722416460915326"/><rtept lon="37.59032142885963" lat="55.72175338589907"/><rtept lon="37.58981717356482" lat="55.721247745758916"/><rtept lon="37.58889985808172" lat="55.720539232938826"/><rtept lon="37.587553389156255" lat="55.71958241736403"/><rtept lon="37.58702767618921" lat="55.71888144407668"/><rtept lon="37.584474213207045" lat="55.71701615800317"/><rtept lon="37.58316529520776" lat="55.71605017112081"/><rtept lon="37.58207095392969" lat="55.71520226318251"/><rtept lon="37.58240354784753" lat="55.71509627339056"/><rtept lon="37.5822748018148" lat="55.71494485889484"/><rtept lon="37.58255375155235" lat="55.71470259448564"/><rtept lon="37.58304727801108" lat="55.71422714618996"/><rtept lon="37.58329404124045" lat="55.714127210460056"/><rtept lon="37.58365882166647" lat="55.7136154143581"/><rtept lon="37.58409333952689" lat="55.71327320374465"/><rtept lon="37.58434546717426" lat="55.71317932242441"/><rtept lon="37.58490873106733" lat="55.71284619334027"/><rtept lon="37.58476925619855" lat="55.71259785890352"/><rtept lon="37.584699518764175" lat="55.71244037770757"/><rtept lon="37.58457077273147" lat="55.712228382783174"/><rtept lon="37.584324009502076" lat="55.71201032965565"/><rtept lon="37.58395922907605" lat="55.711855874611196"/><rtept lon="37.584028966510445" lat="55.71163781939562"/><rtept lon="37.58416307696118" lat="55.711513648518356"/><rtept lon="37.58444739111678" lat="55.71141067724632"/><rtept lon="37.584892637813255" lat="55.7113925058171"/><rtept lon="37.58549345263257" lat="55.71142884866709"/><rtept lon="37.58520913847699" lat="55.71130770570176"/><rtept lon="37.585375435435935" lat="55.7111229619533"/><rtept lon="37.58546797164693" lat="55.71109873318744"/><rtept lon="37.585732169234895" lat="55.71127514845303"/><rtept lon="37.585765696847595" lat="55.71125394837758"/><rtept lon="37.585529662454285" lat="55.71109267599673"/><rtept lon="37.58556587227597" lat="55.71108207591072"/><rtept lon="37.58579654225126" lat="55.71125167694023"/><rtept lon="37.58632359632265" lat="55.711015446726314"/><rtept lon="37.58608487972032" lat="55.71084205889824"/><rtept lon="37.58611974843752" lat="55.71083297305187"/><rtept lon="37.58648721107255" lat="55.71111690474766"/><rtept lon="37.586581088388066" lat="55.71116081933159"/><rtept lon="37.58727712162731" lat="55.71080647260467"/><rtept lon="37.58774919041394" lat="55.71043395082303"/><rtept lon="37.58777869471303" lat="55.70990999134845"/><rtept lon="37.588060326659594" lat="55.709903933972654"/><rtept lon="37.58808714874973" lat="55.709866075352565"/><rtept lon="37.588312454306994" lat="55.70996147900463"/><rtept lon="37.58956772812596" lat="55.70998267978445"/><rtept lon="37.591319210612696" lat="55.71001750960565"/><rtept lon="37.592815883243" lat="55.71007202578848"/><rtept lon="37.593620545947395" lat="55.710102312508454"/><rtept lon="37.594122119033166" lat="55.710188629584366"/><rtept lon="37.59456200131161" lat="55.71018105791871"/><rtept lon="37.59567780026181" lat="55.710217401894226"/><rtept lon="37.595873601519905" lat="55.71038852101863"/><rtept lon="37.59670508631451" lat="55.71041123589008"/><rtept lon="37.59814006813748" lat="55.71044000801036"/><rtept lon="37.59850484856351" lat="55.7104384936809"/><rtept lon="37.59850753077252" lat="55.710337033890234"/><rtept lon="37.59859872587902" lat="55.710329462253455"/><rtept lon="37.60051918753369" lat="55.710623240679816"/><rtept lon="37.60128227599839" lat="55.710761800340805"/><rtept lon="37.600901402318236" lat="55.711777889520945"/><rtept lon="37.60059831269954" lat="55.71259104460839"/><rtept lon="37.600399829232416" lat="55.713004429774394"/><rtept lon="37.60028717645378" lat="55.71312859588691"/><rtept lon="37.600128926121904" lat="55.71376607665786"/><rtept lon="37.59986606963843" lat="55.71408102767215"/><rtept lon="37.59979364999505" lat="55.7142612148496"/><rtept lon="37.60012624391289" lat="55.714279384938806"/><rtept lon="37.600539304101176" lat="55.71431875343008"/><rtept lon="37.601150847756564" lat="55.71439294779785"/><rtept lon="37.60151026376457" lat="55.714439887018656"/><rtept lon="37.60192064174384" lat="55.71432783846231"/><rtept lon="37.60206011661263" lat="55.7140991978393"/><rtept lon="37.602706528985216" lat="55.71420216198859"/><rtept lon="37.602792359673685" lat="55.714230931336274"/><rtept lon="37.602695800149164" lat="55.71428089910008"/><rtept lon="37.602714575612254" lat="55.71438386277462"/><rtept lon="37.60268507131308" lat="55.71447622701543"/><rtept lon="37.60260192283362" lat="55.71457464768643"/><rtept lon="37.60268238910407" lat="55.714400518637525"/><rtept lon="37.602744079911425" lat="55.71428695579436"/><rtept lon="37.60278967746467" lat="55.71419913363497"/><rtept lon="37.602064139926156" lat="55.71410828291036"/><rtept lon="37.60194075831145" lat="55.71431799633152"/><rtept lon="37.601542450272746" lat="55.71444291534109"/><rtept lon="37.6017127705452" lat="55.7144716845107"/><rtept lon="37.60209498532982" lat="55.71453452235979"/><rtept lon="37.601586706721505" lat="55.714440644089954"/><rtept lon="37.60193673499794" lat="55.714299069173876"/><rtept lon="37.60213790067406" lat="55.71400607559232"/><rtept lon="37.60206011661263" lat="55.713922795361924"/><rtept lon="37.602170087182245" lat="55.71392582373705"/><rtept lon="37.602219708049" lat="55.71394702235642"/><rtept lon="37.60254291423531" lat="55.71400607559232"/><rtept lon="37.60211376079292" lat="55.71393869432876"/><rtept lon="37.602107055270395" lat="55.71403333090173"/><rtept lon="37.6019112540123" lat="55.714299826254106"/><rtept lon="37.60147405394287" lat="55.71444821492031"/><rtept lon="37.60002834328379" lat="55.71426424315476"/><rtept lon="37.59974268802372" lat="55.71424228762068"/><rtept lon="37.59991703160966" lat="55.7140726996233"/><rtept lon="37.60011685618125" lat="55.713861470689686"/><rtept lon="37.600344843947475" lat="55.713118753377806"/><rtept lon="37.60059965380388" lat="55.7125630310558"/><rtept lon="37.601145483338385" lat="55.71115476182014"/><rtept lon="37.60132525543116" lat="55.71067154193536"/><rtept lon="37.60243166664976" lat="55.71085098774647"/><rtept lon="37.60416839698683" lat="55.711104633357294"/><rtept lon="37.60528151372797" lat="55.71125076276886"/><rtept lon="37.60579381564982" lat="55.71135070588255"/><rtept lon="37.60596011260874" lat="55.71143702018236"/><rtept lon="37.60608504338607" lat="55.71195204762657"/><rtept lon="37.60619099064215" lat="55.71230335535532"/><rtept lon="37.60626341028556" lat="55.7124835507674"/><rtept lon="37.60651956124643" lat="55.71246310846648"/><rtept lon="37.60688836498596" lat="55.71270462970633"/><rtept lon="37.60692591591215" lat="55.71278942677033"/><rtept lon="37.60712305827473" lat="55.71275687077414"/><rtept lon="37.60722095890378" lat="55.71296734859367"/><rtept lon="37.607250463202895" lat="55.71311195678903"/><rtept lon="37.60762865467396" lat="55.7140954297089"/><rtept lon="37.6078539602311" lat="55.71455876628226"/><rtept lon="37.607843231395044" lat="55.71474955033623"/><rtept lon="37.608621072009356" lat="55.716772409402225"/><rtept lon="37.60988171024635" lat="55.71677240938354"/><rtept lon="37.60992462559059" lat="55.71692987304152"/><rtept lon="37.609938036635675" lat="55.71704342816847"/><rtept lon="37.610415469840326" lat="55.71705705476143"/><rtept lon="37.610937159493666" lat="55.71705856881456"/><rtept lon="37.61100555582357" lat="55.717386362626904"/><rtept lon="37.61102835460019" lat="55.716857197561325"/><rtept lon="37.61100689692806" lat="55.71670578992674"/><rtept lon="37.6135777942688" lat="55.71667853647745"/><rtept lon="37.61342490835492" lat="55.71560352456403"/><rtept lon="37.6134973279983" lat="55.713574547882935"/><rtept lon="37.613400768473724" lat="55.71192403353904"/><rtept lon="37.614747237399214" lat="55.71185437726673"/><rtept lon="37.61835480852421" lat="55.71179683502844"/><rtept lon="37.62158687038715" lat="55.711736264153465"/><rtept lon="37.62090558929736" lat="55.71171203578205"/><rtept lon="37.620937775805544" lat="55.71158180802712"/><rtept lon="37.620833169653956" lat="55.71122292230057"/><rtept lon="37.62110943718249" lat="55.711076035628984"/><rtept lon="37.621487628653604" lat="55.711077549927374"/><rtept lon="37.621671359971124" lat="55.7110253065856"/><rtept lon="37.62155200166995" lat="55.710768631818155"/><rtept lon="37.62237678094203" lat="55.71068761612074"/><rtept lon="37.62229095025356" lat="55.71049075485962"/><rtept lon="37.62217561526591" lat="55.71049529781676"/><rtept lon="37.62180815263083" lat="55.70968815631283"/><rtept lon="37.62168208880713" lat="55.70898246165709"/><rtept lon="37.621593575909614" lat="55.708491799457825"/><rtept lon="37.62156407161044" lat="55.70813137081818"/><rtept lon="37.621580164864525" lat="55.70787089089929"/><rtept lon="37.62196640296268" lat="55.707663414361086"/><rtept lon="37.62221584840106" lat="55.707587692723465"/><rtept lon="37.62254576010989" lat="55.70741050351557"/><rtept lon="37.622612815335266" lat="55.707322665831285"/><rtept lon="37.62266645951556" lat="55.707084897311695"/><rtept lon="37.622618179753246" lat="55.7068107801902"/><rtept lon="37.6226450018434" lat="55.70667750708892"/><rtept lon="37.62257258219999" lat="55.70649577030601"/><rtept lon="37.62237409873289" lat="55.706333720958675"/><rtept lon="37.622046869233074" lat="55.70621407661493"/><rtept lon="37.621502380803065" lat="55.706220134565235"/><rtept lon="37.62161672741736" lat="55.70565972716208"/><rtept lon="37.62196005017125" lat="55.70568698831939"/><rtept lon="37.622230953281765" lat="55.70543557914457"/><rtept lon="37.622048563068745" lat="55.70530078680963"/><rtept lon="37.62197614342536" lat="55.70509178204109"/><rtept lon="37.62210488945807" lat="55.70445415910143"/><rtept lon="37.62210488945807" lat="55.70433753809351"/><rtept lon="37.622332877224316" lat="55.7041921399915"/><rtept lon="37.62254745394553" lat="55.70410732418108"/><rtept lon="37.62222558886369" lat="55.70379532156715"/><rtept lon="37.6221370759662" lat="55.70351057913987"/><rtept lon="37.622049083017835" lat="55.7030567257756"/><rtept lon="37.62209468057108" lat="55.70281893118713"/><rtept lon="37.62212418487025" lat="55.70257204736368"/><rtept lon="37.62197934558344" lat="55.702220651744724"/><rtept lon="37.621923019194135" lat="55.70181926924607"/><rtept lon="37.62187095574331" lat="55.70162670399151"/><rtept lon="37.62161346367787" lat="55.70101174463746"/><rtept lon="37.62154104403446" lat="55.700834525464266"/><rtept lon="37.622581741132244" lat="55.70071789361455"/><rtept lon="37.622799000062464" lat="55.700633070231596"/><rtept lon="37.622823139943584" lat="55.700399804975135"/><rtept lon="37.622906288423046" lat="55.70024984800055"/><rtept lon="37.62313427618932" lat="55.70009534626466"/><rtept lon="37.62293847493123" lat="55.69944855295357"/><rtept lon="37.62308599642706" lat="55.699383418605194"/><rtept lon="37.62328447989416" lat="55.69928041522712"/><rtept lon="37.623190602578546" lat="55.69909864388251"/><rtept lon="37.62319596699657" lat="55.69900472836158"/><rtept lon="37.62329789093915" lat="55.69889869443655"/><rtept lon="37.623686811246316" lat="55.698827500061434"/><rtept lon="37.62387188366833" lat="55.69879568976939"/><rtept lon="37.62386383704129" lat="55.69855786913708"/><rtept lon="37.62408109597149" lat="55.698471526257215"/><rtept lon="37.62526395014702" lat="55.698367005647825"/><rtept lon="37.62532832316339" lat="55.69853817689334"/><rtept lon="37.62534978083549" lat="55.69865027092939"/><rtept lon="37.624491473950734" lat="55.69870480304643"/><rtept lon="37.62422325304924" lat="55.69875933508704"/><rtept lon="37.624236664094326" lat="55.698854765968086"/><rtept lon="37.62411864689762" lat="55.69883052956824"/><rtept lon="37.62411060027058" lat="55.69875024640651"/><rtept lon="37.62471141508992" lat="55.69867753698506"/><rtept lon="37.6254114716428" lat="55.698604827427786"/><rtept lon="37.625371238507576" lat="55.698489703684274"/><rtept lon="37.6258781760114" lat="55.69845031916133"/><rtept lon="37.62588354042943" lat="55.69784742812292"/><rtept lon="37.625964006699874" lat="55.69719302325409"/><rtept lon="37.62623222760132" lat="55.69519035482143"/><rtept lon="37.62651117733882" lat="55.69367843853346"/><rtept lon="37.62698324612545" lat="55.69167255917628"/><rtept lon="37.627358755387526" lat="55.69169073980345"/><rtept lon="37.62776108673976" lat="55.690163536480696"/><rtept lon="37.62863548687859" lat="55.68816353676013"/><rtept lon="37.62933286122246" lat="55.68688469522149"/><rtept lon="37.62996586254998" lat="55.68599372390945"/><rtept lon="37.63103338173789" lat="55.68523304860618"/><rtept lon="37.63229938439294" lat="55.68457237034259"/><rtept lon="37.633307894982536" lat="55.684220812205176"/><rtept lon="37.63495477131764" lat="55.68377226789849"/><rtept lon="37.63629587582508" lat="55.683560116767474"/><rtept lon="37.63758870057025" lat="55.68344494852662"/><rtept lon="37.63845773629109" lat="55.68342373328103"/><rtept lon="37.64075907162586" lat="55.68356314749988"/><rtept lon="37.643097957886845" lat="55.683751052831234"/><rtept lon="37.65144499234116" lat="55.6843905302982"/><rtept lon="37.65596183232216" lat="55.68471784166638"/><rtept lon="37.65598328999427" lat="55.684572370262025"/><rtept lon="37.65618177346137" lat="55.68450569568677"/><rtept lon="37.656160315789265" lat="55.684417806299464"/><rtept lon="37.65660556248574" lat="55.684287487187675"/><rtept lon="37.656884512223286" lat="55.68416322902377"/><rtept lon="37.65720637730507" lat="55.68408443095826"/><rtept lon="37.657404860772154" lat="55.6838540972372"/><rtept lon="37.657496055878674" lat="55.6836207314199"/><rtept lon="37.65756042889502" lat="55.68347828666226"/><rtept lon="37.6575711577311" lat="55.6833328106273"/><rtept lon="37.65796276024725" lat="55.683217641708"/><rtept lon="37.65833826950936" lat="55.6830418569208"/><rtept lon="37.65853675297646" lat="55.6827236238221"/><rtept lon="37.65876742295172" lat="55.68239629563608"/><rtept lon="37.657699903763806" lat="55.681338521848076"/><rtept lon="37.65767844609168" lat="55.68107786257854"/><rtept lon="37.65780719212439" lat="55.68101421295702"/><rtept lon="37.65817197255041" lat="55.68105058418206"/><rtept lon="37.65835436276343" lat="55.68112635745845"/><rtept lon="37.660569867409684" lat="55.68123547071129"/><rtept lon="37.661047300614314" lat="55.68078083010288"/><rtept lon="37.661444267548525" lat="55.68040195887912"/><rtept lon="37.66154082707305" lat="55.68036407155466"/><rtept lon="37.66211750201124" lat="55.680377710995714"/><rtept lon="37.66275854996578" lat="55.6794835597464"/><rtept lon="37.66325207642446" lat="55.679239558971425"/><rtept lon="37.66326816967857" lat="55.67915317323969"/><rtept lon="37.663469335354684" lat="55.679133471203876"/><rtept lon="37.66320111445314" lat="55.67790131637468"/><rtept lon="37.662895342625454" lat="55.6771738265994"/><rtept lon="37.66282560519106" lat="55.67697982703122"/><rtept lon="37.66302408865816" lat="55.67681613914402"/><rtept lon="37.66289266041644" lat="55.676317493087694"/><rtept lon="37.66281487635501" lat="55.67583702869679"/><rtept lon="37.661843916691616" lat="55.67202038499704"/><rtept lon="37.66332986048582" lat="55.67194307817118"/><rtept lon="37.66342642001032" lat="55.67173086258809"/><rtept lon="37.66365977219457" lat="55.671782400742984"/><rtept lon="37.664212307251645" lat="55.6718672869977"/><rtept lon="37.66580553940648" lat="55.67178391657059"/><rtept lon="37.666304430283134" lat="55.67167174513804"/><rtept lon="37.66670676163537" lat="55.67158989012763"/><rtept lon="37.66711445740563" lat="55.67152622500065"/><rtept lon="37.667739412106116" lat="55.67147923400683"/><rtept lon="37.667921802319114" lat="55.67149136072034"/><rtept lon="37.668780109203894" lat="55.671195771003354"/><rtept lon="37.67016144684651" lat="55.67080164788594"/><rtept lon="37.67048599926632" lat="55.6707056947121"/><rtept lon="37.670523550192534" lat="55.67050863117604"/><rtept lon="37.67044040171307" lat="55.67023425643892"/><rtept lon="37.67066570727033" lat="55.67014785073492"/><rtept lon="37.67062547413511" lat="55.67010919548333"/><rtept lon="37.670696552673995" lat="55.67015012456551"/><rtept lon="37.6709124704997" lat="55.67010388985841"/><rtept lon="37.67022582499184" lat="55.66863268795824"/><rtept lon="37.66983958689371" lat="55.667841353931095"/><rtept lon="37.669649150053615" lat="55.66756392842104"/><rtept lon="37.66990395991002" lat="55.66734107698937"/><rtept lon="37.670160110870896" lat="55.66719705667646"/><rtept lon="37.670126583258224" lat="55.6671705265619"/><rtept lon="37.67006757465985" lat="55.66705682586014"/><rtept lon="37.67007428018238" lat="55.6669825412265"/><rtept lon="37.67004477588323" lat="55.66691962657911"/><rtept lon="37.66999247280744" lat="55.66685595382047"/><rtept lon="37.670039411465204" lat="55.66695828498895"/><rtept lon="37.670048799196735" lat="55.66698784727646"/><rtept lon="37.67001393047954" lat="55.666996943360424"/><rtept lon="37.66983019916199" lat="55.6669992173749"/><rtept lon="37.66964244453094" lat="55.66704469776019"/><rtept lon="37.66958209482811" lat="55.667146270422826"/><rtept lon="37.669354107061835" lat="55.667156882477435"/><rtept lon="37.66917842237138" lat="55.66689309625713"/><rtept lon="37.66892629472394" lat="55.666532282318315"/><rtept lon="37.66846361366887" lat="55.666486801334955"/><rtept lon="37.66672554222717" lat="55.66629957071536"/><rtept lon="37.66567411629333" lat="55.6660812602012"/><rtept lon="37.66256811825409" lat="55.66559763742218"/><rtept lon="37.66005063915871" lat="55.6652052850718"/><rtept lon="37.66101623440402" lat="55.6636163971258"/><rtept lon="37.66101891661304" lat="55.663454169237134"/><rtept lon="37.660863348490174" lat="55.66337836158101"/><rtept lon="37.66002918148651" lat="55.66323584278212"/><rtept lon="37.65990848208084" lat="55.66324039126227"/><rtept lon="37.659583934790035" lat="55.6632510043806"/><rtept lon="37.659318396097554" lat="55.663243423582095"/><rtept lon="37.65907967949522" lat="55.663166099353205"/><rtept lon="37.658701488024136" lat="55.66309635578713"/><rtept lon="37.65857005978241" lat="55.6630811941285"/><rtept lon="37.65824551249161" lat="55.663100904283574"/><rtept lon="37.658242830282575" lat="55.662978094693365"/><rtept lon="37.658122130876905" lat="55.66292957721777"/><rtept lon="37.65786195660247" lat="55.662881059681744"/><rtept lon="37.657639333254245" lat="55.662814347971114"/><rtept lon="37.65754009152068" lat="55.662717312551784"/><rtept lon="37.65676493311533" lat="55.66168023140585"/><rtept lon="37.65677834416042" lat="55.66139821333641"/><rtept lon="37.656770297533356" lat="55.661286012034125"/><rtept lon="37.65621776247626" lat="55.66090088617567"/><rtept lon="37.65612656736976" lat="55.660612797424754"/><rtept lon="37.65610510969763" lat="55.66008816717701"/><rtept lon="37.65592271948463" lat="55.659827365697765"/><rtept lon="37.655472108370134" lat="55.6594755841939"/><rtept lon="37.65501076841953" lat="55.65887208955731"/><rtept lon="37.65481764937045" lat="55.65823825850341"/><rtept lon="37.65495175982119" lat="55.65766810501791"/><rtept lon="37.65496785307527" lat="55.65680679350603"/><rtept lon="37.65485520029661" lat="55.656529289430324"/><rtept lon="37.654621848112285" lat="55.656059196065904"/><rtept lon="37.654627212530315" lat="55.65585750911305"/><rtept lon="37.65478680977832" lat="55.6556834930981"/><rtept lon="37.65479217419635" lat="55.65558416523189"/><rtept lon="37.65470366129886" lat="55.65546588134322"/><rtept lon="37.654585644102205" lat="55.655314234807044"/><rtept lon="37.65443812260638" lat="55.655094346275625"/><rtept lon="37.654365702963" lat="55.654892654330844"/><rtept lon="37.6543871606351" lat="55.654715225215895"/><rtept lon="37.6543938661576" lat="55.65459997166445"/><rtept lon="37.654455556964955" lat="55.65451428954087"/><rtept lon="37.65460710177429" lat="55.654400551917746"/><rtept lon="37.654643311595976" lat="55.65432624315808"/><rtept lon="37.65478949198731" lat="55.65410331602311"/><rtept lon="37.65488605151184" lat="55.65402976495604"/><rtept lon="37.655014797544546" lat="55.653934224187495"/><rtept lon="37.65529106507306" lat="55.65369992082918"/><rtept lon="37.65545602092746" lat="55.653600587915044"/><rtept lon="37.655815436935406" lat="55.65341784501027"/><rtept lon="37.655960276222224" lat="55.65331320346624"/><rtept lon="37.65620435724257" lat="55.65321007818538"/><rtept lon="37.65628214130401" lat="55.65316609820585"/><rtept lon="37.656606688594785" lat="55.65295378035305"/><rtept lon="37.657041206455176" lat="55.652783925248144"/><rtept lon="37.65773321638101" lat="55.65259132078406"/><rtept lon="37.65779222497935" lat="55.65255188983406"/><rtept lon="37.657971932983266" lat="55.65250639250986"/><rtept lon="37.65878196010576" lat="55.65172383064748"/><rtept lon="37.659071638679386" lat="55.6514690396748"/><rtept lon="37.65945251235949" lat="55.65136894276569"/><rtept lon="37.65960808048236" lat="55.651302211350185"/><rtept lon="37.66032423028934" lat="55.65090940364533"/><rtept lon="37.66072924385059" lat="55.650707690049124"/><rtept lon="37.661035015678245" lat="55.65058939135823"/><rtept lon="37.660817756748024" lat="55.65037099284338"/><rtept lon="37.66133274087889" lat="55.650217809821804"/><rtept lon="37.66173239002211" lat="55.649940258847444"/><rtept lon="37.66238148460371" lat="55.649608105079515"/><rtept lon="37.66358043203338" lat="55.64915916217341"/><rtept lon="37.66713704118709" lat="55.64774556492562"/><rtept lon="37.675044193362986" lat="55.64463000982296"/><rtept lon="37.67889584550838" lat="55.64323445165219"/><rtept lon="37.68060709485982" lat="55.64270958750091"/><rtept lon="37.682334437465414" lat="55.64213313897156"/><rtept lon="37.68480743417708" lat="55.64119866744756"/><rtept lon="37.687816872691776" lat="55.640000205313015"/><rtept lon="37.68794025430643" lat="55.639959244545544"/><rtept lon="37.688239320611544" lat="55.640160255198026"/><rtept lon="37.68882940659483" lat="55.63996834691951"/><rtept lon="37.68925319561917" lat="55.64040525925035"/></rte><rte><rtept lon="37.69023259037232" lat="55.74481065783285"/><rtept lon="37.68907387607788" lat="55.745311452647584"/><rtept lon="37.68843282812332" lat="55.74556260411535"/><rtept lon="37.68774081819748" lat="55.74589091412792"/><rtept lon="37.687722042734386" lat="55.74594386709593"/><rtept lon="37.688060001070255" lat="55.74578803386947"/><rtept lon="37.687577203447574" lat="55.74550057287969"/><rtept lon="37.68749405496811" lat="55.74533566008866"/><rtept lon="37.68739481323455" lat="55.74493018345469"/><rtept lon="37.68633802288269" lat="55.745040630865915"/><rtept lon="37.68568892830108" lat="55.74511627959027"/><rtept lon="37.68498350733018" lat="55.745282706279184"/><rtept lon="37.68326152914256" lat="55.74568364036876"/><rtept lon="37.681882873708865" lat="55.745995307027826"/><rtept lon="37.681472495729565" lat="55.74612239363815"/><rtept lon="37.68135984295093" lat="55.74630545821603"/><rtept lon="37.681182817155936" lat="55.74652634490547"/><rtept lon="37.681153312856786" lat="55.74681077249149"/><rtept lon="37.6808663164922" lat="55.74686069839549"/><rtept lon="37.680362061197386" lat="55.74683044027951"/><rtept lon="37.68006433599675" lat="55.74677143688558"/><rtept lon="37.67981757276738" lat="55.746745717429434"/><rtept lon="37.67978002184117" lat="55.74681077249149"/><rtept lon="37.67946620338642" lat="55.746828927373095"/><rtept lon="37.679431334669225" lat="55.74676992397688"/><rtept lon="37.67928381317339" lat="55.74686221129437"/><rtept lon="37.67722387664993" lat="55.74702863049193"/><rtept lon="37.67621000164228" lat="55.74716176534677"/><rtept lon="37.67545898311813" lat="55.74718597163497"/><rtept lon="37.67429490440566" lat="55.74712243009623"/><rtept lon="37.6729484354802" lat="55.74699837250049"/><rtept lon="37.67043252342422" lat="55.74686826289571"/><rtept lon="37.670097247297285" lat="55.74683800476679"/><rtept lon="37.66955812328528" lat="55.74693331773374"/><rtept lon="37.66942937725257" lat="55.746692765510396"/><rtept lon="37.669147745306006" lat="55.746630736079155"/><rtept lon="37.668962672883964" lat="55.74661711984928"/><rtept lon="37.66880442255211" lat="55.74665494269825"/><rtept lon="37.668533519441546" lat="55.7465566032081"/><rtept lon="37.66790320032307" lat="55.74649911231759"/><rtept lon="37.66767521255679" lat="55.7465490386221"/><rtept lon="37.66496886366077" lat="55.74687431447097"/><rtept lon="37.663273707563356" lat="55.74706191419824"/><rtept lon="37.66231884115405" lat="55.74715268792832"/><rtept lon="37.66009260767169" lat="55.74730397701763"/><rtept lon="37.659325495893434" lat="55.74734936362325"/><rtept lon="37.6572494661159" lat="55.74725253878708"/><rtept lon="37.655967370206774" lat="55.74719202313567"/><rtept lon="37.65585471742817" lat="55.746965088626844"/><rtept lon="37.655779615575746" lat="55.74693180478742"/><rtept lon="37.65510369890399" lat="55.746949959612465"/><rtept lon="37.654969588453255" lat="55.74701047563466"/><rtept lon="37.651273504430726" lat="55.747415930545586"/><rtept lon="37.64911164396469" lat="55.74783650990004"/><rtept lon="37.64800657385054" lat="55.748102773616395"/><rtept lon="37.64726091974441" lat="55.74813000502998"/><rtept lon="37.6469551479167" lat="55.74808461933007"/><rtept lon="37.64662791841689" lat="55.74822077627072"/><rtept lon="37.64575888269605" lat="55.74842652363121"/><rtept lon="37.645587221319055" lat="55.74829641879678"/><rtept lon="37.64527072065532" lat="55.74837508688068"/><rtept lon="37.64510174148736" lat="55.748676142115066"/><rtept lon="37.64468331688105" lat="55.74893483595525"/><rtept lon="37.64220763796031" lat="55.748429549300695"/><rtept lon="37.642156675989014" lat="55.748588397607996"/><rtept lon="37.64179189556291" lat="55.749080066810926"/><rtept lon="37.64150758140733" lat="55.74889701530704"/><rtept lon="37.64151562803438" lat="55.7487790147068"/><rtept lon="37.64094163530519" lat="55.748426523599804"/><rtept lon="37.63902117365052" lat="55.747070991506064"/><rtept lon="37.637755170995455" lat="55.74617534614003"/><rtept lon="37.63648916834038" lat="55.74542492466514"/><rtept lon="37.63668496959847" lat="55.74531145241539"/><rtept lon="37.63666619413538" lat="55.74522975219037"/><rtept lon="37.636456981832225" lat="55.745132922071576"/><rtept lon="37.636167303258595" lat="55.74524639484274"/><rtept lon="37.635872260266964" lat="55.74540525615932"/><rtept lon="37.63538409822626" lat="55.74501944896274"/><rtept lon="37.63521243684931" lat="55.74501188407746"/><rtept lon="37.634893253976536" lat="55.74522672624655"/><rtept lon="37.63431121462029" lat="55.74548695600904"/><rtept lon="37.63313324107398" lat="55.74573934555492"/><rtept lon="37.63229907407032" lat="55.745887614255636"/><rtept lon="37.63140858067737" lat="55.74600562363844"/><rtept lon="37.63040275229679" lat="55.74613119733161"/><rtept lon="37.62918771161299" lat="55.74628097746475"/><rtept lon="37.628635176555946" lat="55.746356623780336"/><rtept lon="37.62726724995835" lat="55.74649429969673"/><rtept lon="37.62622387065156" lat="55.7465139676387"/><rtept lon="37.62617559088929" lat="55.74668492707696"/><rtept lon="37.625864454643555" lat="55.746615333060134"/><rtept lon="37.62573302640183" lat="55.74667131086608"/><rtept lon="37.62561769141419" lat="55.74665618173729"/><rtept lon="37.625556000606835" lat="55.74673182732233"/><rtept lon="37.625049063103035" lat="55.74662441054766"/><rtept lon="37.62496859683259" lat="55.74718267195425"/><rtept lon="37.62476743115642" lat="55.74922199772915"/><rtept lon="37.62458504094342" lat="55.7506046844298"/><rtept lon="37.624469705955725" lat="55.75140492588875"/><rtept lon="37.62454480780815" lat="55.75146997314877"/><rtept lon="37.62463063849662" lat="55.751382234958456"/><rtept lon="37.62463868512366" lat="55.75099194888282"/><rtept lon="37.624686964885896" lat="55.750355078281515"/><rtept lon="37.623943992988785" lat="55.750355078281515"/><rtept lon="37.624112972156716" lat="55.74994511568427"/><rtept lon="37.62342096223088" lat="55.749833169426005"/><rtept lon="37.62342096223088" lat="55.74968642857182"/><rtept lon="37.623262711898995" lat="55.749668275025556"/><rtept lon="37.62236148966998" lat="55.74963045510403"/><rtept lon="37.62129665269108" lat="55.74952909754949"/><rtept lon="37.61878342284408" lat="55.74916451071389"/><rtept lon="37.61663497342316" lat="55.74885438228727"/><rtept lon="37.61527777566162" lat="55.748488276290054"/><rtept lon="37.613866933719784" lat="55.74810703827252"/><rtept lon="37.61381597174851" lat="55.748058626822534"/><rtept lon="37.61367649687972" lat="55.748011728178874"/><rtept lon="37.61345655574051" lat="55.748011728178874"/><rtept lon="37.61318028821197" lat="55.74795423944169"/><rtept lon="37.61335463179793" lat="55.74774243809688"/><rtept lon="37.61219859971248" lat="55.74737934738444"/><rtept lon="37.611517318622695" lat="55.747161491331866"/><rtept lon="37.61028886689384" lat="55.74642319228445"/><rtept lon="37.60966927661138" lat="55.745877023508164"/><rtept lon="37.60886461390691" lat="55.74502522695918"/><rtept lon="37.607695170776395" lat="55.74368773254254"/><rtept lon="37.607351848022475" lat="55.7432610560872"/><rtept lon="37.60721773757174" lat="55.74253176136215"/><rtept lon="37.607158728973424" lat="55.741914422355144"/><rtept lon="37.60645867242032" lat="55.74020155783976"/><rtept lon="37.60606153842928" lat="55.73919568087147"/><rtept lon="37.605787953109754" lat="55.73879014016759"/><rtept lon="37.6053105199051" lat="55.73834827756826"/><rtept lon="37.60447367069245" lat="55.73793667501094"/><rtept lon="37.6021830641937" lat="55.736874357083884"/><rtept lon="37.59952231285093" lat="55.73559106251694"/><rtept lon="37.59837969181054" lat="55.73486767732723"/><rtept lon="37.598009546966495" lat="55.735076522130775"/><rtept lon="37.59785934326165" lat="55.73507349540251"/><rtept lon="37.59725852844232" lat="55.73540340739654"/><rtept lon="37.595423897476145" lat="55.736293247796496"/><rtept lon="37.59519322750086" lat="55.736393126570384"/><rtept lon="37.59518786308283" lat="55.73619942204156"/><rtept lon="37.59491964218133" lat="55.736158562370534"/><rtept lon="37.5943912470054" lat="55.736244821625654"/><rtept lon="37.59420349237435" lat="55.735798390072596"/><rtept lon="37.593897720546664" lat="55.73587103013121"/><rtept lon="37.593589266509944" lat="55.73601479651364"/><rtept lon="37.59347929594033" lat="55.735969396660856"/><rtept lon="37.59370191928858" lat="55.735880110129"/><rtept lon="37.593245943756024" lat="55.73553355537581"/><rtept lon="37.59050740835174" lat="55.73655959059809"/><rtept lon="37.589796622962766" lat="55.73588162344297"/><rtept lon="37.590008517474935" lat="55.735805956732925"/></rte></gpx>