<?xml version="1.0" encoding="UTF-8"?>
<gpx xmlns="http://www.topografix.com/GPX/1/1" xmlns:xsi="http://www.w3.org/2001/XMLSchema-instance" xsi:schemaLocation="http://www.topografix.com/GPX/1/1 http://www.topografix.com/GPX/1/1/gpx.xsd" version="1.1" creator="gpx.py -- https://github.com/tkrajina/gpxpy">
  <rte>
    <name></name>
    <rtept lat="55.72096801340888" lon="37.560515933956175">
    </rtept>
    <rtept lat="55.721131515708876" lon="37.561427885021246">
    </rtept>
    <rtept lat="55.722070126722826" lon="37.561803394283324">
    </rtept>
    <rtept lat="55.72226995711034" lon="37.56168537708667">
    </rtept>
    <rtept lat="55.72308743436602" lon="37.562479310955084">
    </rtept>
    <rtept lat="55.723590022962576" lon="37.56165319057848">
    </rtept>
    <rtept lat="55.72475261264718" lon="37.56403499218368">
    </rtept>
    <rtept lat="55.724982704402834" lon="37.56379895779036">
    </rtept>
    <rtept lat="55.727089797143705" lon="37.56932430836104">
    </rtept>
    <rtept lat="55.729390515116364" lon="37.57370167347335">
    </rtept>
    <rtept lat="55.731184091955825" lon="37.578917560070614">
    </rtept>
    <rtept lat="55.73362985626436" lon="37.58720022150861">
    </rtept>
    <rtept lat="55.73412625498695" lon="37.58642774531233">
    </rtept>
    <rtept lat="55.73486478769549" lon="37.587758120983715">
    </rtept>
    <rtept lat="55.7350221780981" lon="37.58740406939374">
    </rtept>
    <rtept lat="55.735300636479906" lon="37.58776884981977">
    </rtept>
    <rtept lat="55.736880547346594" lon="37.58960348078596">
    </rtept>
    <rtept lat="55.73654459465752" lon="37.59055298277722">
    </rtept>
    <rtept lat="55.73581214720965" lon="37.589732226818676">
    </rtept>
    <rtept lat="55.73576674712014" lon="37.59003799864636">
    </rtept>
  </rte>
  <rte>
    <name></name>
    <rtept lat="55.62327885007926" lon="37.84075383879653">
    </rtept>
    <rtept lat="55.623426068086324" lon="37.84087990262022">
    </rtept>
    <rtept lat="55.623518551207276" lon="37.840933081706986">
    </rtept>
    <rtept lat="55.62369308688675" lon="37.840847251018516">
    </rtept>
    <rtept lat="55.624379080423445" lon="37.84123080690765">
    </rtept>
    <rtept lat="55.62458244787341" lon="37.841405150493614">
    </rtept>
    <rtept lat="55.624878391143916" lon="37.841893312534296">
    </rtept>
    <rtept lat="55.62552035269164" lon="37.844079312881426">
    </rtept>
    <rtept lat="55.62644305906084" lon="37.84452992399587">
    </rtept>
    <rtept lat="55.62679362104794" lon="37.84469353874581">
    </rtept>
    <rtept lat="55.626754164010485" lon="37.84498858173744">
    </rtept>
    <rtept lat="55.62688619317156" lon="37.84514146765129">
    </rtept>
    <rtept lat="55.62665096848699" lon="37.846750793060174">
    </rtept>
    <rtept lat="55.62685584167365" lon="37.84728187044512">
    </rtept>
    <rtept lat="55.63011242208332" lon="37.848762449821294">
    </rtept>
    <rtept lat="55.63141740599334" lon="37.84734624346141">
    </rtept>
    <rtept lat="55.6314993453876" lon="37.84721213301065">
    </rtept>
    <rtept lat="55.63197883913384" lon="37.84722286184673">
    </rtept>
    <rtept lat="55.63205167311141" lon="37.8474910827482">
    </rtept>
    <rtept lat="55.632665449267655" lon="37.84892403934398">
    </rtept>
    <rtept lat="55.633463566801986" lon="37.84789407108227">
    </rtept>
    <rtept lat="55.63361529832769" lon="37.84787797782819">
    </rtept>
    <rtept lat="55.633767029257164" lon="37.8483661398689">
    </rtept>
    <rtept lat="55.634340566862754" lon="37.84974479530255">
    </rtept>
    <rtept lat="55.63448926042121" lon="37.84979843948284">
    </rtept>
    <rtept lat="55.63465616067911" lon="37.84951948974529">
    </rtept>
    <rtept lat="55.635005131632255" lon="37.85042607639234">
    </rtept>
    <rtept lat="55.63513865013017" lon="37.85072111938396">
    </rtept>
    <rtept lat="55.63529644412946" lon="37.85053336475291">
    </rtept>
    <rtept lat="55.63561203021336" lon="37.85105907771983">
    </rtept>
    <rtept lat="55.63584264919869" lon="37.85110735748212">
    </rtept>
    <rtept lat="55.63565754722021" lon="37.85146677349012">
    </rtept>
    <rtept lat="55.63543603059069" lon="37.851702807883406">
    </rtept>
    <rtept lat="55.63569699525516" lon="37.85127365444104">
    </rtept>
    <rtept lat="55.63606719794721" lon="37.8509410605232">
    </rtept>
    <rtept lat="55.637611694213675" lon="37.84896695468819">
    </rtept>
    <rtept lat="55.63779375261441" lon="37.84851097915566">
    </rtept>
    <rtept lat="55.63803042726511" lon="37.84786724899209">
    </rtept>
    <rtept lat="55.63824282637003" lon="37.84735226486122">
    </rtept>
    <rtept lat="55.63824586063457" lon="37.847094772795806">
    </rtept>
    <rtept lat="55.63831564865406" lon="37.84704649303352">
    </rtept>
    <rtept lat="55.6383975735611" lon="37.8473469004432">
    </rtept>
    <rtept lat="55.6383975735611" lon="37.847615121344674">
    </rtept>
    <rtept lat="55.63826406621692" lon="37.84796380851662">
    </rtept>
    <rtept lat="55.63810628422105" lon="37.84807109687722">
    </rtept>
    <rtept lat="55.638000084441416" lon="37.84830713127054">
    </rtept>
    <rtept lat="55.63796670730811" lon="37.848580716590035">
    </rtept>
    <rtept lat="55.63796974159412" lon="37.848945497016054">
    </rtept>
    <rtept lat="55.63844612156683" lon="37.8500344738761">
    </rtept>
    <rtept lat="55.63861907336804" lon="37.850737212638016">
    </rtept>
    <rtept lat="55.63900441935432" lon="37.851836918334115">
    </rtept>
    <rtept lat="55.6392228815332" lon="37.85267376754677">
    </rtept>
    <rtept lat="55.63984791934236" lon="37.85433137271797">
    </rtept>
    <rtept lat="55.64021808263688" lon="37.85526478145515">
    </rtept>
    <rtept lat="55.640412265258675" lon="37.85541498515999">
    </rtept>
    <rtept lat="55.641853434186" lon="37.853612540701945">
    </rtept>
    <rtept lat="55.64237830985283" lon="37.854572771529284">
    </rtept>
    <rtept lat="55.64272114390245" lon="37.855007289389675">
    </rtept>
    <rtept lat="55.6427727204456" lon="37.855490087012356">
    </rtept>
    <rtept lat="55.642730245650334" lon="37.855962155798984">
    </rtept>
    <rtept lat="55.641777584517065" lon="37.8574749216834">
    </rtept>
    <rtept lat="55.641744210616" lon="37.85791480396184">
    </rtept>
    <rtept lat="55.64186253613635" lon="37.85844051692876">
    </rtept>
    <rtept lat="55.6419929971914" lon="37.85882675502689">
    </rtept>
    <rtept lat="55.64280002564056" lon="37.860527275542324">
    </rtept>
    <rtept lat="55.643209601363175" lon="37.86094033573064">
    </rtept>
    <rtept lat="55.643655578925" lon="37.8611710057059">
    </rtept>
    <rtept lat="55.64558808942247" lon="37.86185228679569">
    </rtept>
    <rtept lat="55.6454910111165" lon="37.86257648322971">
    </rtept>
    <rtept lat="55.64526651660837" lon="37.86297881458194">
    </rtept>
    <rtept lat="55.644696173397136" lon="37.863799570540515">
    </rtept>
    <rtept lat="55.64445043783444" lon="37.86436283443364">
    </rtept>
    <rtept lat="55.64444133648803" lon="37.864861725310405">
    </rtept>
    <rtept lat="55.64359793582905" lon="37.866717813948654">
    </rtept>
    <rtept lat="55.64123753056721" lon="37.871771095732726">
    </rtept>
    <rtept lat="55.64024235545596" lon="37.87417435501008">
    </rtept>
    <rtept lat="55.6383065457776" lon="37.87266158912567">
    </rtept>
    <rtept lat="55.6390408297102" lon="37.871384857634546">
    </rtept>
    <rtept lat="55.63927749679449" lon="37.87107372138881">
    </rtept>
    <rtept lat="55.639338180430954" lon="37.870322702864634">
    </rtept>
    <rtept lat="55.639332112071564" lon="37.86943220947169">
    </rtept>
    <rtept lat="55.63947168409889" lon="37.86876702163601">
    </rtept>
    <rtept lat="55.63955664074056" lon="37.86814474914454">
    </rtept>
    <rtept lat="55.63986005580747" lon="37.866771458128916">
    </rtept>
    <rtept lat="55.63996928465379" lon="37.86638522003079">
    </rtept>
    <rtept lat="55.6399935576892" lon="37.86543035362148">
    </rtept>
    <rtept lat="55.64004210370862" lon="37.86286616180323">
    </rtept>
    <rtept lat="55.63950809410471" lon="37.861643074492456">
    </rtept>
    <rtept lat="55.63835509389049" lon="37.858499525527">
    </rtept>
    <rtept lat="55.63811842120964" lon="37.85569929931544">
    </rtept>
    <rtept lat="55.63901048766634" lon="37.854862450102814">
    </rtept>
    <rtept lat="55.639726553456526" lon="37.85522723052878">
    </rtept>
    <rtept lat="55.639659802115844" lon="37.855334518889386">
    </rtept>
    <rtept lat="55.638919461405365" lon="37.855152128676366">
    </rtept>
    <rtept lat="55.63820944932761" lon="37.85578513000389">
    </rtept>
    <rtept lat="55.6384946694076" lon="37.8593363747396">
    </rtept>
    <rtept lat="55.63987826062416" lon="37.86279105995079">
    </rtept>
    <rtept lat="55.6399025337101" lon="37.8656020149984">
    </rtept>
    <rtept lat="55.63947775240587" lon="37.86799454543962">
    </rtept>
    <rtept lat="55.639235018149776" lon="37.87034416053664">
    </rtept>
    <rtept lat="55.63975689490651" lon="37.871041534880504">
    </rtept>
    <rtept lat="55.642014234873315" lon="37.86986136291396">
    </rtept>
    <rtept lat="55.64401053689005" lon="37.86607408378493">
    </rtept>
    <rtept lat="55.64453234975212" lon="37.864936827162616">
    </rtept>
    <rtept lat="55.644392795833404" lon="37.864271639326915">
    </rtept>
    <rtept lat="55.64531505595421" lon="37.862726686934344">
    </rtept>
    <rtept lat="55.64568516736382" lon="37.86185765121353">
    </rtept>
    <rtept lat="55.64666200193545" lon="37.86202931259048">
    </rtept>
    <rtept lat="55.64708670498667" lon="37.86151432845961">
    </rtept>
    <rtept lat="55.64749926923588" lon="37.86058091972244">
    </rtept>
    <rtept lat="55.64776622023536" lon="37.86021613929636">
    </rtept>
    <rtept lat="55.64797553280022" lon="37.86065065715673">
    </rtept>
    <rtept lat="55.64829404979289" lon="37.860811589697626">
    </rtept>
    <rtept lat="55.648570095748646" lon="37.8610047087467">
    </rtept>
    <rtept lat="55.64911914837904" lon="37.86095642898444">
    </rtept>
    <rtept lat="55.64956202497807" lon="37.86111199710731">
    </rtept>
    <rtept lat="55.649762227817085" lon="37.86105835292702">
    </rtept>
    <rtept lat="55.64975919444839" lon="37.860752581099305">
    </rtept>
    <rtept lat="55.649728860748624" lon="37.86059164855841">
    </rtept>
    <rtept lat="55.6496226926136" lon="37.860511182287965">
    </rtept>
    <rtept lat="55.64967426002957" lon="37.86039316509131">
    </rtept>
    <rtept lat="55.649862328851114" lon="37.86023759696844">
    </rtept>
    <rtept lat="55.651385046212894" lon="37.861085175017145">
    </rtept>
    <rtept lat="55.65159130614444" lon="37.86136948917272">
    </rtept>
    <rtept lat="55.65216952148326" lon="37.861593895878336">
    </rtept>
    <rtept lat="55.65276402048157" lon="37.86150806518987">
    </rtept>
    <rtept lat="55.65273975538761" lon="37.861787014927415">
    </rtept>
    <rtept lat="55.653091597682334" lon="37.86151342960789">
    </rtept>
    <rtept lat="55.65458992499804" lon="37.864522868122606">
    </rtept>
    <rtept lat="55.656879767421785" lon="37.86925428482484">
    </rtept>
    <rtept lat="55.658426472293904" lon="37.87171118828248">
    </rtept>
    <rtept lat="55.66087681240047" lon="37.875616484608166">
    </rtept>
    <rtept lat="55.661107282010356" lon="37.875852519001484">
    </rtept>
    <rtept lat="55.66188965552008" lon="37.87707560631227">
    </rtept>
    <rtept lat="55.662198961645444" lon="37.876528435673244">
    </rtept>
    <rtept lat="55.662496135806606" lon="37.87675374123048">
    </rtept>
    <rtept lat="55.66257497755067" lon="37.876528435673244">
    </rtept>
    <rtept lat="55.662932795769095" lon="37.87698977562379">
    </rtept>
    <rtept lat="55.66517060128247" lon="37.88055174919556">
    </rtept>
    <rtept lat="55.665304016522704" lon="37.8801440534253">
    </rtept>
    <rtept lat="55.66599534271829" lon="37.880959444965846">
    </rtept>
    <rtept lat="55.66680187445258" lon="37.882386380161755">
    </rtept>
    <rtept lat="55.669027330316176" lon="37.88577669235658">
    </rtept>
    <rtept lat="55.66933051610078" lon="37.88708561035586">
    </rtept>
    <rtept lat="55.66972465409377" lon="37.88708561035586">
    </rtept>
    <rtept lat="55.66994900778599" lon="37.88723581406067">
    </rtept>
    <rtept lat="55.66976103586135" lon="37.887772255863666">
    </rtept>
    <rtept lat="55.67000358011039" lon="37.88865202042056">
    </rtept>
    <rtept lat="55.67060387063382" lon="37.88913481804321">
    </rtept>
    <rtept lat="55.67646682805953" lon="37.89026134582947">
    </rtept>
    <rtept lat="55.67664870507831" lon="37.89018624397708">
    </rtept>
    <rtept lat="55.67680633114098" lon="37.89034717651797">
    </rtept>
    <rtept lat="55.676563829241886" lon="37.89080851646852">
    </rtept>
    <rtept lat="55.678685669663984" lon="37.8935872850079">
    </rtept>
    <rtept lat="55.6811498906697" lon="37.89611929031796">
    </rtept>
    <rtept lat="55.681286282113284" lon="37.896516257252166">
    </rtept>
    <rtept lat="55.68137417856829" lon="37.8966289100308">
    </rtept>
    <rtept lat="55.68150753832806" lon="37.89663963886685">
    </rtept>
    <rtept lat="55.681889429659385" lon="37.89721363159603">
    </rtept>
    <rtept lat="55.68210462073788" lon="37.89704197021906">
    </rtept>
  </rte>
  <rte>
    <name></name>
    <rtept lat="55.61967183618383" lon="37.68615533449327">
    </rtept>
    <rtept lat="55.6198054071544" lon="37.686697140714294">
    </rtept>
    <rtept lat="55.620643250992806" lon="37.69024302103198">
    </rtept>
    <rtept lat="55.62080110361687" lon="37.690827742597214">
    </rtept>
    <rtept lat="55.62125644414813" lon="37.691745058080315">
    </rtept>
    <rtept lat="55.621426436578666" lon="37.692463890096306">
    </rtept>
    <rtept lat="55.62159339271543" lon="37.69374598600543">
    </rtept>
    <rtept lat="55.62162374829994" lon="37.693864003202066">
    </rtept>
    <rtept lat="55.622810633140766" lon="37.693864003202066">
    </rtept>
    <rtept lat="55.62345718181695" lon="37.693654790898904">
    </rtept>
    <rtept lat="55.624470997152955" lon="37.69302178957141">
    </rtept>
    <rtept lat="55.62565172492528" lon="37.69215275385057">
    </rtept>
    <rtept lat="55.626025058152095" lon="37.69196499921952">
    </rtept>
    <rtept lat="55.626522830226186" lon="37.69180943109666">
    </rtept>
    <rtept lat="55.62762761874414" lon="37.6921581182686">
    </rtept>
    <rtept lat="55.62764279419282" lon="37.69187916853105">
    </rtept>
    <rtept lat="55.62871720095428" lon="37.69227613546526">
    </rtept>
    <rtept lat="55.6286656058191" lon="37.692646280309305">
    </rtept>
    <rtept lat="55.62971570501005" lon="37.69295205213702">
    </rtept>
    <rtept lat="55.62983710193813" lon="37.693413392087564">
    </rtept>
    <rtept lat="55.63006168525941" lon="37.69413222410356">
    </rtept>
    <rtept lat="55.630076859755384" lon="37.694432631513195">
    </rtept>
    <rtept lat="55.630343930026704" lon="37.69462575056227">
    </rtept>
    <rtept lat="55.630617068186176" lon="37.695199743291454">
    </rtept>
    <rtept lat="55.63082647281358" lon="37.69653548338086">
    </rtept>
    <rtept lat="55.63083557733711" lon="37.69752253629836">
    </rtept>
    <rtept lat="55.630826472807456" lon="37.69883145429758">
    </rtept>
    <rtept lat="55.631032841485684" lon="37.6998775158134">
    </rtept>
    <rtept lat="55.63110264240924" lon="37.70020474531321">
    </rtept>
    <rtept lat="55.63112692096206" lon="37.70114888288644">
    </rtept>
    <rtept lat="55.63135149685965" lon="37.70228077509072">
    </rtept>
    <rtept lat="55.63142433200829" lon="37.70237197019725">
    </rtept>
    <rtept lat="55.631161821343035" lon="37.702567771455314">
    </rtept>
    <rtept lat="55.631176995417306" lon="37.70315517522958">
    </rtept>
    <rtept lat="55.63123465684574" lon="37.7034475360122">
    </rtept>
    <rtept lat="55.63118609985904" lon="37.7035387311187">
    </rtept>
    <rtept lat="55.63108443347242" lon="37.70381499864724">
    </rtept>
    <rtept lat="55.63107684641801" lon="37.70412881710199">
    </rtept>
    <rtept lat="55.631131473176765" lon="37.7043997202125">
    </rtept>
    <rtept lat="55.631513858340504" lon="37.70538945533898">
    </rtept>
    <rtept lat="55.6316731843886" lon="37.70555843450693">
    </rtept>
    <rtept lat="55.63154117142353" lon="37.70638455488351">
    </rtept>
    <rtept lat="55.63144709293981" lon="37.70678688623572">
    </rtept>
    <rtept lat="55.63146074950708" lon="37.707049742719164">
    </rtept>
    <rtept lat="55.63152599748472" lon="37.70710070469044">
    </rtept>
    <rtept lat="55.63161097143157" lon="37.707030967256074">
    </rtept>
    <rtept lat="55.631717188604874" lon="37.7069665942397">
    </rtept>
    <rtept lat="55.63180064475248" lon="37.706896856805315">
    </rtept>
    <rtept lat="55.6320252167355" lon="37.707478896161504">
    </rtept>
    <rtept lat="55.632061633698" lon="37.70785440542358">
    </rtept>
    <rtept lat="55.632453113898165" lon="37.70913113691468">
    </rtept>
    <rtept lat="55.63264733517534" lon="37.7094959173407">
    </rtept>
    <rtept lat="55.632750514829475" lon="37.70951201059481">
    </rtept>
    <rtept lat="55.63292349188302" lon="37.70950396396774">
    </rtept>
    <rtept lat="55.63305853483912" lon="37.70960588791032">
    </rtept>
    <rtept lat="55.63323757979874" lon="37.70998407938126">
    </rtept>
    <rtept lat="55.63361235776063" lon="37.7090533528531">
    </rtept>
    <rtept lat="55.63378684829884" lon="37.7092518363202">
    </rtept>
    <rtept lat="55.63396133805666" lon="37.70965416767243">
    </rtept>
    <rtept lat="55.63413430973584" lon="37.71032471992614">
    </rtept>
    <rtept lat="55.634219278002135" lon="37.7105848942006">
    </rtept>
    <rtept lat="55.63441349048735" lon="37.71068950035219">
    </rtept>
    <rtept lat="55.634595563814166" lon="37.71109183170442">
    </rtept>
    <rtept lat="55.63541033153007" lon="37.711931363125984">
    </rtept>
    <rtept lat="55.63531626236354" lon="37.71650989391442">
    </rtept>
    <rtept lat="55.63520398598045" lon="37.723022297402586">
    </rtept>
    <rtept lat="55.63509777829328" lon="37.73100455143085">
    </rtept>
    <rtept lat="55.635122054353985" lon="37.73158390857803">
    </rtept>
    <rtept lat="55.6353496417462" lon="37.732082799454794">
    </rtept>
    <rtept lat="55.63541640046274" lon="37.73316641189681">
    </rtept>
    <rtept lat="55.63588370827982" lon="37.73468990661728">
    </rtept>
    <rtept lat="55.63607184361273" lon="37.7355213914119">
    </rtept>
    <rtept lat="55.63666962243324" lon="37.735392645379164">
    </rtept>
    <rtept lat="55.636575556321624" lon="37.73596127369034">
    </rtept>
    <rtept lat="55.63665748488319" lon="37.73669619896042">
    </rtept>
    <rtept lat="55.63658162510987" lon="37.73700733520616">
    </rtept>
    <rtept lat="55.636511833988116" lon="37.73714681007492">
    </rtept>
    <rtept lat="55.63652397158348" lon="37.73763497211562">
    </rtept>
    <rtept lat="55.63668175997337" lon="37.738514736672464">
    </rtept>
    <rtept lat="55.63644204273538" lon="37.73859520294291">
    </rtept>
    <rtept lat="55.63738269685776" lon="37.74320860244848">
    </rtept>
    <rtept lat="55.63788335835431" lon="37.7446516308985">
    </rtept>
    <rtept lat="55.63855089702078" lon="37.7456601414881">
    </rtept>
    <rtept lat="55.63849324639869" lon="37.74592836238955">
    </rtept>
    <rtept lat="55.6387723959571" lon="37.74679739811039">
    </rtept>
    <rtept lat="55.639033338303044" lon="37.74752159454441">
    </rtept>
    <rtept lat="55.6391213300959" lon="37.74808485843754">
    </rtept>
    <rtept lat="55.63924876613365" lon="37.74846573211764">
    </rtept>
    <rtept lat="55.63971299388707" lon="37.75047738887881">
    </rtept>
    <rtept lat="55.63964017421171" lon="37.75049348213291">
    </rtept>
    <rtept lat="55.64397270828429" lon="37.765792802353815">
    </rtept>
    <rtept lat="55.64488284334261" lon="37.76904363967985">
    </rtept>
    <rtept lat="55.64508307020637" lon="37.77320642807098">
    </rtept>
    <rtept lat="55.64480396581101" lon="37.77376432754608">
    </rtept>
    <rtept lat="55.645186216977415" lon="37.77533073761078">
    </rtept>
    <rtept lat="55.64519835187372" lon="37.7758564505777">
    </rtept>
    <rtept lat="55.64556239700699" lon="37.776693299790324">
    </rtept>
    <rtept lat="55.64580509186836" lon="37.77830262519926">
    </rtept>
    <rtept lat="55.64629654434909" lon="37.77913947441191">
    </rtept>
    <rtept lat="55.64659383975677" lon="37.78008361198515">
    </rtept>
    <rtept lat="55.64646036046634" lon="37.78071661331267">
    </rtept>
    <rtept lat="55.64624193882375" lon="37.7811886820993">
    </rtept>
    <rtept lat="55.64603565059352" lon="37.78113503791901">
    </rtept>
    <rtept lat="55.645519925243725" lon="37.78056640960783">
    </rtept>
    <rtept lat="55.644415643323164" lon="37.78024454452604">
    </rtept>
    <rtept lat="55.64394843770669" lon="37.781027749558405">
    </rtept>
    <rtept lat="55.643821017023406" lon="37.78152127601714">
    </rtept>
    <rtept lat="55.643438752475646" lon="37.78152127601714">
    </rtept>
    <rtept lat="55.643202110639855" lon="37.780888274689616">
    </rtept>
    <rtept lat="55.64295939957311" lon="37.78080244400114">
    </rtept>
    <rtept lat="55.64102979285004" lon="37.78175731041045">
    </rtept>
    <rtept lat="55.63931855230967" lon="37.781843141098925">
    </rtept>
    <rtept lat="55.639039406653616" lon="37.782132819672526">
    </rtept>
    <rtept lat="55.63812306667399" lon="37.781939700623475">
    </rtept>
    <rtept lat="55.63748586393336" lon="37.782175735016764">
    </rtept>
    <rtept lat="55.637048918895395" lon="37.78190751411529">
    </rtept>
    <rtept lat="55.63687292573064" lon="37.781456903000795">
    </rtept>
    <rtept lat="55.63654521226186" lon="37.781403258820475">
    </rtept>
    <rtept lat="55.63593225930979" lon="37.78156419136137">
    </rtept>
    <rtept lat="55.63564095156036" lon="37.78196115829558">
    </rtept>
    <rtept lat="55.635234330856214" lon="37.78189678527924">
    </rtept>
    <rtept lat="55.63493694885204" lon="37.78138180114837">
    </rtept>
    <rtept lat="55.63050629542402" lon="37.78124232627956">
    </rtept>
    <rtept lat="55.624812470602805" lon="37.781027749558326">
    </rtept>
    <rtept lat="55.6237500978969" lon="37.78132815696798">
    </rtept>
    <rtept lat="55.62383508877758" lon="37.7842464003762">
    </rtept>
    <rtept lat="55.62349512414439" lon="37.78515835144125">
    </rtept>
    <rtept lat="55.623798664137084" lon="37.78601665832603">
    </rtept>
    <rtept lat="55.62332817612994" lon="37.78678913452224">
    </rtept>
    <rtept lat="55.62311873126268" lon="37.78730948307113">
    </rtept>
    <rtept lat="55.62269376720258" lon="37.78640826084211">
    </rtept>
    <rtept lat="55.62173758116339" lon="37.78796394207075">
    </rtept>
    <rtept lat="55.62271805098744" lon="37.78951962329938">
    </rtept>
    <rtept lat="55.62294874619022" lon="37.79065687992171">
    </rtept>
    <rtept lat="55.62276054757463" lon="37.791096762200155">
    </rtept>
    <rtept lat="55.6247426583903" lon="37.794749930878424">
    </rtept>
    <rtept lat="55.62587177911475" lon="37.79684205391002">
    </rtept>
    <rtept lat="55.626229934244265" lon="37.7969654355247">
    </rtept>
    <rtept lat="55.626630578460194" lon="37.7977057252128">
    </rtept>
    <rtept lat="55.62715565896985" lon="37.79811878540109">
    </rtept>
    <rtept lat="55.62760182008744" lon="37.79870887138437">
    </rtept>
    <rtept lat="55.62808439678481" lon="37.799116567154634">
    </rtept>
    <rtept lat="55.62837576095802" lon="37.799846128006685">
    </rtept>
    <rtept lat="55.63009051643417" lon="37.80245859958714">
    </rtept>
    <rtept lat="55.63196907354503" lon="37.805215910454464">
    </rtept>
    <rtept lat="55.632230061394594" lon="37.80534465648715">
    </rtept>
    <rtept lat="55.63258815816955" lon="37.80528028347078">
    </rtept>
    <rtept lat="55.63297052906352" lon="37.805591419716514">
    </rtept>
    <rtept lat="55.63296142503816" lon="37.80427177288118">
    </rtept>
    <rtept lat="55.63341662369742" lon="37.80347783901274">
    </rtept>
    <rtept lat="55.633371104069866" lon="37.803434923668505">
    </rtept>
    <rtept lat="55.632879488708234" lon="37.80422349311887">
    </rtept>
    <rtept lat="55.63202673378453" lon="37.802753642578665">
    </rtept>
    <rtept lat="55.63101311472246" lon="37.80109603740747">
    </rtept>
    <rtept lat="55.630958487798004" lon="37.80018945076042">
    </rtept>
    <rtept lat="55.63083709435871" lon="37.80001242496545">
    </rtept>
    <rtept lat="55.63099187092758" lon="37.80033965446526">
    </rtept>
    <rtept lat="55.63098580126978" lon="37.80118186809594">
    </rtept>
    <rtept lat="55.63222095717191" lon="37.8029628548818">
    </rtept>
    <rtept lat="55.63209046343183" lon="37.80322034694722">
    </rtept>
    <rtept lat="55.63201459477766" lon="37.80308087207845">
    </rtept>
    <rtept lat="55.63189623938257" lon="37.80340810157827">
    </rtept>
    <rtept lat="55.63258815814498" lon="37.80449171402029">
    </rtept>
    <rtept lat="55.63263367868601" lon="37.80541439392142">
    </rtept>
    <rtept lat="55.63289466209609" lon="37.80570407249502">
    </rtept>
    <rtept lat="55.63172629254023" lon="37.807989314575664">
    </rtept>
    <rtept lat="55.63148654485188" lon="37.80858476497698">
    </rtept>
    <rtept lat="55.63337717332593" lon="37.81157811023759">
    </rtept>
    <rtept lat="55.63338931189658" lon="37.8117068562703">
    </rtept>
    <rtept lat="55.63574715762171" lon="37.81523127891588">
    </rtept>
    <rtept lat="55.63801079818502" lon="37.818798616905596">
    </rtept>
    <rtept lat="55.63830815674543" lon="37.819458440323174">
    </rtept>
    <rtept lat="55.63845986942968" lon="37.820461586494744">
    </rtept>
    <rtept lat="55.638384013155154" lon="37.82283802368192">
    </rtept>
    <rtept lat="55.63838401314901" lon="37.82606740333584">
    </rtept>
    <rtept lat="55.63856303370561" lon="37.82672186233547">
    </rtept>
    <rtept lat="55.638811840566206" lon="37.829591825981396">
    </rtept>
    <rtept lat="55.63916380853915" lon="37.83321817256953">
    </rtept>
    <rtept lat="55.639679617931" lon="37.83809979297661">
    </rtept>
    <rtept lat="55.639588593237676" lon="37.83831436969779">
    </rtept>
    <rtept lat="55.63933372296629" lon="37.838282183189605">
    </rtept>
    <rtept lat="55.637191533199605" lon="37.8369625363543">
    </rtept>
    <rtept lat="55.6322270265393" lon="37.833958462257606">
    </rtept>
    <rtept lat="55.6318992740425" lon="37.83403356411003">
    </rtept>
    <rtept lat="55.631146646778085" lon="37.83449490406058">
    </rtept>
    <rtept lat="55.6306428639659" lon="37.83509571887992">
    </rtept>
    <rtept lat="55.62941676294907" lon="37.836265162010406">
    </rtept>
    <rtept lat="55.62862159763351" lon="37.83725221492785">
    </rtept>
    <rtept lat="55.628148132730075" lon="37.83752043582935">
    </rtept>
    <rtept lat="55.624542326921386" lon="37.83868987895984">
    </rtept>
    <rtept lat="55.62439359545396" lon="37.83872742988605">
    </rtept>
    <rtept lat="55.62395346839739" lon="37.83981104232807">
    </rtept>
    <rtept lat="55.623763756924944" lon="37.84035016634005">
    </rtept>
    <rtept lat="55.6234981593229" lon="37.84078200199146">
    </rtept>
    <rtept lat="55.623388884356125" lon="37.84088929035207">
    </rtept>
    <rtept lat="55.62330237478433" lon="37.84079809524554">
    </rtept>
  </rte>
  <rte>
    <name></name>
    <rtept lat="55.64009832955051" lon="37.688809380313955">
    </rtept>
    <rtept lat="55.64020755772959" lon="37.68809054829796">
    </rtept>
    <rtept lat="55.63984346260983" lon="37.68912051655969">
    </rtept>
    <rtept lat="55.63903637297769" lon="37.688187107822486">
    </rtept>
    <rtept lat="55.638320294505014" lon="37.68863771893696">
    </rtept>
    <rtept lat="55.63801079889587" lon="37.68905614354327">
    </rtept>
    <rtept lat="55.637397868972" lon="37.68863771893696">
    </rtept>
    <rtept lat="55.63680920443438" lon="37.688176378986405">
    </rtept>
    <rtept lat="55.635188813894814" lon="37.68898104169085">
    </rtept>
    <rtept lat="55.63492784583092" lon="37.68857334592059">
    </rtept>
    <rtept lat="55.63447266479137" lon="37.689131245395664">
    </rtept>
    <rtept lat="55.63294321761837" lon="37.68882010914993">
    </rtept>
    <rtept lat="55.632263444073544" lon="37.68833731152725">
    </rtept>
    <rtept lat="55.631674702057914" lon="37.6877686832161">
    </rtept>
    <rtept lat="55.63066107385054" lon="37.687457546970364">
    </rtept>
    <rtept lat="55.629944841640196" lon="37.68773649670791">
    </rtept>
    <rtept lat="55.629526021798554" lon="37.687790140888204">
    </rtept>
    <rtept lat="55.629349994726304" lon="37.68752191998673">
    </rtept>
    <rtept lat="55.629356064638564" lon="37.68718932606886">
    </rtept>
    <rtept lat="55.62946532289782" lon="37.68692110516739">
    </rtept>
    <rtept lat="55.629532091683444" lon="37.68648122288895">
    </rtept>
    <rtept lat="55.62953816156738" lon="37.68547271229935">
    </rtept>
    <rtept lat="55.62887653865463" lon="37.68316601254655">
    </rtept>
    <rtept lat="55.62840307684446" lon="37.68268321492386">
    </rtept>
    <rtept lat="55.62797817032277" lon="37.68275831677624">
    </rtept>
    <rtept lat="55.62719511619587" lon="37.68205021359629">
    </rtept>
    <rtept lat="55.626903743207286" lon="37.68171761967845">
    </rtept>
    <rtept lat="55.6266123680432" lon="37.68081639744946">
    </rtept>
    <rtept lat="55.62658808668131" lon="37.68039797284312">
    </rtept>
    <rtept lat="55.62558646733263" lon="37.679282173892894">
    </rtept>
    <rtept lat="55.62520402407472" lon="37.679389462253496">
    </rtept>
    <rtept lat="55.62497334220235" lon="37.679142699024126">
    </rtept>
    <rtept lat="55.624760870850466" lon="37.678659901401446">
    </rtept>
    <rtept lat="55.624542327681745" lon="37.67812345959845">
    </rtept>
    <rtept lat="55.62402024738056" lon="37.67732952573006">
    </rtept>
    <rtept lat="55.6230732001728" lon="37.67697547414009">
    </rtept>
    <rtept lat="55.62273322890316" lon="37.67734025456611">
    </rtept>
    <rtept lat="55.62213827204951" lon="37.677887425205135">
    </rtept>
    <rtept lat="55.62205934851496" lon="37.67868672349158">
    </rtept>
    <rtept lat="55.62199863799988" lon="37.678847656032474">
    </rtept>
    <rtept lat="55.622032028794855" lon="37.679764971515574">
    </rtept>
    <rtept lat="55.621871145610854" lon="37.680296048900516">
    </rtept>
    <rtept lat="55.621849896838846" lon="37.6806876514167">
    </rtept>
    <rtept lat="55.62199560247166" lon="37.68086467721167">
    </rtept>
    <rtept lat="55.621792221542265" lon="37.681202635547564">
    </rtept>
    <rtept lat="55.62161615958343" lon="37.68191073872748">
    </rtept>
    <rtept lat="55.62145527468525" lon="37.68237744309608">
    </rtept>
    <rtept lat="55.62135813631245" lon="37.68244181611242">
    </rtept>
    <rtept lat="55.62126403328327" lon="37.68273149468605">
    </rtept>
    <rtept lat="55.619901031686474" lon="37.68612180688087">
    </rtept>
    <rtept lat="55.61978263954835" lon="37.68598769643011">
    </rtept>
    <rtept lat="55.61970978266336" lon="37.686153993389055">
    </rtept>
    <rtept lat="55.61962326494307" lon="37.6858589503974">
    </rtept>
  </rte>
  <rte>
    <name></name>
    <rtept lat="55.735787620180034" lon="37.58997266032454">
    </rtept>
    <rtept lat="55.73586026025877" lon="37.58979831673856">
    </rtept>
    <rtept lat="55.73657606044091" lon="37.59053055979962">
    </rtept>
    <rtept lat="55.736037319869396" lon="37.59201382138486">
    </rtept>
    <rtept lat="55.735613586093244" lon="37.59325300194975">
    </rtept>
    <rtept lat="55.73555910570115" lon="37.59336029031035">
    </rtept>
    <rtept lat="55.735734653357824" lon="37.59432588555571">
    </rtept>
    <rtept lat="55.735843613573515" lon="37.59425614812132">
    </rtept>
    <rtept lat="55.73741744927719" lon="37.594964251301235">
    </rtept>
    <rtept lat="55.73735994486342" lon="37.59522710778471">
    </rtept>
    <rtept lat="55.738131707516324" lon="37.59551678635829">
    </rtept>
    <rtept lat="55.73986887408184" lon="37.59657894112817">
    </rtept>
    <rtept lat="55.74172095916572" lon="37.59946499802821">
    </rtept>
    <rtept lat="55.74422658083854" lon="37.60223303773156">
    </rtept>
    <rtept lat="55.744680480522824" lon="37.603080615780264">
    </rtept>
    <rtept lat="55.744970973525426" lon="37.60267292001">
    </rtept>
    <rtept lat="55.746592852943884" lon="37.60612760522119">
    </rtept>
    <rtept lat="55.74721011761496" lon="37.60718975999108">
    </rtept>
    <rtept lat="55.74881374960887" lon="37.609088763973645">
    </rtept>
    <rtept lat="55.74908000662735" lon="37.60855232217065">
    </rtept>
    <rtept lat="55.749691180608366" lon="37.60656748749963">
    </rtept>
    <rtept lat="55.74989692018127" lon="37.606824979565054">
    </rtept>
    <rtept lat="55.75113738568498" lon="37.607586726925284">
    </rtept>
    <rtept lat="55.75264404417287" lon="37.60804806687586">
    </rtept>
    <rtept lat="55.752486725135576" lon="37.61089120843163">
    </rtept>
    <rtept lat="55.754604427957425" lon="37.61198554970971">
    </rtept>
    <rtept lat="55.7548161918898" lon="37.6121464822506">
    </rtept>
    <rtept lat="55.75669781496532" lon="37.61428152062643">
    </rtept>
    <rtept lat="55.75728466911073" lon="37.615268573543894">
    </rtept>
    <rtept lat="55.75860354606006" lon="37.61747871377217">
    </rtept>
    <rtept lat="55.75988003108647" lon="37.6258579347347">
    </rtept>
    <rtept lat="55.760654371230956" lon="37.62645874955403">
    </rtept>
    <rtept lat="55.76050918363006" lon="37.62704883553732">
    </rtept>
    <rtept lat="55.75983768391451" lon="37.62822900750386">
    </rtept>
    <rtept lat="55.760835854968676" lon="37.630128011486406">
    </rtept>
    <rtept lat="55.76016436090227" lon="37.630836114666344">
    </rtept>
    <rtept lat="55.760303500266204" lon="37.63136182763326">
    </rtept>
    <rtept lat="55.76101733785818" lon="37.631994828960785">
    </rtept>
    <rtept lat="55.762523613098345" lon="37.63460193612322">
    </rtept>
    <rtept lat="55.765179112676584" lon="37.63720904328568">
    </rtept>
    <rtept lat="55.76543920879162" lon="37.63827119805559">
    </rtept>
    <rtept lat="55.767235639021834" lon="37.64206920602067">
    </rtept>
    <rtept lat="55.76826386134555" lon="37.64432226159318">
    </rtept>
    <rtept lat="55.769364633876634" lon="37.64610324837906">
    </rtept>
    <rtept lat="55.7701266888865" lon="37.646843538067195">
    </rtept>
    <rtept lat="55.77186242500571" lon="37.649482831737835">
    </rtept>
    <rtept lat="55.77183218636484" lon="37.65207921006424">
    </rtept>
    <rtept lat="55.77364646311431" lon="37.652701482555706">
    </rtept>
    <rtept lat="55.77434191338526" lon="37.65237961747392">
    </rtept>
    <rtept lat="55.77477127211326" lon="37.651875362179105">
    </rtept>
    <rtept lat="55.77498897330916" lon="37.6526639316295">
    </rtept>
    <rtept lat="55.77523086210159" lon="37.652401075146024">
    </rtept>
  </rte>
</gpx>