<?xml version="1.0" encoding="UTF-8"?>
<gpx version="1.1" creator="Yandex Map Constructor" xmlns="http://www.topografix.com/GPX/1/1"><metadata><name><![CDATA[Импорт из «edbd5f1b-1e54-41e6-ba41-e34eeba57713.gpx»]]></name><desc/><time>2026-06-29T15:23:45.144Z</time></metadata><rte><rtept lon="34.34397721152551" lat="61.784070379580285"/><rtept lon="34.340973137428826" lat="61.78750439576695"/><rtept lon="34.33891320090534" lat="61.791994451754164"/><rtept lon="34.33410668235066" lat="61.79431033202671"/><rtept lon="34.30226349692586" lat="61.801906815398524"/><rtept lon="34.28775811057328" lat="61.80803949948682"/><rtept lon="34.27814507346392" lat="61.81502357733192"/><rtept lon="34.2638971791768" lat="61.82078830150362"/><rtept lon="34.246044395973676" lat="61.82833763581794"/><rtept lon="34.24055123191116" lat="61.83304487983485"/><rtept lon="34.24346947531938" lat="61.83913075945082"/><rtept lon="34.254970787575196" lat="61.867272336333656"/><rtept lon="34.25153756003612" lat="61.89741263369425"/><rtept lon="34.244671104958" lat="61.928170392839476"/><rtept lon="34.25085091452831" lat="61.94240557942424"/><rtept lon="34.252910851051766" lat="61.96051346897321"/><rtept lon="34.24398445945019" lat="61.98216411364861"/><rtept lon="34.231624840309564" lat="61.997342682395995"/><rtept lon="34.22338509421583" lat="62.01380446887955"/><rtept lon="34.21308541159863" lat="62.03122487121637"/><rtept lon="34.21651863913769" lat="62.053147452163884"/><rtept lon="34.22956490378613" lat="62.0621697909518"/><rtept lon="34.23986458640332" lat="62.09823229039875"/><rtept lon="34.245357750465814" lat="62.10788459541277"/><rtept lon="34.23917794089546" lat="62.12975175096794"/><rtept lon="34.228878258278264" lat="62.14646302062168"/><rtept lon="34.21720528464547" lat="62.16252282998331"/><rtept lon="34.198665855934536" lat="62.17729030773185"/><rtept lon="34.22475838523137" lat="62.19461681754049"/><rtept lon="34.22819161277043" lat="62.20520033733106"/><rtept lon="34.23437142234073" lat="62.212895107134855"/><rtept lon="34.252910851051666" lat="62.211612782060925"/><rtept lon="34.278316734840736" lat="62.20808610645917"/><rtept lon="34.299602745582916" lat="62.20487967924522"/><rtept lon="34.30440926413762" lat="62.21097159904093"/><rtept lon="34.303722618629806" lat="62.219305913237704"/><rtept lon="34.31333565573914" lat="62.22347220504653"/><rtept lon="34.366894005348506" lat="62.22379266514161"/><rtept lon="34.434185265114124" lat="62.23949102958372"/><rtept lon="34.45753121237976" lat="62.240451887804994"/><rtept lon="34.46096443991882" lat="62.24845784570482"/><rtept lon="34.45341133933289" lat="62.25550132525976"/><rtept lon="34.44448494773132" lat="62.266063449911954"/><rtept lon="34.44311165671569" lat="62.272462930571315"/><rtept lon="34.45478463034851" lat="62.274382508872854"/><rtept lon="34.46783089499696" lat="62.27534225200657"/><rtept lon="34.47538399558288" lat="62.28110006661581"/><rtept lon="34.48156380515321" lat="62.28525780154029"/><rtept lon="34.5200159535907" lat="62.29197292603539"/><rtept lon="34.52066563471032" lat="62.29482498389835"/><rtept lon="34.51894902094078" lat="62.29682305275047"/><rtept lon="34.515944946844115" lat="62.300299375327846"/><rtept lon="34.51173924310875" lat="62.304374550820924"/><rtept lon="34.505988586980834" lat="62.30721086572565"/><rtept lon="34.50616024835778" lat="62.31076586747584"/><rtept lon="34.50779103143883" lat="62.3132021982589"/><rtept lon="34.50658940180012" lat="62.3155584609736"/><rtept lon="34.504701126653636" lat="62.318114197558565"/><rtept lon="34.504701126653636" lat="62.32242650890242"/><rtept lon="34.50384281976888" lat="62.32653859813122"/><rtept lon="34.50126789911453" lat="62.33196728835454"/><rtept lon="34.50212620599931" lat="62.33535972020633"/><rtept lon="34.50264119013015" lat="62.33851234177565"/><rtept lon="34.50770520075027" lat="62.34274192021185"/><rtept lon="34.509250153142844" lat="62.346731540859345"/><rtept lon="34.50719021661941" lat="62.35223634431178"/><rtept lon="34.48453091486161" lat="62.36451877642896"/><rtept lon="34.47402707329803" lat="62.369693579280465"/><rtept lon="34.47334042779022" lat="62.373520177057635"/><rtept lon="34.473855411921086" lat="62.37710716776817"/><rtept lon="34.47419873467498" lat="62.382287616879026"/><rtept lon="34.471108829889815" lat="62.38746716827325"/><rtept lon="34.46767560235076" lat="62.393920429959586"/><rtept lon="34.46080914727265" lat="62.39774392737745"/><rtept lon="34.45754758111053" lat="62.39957584646563"/><rtept lon="34.45291272393275" lat="62.40554871516239"/><rtept lon="34.4443296550851" lat="62.4071412784055"/><rtept lon="34.43780652276087" lat="62.40921148363833"/><rtept lon="34.4340299724679" lat="62.415500841980396"/><rtept lon="34.42493191948935" lat="62.4237784833311"/><rtept lon="34.384591495905305" lat="62.4427924404659"/><rtept lon="34.37841168633497" lat="62.45153956137106"/><rtept lon="34.36536542168653" lat="62.4704563668894"/><rtept lon="34.354035770807634" lat="62.48396101781568"/><rtept lon="34.349229252252954" lat="62.49587179955116"/><rtept lon="34.349229252252954" lat="62.502222267076036"/><rtept lon="34.33961621514354" lat="62.5169818637258"/><rtept lon="34.33824292412792" lat="62.52491410225614"/><rtept lon="34.33618298760446" lat="62.53189272072825"/><rtept lon="34.337899601374" lat="62.53696704993063"/><rtept lon="34.32931653252635" lat="62.544259879276666"/><rtept lon="34.31455365410839" lat="62.55313568871283"/><rtept lon="34.30803052178417" lat="62.56866196923675"/><rtept lon="34.29464093438181" lat="62.58433843151554"/><rtept lon="34.27541486016306" lat="62.59747493670626"/><rtept lon="34.274384891901335" lat="62.604752901081355"/><rtept lon="34.27095166436228" lat="62.61076378352698"/><rtept lon="34.26374188653025" lat="62.61835473287243"/><rtept lon="34.263055241022435" lat="62.622623786351106"/><rtept lon="34.25412884942089" lat="62.62768260775342"/><rtept lon="34.25618878594432" lat="62.6321083668907"/><rtept lon="34.25756207695994" lat="62.636533463821145"/><rtept lon="34.25412884942089" lat="62.64474974435299"/><rtept lon="34.260308658991185" lat="62.65359549305222"/><rtept lon="34.26854840508495" lat="62.65991226409507"/><rtept lon="34.26923505059276" lat="62.66891132947267"/><rtept lon="34.26854840508495" lat="62.67617173394954"/><rtept lon="34.27541486016306" lat="62.68485030894778"/><rtept lon="34.28468457451853" lat="62.68721675015966"/><rtept lon="34.29258099785837" lat="62.68800552172222"/><rtept lon="34.303519993733445" lat="62.6938337956436"/><rtept lon="34.30283334822563" lat="62.69903813080109"/><rtept lon="34.31072977156548" lat="62.70376854772288"/><rtept lon="34.32274606795222" lat="62.70660643363724"/><rtept lon="34.32961252303033" lat="62.70660643363724"/><rtept lon="34.338195591877984" lat="62.70534518473264"/><rtept lon="34.34643533797175" lat="62.7069217374326"/><rtept lon="34.34643533797175" lat="62.713069487444805"/><rtept lon="34.34162881941702" lat="62.72252506093306"/><rtept lon="34.35295847029576" lat="62.735285272756265"/><rtept lon="34.37218454451451" lat="62.74567839561085"/><rtept lon="34.39965036482701" lat="62.75071616478684"/><rtept lon="34.39690378279577" lat="62.75858595279207"/><rtept lon="34.41612985701451" lat="62.76078911621482"/><rtept lon="34.426429539631684" lat="62.77148784859512"/><rtept lon="34.429176121662955" lat="62.77935208053297"/><rtept lon="34.43947580428012" lat="62.78752865003446"/><rtept lon="34.45595529646762" lat="62.789100806413536"/><rtept lon="34.459388524006705" lat="62.799160615147656"/><rtept lon="34.45732858748325" lat="62.81078797439273"/><rtept lon="34.44496896834264" lat="62.81895579644575"/><rtept lon="34.44702890486607" lat="62.82555122396768"/><rtept lon="34.438789158772316" lat="62.834970691302075"/><rtept lon="34.44359567732702" lat="62.848780437994954"/><rtept lon="34.43741586775669" lat="62.85505544494082"/><rtept lon="34.43899559594304" lat="62.87208969167071"/><rtept lon="34.451614132806974" lat="62.874598612323204"/><rtept lon="34.4481809052679" lat="62.88400232461534"/><rtept lon="34.43925451366635" lat="62.89528279113893"/><rtept lon="34.44543432323665" lat="62.909064121250005"/><rtept lon="34.47015356151791" lat="62.92534277384822"/><rtept lon="34.49761938183039" lat="62.92409089179606"/><rtept lon="34.507919064447584" lat="62.928472244230335"/><rtept lon="34.50723241893977" lat="62.93723297741318"/><rtept lon="34.50723241893977" lat="62.947242025465584"/><rtept lon="34.50242590038509" lat="62.960686279296766"/><rtept lon="34.50448583690853" lat="62.97443677723153"/><rtept lon="34.505859127924154" lat="62.98193431559116"/><rtept lon="34.49154390137313" lat="62.98667945119383"/><rtept lon="34.48296083252547" lat="62.99464217511155"/><rtept lon="34.4688845996153" lat="63.00822062158496"/><rtept lon="34.469914567877034" lat="63.01742538988885"/><rtept lon="34.44759858887312" lat="63.02771879914942"/><rtept lon="34.44141877930279" lat="63.04439885999342"/><rtept lon="34.42150605957624" lat="63.05686368124234"/><rtept lon="34.42837251465438" lat="63.08084340836795"/><rtept lon="34.42150605957624" lat="63.093603753770864"/><rtept lon="34.38305391113875" lat="63.10511436905734"/><rtept lon="34.36588777344344" lat="63.11879671993218"/><rtept lon="34.32125581543563" lat="63.12563547262485"/><rtept lon="34.30752290527937" lat="63.141172087441774"/><rtept lon="34.29653657715436" lat="63.159805020104194"/><rtept lon="34.27937043945906" lat="63.18121805790444"/><rtept lon="34.29310334961531" lat="63.18742177009986"/><rtept lon="34.313702714849676" lat="63.18649129821534"/><rtept lon="34.32949556152936" lat="63.18990288189818"/><rtept lon="34.3425418261778" lat="63.19920515272909"/><rtept lon="34.35490144531843" lat="63.20633486406397"/><rtept lon="34.362454545904356" lat="63.215321989829896"/><rtept lon="34.341855180669995" lat="63.22461607073788"/><rtept lon="34.32880891602155" lat="63.23204917906212"/><rtept lon="34.31438936035749" lat="63.24009955048971"/><rtept lon="34.31988252442" lat="63.24660013197573"/><rtept lon="34.32880891602155" lat="63.252789798375616"/><rtept lon="34.320569169927815" lat="63.259596895147574"/><rtept lon="34.325375688482495" lat="63.26825814561092"/><rtept lon="34.3150760058653" lat="63.278153526645866"/><rtept lon="34.30546296875594" lat="63.29020892159131"/><rtept lon="34.313702714849676" lat="63.299478863955635"/><rtept lon="34.32880891602155" lat="63.30164142038523"/><rtept lon="34.337048662115315" lat="63.305657164887265"/><rtept lon="34.34460176270124" lat="63.30998118520957"/><rtept lon="34.35833467285749" lat="63.31523090642807"/><rtept lon="34.355588090826245" lat="63.32202323911437"/><rtept lon="34.34048188965432" lat="63.33035708812608"/><rtept lon="34.32674897949809" lat="63.334368819255886"/><rtept lon="34.325375688482445" lat="63.34393299215952"/><rtept lon="34.324689042974605" lat="63.35472742042664"/><rtept lon="34.31026948731054" lat="63.35842743198994"/><rtept lon="34.29996980469335" lat="63.36705893540057"/><rtept lon="34.29173005859961" lat="63.37044917200705"/><rtept lon="34.28211702149022" lat="63.38339002250346"/><rtept lon="34.266324174810535" lat="63.38893431168866"/><rtept lon="34.2580844287168" lat="63.401866811880204"/><rtept lon="34.25602449219331" lat="63.40863864669825"/><rtept lon="34.242978227544874" lat="63.417255027448874"/><rtept lon="34.2443515185605" lat="63.42863697792474"/><rtept lon="34.2443515185605" lat="63.43724733378329"/><rtept lon="34.24915803711517" lat="63.454152980260695"/><rtept lon="34.264264238287055" lat="63.459376337412756"/><rtept lon="34.27044404785738" lat="63.468284564382856"/><rtept lon="34.26495088379486" lat="63.47811110505528"/><rtept lon="34.26907075684176" lat="63.488855008209214"/><rtept lon="34.26289094727143" lat="63.50634355780867"/><rtept lon="34.25877107422456" lat="63.51677021410313"/><rtept lon="34.28623689453707" lat="63.54527068815495"/><rtept lon="34.28143037598236" lat="63.560887862817744"/><rtept lon="34.27250398438081" lat="63.57986189434355"/><rtept lon="34.291730058599555" lat="63.58322693102433"/><rtept lon="34.29928315918551" lat="63.58934415772044"/><rtept lon="34.29722322266205" lat="63.60402012359582"/><rtept lon="34.28074373047455" lat="63.618688499135935"/><rtept lon="34.27868379395112" lat="63.63853983093715"/><rtept lon="34.28280366699796" lat="63.664783300373635"/><rtept lon="34.2793704394589" lat="63.67423719008429"/><rtept lon="34.29173005859953" lat="63.68368791984489"/><rtept lon="34.28761018555264" lat="63.69709643492626"/><rtept lon="34.28829683106045" lat="63.71263016229654"/><rtept lon="34.27731050293547" lat="63.72389438139013"/><rtept lon="34.296536577154214" lat="63.7296769630595"/><rtept lon="34.30820955078703" lat="63.74336782366839"/><rtept lon="34.30683625977141" lat="63.754011675826064"/><rtept lon="34.31576265137296" lat="63.76009207238409"/><rtept lon="34.30752290527922" lat="63.77589496277904"/><rtept lon="34.29035676758389" lat="63.78500798134772"/><rtept lon="34.27044404785733" lat="63.78986705144678"/><rtept lon="34.242978227544825" lat="63.82688987570917"/><rtept lon="34.250531328130776" lat="63.8365927098503"/><rtept lon="34.24366487305264" lat="63.842958372876055"/><rtept lon="34.25259126465421" lat="63.85053466110521"/><rtept lon="34.26769746582608" lat="63.85962350722937"/><rtept lon="34.26701082031827" lat="63.86810377367862"/><rtept lon="34.275937211919846" lat="63.880213991761856"/><rtept lon="34.273190629888575" lat="63.88929322192646"/><rtept lon="34.25259126465416" lat="63.90532600550447"/><rtept lon="34.24847139160729" lat="63.917722428084254"/><rtept lon="34.26014436524011" lat="63.926789502318314"/><rtept lon="34.25121797363853" lat="63.938874362869505"/><rtept lon="34.2374850634823" lat="63.94491483430749"/><rtept lon="34.23473848145103" lat="63.95457687304593"/><rtept lon="34.21551240723229" lat="63.96755497595258"/><rtept lon="34.19079316895105" lat="63.98414608430293"/><rtept lon="34.18804658691978" lat="64.00012454808584"/><rtept lon="34.20933259766199" lat="64.01006877806239"/><rtept lon="34.23885835449793" lat="64.03054873124061"/><rtept lon="34.24847139160729" lat="64.04168590928147"/><rtept lon="34.24847139160729" lat="64.05281863082965"/><rtept lon="34.24435151856042" lat="64.06154116302788"/><rtept lon="34.254651201177616" lat="64.0771747141623"/><rtept lon="34.24435151856042" lat="64.09099706368923"/><rtept lon="34.23473848145103" lat="64.11111731094276"/><rtept lon="34.24572480957604" lat="64.15551035605223"/><rtept lon="34.25808442871667" lat="64.19025521315417"/><rtept lon="34.2869235400448" lat="64.2085087118321"/><rtept lon="34.29447664063073" lat="64.2219666793992"/><rtept lon="34.3713809375056" lat="64.26319689221182"/><rtept lon="34.395413530279" lat="64.2757329854918"/><rtept lon="34.41807283203683" lat="64.29393000933321"/><rtept lon="34.4331790332087" lat="64.3183726319003"/><rtept lon="34.42287935059151" lat="64.3332660095231"/><rtept lon="34.426999223638376" lat="64.34785368808689"/><rtept lon="34.43729890625557" lat="64.3921645440653"/><rtept lon="34.426999223638376" lat="64.40196867470225"/><rtept lon="34.45995820801337" lat="64.429876360312"/><rtept lon="34.4929171923884" lat="64.43788713686057"/><rtept lon="34.50321687500556" lat="64.44589556658883"/><rtept lon="34.50871003906808" lat="64.46368367759199"/><rtept lon="34.53068269531807" lat="64.46812889562922"/><rtept lon="34.55265535156806" lat="64.47138826223159"/><rtept lon="34.567074907232126" lat="64.48116402725456"/><rtept lon="34.58424104492743" lat="64.49419293414199"/><rtept lon="34.60484041016183" lat="64.50751151641458"/><rtept lon="34.66114534180244" lat="64.54683730537985"/><rtept lon="34.678998125005585" lat="64.57312135115924"/><rtept lon="34.73324312012276" lat="64.6017390800261"/><rtept lon="34.79435457031807" lat="64.61706812848558"/><rtept lon="34.80396760742746" lat="64.63268305477442"/><rtept lon="34.79435457031807" lat="64.65476428337024"/><rtept lon="34.81152070801338" lat="64.67917986607902"/><rtept lon="34.81495393555244" lat="64.70327965753243"/><rtept lon="34.78954805176334" lat="64.72677094713497"/><rtept lon="34.75178254883367" lat="64.73850892891844"/><rtept lon="34.73598970215398" lat="64.73909569395126"/><rtept lon="34.71951020996648" lat="64.7382155416148"/><rtept lon="34.68449128906802" lat="64.74173597862706"/><rtept lon="34.646039140630535" lat="64.74994854468076"/><rtept lon="34.64535249512272" lat="64.76665925458406"/><rtept lon="34.65839875977117" lat="64.78043046721857"/><rtept lon="34.66389192383365" lat="64.7924379022273"/><rtept lon="34.65221895020084" lat="64.80473264752824"/><rtept lon="34.652905595708646" lat="64.81409630100417"/><rtept lon="34.678998125005535" lat="64.84216769981923"/><rtept lon="34.6769381884821" lat="64.85210262049813"/><rtept lon="34.66801179688053" lat="64.85736079566095"/><rtept lon="34.67213166992737" lat="64.88042615860728"/><rtept lon="34.6467257861383" lat="64.90930285202624"/><rtept lon="34.60758699219299" lat="64.92154416611567"/><rtept lon="34.57874788086487" lat="64.93319735443751"/><rtept lon="34.56020845215394" lat="64.94135156516693"/><rtept lon="34.55763353149963" lat="64.9489938787464"/><rtept lon="34.56381334106994" lat="64.95219572220502"/><rtept lon="34.56930650513235" lat="64.95510615595859"/></rte></gpx>