<?xml version="1.0" encoding="UTF-8"?>
<gpx xmlns="http://www.topografix.com/GPX/1/1" xmlns:xsi="http://www.w3.org/2001/XMLSchema-instance" xsi:schemaLocation="http://www.topografix.com/GPX/1/1 http://www.topografix.com/GPX/1/1/gpx.xsd" version="1.1" creator="gpx.py -- https://github.com/tkrajina/gpxpy">
  <rte>
    <name>masstransit 63.7 km</name>
    <rtept lat="55.579127" lon="36.690647">
    </rtept>
    <rtept lat="55.579075" lon="36.690675999999996">
    </rtept>
    <rtept lat="55.578974" lon="36.690109">
    </rtept>
    <rtept lat="55.578929" lon="36.689859">
    </rtept>
    <rtept lat="55.578859" lon="36.689898">
    </rtept>
    <rtept lat="55.578844000000004" lon="36.689906">
    </rtept>
    <rtept lat="55.578751000000004" lon="36.689957">
    </rtept>
    <rtept lat="55.578767000000006" lon="36.690064">
    </rtept>
    <rtept lat="55.578767000000006" lon="36.690078">
    </rtept>
    <rtept lat="55.578765000000004" lon="36.69009">
    </rtept>
    <rtept lat="55.578743" lon="36.690134">
    </rtept>
    <rtept lat="55.578712" lon="36.690229">
    </rtept>
    <rtept lat="55.578779000000004" lon="36.690634">
    </rtept>
    <rtept lat="55.578842" lon="36.691014">
    </rtept>
    <rtept lat="55.578884" lon="36.691267">
    </rtept>
    <rtept lat="55.578901" lon="36.691397">
    </rtept>
    <rtept lat="55.57891" lon="36.691454">
    </rtept>
    <rtept lat="55.578936" lon="36.691445">
    </rtept>
    <rtept lat="55.578970999999996" lon="36.691482">
    </rtept>
    <rtept lat="55.578981" lon="36.69148">
    </rtept>
    <rtept lat="55.579129" lon="36.691401">
    </rtept>
    <rtept lat="55.578984" lon="36.690593">
    </rtept>
    <rtept lat="55.578998999999996" lon="36.690585">
    </rtept>
    <rtept lat="55.578998999999996" lon="36.690585">
    </rtept>
    <rtept lat="55.579010999999994" lon="36.690578">
    </rtept>
    <rtept lat="55.579012999999996" lon="36.690583000000004">
    </rtept>
    <rtept lat="55.579423" lon="36.692854000000004">
    </rtept>
    <rtept lat="55.579834999999996" lon="36.69512400000001">
    </rtept>
    <rtept lat="55.580245" lon="36.69739500000001">
    </rtept>
    <rtept lat="55.580656" lon="36.69966500000001">
    </rtept>
    <rtept lat="55.581067" lon="36.70193500000001">
    </rtept>
    <rtept lat="55.581477" lon="36.70420600000001">
    </rtept>
    <rtept lat="55.581888" lon="36.706477000000014">
    </rtept>
    <rtept lat="55.582298" lon="36.70874700000002">
    </rtept>
    <rtept lat="55.582709" lon="36.71101800000002">
    </rtept>
    <rtept lat="55.583118" lon="36.71328900000002">
    </rtept>
    <rtept lat="55.583528" lon="36.71555900000002">
    </rtept>
    <rtept lat="55.583938" lon="36.71783000000002">
    </rtept>
    <rtept lat="55.584349" lon="36.72010000000002">
    </rtept>
    <rtept lat="55.584759000000005" lon="36.722371000000024">
    </rtept>
    <rtept lat="55.58516900000001" lon="36.724642000000024">
    </rtept>
    <rtept lat="55.58557900000001" lon="36.726913000000025">
    </rtept>
    <rtept lat="55.58598900000001" lon="36.72918500000002">
    </rtept>
    <rtept lat="55.586399000000014" lon="36.73145600000002">
    </rtept>
    <rtept lat="55.58680900000002" lon="36.73372700000002">
    </rtept>
    <rtept lat="55.587220000000016" lon="36.73599900000002">
    </rtept>
    <rtept lat="55.587629000000014" lon="36.73827000000002">
    </rtept>
    <rtept lat="55.588040000000014" lon="36.74054100000002">
    </rtept>
    <rtept lat="55.58844900000001" lon="36.74281200000002">
    </rtept>
    <rtept lat="55.588701000000015" lon="36.74420500000002">
    </rtept>
    <rtept lat="55.58910800000002" lon="36.746478000000025">
    </rtept>
    <rtept lat="55.58951500000002" lon="36.74875100000003">
    </rtept>
    <rtept lat="55.58992200000002" lon="36.75102400000003">
    </rtept>
    <rtept lat="55.59033000000002" lon="36.75329700000003">
    </rtept>
    <rtept lat="55.59073600000002" lon="36.755570000000034">
    </rtept>
    <rtept lat="55.59114400000002" lon="36.75784300000004">
    </rtept>
    <rtept lat="55.591551000000024" lon="36.76011600000004">
    </rtept>
    <rtept lat="55.59195800000003" lon="36.76238900000004">
    </rtept>
    <rtept lat="55.59236600000003" lon="36.764662000000044">
    </rtept>
    <rtept lat="55.592772000000025" lon="36.766935000000046">
    </rtept>
    <rtept lat="55.59317900000003" lon="36.769209000000046">
    </rtept>
    <rtept lat="55.593537000000026" lon="36.771211000000044">
    </rtept>
    <rtept lat="55.59393500000002" lon="36.77348900000004">
    </rtept>
    <rtept lat="55.59433200000002" lon="36.77576800000004">
    </rtept>
    <rtept lat="55.59473000000002" lon="36.77804600000004">
    </rtept>
    <rtept lat="55.59512700000002" lon="36.78032500000004">
    </rtept>
    <rtept lat="55.595525000000016" lon="36.78260400000004">
    </rtept>
    <rtept lat="55.59592100000002" lon="36.78488200000004">
    </rtept>
    <rtept lat="55.59615500000002" lon="36.78621900000004">
    </rtept>
    <rtept lat="55.59654500000002" lon="36.78850200000004">
    </rtept>
    <rtept lat="55.59693600000002" lon="36.79078400000004">
    </rtept>
    <rtept lat="55.59732500000002" lon="36.793067000000036">
    </rtept>
    <rtept lat="55.59771600000002" lon="36.795350000000035">
    </rtept>
    <rtept lat="55.59810700000002" lon="36.797632000000036">
    </rtept>
    <rtept lat="55.59849600000002" lon="36.799915000000034">
    </rtept>
    <rtept lat="55.59888700000002" lon="36.80219800000003">
    </rtept>
    <rtept lat="55.59927700000002" lon="36.80448100000003">
    </rtept>
    <rtept lat="55.599667000000025" lon="36.80676400000003">
    </rtept>
    <rtept lat="55.60005700000003" lon="36.80904700000003">
    </rtept>
    <rtept lat="55.60039900000003" lon="36.811046000000026">
    </rtept>
    <rtept lat="55.60060100000003" lon="36.81220500000003">
    </rtept>
    <rtept lat="55.60070500000003" lon="36.812608000000026">
    </rtept>
    <rtept lat="55.60109400000003" lon="36.814891000000024">
    </rtept>
    <rtept lat="55.60148500000003" lon="36.81717400000002">
    </rtept>
    <rtept lat="55.60187400000003" lon="36.81945700000002">
    </rtept>
    <rtept lat="55.60226500000003" lon="36.82174000000002">
    </rtept>
    <rtept lat="55.60247700000003" lon="36.82297700000002">
    </rtept>
    <rtept lat="55.602481000000026" lon="36.82300500000002">
    </rtept>
    <rtept lat="55.602481000000026" lon="36.82300500000002">
    </rtept>
    <rtept lat="55.60287400000003" lon="36.825287000000024">
    </rtept>
    <rtept lat="55.60326700000003" lon="36.82756800000003">
    </rtept>
    <rtept lat="55.60366000000003" lon="36.82985000000003">
    </rtept>
    <rtept lat="55.60389500000004" lon="36.83120900000003">
    </rtept>
    <rtept lat="55.60395100000004" lon="36.83174600000003">
    </rtept>
    <rtept lat="55.604343000000036" lon="36.83402900000003">
    </rtept>
    <rtept lat="55.60473500000003" lon="36.83631000000003">
    </rtept>
    <rtept lat="55.60512700000003" lon="36.838592000000034">
    </rtept>
    <rtept lat="55.60551900000003" lon="36.840874000000035">
    </rtept>
    <rtept lat="55.60591000000003" lon="36.84315700000003">
    </rtept>
    <rtept lat="55.60630200000003" lon="36.845439000000034">
    </rtept>
    <rtept lat="55.606694000000026" lon="36.84772200000003">
    </rtept>
    <rtept lat="55.607086000000024" lon="36.850004000000034">
    </rtept>
    <rtept lat="55.607477000000024" lon="36.852286000000035">
    </rtept>
    <rtept lat="55.607868000000025" lon="36.85456900000003">
    </rtept>
    <rtept lat="55.60826100000003" lon="36.85685000000004">
    </rtept>
    <rtept lat="55.60865200000003" lon="36.859133000000035">
    </rtept>
    <rtept lat="55.60887400000003" lon="36.86042300000003">
    </rtept>
    <rtept lat="55.609258000000025" lon="36.86270900000003">
    </rtept>
    <rtept lat="55.609641000000025" lon="36.86499600000003">
    </rtept>
    <rtept lat="55.610024000000024" lon="36.86728200000003">
    </rtept>
    <rtept lat="55.61040700000002" lon="36.869569000000034">
    </rtept>
    <rtept lat="55.61079100000002" lon="36.871857000000034">
    </rtept>
    <rtept lat="55.61107500000002" lon="36.873554000000034">
    </rtept>
    <rtept lat="55.61107500000002" lon="36.873554000000034">
    </rtept>
    <rtept lat="55.61107700000002" lon="36.873556000000036">
    </rtept>
    <rtept lat="55.611467000000026" lon="36.875839000000035">
    </rtept>
    <rtept lat="55.611858000000026" lon="36.878121000000036">
    </rtept>
    <rtept lat="55.61224900000003" lon="36.880404000000034">
    </rtept>
    <rtept lat="55.61264200000003" lon="36.88268700000003">
    </rtept>
    <rtept lat="55.61303300000003" lon="36.88497000000003">
    </rtept>
    <rtept lat="55.61342400000003" lon="36.88725200000003">
    </rtept>
    <rtept lat="55.61381500000003" lon="36.88953500000003">
    </rtept>
    <rtept lat="55.61382100000003" lon="36.88956900000003">
    </rtept>
    <rtept lat="55.61406700000003" lon="36.89133300000003">
    </rtept>
    <rtept lat="55.61421200000003" lon="36.89298800000003">
    </rtept>
    <rtept lat="55.61424400000003" lon="36.89374200000003">
    </rtept>
    <rtept lat="55.614206000000024" lon="36.896012000000034">
    </rtept>
    <rtept lat="55.614009000000024" lon="36.898258000000034">
    </rtept>
    <rtept lat="55.613662000000026" lon="36.90056400000003">
    </rtept>
    <rtept lat="55.61331700000002" lon="36.90287000000003">
    </rtept>
    <rtept lat="55.61297100000002" lon="36.905176000000026">
    </rtept>
    <rtept lat="55.61262500000002" lon="36.90748200000002">
    </rtept>
    <rtept lat="55.61228000000002" lon="36.90978700000002">
    </rtept>
    <rtept lat="55.61193400000002" lon="36.91209200000002">
    </rtept>
    <rtept lat="55.61158700000002" lon="36.91439800000002">
    </rtept>
    <rtept lat="55.61124100000002" lon="36.91670400000002">
    </rtept>
    <rtept lat="55.611175000000024" lon="36.917152000000016">
    </rtept>
    <rtept lat="55.610927000000025" lon="36.91938600000002">
    </rtept>
    <rtept lat="55.610848000000026" lon="36.92050900000002">
    </rtept>
    <rtept lat="55.610817000000026" lon="36.92169900000002">
    </rtept>
    <rtept lat="55.610885000000025" lon="36.92398600000002">
    </rtept>
    <rtept lat="55.611020000000025" lon="36.92635900000002">
    </rtept>
    <rtept lat="55.61115600000002" lon="36.92873300000002">
    </rtept>
    <rtept lat="55.61129200000002" lon="36.931107000000026">
    </rtept>
    <rtept lat="55.61142800000002" lon="36.933480000000024">
    </rtept>
    <rtept lat="55.61156300000002" lon="36.93585300000002">
    </rtept>
    <rtept lat="55.61170000000002" lon="36.938227000000026">
    </rtept>
    <rtept lat="55.61183500000002" lon="36.94060100000003">
    </rtept>
    <rtept lat="55.61197000000002" lon="36.94297400000003">
    </rtept>
    <rtept lat="55.61210500000002" lon="36.94534700000003">
    </rtept>
    <rtept lat="55.61224200000002" lon="36.94772100000003">
    </rtept>
    <rtept lat="55.61237700000002" lon="36.95009500000003">
    </rtept>
    <rtept lat="55.612512000000024" lon="36.952469000000036">
    </rtept>
    <rtept lat="55.612647000000024" lon="36.95484300000004">
    </rtept>
    <rtept lat="55.61278300000002" lon="36.95721700000004">
    </rtept>
    <rtept lat="55.61291800000002" lon="36.959591000000046">
    </rtept>
    <rtept lat="55.61305300000002" lon="36.961964000000044">
    </rtept>
    <rtept lat="55.61318800000002" lon="36.96433800000005">
    </rtept>
    <rtept lat="55.61332300000002" lon="36.96671200000005">
    </rtept>
    <rtept lat="55.61345800000002" lon="36.969086000000054">
    </rtept>
    <rtept lat="55.613536000000025" lon="36.97045700000005">
    </rtept>
    <rtept lat="55.61359600000002" lon="36.972153000000056">
    </rtept>
    <rtept lat="55.613553000000024" lon="36.97453800000005">
    </rtept>
    <rtept lat="55.613550000000025" lon="36.97469300000005">
    </rtept>
    <rtept lat="55.613573000000024" lon="36.975432000000055">
    </rtept>
    <rtept lat="55.613770000000024" lon="36.97779200000006">
    </rtept>
    <rtept lat="55.61392500000002" lon="36.979653000000056">
    </rtept>
    <rtept lat="55.614172000000025" lon="36.981998000000054">
    </rtept>
    <rtept lat="55.61433300000002" lon="36.98351000000005">
    </rtept>
    <rtept lat="55.61450500000002" lon="36.984525000000055">
    </rtept>
    <rtept lat="55.615044000000026" lon="36.98671000000005">
    </rtept>
    <rtept lat="55.61509000000002" lon="36.98689100000005">
    </rtept>
    <rtept lat="55.615104000000024" lon="36.98694400000005">
    </rtept>
    <rtept lat="55.615104000000024" lon="36.98694400000005">
    </rtept>
    <rtept lat="55.61545600000002" lon="36.98827600000005">
    </rtept>
    <rtept lat="55.61607500000002" lon="36.99039400000005">
    </rtept>
    <rtept lat="55.616694000000024" lon="36.99251300000005">
    </rtept>
    <rtept lat="55.616862000000026" lon="36.99308400000005">
    </rtept>
    <rtept lat="55.61745400000002" lon="36.99522600000005">
    </rtept>
    <rtept lat="55.61804900000002" lon="36.99736600000005">
    </rtept>
    <rtept lat="55.61864200000002" lon="36.99950800000005">
    </rtept>
    <rtept lat="55.618666000000026" lon="36.999591000000045">
    </rtept>
    <rtept lat="55.619218000000025" lon="37.001766000000046">
    </rtept>
    <rtept lat="55.619772000000026" lon="37.00394100000005">
    </rtept>
    <rtept lat="55.62032500000002" lon="37.00611600000005">
    </rtept>
    <rtept lat="55.62087900000002" lon="37.00829200000005">
    </rtept>
    <rtept lat="55.62143200000002" lon="37.010468000000046">
    </rtept>
    <rtept lat="55.62156400000002" lon="37.01098700000004">
    </rtept>
    <rtept lat="55.62213500000002" lon="37.01314900000004">
    </rtept>
    <rtept lat="55.62270600000002" lon="37.01531100000004">
    </rtept>
    <rtept lat="55.62327700000002" lon="37.01747200000004">
    </rtept>
    <rtept lat="55.623848000000024" lon="37.01963400000004">
    </rtept>
    <rtept lat="55.623966000000024" lon="37.02008100000004">
    </rtept>
    <rtept lat="55.624523000000025" lon="37.02225400000004">
    </rtept>
    <rtept lat="55.625080000000025" lon="37.02442700000004">
    </rtept>
    <rtept lat="55.625637000000026" lon="37.02660000000004">
    </rtept>
    <rtept lat="55.62619400000003" lon="37.028774000000034">
    </rtept>
    <rtept lat="55.62633700000003" lon="37.02933200000003">
    </rtept>
    <rtept lat="55.626341000000025" lon="37.029348000000034">
    </rtept>
    <rtept lat="55.626341000000025" lon="37.029348000000034">
    </rtept>
    <rtept lat="55.626901000000025" lon="37.03151900000003">
    </rtept>
    <rtept lat="55.62746000000003" lon="37.03369000000003">
    </rtept>
    <rtept lat="55.62802000000003" lon="37.03586200000003">
    </rtept>
    <rtept lat="55.62858000000003" lon="37.03803300000003">
    </rtept>
    <rtept lat="55.62913900000003" lon="37.04020300000003">
    </rtept>
    <rtept lat="55.62969900000003" lon="37.04237500000003">
    </rtept>
    <rtept lat="55.63025800000003" lon="37.044546000000025">
    </rtept>
    <rtept lat="55.63081800000003" lon="37.04671800000003">
    </rtept>
    <rtept lat="55.631377000000036" lon="37.048889000000024">
    </rtept>
    <rtept lat="55.63193600000004" lon="37.051061000000026">
    </rtept>
    <rtept lat="55.63249500000004" lon="37.05323300000003">
    </rtept>
    <rtept lat="55.633054000000044" lon="37.05540500000003">
    </rtept>
    <rtept lat="55.633614000000044" lon="37.05757700000003">
    </rtept>
    <rtept lat="55.63417300000005" lon="37.05974900000003">
    </rtept>
    <rtept lat="55.63473200000005" lon="37.061921000000034">
    </rtept>
    <rtept lat="55.63529100000005" lon="37.064093000000035">
    </rtept>
    <rtept lat="55.635850000000055" lon="37.06626400000003">
    </rtept>
    <rtept lat="55.63591000000005" lon="37.06649500000003">
    </rtept>
    <rtept lat="55.63647100000005" lon="37.06866600000003">
    </rtept>
    <rtept lat="55.63703200000005" lon="37.07083600000003">
    </rtept>
    <rtept lat="55.63759400000005" lon="37.073007000000025">
    </rtept>
    <rtept lat="55.63815500000005" lon="37.075177000000025">
    </rtept>
    <rtept lat="55.638716000000045" lon="37.07734800000002">
    </rtept>
    <rtept lat="55.63927700000004" lon="37.07951900000002">
    </rtept>
    <rtept lat="55.63983800000004" lon="37.081690000000016">
    </rtept>
    <rtept lat="55.64039900000004" lon="37.08386100000001">
    </rtept>
    <rtept lat="55.640774000000036" lon="37.08531400000001">
    </rtept>
    <rtept lat="55.64128500000004" lon="37.08752300000001">
    </rtept>
    <rtept lat="55.64131200000004" lon="37.087643000000014">
    </rtept>
    <rtept lat="55.64162200000004" lon="37.08978800000001">
    </rtept>
    <rtept lat="55.641770000000044" lon="37.091586000000014">
    </rtept>
    <rtept lat="55.64183900000005" lon="37.09331800000001">
    </rtept>
    <rtept lat="55.64184200000005" lon="37.09570500000001">
    </rtept>
    <rtept lat="55.641843000000044" lon="37.09697100000001">
    </rtept>
    <rtept lat="55.641843000000044" lon="37.09697100000001">
    </rtept>
    <rtept lat="55.641826000000044" lon="37.09935800000001">
    </rtept>
    <rtept lat="55.64180700000004" lon="37.10174600000001">
    </rtept>
    <rtept lat="55.641789000000045" lon="37.10413300000001">
    </rtept>
    <rtept lat="55.64178500000005" lon="37.10471600000001">
    </rtept>
    <rtept lat="55.64178200000005" lon="37.10710300000001">
    </rtept>
    <rtept lat="55.64178000000005" lon="37.10949100000001">
    </rtept>
    <rtept lat="55.64177900000005" lon="37.11187800000001">
    </rtept>
    <rtept lat="55.64177600000005" lon="37.114266000000015">
    </rtept>
    <rtept lat="55.64177400000005" lon="37.11652400000001">
    </rtept>
    <rtept lat="55.64184400000005" lon="37.11822700000001">
    </rtept>
    <rtept lat="55.641921000000046" lon="37.11918500000001">
    </rtept>
    <rtept lat="55.64212300000005" lon="37.12089800000001">
    </rtept>
    <rtept lat="55.64239900000005" lon="37.12253500000001">
    </rtept>
    <rtept lat="55.64282900000005" lon="37.12479800000001">
    </rtept>
    <rtept lat="55.64325900000005" lon="37.12706200000001">
    </rtept>
    <rtept lat="55.64368800000005" lon="37.12932500000001">
    </rtept>
    <rtept lat="55.64411800000005" lon="37.13158800000001">
    </rtept>
    <rtept lat="55.64441700000005" lon="37.13316400000001">
    </rtept>
    <rtept lat="55.64479700000005" lon="37.13498500000001">
    </rtept>
    <rtept lat="55.64522900000005" lon="37.13672400000001">
    </rtept>
    <rtept lat="55.64580900000005" lon="37.13869400000001">
    </rtept>
    <rtept lat="55.64626300000005" lon="37.14007800000001">
    </rtept>
    <rtept lat="55.64696600000005" lon="37.14211500000001">
    </rtept>
    <rtept lat="55.647668000000046" lon="37.14415300000001">
    </rtept>
    <rtept lat="55.64837100000005" lon="37.14618900000001">
    </rtept>
    <rtept lat="55.649073000000044" lon="37.148227000000006">
    </rtept>
    <rtept lat="55.64977500000004" lon="37.15026400000001">
    </rtept>
    <rtept lat="55.650165000000044" lon="37.15139500000001">
    </rtept>
    <rtept lat="55.65086900000004" lon="37.15343200000001">
    </rtept>
    <rtept lat="55.65157100000004" lon="37.15546900000001">
    </rtept>
    <rtept lat="55.65227500000004" lon="37.15750700000001">
    </rtept>
    <rtept lat="55.65297800000004" lon="37.15954400000001">
    </rtept>
    <rtept lat="55.65368100000004" lon="37.16158100000001">
    </rtept>
    <rtept lat="55.65438400000004" lon="37.16361900000001">
    </rtept>
    <rtept lat="55.655087000000044" lon="37.16565600000001">
    </rtept>
    <rtept lat="55.655790000000046" lon="37.16769400000001">
    </rtept>
    <rtept lat="55.65649300000005" lon="37.16973100000001">
    </rtept>
    <rtept lat="55.65719600000005" lon="37.17176900000001">
    </rtept>
    <rtept lat="55.65789900000005" lon="37.17380700000001">
    </rtept>
    <rtept lat="55.65860200000005" lon="37.17584500000001">
    </rtept>
    <rtept lat="55.65930400000005" lon="37.17788200000001">
    </rtept>
    <rtept lat="55.66000700000005" lon="37.17992000000001">
    </rtept>
    <rtept lat="55.66071100000005" lon="37.18195800000001">
    </rtept>
    <rtept lat="55.66123100000005" lon="37.18347200000001">
    </rtept>
    <rtept lat="55.66123100000005" lon="37.18347200000001">
    </rtept>
    <rtept lat="55.66192900000005" lon="37.18551500000001">
    </rtept>
    <rtept lat="55.66243100000005" lon="37.18698600000001">
    </rtept>
    <rtept lat="55.662958000000046" lon="37.18867500000001">
    </rtept>
    <rtept lat="55.66334000000005" lon="37.19022700000001">
    </rtept>
    <rtept lat="55.66362600000005" lon="37.19184700000001">
    </rtept>
    <rtept lat="55.66388600000005" lon="37.19411200000001">
    </rtept>
    <rtept lat="55.66406500000005" lon="37.19648000000001">
    </rtept>
    <rtept lat="55.66424400000005" lon="37.198848000000005">
    </rtept>
    <rtept lat="55.664424000000054" lon="37.201216">
    </rtept>
    <rtept lat="55.66460300000006" lon="37.203584">
    </rtept>
    <rtept lat="55.66478200000006" lon="37.20595">
    </rtept>
    <rtept lat="55.66496100000006" lon="37.208318">
    </rtept>
    <rtept lat="55.665140000000065" lon="37.210685">
    </rtept>
    <rtept lat="55.66523500000007" lon="37.211937">
    </rtept>
    <rtept lat="55.66523500000007" lon="37.211937">
    </rtept>
    <rtept lat="55.66523700000007" lon="37.211942">
    </rtept>
    <rtept lat="55.66541500000007" lon="37.214311">
    </rtept>
    <rtept lat="55.66559400000007" lon="37.216679">
    </rtept>
    <rtept lat="55.66577100000007" lon="37.219046999999996">
    </rtept>
    <rtept lat="55.66595000000007" lon="37.22141499999999">
    </rtept>
    <rtept lat="55.66612800000007" lon="37.22378199999999">
    </rtept>
    <rtept lat="55.666307000000074" lon="37.226150999999994">
    </rtept>
    <rtept lat="55.66648500000007" lon="37.228517999999994">
    </rtept>
    <rtept lat="55.66666300000007" lon="37.23088599999999">
    </rtept>
    <rtept lat="55.66684100000007" lon="37.23325399999999">
    </rtept>
    <rtept lat="55.66702000000007" lon="37.235621999999985">
    </rtept>
    <rtept lat="55.66719700000007" lon="37.23798999999998">
    </rtept>
    <rtept lat="55.667376000000075" lon="37.240358999999984">
    </rtept>
    <rtept lat="55.667553000000076" lon="37.24272699999998">
    </rtept>
    <rtept lat="55.66758100000008" lon="37.243085999999984">
    </rtept>
    <rtept lat="55.667677000000076" lon="37.24521099999998">
    </rtept>
    <rtept lat="55.66771800000008" lon="37.247599999999984">
    </rtept>
    <rtept lat="55.66775800000008" lon="37.24998799999999">
    </rtept>
    <rtept lat="55.66777200000008" lon="37.250787999999986">
    </rtept>
    <rtept lat="55.66777200000008" lon="37.250787999999986">
    </rtept>
    <rtept lat="55.667773000000075" lon="37.25078899999998">
    </rtept>
    <rtept lat="55.667810000000074" lon="37.25317699999999">
    </rtept>
    <rtept lat="55.66784700000007" lon="37.25556499999999">
    </rtept>
    <rtept lat="55.66788400000007" lon="37.25795299999999">
    </rtept>
    <rtept lat="55.66792100000007" lon="37.260341">
    </rtept>
    <rtept lat="55.66795700000007" lon="37.262729">
    </rtept>
    <rtept lat="55.66799400000007" lon="37.265118">
    </rtept>
    <rtept lat="55.66803100000007" lon="37.267505">
    </rtept>
    <rtept lat="55.66805600000007" lon="37.269126">
    </rtept>
    <rtept lat="55.66812100000007" lon="37.270749">
    </rtept>
    <rtept lat="55.66828600000007" lon="37.272301">
    </rtept>
    <rtept lat="55.668609000000075" lon="37.274045">
    </rtept>
    <rtept lat="55.66883200000007" lon="37.274916">
    </rtept>
    <rtept lat="55.66932000000007" lon="37.276391">
    </rtept>
    <rtept lat="55.67016200000007" lon="37.278256999999996">
    </rtept>
    <rtept lat="55.67026700000007" lon="37.278487999999996">
    </rtept>
    <rtept lat="55.67116100000007" lon="37.28027599999999">
    </rtept>
    <rtept lat="55.67205400000007" lon="37.282062999999994">
    </rtept>
    <rtept lat="55.67235800000007" lon="37.282669999999996">
    </rtept>
    <rtept lat="55.672373000000064" lon="37.2827">
    </rtept>
    <rtept lat="55.672373000000064" lon="37.2827">
    </rtept>
    <rtept lat="55.67327400000006" lon="37.284476">
    </rtept>
    <rtept lat="55.673335000000066" lon="37.284594">
    </rtept>
    <rtept lat="55.67425200000007" lon="37.286344">
    </rtept>
    <rtept lat="55.67516900000007" lon="37.288094">
    </rtept>
    <rtept lat="55.67608600000007" lon="37.289844">
    </rtept>
    <rtept lat="55.67630000000007" lon="37.290253">
    </rtept>
    <rtept lat="55.67715000000007" lon="37.292107">
    </rtept>
    <rtept lat="55.67760600000007" lon="37.293101">
    </rtept>
    <rtept lat="55.678125000000065" lon="37.294491">
    </rtept>
    <rtept lat="55.678440000000066" lon="37.295518">
    </rtept>
    <rtept lat="55.678787000000064" lon="37.296917">
    </rtept>
    <rtept lat="55.679259000000066" lon="37.299155">
    </rtept>
    <rtept lat="55.679732000000065" lon="37.301394">
    </rtept>
    <rtept lat="55.68020400000007" lon="37.303632">
    </rtept>
    <rtept lat="55.68067700000007" lon="37.305869">
    </rtept>
    <rtept lat="55.68114900000007" lon="37.308107">
    </rtept>
    <rtept lat="55.68115700000007" lon="37.308144">
    </rtept>
    <rtept lat="55.68165800000007" lon="37.310361">
    </rtept>
    <rtept lat="55.68181600000007" lon="37.31106">
    </rtept>
    <rtept lat="55.68228900000007" lon="37.313297999999996">
    </rtept>
    <rtept lat="55.682597000000065" lon="37.314752">
    </rtept>
    <rtept lat="55.682597000000065" lon="37.314752">
    </rtept>
    <rtept lat="55.68299300000007" lon="37.316618">
    </rtept>
    <rtept lat="55.68332400000007" lon="37.317986999999995">
    </rtept>
    <rtept lat="55.68372500000007" lon="37.319309999999994">
    </rtept>
    <rtept lat="55.68420300000007" lon="37.32059999999999">
    </rtept>
    <rtept lat="55.68466400000007" lon="37.32163699999999">
    </rtept>
    <rtept lat="55.685245000000066" lon="37.32279099999999">
    </rtept>
    <rtept lat="55.686157000000065" lon="37.324550999999985">
    </rtept>
    <rtept lat="55.687069000000065" lon="37.326309999999985">
    </rtept>
    <rtept lat="55.68761100000007" lon="37.32735299999999">
    </rtept>
    <rtept lat="55.68829200000007" lon="37.328535999999986">
    </rtept>
    <rtept lat="55.68896700000007" lon="37.32951199999999">
    </rtept>
    <rtept lat="55.68975300000007" lon="37.33044599999999">
    </rtept>
    <rtept lat="55.690925000000064" lon="37.331625999999986">
    </rtept>
    <rtept lat="55.69209600000006" lon="37.332805999999984">
    </rtept>
    <rtept lat="55.69326800000006" lon="37.333986999999986">
    </rtept>
    <rtept lat="55.69386600000006" lon="37.334589999999984">
    </rtept>
    <rtept lat="55.69500000000006" lon="37.335880999999986">
    </rtept>
    <rtept lat="55.69516000000006" lon="37.33606299999999">
    </rtept>
    <rtept lat="55.69626200000006" lon="37.33743699999999">
    </rtept>
    <rtept lat="55.69658700000006" lon="37.33784099999999">
    </rtept>
    <rtept lat="55.69764400000006" lon="37.33932499999999">
    </rtept>
    <rtept lat="55.698701000000064" lon="37.34080699999999">
    </rtept>
    <rtept lat="55.699756000000065" lon="37.34229199999999">
    </rtept>
    <rtept lat="55.70021400000007" lon="37.34293399999999">
    </rtept>
    <rtept lat="55.70021400000007" lon="37.34293399999999">
    </rtept>
    <rtept lat="55.700220000000066" lon="37.34294299999999">
    </rtept>
    <rtept lat="55.70127700000007" lon="37.34442599999999">
    </rtept>
    <rtept lat="55.70233300000007" lon="37.34590899999999">
    </rtept>
    <rtept lat="55.70339000000007" lon="37.34739299999999">
    </rtept>
    <rtept lat="55.70444700000007" lon="37.34887599999999">
    </rtept>
    <rtept lat="55.705504000000076" lon="37.35035999999999">
    </rtept>
    <rtept lat="55.706560000000074" lon="37.35184299999999">
    </rtept>
    <rtept lat="55.70733800000007" lon="37.35293499999999">
    </rtept>
    <rtept lat="55.70794600000007" lon="37.35388899999999">
    </rtept>
    <rtept lat="55.70856900000007" lon="37.35506299999999">
    </rtept>
    <rtept lat="55.70898600000007" lon="37.35599099999999">
    </rtept>
    <rtept lat="55.709451000000065" lon="37.35719599999999">
    </rtept>
    <rtept lat="55.71017000000006" lon="37.35921899999999">
    </rtept>
    <rtept lat="55.71088800000006" lon="37.36124399999999">
    </rtept>
    <rtept lat="55.71160600000006" lon="37.36326699999999">
    </rtept>
    <rtept lat="55.71232400000006" lon="37.36529099999999">
    </rtept>
    <rtept lat="55.713043000000056" lon="37.36731299999999">
    </rtept>
    <rtept lat="55.713761000000055" lon="37.36933799999999">
    </rtept>
    <rtept lat="55.714479000000054" lon="37.37136199999999">
    </rtept>
    <rtept lat="55.715196000000056" lon="37.37338599999999">
    </rtept>
    <rtept lat="55.71591500000005" lon="37.37540999999999">
    </rtept>
    <rtept lat="55.715970000000056" lon="37.375565999999985">
    </rtept>
    <rtept lat="55.71597400000005" lon="37.375576999999986">
    </rtept>
    <rtept lat="55.71597400000005" lon="37.375576999999986">
    </rtept>
    <rtept lat="55.71669300000005" lon="37.37759999999999">
    </rtept>
    <rtept lat="55.717412000000046" lon="37.37962199999998">
    </rtept>
    <rtept lat="55.71813100000004" lon="37.38164599999998">
    </rtept>
    <rtept lat="55.71885100000004" lon="37.38366899999998">
    </rtept>
    <rtept lat="55.71957000000004" lon="37.385691999999985">
    </rtept>
    <rtept lat="55.72028900000004" lon="37.38771599999998">
    </rtept>
    <rtept lat="55.72100800000003" lon="37.389738999999985">
    </rtept>
    <rtept lat="55.72172600000003" lon="37.391761999999986">
    </rtept>
    <rtept lat="55.72244500000003" lon="37.393785999999984">
    </rtept>
    <rtept lat="55.723164000000025" lon="37.39580999999998">
    </rtept>
    <rtept lat="55.723879000000025" lon="37.397823999999986">
    </rtept>
    <rtept lat="55.72388400000003" lon="37.39783399999999">
    </rtept>
    <rtept lat="55.72388400000003" lon="37.39783399999999">
    </rtept>
    <rtept lat="55.72460300000002" lon="37.39985699999999">
    </rtept>
    <rtept lat="55.72526000000002" lon="37.40170299999999">
    </rtept>
    <rtept lat="55.72581700000002" lon="37.40337199999999">
    </rtept>
    <rtept lat="55.72619600000002" lon="37.40481699999999">
    </rtept>
    <rtept lat="55.726541000000026" lon="37.406624999999984">
    </rtept>
    <rtept lat="55.726744000000025" lon="37.40828599999998">
    </rtept>
    <rtept lat="55.72684400000003" lon="37.40997999999998">
    </rtept>
    <rtept lat="55.72685000000003" lon="37.41207399999998">
    </rtept>
    <rtept lat="55.72688800000003" lon="37.412995999999985">
    </rtept>
    <rtept lat="55.72687600000003" lon="37.41538899999998">
    </rtept>
    <rtept lat="55.72686300000003" lon="37.417780999999984">
    </rtept>
    <rtept lat="55.72686200000003" lon="37.417903999999986">
    </rtept>
    <rtept lat="55.72686200000003" lon="37.417903999999986">
    </rtept>
    <rtept lat="55.72686200000003" lon="37.41790499999998">
    </rtept>
    <rtept lat="55.726853000000034" lon="37.42029799999998">
    </rtept>
    <rtept lat="55.72684200000003" lon="37.42268999999998">
    </rtept>
    <rtept lat="55.72683200000003" lon="37.42508299999998">
    </rtept>
    <rtept lat="55.72682700000003" lon="37.42642199999998">
    </rtept>
    <rtept lat="55.72680700000003" lon="37.42881499999998">
    </rtept>
    <rtept lat="55.72678700000003" lon="37.43120699999998">
    </rtept>
    <rtept lat="55.72676700000003" lon="37.43359899999998">
    </rtept>
    <rtept lat="55.72674800000003" lon="37.43599099999998">
    </rtept>
    <rtept lat="55.72672800000003" lon="37.43838399999998">
    </rtept>
    <rtept lat="55.72670900000003" lon="37.440776999999976">
    </rtept>
    <rtept lat="55.72670200000003" lon="37.44147699999998">
    </rtept>
    <rtept lat="55.72673700000003" lon="37.44386899999998">
    </rtept>
    <rtept lat="55.726772000000025" lon="37.44626099999998">
    </rtept>
    <rtept lat="55.726792000000025" lon="37.44765399999998">
    </rtept>
    <rtept lat="55.726859000000026" lon="37.44924699999998">
    </rtept>
    <rtept lat="55.726859000000026" lon="37.44924699999998">
    </rtept>
    <rtept lat="55.72698200000003" lon="37.45070199999998">
    </rtept>
    <rtept lat="55.72719300000003" lon="37.452281999999975">
    </rtept>
    <rtept lat="55.72755800000003" lon="37.45458599999998">
    </rtept>
    <rtept lat="55.72792300000003" lon="37.456888999999975">
    </rtept>
    <rtept lat="55.72828700000003" lon="37.45919199999997">
    </rtept>
    <rtept lat="55.72865200000003" lon="37.461495999999975">
    </rtept>
    <rtept lat="55.72901600000003" lon="37.46379899999997">
    </rtept>
    <rtept lat="55.72938100000003" lon="37.46610199999997">
    </rtept>
    <rtept lat="55.72974400000003" lon="37.46840599999997">
    </rtept>
    <rtept lat="55.730109000000034" lon="37.470709999999976">
    </rtept>
    <rtept lat="55.730379000000035" lon="37.47241999999998">
    </rtept>
    <rtept lat="55.730379000000035" lon="37.47241999999998">
    </rtept>
    <rtept lat="55.73038100000004" lon="37.47242799999998">
    </rtept>
    <rtept lat="55.730745000000034" lon="37.47473199999998">
    </rtept>
    <rtept lat="55.731108000000035" lon="37.47703499999998">
    </rtept>
    <rtept lat="55.73134600000004" lon="37.47854499999998">
    </rtept>
    <rtept lat="55.73168800000004" lon="37.480859999999986">
    </rtept>
    <rtept lat="55.73203100000004" lon="37.48317499999999">
    </rtept>
    <rtept lat="55.73237200000004" lon="37.48548999999999">
    </rtept>
    <rtept lat="55.73257100000004" lon="37.48683499999999">
    </rtept>
    <rtept lat="55.73294000000004" lon="37.48913699999999">
    </rtept>
    <rtept lat="55.733308000000044" lon="37.491437999999995">
    </rtept>
    <rtept lat="55.733676000000045" lon="37.49374099999999">
    </rtept>
    <rtept lat="55.734022000000046" lon="37.495898999999994">
    </rtept>
    <rtept lat="55.73434100000004" lon="37.497431999999996">
    </rtept>
    <rtept lat="55.734765000000046" lon="37.499134">
    </rtept>
    <rtept lat="55.735399000000044" lon="37.501247">
    </rtept>
    <rtept lat="55.736032000000044" lon="37.503358999999996">
    </rtept>
    <rtept lat="55.736645000000046" lon="37.505401">
    </rtept>
    <rtept lat="55.73694800000005" lon="37.506198">
    </rtept>
    <rtept lat="55.73738100000005" lon="37.507096999999995">
    </rtept>
    <rtept lat="55.73765600000005" lon="37.50755399999999">
    </rtept>
    <rtept lat="55.73856900000005" lon="37.50888499999999">
    </rtept>
    <rtept lat="55.73903200000005" lon="37.50939199999999">
    </rtept>
    <rtept lat="55.740224000000055" lon="37.51050599999999">
    </rtept>
    <rtept lat="55.74082700000005" lon="37.51106999999999">
    </rtept>
    <rtept lat="55.741828000000055" lon="37.51205799999999">
    </rtept>
    <rtept lat="55.74297800000006" lon="37.51330399999999">
    </rtept>
    <rtept lat="55.74333500000006" lon="37.51368999999999">
    </rtept>
    <rtept lat="55.74381500000006" lon="37.51429199999999">
    </rtept>
    <rtept lat="55.74422900000006" lon="37.51488399999999">
    </rtept>
    <rtept lat="55.74423600000006" lon="37.51489499999999">
    </rtept>
    <rtept lat="55.74423600000006" lon="37.51489499999999">
    </rtept>
    <rtept lat="55.74484000000006" lon="37.51594699999999">
    </rtept>
    <rtept lat="55.74553700000006" lon="37.51730999999999">
    </rtept>
    <rtept lat="55.745733000000065" lon="37.51778999999999">
    </rtept>
    <rtept lat="55.74595900000006" lon="37.51850399999999">
    </rtept>
    <rtept lat="55.74652200000006" lon="37.52067799999999">
    </rtept>
    <rtept lat="55.746656000000065" lon="37.52119099999999">
    </rtept>
    <rtept lat="55.747292000000066" lon="37.52330099999999">
    </rtept>
    <rtept lat="55.74780900000007" lon="37.52501199999999">
    </rtept>
    <rtept lat="55.748117000000065" lon="37.52574799999999">
    </rtept>
    <rtept lat="55.748849000000064" lon="37.52723399999999">
    </rtept>
    <rtept lat="55.749386000000065" lon="37.52817399999999">
    </rtept>
    <rtept lat="55.75001000000007" lon="37.529047999999996">
    </rtept>
    <rtept lat="55.750723000000065" lon="37.529813999999995">
    </rtept>
    <rtept lat="55.751035000000066" lon="37.53008">
    </rtept>
    <rtept lat="55.751553000000065" lon="37.530415">
    </rtept>
    <rtept lat="55.752138000000066" lon="37.530725">
    </rtept>
    <rtept lat="55.75344500000006" lon="37.531309">
    </rtept>
    <rtept lat="55.75445000000006" lon="37.531758">
    </rtept>
    <rtept lat="55.75445000000006" lon="37.531758">
    </rtept>
    <rtept lat="55.75575700000006" lon="37.532338">
    </rtept>
    <rtept lat="55.75706500000006" lon="37.532918">
    </rtept>
    <rtept lat="55.75837300000006" lon="37.533497000000004">
    </rtept>
    <rtept lat="55.758592000000064" lon="37.533594">
    </rtept>
    <rtept lat="55.75990200000006" lon="37.534149">
    </rtept>
    <rtept lat="55.76121300000006" lon="37.534704">
    </rtept>
    <rtept lat="55.76160500000006" lon="37.53487">
    </rtept>
    <rtept lat="55.76253200000006" lon="37.535232">
    </rtept>
    <rtept lat="55.763858000000056" lon="37.535657">
    </rtept>
    <rtept lat="55.76407000000005" lon="37.535724">
    </rtept>
    <rtept lat="55.76494300000005" lon="37.535936">
    </rtept>
    <rtept lat="55.766287000000055" lon="37.536104">
    </rtept>
    <rtept lat="55.767241000000055" lon="37.536222">
    </rtept>
    <rtept lat="55.767880000000055" lon="37.536369">
    </rtept>
    <rtept lat="55.76821100000006" lon="37.536508">
    </rtept>
    <rtept lat="55.76888300000006" lon="37.536868">
    </rtept>
    <rtept lat="55.76958400000006" lon="37.537422">
    </rtept>
    <rtept lat="55.76992600000006" lon="37.537746">
    </rtept>
    <rtept lat="55.76989900000006" lon="37.53772">
    </rtept>
    <rtept lat="55.77053000000006" lon="37.53843">
    </rtept>
    <rtept lat="55.77087900000006" lon="37.538899">
    </rtept>
    <rtept lat="55.77139300000006" lon="37.53975">
    </rtept>
    <rtept lat="55.77139300000006" lon="37.53975">
    </rtept>
    <rtept lat="55.77140900000006" lon="37.539775999999996">
    </rtept>
    <rtept lat="55.771988000000064" lon="37.541019999999996">
    </rtept>
    <rtept lat="55.772399000000064" lon="37.542235999999995">
    </rtept>
    <rtept lat="55.772736000000066" lon="37.543580999999996">
    </rtept>
    <rtept lat="55.77301700000007" lon="37.54540599999999">
    </rtept>
    <rtept lat="55.77314300000007" lon="37.547791999999994">
    </rtept>
    <rtept lat="55.77326400000007" lon="37.550062">
    </rtept>
    <rtept lat="55.773510000000066" lon="37.552417999999996">
    </rtept>
    <rtept lat="55.77375700000007" lon="37.554773">
    </rtept>
    <rtept lat="55.77400200000007" lon="37.557128">
    </rtept>
    <rtept lat="55.77424900000007" lon="37.559483">
    </rtept>
    <rtept lat="55.77433900000007" lon="37.560335">
    </rtept>
    <rtept lat="55.77450100000007" lon="37.561557">
    </rtept>
    <rtept lat="55.774753000000075" lon="37.563912">
    </rtept>
    <rtept lat="55.775004000000074" lon="37.566265">
    </rtept>
    <rtept lat="55.77525500000007" lon="37.568619">
    </rtept>
    <rtept lat="55.775496000000075" lon="37.570875">
    </rtept>
    <rtept lat="55.775544000000075" lon="37.571828000000004">
    </rtept>
    <rtept lat="55.775538000000076" lon="37.572782000000004">
    </rtept>
    <rtept lat="55.775417000000076" lon="37.572802">
    </rtept>
    <rtept lat="55.77539600000008" lon="37.573767000000004">
    </rtept>
    <rtept lat="55.77539600000008" lon="37.573737">
    </rtept>
    <rtept lat="55.77538800000008" lon="37.574792">
    </rtept>
    <rtept lat="55.77545200000008" lon="37.575726">
    </rtept>
    <rtept lat="55.77552600000008" lon="37.576264">
    </rtept>
    <rtept lat="55.77582700000008" lon="37.577705">
    </rtept>
    <rtept lat="55.77614400000008" lon="37.57878">
    </rtept>
    <rtept lat="55.77645100000008" lon="37.579581000000005">
    </rtept>
    <rtept lat="55.77645100000008" lon="37.579581000000005">
    </rtept>
    <rtept lat="55.77664000000008" lon="37.580027">
    </rtept>
    <rtept lat="55.77673900000008" lon="37.579895">
    </rtept>
    <rtept lat="55.77673900000008" lon="37.579895">
    </rtept>
    <rtept lat="55.77674400000008" lon="37.579888000000004">
    </rtept>
    <rtept lat="55.77673800000008" lon="37.579871000000004">
    </rtept>
    <rtept lat="55.77661100000008" lon="37.579578000000005">
    </rtept>
    <rtept lat="55.77658200000008" lon="37.579510000000006">
    </rtept>
    <rtept lat="55.77657100000008" lon="37.579525000000004">
    </rtept>
    <rtept lat="55.776576000000084" lon="37.579537">
    </rtept>
    <rtept lat="55.77658200000008" lon="37.579550000000005">
    </rtept>
    <rtept lat="55.776573000000084" lon="37.579561000000005">
    </rtept>
    <rtept lat="55.776592000000086" lon="37.579604">
    </rtept>
    <rtept lat="55.77656900000009" lon="37.579634000000006">
    </rtept>
    <rtept lat="55.77646800000009" lon="37.579769000000006">
    </rtept>
    <rtept lat="55.77643700000009" lon="37.57981000000001">
    </rtept>
    <rtept lat="55.77652000000008" lon="37.58006800000001">
    </rtept>
    <rtept lat="55.776531000000084" lon="37.58010200000001">
    </rtept>
    <rtept lat="55.77654300000008" lon="37.58013900000001">
    </rtept>
    <rtept lat="55.77652700000008" lon="37.58015900000001">
    </rtept>
    <rtept lat="55.77659100000008" lon="37.58032000000001">
    </rtept>
    <rtept lat="55.776784000000085" lon="37.58084500000001">
    </rtept>
    <rtept lat="55.77667200000008" lon="37.58095700000001">
    </rtept>
    <rtept lat="55.77662200000008" lon="37.58099900000001">
    </rtept>
    <rtept lat="55.77650800000008" lon="37.581094000000014">
    </rtept>
    <rtept lat="55.77635900000008" lon="37.58122700000001">
    </rtept>
    <rtept lat="55.77639300000008" lon="37.58135400000001">
    </rtept>
    <rtept lat="55.776411000000074" lon="37.58142100000001">
    </rtept>
    <rtept lat="55.776523000000076" lon="37.58179900000001">
    </rtept>
    <rtept lat="55.776548000000076" lon="37.58188600000001">
    </rtept>
    <rtept lat="55.77654500000008" lon="37.58188900000001">
    </rtept>
  </rte>
</gpx>