<?xml version="1.0" encoding="UTF-8"?>
<gpx version="1.1" creator="Yandex Map Constructor" xmlns="http://www.topografix.com/GPX/1/1"><metadata><name><![CDATA[Импорт из «edbd5f1b-1e54-41e6-ba41-e34eeba57713.gpx»]]></name><desc/><time>2026-06-29T15:16:14.732Z</time></metadata><rte><rtept lon="37.389936684182445" lat="55.97242689718294"/><rtept lon="37.35079789023712" lat="55.97030905235382"/><rtept lon="37.265653847268325" lat="55.96973143809727"/><rtept lon="37.20007920127225" lat="55.98782590301686"/><rtept lon="37.0095350728542" lat="56.16753724750663"/><rtept lon="36.76783585410416" lat="56.79067617902107"/><rtept lon="36.49317765097915" lat="57.38579642593064"/><rtept lon="35.16932511191652" lat="59.89611276896056"/><rtept lon="34.02674698691653" lat="61.31101409858463"/><rtept lon="33.88598465781489" lat="61.837388542833665"/><rtept lon="33.90795731406488" lat="61.91842257774463"/><rtept lon="33.94297623496334" lat="61.927808609418946"/><rtept lon="34.09403824668205" lat="61.94689540660818"/><rtept lon="34.15102982383046" lat="61.944631496746986"/><rtept lon="34.17849564414297" lat="61.922792296944664"/><rtept lon="34.17815232138908" lat="61.9100050566668"/><rtept lon="34.15926956992418" lat="61.8924340893959"/><rtept lon="34.13987183432849" lat="61.88052542401067"/></rte></gpx>