<?xml version="1.0" encoding="UTF-8"?>
<gpx version="1.1" creator="Route Map" xmlns="http://www.topografix.com/GPX/1/1">
  <trk>
    <name>Стрешнево</name>
    <trkseg>
      <trkpt lat="55.826833" lon="37.440863">
        <ele>0</ele>
      </trkpt>
      <trkpt lat="55.826839" lon="37.440863">
        <ele>0</ele>
      </trkpt>
      <trkpt lat="55.826851" lon="37.440796">
        <ele>0</ele>
      </trkpt>
      <trkpt lat="55.826773" lon="37.440645">
        <ele>0</ele>
      </trkpt>
      <trkpt lat="55.826701" lon="37.440507">
        <ele>0</ele>
      </trkpt>
      <trkpt lat="55.826661" lon="37.440432">
        <ele>0</ele>
      </trkpt>
      <trkpt lat="55.82662" lon="37.440363">
        <ele>0</ele>
      </trkpt>
      <trkpt lat="55.826709" lon="37.439985">
        <ele>0</ele>
      </trkpt>
      <trkpt lat="55.826825" lon="37.439451">
        <ele>0</ele>
      </trkpt>
      <trkpt lat="55.826848" lon="37.439373">
        <ele>0</ele>
      </trkpt>
      <trkpt lat="55.826863" lon="37.439347">
        <ele>0</ele>
      </trkpt>
      <trkpt lat="55.826913" lon="37.439086">
        <ele>0</ele>
      </trkpt>
      <trkpt lat="55.827143" lon="37.4379">
        <ele>0</ele>
      </trkpt>
      <trkpt lat="55.827198" lon="37.437662">
        <ele>0</ele>
      </trkpt>
      <trkpt lat="55.827234" lon="37.437503">
        <ele>0</ele>
      </trkpt>
      <trkpt lat="55.827241" lon="37.437478">
        <ele>0</ele>
      </trkpt>
      <trkpt lat="55.827258" lon="37.43739">
        <ele>0</ele>
      </trkpt>
      <trkpt lat="55.827286" lon="37.437433">
        <ele>0</ele>
      </trkpt>
      <trkpt lat="55.827453" lon="37.437476">
        <ele>0</ele>
      </trkpt>
      <trkpt lat="55.827654" lon="37.437539">
        <ele>0</ele>
      </trkpt>
      <trkpt lat="55.827697" lon="37.437551">
        <ele>0</ele>
      </trkpt>
      <trkpt lat="55.827854" lon="37.437596">
        <ele>0</ele>
      </trkpt>
      <trkpt lat="55.827937" lon="37.437637">
        <ele>0</ele>
      </trkpt>
      <trkpt lat="55.827898" lon="37.437873">
        <ele>0</ele>
      </trkpt>
      <trkpt lat="55.827892" lon="37.437604">
        <ele>0</ele>
      </trkpt>
      <trkpt lat="55.827898" lon="37.437873">
        <ele>0</ele>
      </trkpt>
      <trkpt lat="55.82786" lon="37.43812">
        <ele>0</ele>
      </trkpt>
      <trkpt lat="55.827898" lon="37.437873">
        <ele>0</ele>
      </trkpt>
      <trkpt lat="55.827937" lon="37.437637">
        <ele>0</ele>
      </trkpt>
      <trkpt lat="55.828204" lon="37.437771">
        <ele>0</ele>
      </trkpt>
      <trkpt lat="55.828187" lon="37.437876">
        <ele>0</ele>
      </trkpt>
      <trkpt lat="55.82815" lon="37.438103">
        <ele>0</ele>
      </trkpt>
      <trkpt lat="55.828127" lon="37.438254">
        <ele>0</ele>
      </trkpt>
      <trkpt lat="55.828126" lon="37.438273">
        <ele>0</ele>
      </trkpt>
      <trkpt lat="55.828127" lon="37.438296">
        <ele>0</ele>
      </trkpt>
      <trkpt lat="55.828132" lon="37.438316">
        <ele>0</ele>
      </trkpt>
      <trkpt lat="55.82814" lon="37.438332">
        <ele>0</ele>
      </trkpt>
      <trkpt lat="55.828175" lon="37.438392">
        <ele>0</ele>
      </trkpt>
      <trkpt lat="55.82823" lon="37.438484">
        <ele>0</ele>
      </trkpt>
      <trkpt lat="55.828237" lon="37.438511">
        <ele>0</ele>
      </trkpt>
      <trkpt lat="55.828238" lon="37.43854">
        <ele>0</ele>
      </trkpt>
      <trkpt lat="55.828097" lon="37.439368">
        <ele>0</ele>
      </trkpt>
      <trkpt lat="55.828045" lon="37.439755">
        <ele>0</ele>
      </trkpt>
      <trkpt lat="55.828036" lon="37.439886">
        <ele>0</ele>
      </trkpt>
      <trkpt lat="55.828007" lon="37.440289">
        <ele>0</ele>
      </trkpt>
      <trkpt lat="55.828002" lon="37.440312">
        <ele>0</ele>
      </trkpt>
      <trkpt lat="55.827984" lon="37.440384">
        <ele>0</ele>
      </trkpt>
      <trkpt lat="55.827846" lon="37.440934">
        <ele>0</ele>
      </trkpt>
      <trkpt lat="55.827631" lon="37.44157">
        <ele>0</ele>
      </trkpt>
      <trkpt lat="55.827646" lon="37.441586">
        <ele>0</ele>
      </trkpt>
      <trkpt lat="55.827656" lon="37.4416">
        <ele>0</ele>
      </trkpt>
      <trkpt lat="55.827701" lon="37.441721">
        <ele>0</ele>
      </trkpt>
      <trkpt lat="55.827705" lon="37.441998">
        <ele>0</ele>
      </trkpt>
      <trkpt lat="55.827699" lon="37.442012">
        <ele>0</ele>
      </trkpt>
      <trkpt lat="55.827667" lon="37.442119">
        <ele>0</ele>
      </trkpt>
      <trkpt lat="55.827619" lon="37.442283">
        <ele>0</ele>
      </trkpt>
      <trkpt lat="55.827527" lon="37.442548">
        <ele>0</ele>
      </trkpt>
      <trkpt lat="55.827446" lon="37.442817">
        <ele>0</ele>
      </trkpt>
      <trkpt lat="55.827337" lon="37.443181">
        <ele>0</ele>
      </trkpt>
      <trkpt lat="55.82733" lon="37.443212">
        <ele>0</ele>
      </trkpt>
      <trkpt lat="55.82724" lon="37.443633">
        <ele>0</ele>
      </trkpt>
      <trkpt lat="55.827186" lon="37.444032">
        <ele>0</ele>
      </trkpt>
      <trkpt lat="55.827172" lon="37.44415">
        <ele>0</ele>
      </trkpt>
      <trkpt lat="55.827163" lon="37.444246">
        <ele>0</ele>
      </trkpt>
      <trkpt lat="55.827101" lon="37.444873">
        <ele>0</ele>
      </trkpt>
      <trkpt lat="55.827061" lon="37.44486">
        <ele>0</ele>
      </trkpt>
      <trkpt lat="55.827101" lon="37.444873">
        <ele>0</ele>
      </trkpt>
      <trkpt lat="55.827082" lon="37.445068">
        <ele>0</ele>
      </trkpt>
      <trkpt lat="55.827041" lon="37.445812">
        <ele>0</ele>
      </trkpt>
      <trkpt lat="55.827036" lon="37.445944">
        <ele>0</ele>
      </trkpt>
      <trkpt lat="55.827064" lon="37.44595">
        <ele>0</ele>
      </trkpt>
      <trkpt lat="55.827096" lon="37.445958">
        <ele>0</ele>
      </trkpt>
      <trkpt lat="55.827126" lon="37.445965">
        <ele>0</ele>
      </trkpt>
      <trkpt lat="55.827143" lon="37.445962">
        <ele>0</ele>
      </trkpt>
      <trkpt lat="55.827145" lon="37.446013">
        <ele>0</ele>
      </trkpt>
      <trkpt lat="55.827152" lon="37.446055">
        <ele>0</ele>
      </trkpt>
      <trkpt lat="55.827165" lon="37.446085">
        <ele>0</ele>
      </trkpt>
      <trkpt lat="55.827181" lon="37.446101">
        <ele>0</ele>
      </trkpt>
      <trkpt lat="55.827199" lon="37.446112">
        <ele>0</ele>
      </trkpt>
      <trkpt lat="55.827452" lon="37.446179">
        <ele>0</ele>
      </trkpt>
      <trkpt lat="55.827652" lon="37.446217">
        <ele>0</ele>
      </trkpt>
      <trkpt lat="55.827991" lon="37.446282">
        <ele>0</ele>
      </trkpt>
      <trkpt lat="55.828097" lon="37.446301">
        <ele>0</ele>
      </trkpt>
      <trkpt lat="55.828196" lon="37.446319">
        <ele>0</ele>
      </trkpt>
      <trkpt lat="55.828312" lon="37.446275">
        <ele>0</ele>
      </trkpt>
      <trkpt lat="55.828738" lon="37.446333">
        <ele>0</ele>
      </trkpt>
      <trkpt lat="55.828752" lon="37.446336">
        <ele>0</ele>
      </trkpt>
      <trkpt lat="55.828777" lon="37.446343">
        <ele>0</ele>
      </trkpt>
      <trkpt lat="55.828825" lon="37.446355">
        <ele>0</ele>
      </trkpt>
      <trkpt lat="55.828874" lon="37.44637">
        <ele>0</ele>
      </trkpt>
      <trkpt lat="55.828945" lon="37.446388">
        <ele>0</ele>
      </trkpt>
      <trkpt lat="55.828989" lon="37.446398">
        <ele>0</ele>
      </trkpt>
      <trkpt lat="55.829424" lon="37.446482">
        <ele>0</ele>
      </trkpt>
      <trkpt lat="55.829583" lon="37.44652">
        <ele>0</ele>
      </trkpt>
      <trkpt lat="55.829663" lon="37.44654">
        <ele>0</ele>
      </trkpt>
      <trkpt lat="55.829809" lon="37.446583">
        <ele>0</ele>
      </trkpt>
      <trkpt lat="55.82982" lon="37.446585">
        <ele>0</ele>
      </trkpt>
      <trkpt lat="55.830379" lon="37.446689">
        <ele>0</ele>
      </trkpt>
      <trkpt lat="55.830759" lon="37.446781">
        <ele>0</ele>
      </trkpt>
      <trkpt lat="55.830848" lon="37.446804">
        <ele>0</ele>
      </trkpt>
      <trkpt lat="55.831134" lon="37.446892">
        <ele>0</ele>
      </trkpt>
      <trkpt lat="55.831442" lon="37.446955">
        <ele>0</ele>
      </trkpt>
      <trkpt lat="55.832075" lon="37.447073">
        <ele>0</ele>
      </trkpt>
      <trkpt lat="55.832703" lon="37.44723">
        <ele>0</ele>
      </trkpt>
      <trkpt lat="55.832729" lon="37.447234">
        <ele>0</ele>
      </trkpt>
      <trkpt lat="55.832725" lon="37.447328">
        <ele>0</ele>
      </trkpt>
      <trkpt lat="55.832723" lon="37.447382">
        <ele>0</ele>
      </trkpt>
      <trkpt lat="55.832719" lon="37.447433">
        <ele>0</ele>
      </trkpt>
      <trkpt lat="55.832711" lon="37.447615">
        <ele>0</ele>
      </trkpt>
      <trkpt lat="55.832713" lon="37.447666">
        <ele>0</ele>
      </trkpt>
      <trkpt lat="55.832711" lon="37.447615">
        <ele>0</ele>
      </trkpt>
      <trkpt lat="55.8327" lon="37.447706">
        <ele>0</ele>
      </trkpt>
      <trkpt lat="55.832666" lon="37.448252">
        <ele>0</ele>
      </trkpt>
      <trkpt lat="55.832641" lon="37.448533">
        <ele>0</ele>
      </trkpt>
      <trkpt lat="55.832615" lon="37.448784">
        <ele>0</ele>
      </trkpt>
      <trkpt lat="55.832586" lon="37.449232">
        <ele>0</ele>
      </trkpt>
      <trkpt lat="55.832569" lon="37.449502">
        <ele>0</ele>
      </trkpt>
      <trkpt lat="55.832556" lon="37.449702">
        <ele>0</ele>
      </trkpt>
      <trkpt lat="55.832478" lon="37.449683">
        <ele>0</ele>
      </trkpt>
      <trkpt lat="55.832351" lon="37.449657">
        <ele>0</ele>
      </trkpt>
      <trkpt lat="55.832334" lon="37.449853">
        <ele>0</ele>
      </trkpt>
      <trkpt lat="55.832325" lon="37.449881">
        <ele>0</ele>
      </trkpt>
      <trkpt lat="55.832311" lon="37.449907">
        <ele>0</ele>
      </trkpt>
      <trkpt lat="55.832295" lon="37.449918">
        <ele>0</ele>
      </trkpt>
      <trkpt lat="55.832276" lon="37.449922">
        <ele>0</ele>
      </trkpt>
      <trkpt lat="55.832274" lon="37.449922">
        <ele>0</ele>
      </trkpt>
      <trkpt lat="55.832274" lon="37.449926">
        <ele>0</ele>
      </trkpt>
      <trkpt lat="55.832274" lon="37.449922">
        <ele>0</ele>
      </trkpt>
      <trkpt lat="55.832097" lon="37.449883">
        <ele>0</ele>
      </trkpt>
      <trkpt lat="55.832276" lon="37.449922">
        <ele>0</ele>
      </trkpt>
      <trkpt lat="55.832295" lon="37.449918">
        <ele>0</ele>
      </trkpt>
      <trkpt lat="55.832311" lon="37.449907">
        <ele>0</ele>
      </trkpt>
      <trkpt lat="55.832325" lon="37.449881">
        <ele>0</ele>
      </trkpt>
      <trkpt lat="55.832334" lon="37.449853">
        <ele>0</ele>
      </trkpt>
      <trkpt lat="55.832351" lon="37.449657">
        <ele>0</ele>
      </trkpt>
      <trkpt lat="55.832478" lon="37.449683">
        <ele>0</ele>
      </trkpt>
      <trkpt lat="55.832556" lon="37.449702">
        <ele>0</ele>
      </trkpt>
      <trkpt lat="55.832516" lon="37.450346">
        <ele>0</ele>
      </trkpt>
      <trkpt lat="55.832514" lon="37.450384">
        <ele>0</ele>
      </trkpt>
      <trkpt lat="55.83251" lon="37.450458">
        <ele>0</ele>
      </trkpt>
      <trkpt lat="55.832504" lon="37.450552">
        <ele>0</ele>
      </trkpt>
      <trkpt lat="55.832441" lon="37.451571">
        <ele>0</ele>
      </trkpt>
      <trkpt lat="55.832396" lon="37.452268">
        <ele>0</ele>
      </trkpt>
      <trkpt lat="55.832389" lon="37.452372">
        <ele>0</ele>
      </trkpt>
      <trkpt lat="55.832345" lon="37.45305">
        <ele>0</ele>
      </trkpt>
      <trkpt lat="55.832336" lon="37.453272">
        <ele>0</ele>
      </trkpt>
      <trkpt lat="55.832332" lon="37.453325">
        <ele>0</ele>
      </trkpt>
      <trkpt lat="55.832329" lon="37.453385">
        <ele>0</ele>
      </trkpt>
      <trkpt lat="55.832316" lon="37.453604">
        <ele>0</ele>
      </trkpt>
      <trkpt lat="55.832312" lon="37.453665">
        <ele>0</ele>
      </trkpt>
      <trkpt lat="55.83231" lon="37.453719">
        <ele>0</ele>
      </trkpt>
      <trkpt lat="55.832373" lon="37.45373">
        <ele>0</ele>
      </trkpt>
      <trkpt lat="55.832373" lon="37.453732">
        <ele>0</ele>
      </trkpt>
      <trkpt lat="55.832373" lon="37.45373">
        <ele>0</ele>
      </trkpt>
      <trkpt lat="55.832418" lon="37.453737">
        <ele>0</ele>
      </trkpt>
      <trkpt lat="55.832511" lon="37.453755">
        <ele>0</ele>
      </trkpt>
      <trkpt lat="55.832562" lon="37.453765">
        <ele>0</ele>
      </trkpt>
      <trkpt lat="55.832827" lon="37.453814">
        <ele>0</ele>
      </trkpt>
      <trkpt lat="55.832896" lon="37.453827">
        <ele>0</ele>
      </trkpt>
      <trkpt lat="55.832944" lon="37.453835">
        <ele>0</ele>
      </trkpt>
      <trkpt lat="55.832964" lon="37.453839">
        <ele>0</ele>
      </trkpt>
      <trkpt lat="55.832978" lon="37.453856">
        <ele>0</ele>
      </trkpt>
      <trkpt lat="55.833004" lon="37.45391">
        <ele>0</ele>
      </trkpt>
      <trkpt lat="55.833025" lon="37.453922">
        <ele>0</ele>
      </trkpt>
      <trkpt lat="55.833748" lon="37.454051">
        <ele>0</ele>
      </trkpt>
      <trkpt lat="55.833749" lon="37.45404">
        <ele>0</ele>
      </trkpt>
      <trkpt lat="55.83462" lon="37.454206">
        <ele>0</ele>
      </trkpt>
      <trkpt lat="55.834645" lon="37.454211">
        <ele>0</ele>
      </trkpt>
      <trkpt lat="55.834685" lon="37.454216">
        <ele>0</ele>
      </trkpt>
      <trkpt lat="55.834745" lon="37.454228">
        <ele>0</ele>
      </trkpt>
      <trkpt lat="55.834778" lon="37.454233">
        <ele>0</ele>
      </trkpt>
      <trkpt lat="55.834797" lon="37.454262">
        <ele>0</ele>
      </trkpt>
      <trkpt lat="55.834778" lon="37.454233">
        <ele>0</ele>
      </trkpt>
      <trkpt lat="55.834791" lon="37.454233">
        <ele>0</ele>
      </trkpt>
      <trkpt lat="55.83482" lon="37.454224">
        <ele>0</ele>
      </trkpt>
      <trkpt lat="55.834847" lon="37.454225">
        <ele>0</ele>
      </trkpt>
      <trkpt lat="55.834891" lon="37.454229">
        <ele>0</ele>
      </trkpt>
      <trkpt lat="55.834885" lon="37.454308">
        <ele>0</ele>
      </trkpt>
      <trkpt lat="55.834885" lon="37.454378">
        <ele>0</ele>
      </trkpt>
      <trkpt lat="55.83489" lon="37.454436">
        <ele>0</ele>
      </trkpt>
      <trkpt lat="55.834899" lon="37.454491">
        <ele>0</ele>
      </trkpt>
      <trkpt lat="55.834933" lon="37.454619">
        <ele>0</ele>
      </trkpt>
      <trkpt lat="55.834939" lon="37.45467">
        <ele>0</ele>
      </trkpt>
      <trkpt lat="55.834938" lon="37.454724">
        <ele>0</ele>
      </trkpt>
      <trkpt lat="55.83493" lon="37.454786">
        <ele>0</ele>
      </trkpt>
      <trkpt lat="55.834903" lon="37.454889">
        <ele>0</ele>
      </trkpt>
      <trkpt lat="55.834896" lon="37.454928">
        <ele>0</ele>
      </trkpt>
      <trkpt lat="55.83489" lon="37.454973">
        <ele>0</ele>
      </trkpt>
      <trkpt lat="55.834783" lon="37.456555">
        <ele>0</ele>
      </trkpt>
      <trkpt lat="55.834731" lon="37.457318">
        <ele>0</ele>
      </trkpt>
      <trkpt lat="55.8347" lon="37.457993">
        <ele>0</ele>
      </trkpt>
      <trkpt lat="55.834701" lon="37.458551">
        <ele>0</ele>
      </trkpt>
      <trkpt lat="55.83472" lon="37.458897">
        <ele>0</ele>
      </trkpt>
      <trkpt lat="55.834731" lon="37.458973">
        <ele>0</ele>
      </trkpt>
      <trkpt lat="55.834707" lon="37.459029">
        <ele>0</ele>
      </trkpt>
      <trkpt lat="55.834699" lon="37.459051">
        <ele>0</ele>
      </trkpt>
      <trkpt lat="55.834664" lon="37.4592">
        <ele>0</ele>
      </trkpt>
      <trkpt lat="55.83463" lon="37.459017">
        <ele>0</ele>
      </trkpt>
      <trkpt lat="55.834619" lon="37.458978">
        <ele>0</ele>
      </trkpt>
      <trkpt lat="55.834611" lon="37.458958">
        <ele>0</ele>
      </trkpt>
      <trkpt lat="55.834604" lon="37.458947">
        <ele>0</ele>
      </trkpt>
      <trkpt lat="55.834596" lon="37.458937">
        <ele>0</ele>
      </trkpt>
      <trkpt lat="55.834584" lon="37.458927">
        <ele>0</ele>
      </trkpt>
      <trkpt lat="55.834574" lon="37.458925">
        <ele>0</ele>
      </trkpt>
      <trkpt lat="55.834564" lon="37.458924">
        <ele>0</ele>
      </trkpt>
      <trkpt lat="55.834546" lon="37.458928">
        <ele>0</ele>
      </trkpt>
      <trkpt lat="55.834533" lon="37.458935">
        <ele>0</ele>
      </trkpt>
      <trkpt lat="55.834529" lon="37.458944">
        <ele>0</ele>
      </trkpt>
      <trkpt lat="55.834527" lon="37.458958">
        <ele>0</ele>
      </trkpt>
      <trkpt lat="55.834525" lon="37.458976">
        <ele>0</ele>
      </trkpt>
      <trkpt lat="55.83451" lon="37.459296">
        <ele>0</ele>
      </trkpt>
      <trkpt lat="55.834419" lon="37.460895">
        <ele>0</ele>
      </trkpt>
      <trkpt lat="55.834422" lon="37.460925">
        <ele>0</ele>
      </trkpt>
      <trkpt lat="55.834427" lon="37.460947">
        <ele>0</ele>
      </trkpt>
      <trkpt lat="55.834456" lon="37.461013">
        <ele>0</ele>
      </trkpt>
      <trkpt lat="55.834536" lon="37.461144">
        <ele>0</ele>
      </trkpt>
      <trkpt lat="55.834441" lon="37.461336">
        <ele>0</ele>
      </trkpt>
      <trkpt lat="55.834426" lon="37.461371">
        <ele>0</ele>
      </trkpt>
      <trkpt lat="55.834415" lon="37.461387">
        <ele>0</ele>
      </trkpt>
      <trkpt lat="55.834398" lon="37.461406">
        <ele>0</ele>
      </trkpt>
      <trkpt lat="55.834386" lon="37.461397">
        <ele>0</ele>
      </trkpt>
      <trkpt lat="55.834333" lon="37.461373">
        <ele>0</ele>
      </trkpt>
      <trkpt lat="55.834305" lon="37.461338">
        <ele>0</ele>
      </trkpt>
      <trkpt lat="55.834281" lon="37.461624">
        <ele>0</ele>
      </trkpt>
      <trkpt lat="55.834279" lon="37.461623">
        <ele>0</ele>
      </trkpt>
      <trkpt lat="55.834281" lon="37.461624">
        <ele>0</ele>
      </trkpt>
      <trkpt lat="55.83428" lon="37.461641">
        <ele>0</ele>
      </trkpt>
      <trkpt lat="55.834179" lon="37.461563">
        <ele>0</ele>
      </trkpt>
      <trkpt lat="55.83317" lon="37.460829">
        <ele>0</ele>
      </trkpt>
      <trkpt lat="55.832823" lon="37.460578">
        <ele>0</ele>
      </trkpt>
      <trkpt lat="55.832749" lon="37.460526">
        <ele>0</ele>
      </trkpt>
      <trkpt lat="55.832685" lon="37.460478">
        <ele>0</ele>
      </trkpt>
      <trkpt lat="55.83259" lon="37.46041">
        <ele>0</ele>
      </trkpt>
      <trkpt lat="55.832489" lon="37.460337">
        <ele>0</ele>
      </trkpt>
      <trkpt lat="55.832505" lon="37.460259">
        <ele>0</ele>
      </trkpt>
      <trkpt lat="55.832522" lon="37.460171">
        <ele>0</ele>
      </trkpt>
      <trkpt lat="55.832219" lon="37.459957">
        <ele>0</ele>
      </trkpt>
      <trkpt lat="55.831943" lon="37.459757">
        <ele>0</ele>
      </trkpt>
      <trkpt lat="55.831774" lon="37.459627">
        <ele>0</ele>
      </trkpt>
      <trkpt lat="55.831599" lon="37.459498">
        <ele>0</ele>
      </trkpt>
      <trkpt lat="55.831494" lon="37.459422">
        <ele>0</ele>
      </trkpt>
      <trkpt lat="55.831408" lon="37.459362">
        <ele>0</ele>
      </trkpt>
      <trkpt lat="55.831007" lon="37.459073">
        <ele>0</ele>
      </trkpt>
      <trkpt lat="55.83034" lon="37.4586">
        <ele>0</ele>
      </trkpt>
      <trkpt lat="55.829863" lon="37.458246">
        <ele>0</ele>
      </trkpt>
      <trkpt lat="55.82983" lon="37.458229">
        <ele>0</ele>
      </trkpt>
      <trkpt lat="55.829783" lon="37.458204">
        <ele>0</ele>
      </trkpt>
      <trkpt lat="55.829762" lon="37.458188">
        <ele>0</ele>
      </trkpt>
      <trkpt lat="55.829741" lon="37.458171">
        <ele>0</ele>
      </trkpt>
      <trkpt lat="55.829715" lon="37.458245">
        <ele>0</ele>
      </trkpt>
      <trkpt lat="55.829691" lon="37.45831">
        <ele>0</ele>
      </trkpt>
      <trkpt lat="55.829672" lon="37.458361">
        <ele>0</ele>
      </trkpt>
      <trkpt lat="55.829669" lon="37.458369">
        <ele>0</ele>
      </trkpt>
      <trkpt lat="55.829474" lon="37.458852">
        <ele>0</ele>
      </trkpt>
      <trkpt lat="55.829437" lon="37.459002">
        <ele>0</ele>
      </trkpt>
      <trkpt lat="55.829417" lon="37.459102">
        <ele>0</ele>
      </trkpt>
      <trkpt lat="55.829013" lon="37.460871">
        <ele>0</ele>
      </trkpt>
      <trkpt lat="55.828995" lon="37.460941">
        <ele>0</ele>
      </trkpt>
      <trkpt lat="55.828988" lon="37.460949">
        <ele>0</ele>
      </trkpt>
      <trkpt lat="55.828983" lon="37.460951">
        <ele>0</ele>
      </trkpt>
      <trkpt lat="55.828957" lon="37.460957">
        <ele>0</ele>
      </trkpt>
      <trkpt lat="55.828949" lon="37.460962">
        <ele>0</ele>
      </trkpt>
      <trkpt lat="55.828943" lon="37.460972">
        <ele>0</ele>
      </trkpt>
      <trkpt lat="55.828908" lon="37.461063">
        <ele>0</ele>
      </trkpt>
      <trkpt lat="55.828874" lon="37.461172">
        <ele>0</ele>
      </trkpt>
      <trkpt lat="55.828838" lon="37.461315">
        <ele>0</ele>
      </trkpt>
      <trkpt lat="55.828717" lon="37.461205">
        <ele>0</ele>
      </trkpt>
      <trkpt lat="55.828477" lon="37.460996">
        <ele>0</ele>
      </trkpt>
      <trkpt lat="55.828443" lon="37.460971">
        <ele>0</ele>
      </trkpt>
      <trkpt lat="55.828422" lon="37.460959">
        <ele>0</ele>
      </trkpt>
      <trkpt lat="55.828383" lon="37.460944">
        <ele>0</ele>
      </trkpt>
      <trkpt lat="55.828228" lon="37.460808">
        <ele>0</ele>
      </trkpt>
      <trkpt lat="55.828089" lon="37.460685">
        <ele>0</ele>
      </trkpt>
      <trkpt lat="55.827886" lon="37.4605">
        <ele>0</ele>
      </trkpt>
      <trkpt lat="55.82738" lon="37.460028">
        <ele>0</ele>
      </trkpt>
      <trkpt lat="55.827191" lon="37.459857">
        <ele>0</ele>
      </trkpt>
      <trkpt lat="55.827161" lon="37.459837">
        <ele>0</ele>
      </trkpt>
      <trkpt lat="55.827134" lon="37.459828">
        <ele>0</ele>
      </trkpt>
      <trkpt lat="55.827116" lon="37.459823">
        <ele>0</ele>
      </trkpt>
      <trkpt lat="55.827087" lon="37.459821">
        <ele>0</ele>
      </trkpt>
      <trkpt lat="55.827058" lon="37.459823">
        <ele>0</ele>
      </trkpt>
      <trkpt lat="55.827016" lon="37.459835">
        <ele>0</ele>
      </trkpt>
      <trkpt lat="55.82697" lon="37.459861">
        <ele>0</ele>
      </trkpt>
      <trkpt lat="55.826925" lon="37.459897">
        <ele>0</ele>
      </trkpt>
      <trkpt lat="55.826834" lon="37.460005">
        <ele>0</ele>
      </trkpt>
      <trkpt lat="55.826689" lon="37.460202">
        <ele>0</ele>
      </trkpt>
      <trkpt lat="55.826284" lon="37.460621">
        <ele>0</ele>
      </trkpt>
      <trkpt lat="55.826247" lon="37.460659">
        <ele>0</ele>
      </trkpt>
      <trkpt lat="55.82587" lon="37.46105">
        <ele>0</ele>
      </trkpt>
      <trkpt lat="55.825805" lon="37.461116">
        <ele>0</ele>
      </trkpt>
      <trkpt lat="55.825659" lon="37.461277">
        <ele>0</ele>
      </trkpt>
      <trkpt lat="55.825607" lon="37.461329">
        <ele>0</ele>
      </trkpt>
      <trkpt lat="55.825544" lon="37.461385">
        <ele>0</ele>
      </trkpt>
      <trkpt lat="55.82545" lon="37.461445">
        <ele>0</ele>
      </trkpt>
      <trkpt lat="55.825386" lon="37.461493">
        <ele>0</ele>
      </trkpt>
      <trkpt lat="55.825261" lon="37.461598">
        <ele>0</ele>
      </trkpt>
      <trkpt lat="55.825087" lon="37.461755">
        <ele>0</ele>
      </trkpt>
      <trkpt lat="55.824939" lon="37.461887">
        <ele>0</ele>
      </trkpt>
      <trkpt lat="55.824854" lon="37.461984">
        <ele>0</ele>
      </trkpt>
      <trkpt lat="55.824824" lon="37.462023">
        <ele>0</ele>
      </trkpt>
      <trkpt lat="55.824801" lon="37.462054">
        <ele>0</ele>
      </trkpt>
      <trkpt lat="55.824716" lon="37.462174">
        <ele>0</ele>
      </trkpt>
      <trkpt lat="55.824677" lon="37.462234">
        <ele>0</ele>
      </trkpt>
      <trkpt lat="55.824649" lon="37.462279">
        <ele>0</ele>
      </trkpt>
      <trkpt lat="55.824633" lon="37.462316">
        <ele>0</ele>
      </trkpt>
      <trkpt lat="55.824621" lon="37.462355">
        <ele>0</ele>
      </trkpt>
      <trkpt lat="55.824595" lon="37.462489">
        <ele>0</ele>
      </trkpt>
      <trkpt lat="55.824555" lon="37.462727">
        <ele>0</ele>
      </trkpt>
      <trkpt lat="55.824591" lon="37.462746">
        <ele>0</ele>
      </trkpt>
      <trkpt lat="55.824569" lon="37.462981">
        <ele>0</ele>
      </trkpt>
      <trkpt lat="55.824501" lon="37.463372">
        <ele>0</ele>
      </trkpt>
      <trkpt lat="55.824417" lon="37.463715">
        <ele>0</ele>
      </trkpt>
      <trkpt lat="55.824335" lon="37.463928">
        <ele>0</ele>
      </trkpt>
      <trkpt lat="55.824254" lon="37.464113">
        <ele>0</ele>
      </trkpt>
      <trkpt lat="55.824233" lon="37.464143">
        <ele>0</ele>
      </trkpt>
      <trkpt lat="55.824094" lon="37.46426">
        <ele>0</ele>
      </trkpt>
      <trkpt lat="55.823914" lon="37.464338">
        <ele>0</ele>
      </trkpt>
      <trkpt lat="55.823554" lon="37.464477">
        <ele>0</ele>
      </trkpt>
      <trkpt lat="55.82318" lon="37.464611">
        <ele>0</ele>
      </trkpt>
      <trkpt lat="55.823047" lon="37.464686">
        <ele>0</ele>
      </trkpt>
      <trkpt lat="55.822995" lon="37.464724">
        <ele>0</ele>
      </trkpt>
      <trkpt lat="55.822919" lon="37.464773">
        <ele>0</ele>
      </trkpt>
      <trkpt lat="55.821345" lon="37.465942">
        <ele>0</ele>
      </trkpt>
      <trkpt lat="55.821334" lon="37.465889">
        <ele>0</ele>
      </trkpt>
      <trkpt lat="55.821334" lon="37.465845">
        <ele>0</ele>
      </trkpt>
      <trkpt lat="55.821334" lon="37.465889">
        <ele>0</ele>
      </trkpt>
      <trkpt lat="55.821345" lon="37.465942">
        <ele>0</ele>
      </trkpt>
      <trkpt lat="55.820642" lon="37.466479">
        <ele>0</ele>
      </trkpt>
      <trkpt lat="55.820651" lon="37.466534">
        <ele>0</ele>
      </trkpt>
      <trkpt lat="55.820679" lon="37.466724">
        <ele>0</ele>
      </trkpt>
      <trkpt lat="55.820678" lon="37.467015">
        <ele>0</ele>
      </trkpt>
      <trkpt lat="55.820615" lon="37.467422">
        <ele>0</ele>
      </trkpt>
      <trkpt lat="55.820567" lon="37.467658">
        <ele>0</ele>
      </trkpt>
      <trkpt lat="55.820505" lon="37.467878">
        <ele>0</ele>
      </trkpt>
      <trkpt lat="55.820436" lon="37.468069">
        <ele>0</ele>
      </trkpt>
      <trkpt lat="55.820367" lon="37.468214">
        <ele>0</ele>
      </trkpt>
      <trkpt lat="55.82063" lon="37.468959">
        <ele>0</ele>
      </trkpt>
      <trkpt lat="55.820674" lon="37.469107">
        <ele>0</ele>
      </trkpt>
      <trkpt lat="55.82077" lon="37.469421">
        <ele>0</ele>
      </trkpt>
      <trkpt lat="55.820904" lon="37.469863">
        <ele>0</ele>
      </trkpt>
      <trkpt lat="55.820972" lon="37.470042">
        <ele>0</ele>
      </trkpt>
      <trkpt lat="55.821027" lon="37.470177">
        <ele>0</ele>
      </trkpt>
      <trkpt lat="55.821065" lon="37.470243">
        <ele>0</ele>
      </trkpt>
      <trkpt lat="55.821171" lon="37.470361">
        <ele>0</ele>
      </trkpt>
      <trkpt lat="55.821184" lon="37.470385">
        <ele>0</ele>
      </trkpt>
      <trkpt lat="55.821239" lon="37.470532">
        <ele>0</ele>
      </trkpt>
      <trkpt lat="55.821307" lon="37.470651">
        <ele>0</ele>
      </trkpt>
      <trkpt lat="55.821368" lon="37.470974">
        <ele>0</ele>
      </trkpt>
      <trkpt lat="55.8214" lon="37.471188">
        <ele>0</ele>
      </trkpt>
      <trkpt lat="55.821415" lon="37.471405">
        <ele>0</ele>
      </trkpt>
      <trkpt lat="55.82142" lon="37.471672">
        <ele>0</ele>
      </trkpt>
      <trkpt lat="55.821392" lon="37.472049">
        <ele>0</ele>
      </trkpt>
      <trkpt lat="55.821369" lon="37.472423">
        <ele>0</ele>
      </trkpt>
      <trkpt lat="55.821362" lon="37.472615">
        <ele>0</ele>
      </trkpt>
      <trkpt lat="55.821361" lon="37.473049">
        <ele>0</ele>
      </trkpt>
      <trkpt lat="55.821362" lon="37.473165">
        <ele>0</ele>
      </trkpt>
      <trkpt lat="55.821376" lon="37.473324">
        <ele>0</ele>
      </trkpt>
      <trkpt lat="55.821386" lon="37.47339">
        <ele>0</ele>
      </trkpt>
      <trkpt lat="55.821405" lon="37.47348">
        <ele>0</ele>
      </trkpt>
      <trkpt lat="55.821418" lon="37.473549">
        <ele>0</ele>
      </trkpt>
      <trkpt lat="55.821471" lon="37.473939">
        <ele>0</ele>
      </trkpt>
      <trkpt lat="55.82149" lon="37.474027">
        <ele>0</ele>
      </trkpt>
      <trkpt lat="55.821515" lon="37.474113">
        <ele>0</ele>
      </trkpt>
      <trkpt lat="55.821542" lon="37.474197">
        <ele>0</ele>
      </trkpt>
      <trkpt lat="55.821809" lon="37.474976">
        <ele>0</ele>
      </trkpt>
      <trkpt lat="55.822132" lon="37.476469">
        <ele>0</ele>
      </trkpt>
      <trkpt lat="55.82225" lon="37.477486">
        <ele>0</ele>
      </trkpt>
      <trkpt lat="55.822304" lon="37.478248">
        <ele>0</ele>
      </trkpt>
      <trkpt lat="55.822322" lon="37.47873">
        <ele>0</ele>
      </trkpt>
      <trkpt lat="55.822256" lon="37.479202">
        <ele>0</ele>
      </trkpt>
      <trkpt lat="55.822112" lon="37.479668">
        <ele>0</ele>
      </trkpt>
      <trkpt lat="55.8221" lon="37.479703">
        <ele>0</ele>
      </trkpt>
      <trkpt lat="55.822039" lon="37.479879">
        <ele>0</ele>
      </trkpt>
      <trkpt lat="55.821829" lon="37.480382">
        <ele>0</ele>
      </trkpt>
      <trkpt lat="55.821692" lon="37.480709">
        <ele>0</ele>
      </trkpt>
      <trkpt lat="55.821552" lon="37.48097">
        <ele>0</ele>
      </trkpt>
      <trkpt lat="55.821355" lon="37.481243">
        <ele>0</ele>
      </trkpt>
      <trkpt lat="55.82131" lon="37.481315">
        <ele>0</ele>
      </trkpt>
      <trkpt lat="55.821129" lon="37.481389">
        <ele>0</ele>
      </trkpt>
      <trkpt lat="55.821088" lon="37.481418">
        <ele>0</ele>
      </trkpt>
      <trkpt lat="55.820999" lon="37.481464">
        <ele>0</ele>
      </trkpt>
      <trkpt lat="55.820959" lon="37.481496">
        <ele>0</ele>
      </trkpt>
      <trkpt lat="55.820914" lon="37.481525">
        <ele>0</ele>
      </trkpt>
      <trkpt lat="55.82058" lon="37.481662">
        <ele>0</ele>
      </trkpt>
      <trkpt lat="55.820513" lon="37.481708">
        <ele>0</ele>
      </trkpt>
      <trkpt lat="55.820556" lon="37.481748">
        <ele>0</ele>
      </trkpt>
      <trkpt lat="55.820586" lon="37.481805">
        <ele>0</ele>
      </trkpt>
      <trkpt lat="55.820596" lon="37.481856">
        <ele>0</ele>
      </trkpt>
      <trkpt lat="55.820604" lon="37.481949">
        <ele>0</ele>
      </trkpt>
      <trkpt lat="55.820596" lon="37.482154">
        <ele>0</ele>
      </trkpt>
      <trkpt lat="55.820592" lon="37.482354">
        <ele>0</ele>
      </trkpt>
      <trkpt lat="55.820599" lon="37.482542">
        <ele>0</ele>
      </trkpt>
      <trkpt lat="55.820612" lon="37.482771">
        <ele>0</ele>
      </trkpt>
      <trkpt lat="55.820654" lon="37.483291">
        <ele>0</ele>
      </trkpt>
      <trkpt lat="55.820697" lon="37.483702">
        <ele>0</ele>
      </trkpt>
      <trkpt lat="55.820788" lon="37.484171">
        <ele>0</ele>
      </trkpt>
      <trkpt lat="55.820819" lon="37.484415">
        <ele>0</ele>
      </trkpt>
      <trkpt lat="55.820827" lon="37.484548">
        <ele>0</ele>
      </trkpt>
      <trkpt lat="55.82079" lon="37.484624">
        <ele>0</ele>
      </trkpt>
      <trkpt lat="55.820751" lon="37.484685">
        <ele>0</ele>
      </trkpt>
      <trkpt lat="55.820671" lon="37.484837">
        <ele>0</ele>
      </trkpt>
      <trkpt lat="55.820649" lon="37.484895">
        <ele>0</ele>
      </trkpt>
      <trkpt lat="55.820647" lon="37.484998">
        <ele>0</ele>
      </trkpt>
      <trkpt lat="55.820652" lon="37.485063">
        <ele>0</ele>
      </trkpt>
      <trkpt lat="55.820672" lon="37.485162">
        <ele>0</ele>
      </trkpt>
      <trkpt lat="55.820732" lon="37.485378">
        <ele>0</ele>
      </trkpt>
      <trkpt lat="55.8208" lon="37.48551">
        <ele>0</ele>
      </trkpt>
      <trkpt lat="55.820832" lon="37.485548">
        <ele>0</ele>
      </trkpt>
      <trkpt lat="55.820869" lon="37.48558">
        <ele>0</ele>
      </trkpt>
      <trkpt lat="55.820982" lon="37.485726">
        <ele>0</ele>
      </trkpt>
      <trkpt lat="55.821203" lon="37.486044">
        <ele>0</ele>
      </trkpt>
      <trkpt lat="55.821363" lon="37.486238">
        <ele>0</ele>
      </trkpt>
      <trkpt lat="55.821435" lon="37.486302">
        <ele>0</ele>
      </trkpt>
      <trkpt lat="55.821707" lon="37.486519">
        <ele>0</ele>
      </trkpt>
      <trkpt lat="55.821709" lon="37.486512">
        <ele>0</ele>
      </trkpt>
      <trkpt lat="55.821707" lon="37.486519">
        <ele>0</ele>
      </trkpt>
      <trkpt lat="55.821739" lon="37.486543">
        <ele>0</ele>
      </trkpt>
      <trkpt lat="55.821992" lon="37.48679">
        <ele>0</ele>
      </trkpt>
      <trkpt lat="55.822276" lon="37.486994">
        <ele>0</ele>
      </trkpt>
      <trkpt lat="55.822293" lon="37.487004">
        <ele>0</ele>
      </trkpt>
      <trkpt lat="55.822479" lon="37.487111">
        <ele>0</ele>
      </trkpt>
      <trkpt lat="55.822815" lon="37.487296">
        <ele>0</ele>
      </trkpt>
      <trkpt lat="55.822939" lon="37.487296">
        <ele>0</ele>
      </trkpt>
      <trkpt lat="55.823122" lon="37.487378">
        <ele>0</ele>
      </trkpt>
      <trkpt lat="55.82326" lon="37.487391">
        <ele>0</ele>
      </trkpt>
      <trkpt lat="55.823495" lon="37.487423">
        <ele>0</ele>
      </trkpt>
      <trkpt lat="55.823737" lon="37.487552">
        <ele>0</ele>
      </trkpt>
      <trkpt lat="55.823942" lon="37.487584">
        <ele>0</ele>
      </trkpt>
      <trkpt lat="55.82413" lon="37.487665">
        <ele>0</ele>
      </trkpt>
      <trkpt lat="55.824287" lon="37.487745">
        <ele>0</ele>
      </trkpt>
      <trkpt lat="55.824394" lon="37.48776">
        <ele>0</ele>
      </trkpt>
      <trkpt lat="55.824419" lon="37.487778">
        <ele>0</ele>
      </trkpt>
      <trkpt lat="55.824605" lon="37.488055">
        <ele>0</ele>
      </trkpt>
      <trkpt lat="55.824618" lon="37.488084">
        <ele>0</ele>
      </trkpt>
      <trkpt lat="55.824642" lon="37.488186">
        <ele>0</ele>
      </trkpt>
      <trkpt lat="55.824623" lon="37.488201">
        <ele>0</ele>
      </trkpt>
      <trkpt lat="55.824642" lon="37.488186">
        <ele>0</ele>
      </trkpt>
      <trkpt lat="55.824705" lon="37.488449">
        <ele>0</ele>
      </trkpt>
      <trkpt lat="55.8247" lon="37.488545">
        <ele>0</ele>
      </trkpt>
      <trkpt lat="55.82468" lon="37.488904">
        <ele>0</ele>
      </trkpt>
      <trkpt lat="55.824614" lon="37.489424">
        <ele>0</ele>
      </trkpt>
      <trkpt lat="55.824578" lon="37.489822">
        <ele>0</ele>
      </trkpt>
      <trkpt lat="55.824262" lon="37.489638">
        <ele>0</ele>
      </trkpt>
      <trkpt lat="55.824119" lon="37.489542">
        <ele>0</ele>
      </trkpt>
      <trkpt lat="55.823952" lon="37.489399">
        <ele>0</ele>
      </trkpt>
      <trkpt lat="55.823863" lon="37.489322">
        <ele>0</ele>
      </trkpt>
      <trkpt lat="55.823518" lon="37.488945">
        <ele>0</ele>
      </trkpt>
      <trkpt lat="55.823474" lon="37.488896">
        <ele>0</ele>
      </trkpt>
      <trkpt lat="55.823247" lon="37.488544">
        <ele>0</ele>
      </trkpt>
      <trkpt lat="55.823237" lon="37.488521">
        <ele>0</ele>
      </trkpt>
      <trkpt lat="55.823226" lon="37.488483">
        <ele>0</ele>
      </trkpt>
      <trkpt lat="55.82317" lon="37.488259">
        <ele>0</ele>
      </trkpt>
      <trkpt lat="55.823143" lon="37.488205">
        <ele>0</ele>
      </trkpt>
      <trkpt lat="55.82294" lon="37.487958">
        <ele>0</ele>
      </trkpt>
      <trkpt lat="55.822699" lon="37.487763">
        <ele>0</ele>
      </trkpt>
      <trkpt lat="55.822508" lon="37.487611">
        <ele>0</ele>
      </trkpt>
      <trkpt lat="55.822498" lon="37.487649">
        <ele>0</ele>
      </trkpt>
      <trkpt lat="55.822508" lon="37.487611">
        <ele>0</ele>
      </trkpt>
      <trkpt lat="55.822442" lon="37.487559">
        <ele>0</ele>
      </trkpt>
      <trkpt lat="55.822316" lon="37.487489">
        <ele>0</ele>
      </trkpt>
      <trkpt lat="55.822328" lon="37.487467">
        <ele>0</ele>
      </trkpt>
      <trkpt lat="55.822334" lon="37.487456">
        <ele>0</ele>
      </trkpt>
      <trkpt lat="55.822363" lon="37.487409">
        <ele>0</ele>
      </trkpt>
      <trkpt lat="55.822373" lon="37.487391">
        <ele>0</ele>
      </trkpt>
      <trkpt lat="55.822389" lon="37.487366">
        <ele>0</ele>
      </trkpt>
      <trkpt lat="55.822479" lon="37.487111">
        <ele>0</ele>
      </trkpt>
      <trkpt lat="55.822293" lon="37.487004">
        <ele>0</ele>
      </trkpt>
      <trkpt lat="55.822281" lon="37.48682">
        <ele>0</ele>
      </trkpt>
      <trkpt lat="55.822278" lon="37.486694">
        <ele>0</ele>
      </trkpt>
      <trkpt lat="55.822287" lon="37.486491">
        <ele>0</ele>
      </trkpt>
      <trkpt lat="55.822377" lon="37.485578">
        <ele>0</ele>
      </trkpt>
      <trkpt lat="55.822483" lon="37.485565">
        <ele>0</ele>
      </trkpt>
      <trkpt lat="55.822549" lon="37.485565">
        <ele>0</ele>
      </trkpt>
      <trkpt lat="55.822638" lon="37.485583">
        <ele>0</ele>
      </trkpt>
      <trkpt lat="55.822534" lon="37.485197">
        <ele>0</ele>
      </trkpt>
      <trkpt lat="55.822478" lon="37.485031">
        <ele>0</ele>
      </trkpt>
      <trkpt lat="55.822392" lon="37.484826">
        <ele>0</ele>
      </trkpt>
      <trkpt lat="55.82232" lon="37.484612">
        <ele>0</ele>
      </trkpt>
      <trkpt lat="55.822278" lon="37.484107">
        <ele>0</ele>
      </trkpt>
      <trkpt lat="55.822265" lon="37.483952">
        <ele>0</ele>
      </trkpt>
      <trkpt lat="55.822262" lon="37.483792">
        <ele>0</ele>
      </trkpt>
      <trkpt lat="55.82228" lon="37.483626">
        <ele>0</ele>
      </trkpt>
      <trkpt lat="55.82231" lon="37.483512">
        <ele>0</ele>
      </trkpt>
      <trkpt lat="55.8224" lon="37.483297">
        <ele>0</ele>
      </trkpt>
      <trkpt lat="55.822429" lon="37.483214">
        <ele>0</ele>
      </trkpt>
      <trkpt lat="55.822451" lon="37.483134">
        <ele>0</ele>
      </trkpt>
      <trkpt lat="55.822463" lon="37.483081">
        <ele>0</ele>
      </trkpt>
      <trkpt lat="55.822481" lon="37.483031">
        <ele>0</ele>
      </trkpt>
      <trkpt lat="55.822564" lon="37.482878">
        <ele>0</ele>
      </trkpt>
      <trkpt lat="55.822593" lon="37.482811">
        <ele>0</ele>
      </trkpt>
      <trkpt lat="55.82262" lon="37.482736">
        <ele>0</ele>
      </trkpt>
      <trkpt lat="55.822662" lon="37.482566">
        <ele>0</ele>
      </trkpt>
      <trkpt lat="55.822716" lon="37.48248">
        <ele>0</ele>
      </trkpt>
      <trkpt lat="55.822808" lon="37.482314">
        <ele>0</ele>
      </trkpt>
      <trkpt lat="55.822836" lon="37.482273">
        <ele>0</ele>
      </trkpt>
      <trkpt lat="55.822958" lon="37.482147">
        <ele>0</ele>
      </trkpt>
      <trkpt lat="55.823205" lon="37.481699">
        <ele>0</ele>
      </trkpt>
      <trkpt lat="55.823258" lon="37.481589">
        <ele>0</ele>
      </trkpt>
      <trkpt lat="55.8233" lon="37.481464">
        <ele>0</ele>
      </trkpt>
      <trkpt lat="55.823383" lon="37.481074">
        <ele>0</ele>
      </trkpt>
      <trkpt lat="55.823505" lon="37.480584">
        <ele>0</ele>
      </trkpt>
      <trkpt lat="55.823631" lon="37.48066">
        <ele>0</ele>
      </trkpt>
      <trkpt lat="55.823684" lon="37.480691">
        <ele>0</ele>
      </trkpt>
      <trkpt lat="55.823784" lon="37.480729">
        <ele>0</ele>
      </trkpt>
      <trkpt lat="55.82396" lon="37.480824">
        <ele>0</ele>
      </trkpt>
      <trkpt lat="55.823907" lon="37.481136">
        <ele>0</ele>
      </trkpt>
      <trkpt lat="55.82396" lon="37.480824">
        <ele>0</ele>
      </trkpt>
      <trkpt lat="55.824035" lon="37.480865">
        <ele>0</ele>
      </trkpt>
      <trkpt lat="55.824364" lon="37.481044">
        <ele>0</ele>
      </trkpt>
      <trkpt lat="55.824706" lon="37.481295">
        <ele>0</ele>
      </trkpt>
      <trkpt lat="55.824933" lon="37.481502">
        <ele>0</ele>
      </trkpt>
      <trkpt lat="55.825425" lon="37.481809">
        <ele>0</ele>
      </trkpt>
      <trkpt lat="55.825791" lon="37.482041">
        <ele>0</ele>
      </trkpt>
      <trkpt lat="55.82596" lon="37.48215">
        <ele>0</ele>
      </trkpt>
      <trkpt lat="55.826153" lon="37.482279">
        <ele>0</ele>
      </trkpt>
      <trkpt lat="55.82652" lon="37.482603">
        <ele>0</ele>
      </trkpt>
      <trkpt lat="55.826694" lon="37.482729">
        <ele>0</ele>
      </trkpt>
      <trkpt lat="55.826721" lon="37.482739">
        <ele>0</ele>
      </trkpt>
      <trkpt lat="55.826765" lon="37.482772">
        <ele>0</ele>
      </trkpt>
      <trkpt lat="55.826809" lon="37.482803">
        <ele>0</ele>
      </trkpt>
      <trkpt lat="55.826893" lon="37.482821">
        <ele>0</ele>
      </trkpt>
      <trkpt lat="55.826878" lon="37.482912">
        <ele>0</ele>
      </trkpt>
      <trkpt lat="55.826879" lon="37.482928">
        <ele>0</ele>
      </trkpt>
      <trkpt lat="55.826884" lon="37.482939">
        <ele>0</ele>
      </trkpt>
      <trkpt lat="55.826925" lon="37.482966">
        <ele>0</ele>
      </trkpt>
      <trkpt lat="55.826976" lon="37.482992">
        <ele>0</ele>
      </trkpt>
      <trkpt lat="55.826879" lon="37.483542">
        <ele>0</ele>
      </trkpt>
      <trkpt lat="55.826712" lon="37.484536">
        <ele>0</ele>
      </trkpt>
      <trkpt lat="55.826563" lon="37.485531">
        <ele>0</ele>
      </trkpt>
      <trkpt lat="55.826544" lon="37.485882">
        <ele>0</ele>
      </trkpt>
      <trkpt lat="55.826537" lon="37.4864">
        <ele>0</ele>
      </trkpt>
      <trkpt lat="55.826542" lon="37.487086">
        <ele>0</ele>
      </trkpt>
      <trkpt lat="55.82656" lon="37.487761">
        <ele>0</ele>
      </trkpt>
      <trkpt lat="55.826567" lon="37.487872">
        <ele>0</ele>
      </trkpt>
      <trkpt lat="55.826581" lon="37.488101">
        <ele>0</ele>
      </trkpt>
      <trkpt lat="55.826593" lon="37.48822">
        <ele>0</ele>
      </trkpt>
      <trkpt lat="55.826604" lon="37.488314">
        <ele>0</ele>
      </trkpt>
      <trkpt lat="55.826626" lon="37.488455">
        <ele>0</ele>
      </trkpt>
      <trkpt lat="55.826646" lon="37.488552">
        <ele>0</ele>
      </trkpt>
      <trkpt lat="55.82671" lon="37.48881">
        <ele>0</ele>
      </trkpt>
      <trkpt lat="55.826954" lon="37.489731">
        <ele>0</ele>
      </trkpt>
      <trkpt lat="55.827083" lon="37.490226">
        <ele>0</ele>
      </trkpt>
      <trkpt lat="55.827155" lon="37.490522">
        <ele>0</ele>
      </trkpt>
      <trkpt lat="55.827288" lon="37.490422">
        <ele>0</ele>
      </trkpt>
      <trkpt lat="55.827289" lon="37.49042">
        <ele>0</ele>
      </trkpt>
      <trkpt lat="55.827288" lon="37.490422">
        <ele>0</ele>
      </trkpt>
      <trkpt lat="55.827511" lon="37.490236">
        <ele>0</ele>
      </trkpt>
      <trkpt lat="55.827718" lon="37.490064">
        <ele>0</ele>
      </trkpt>
      <trkpt lat="55.827768" lon="37.490022">
        <ele>0</ele>
      </trkpt>
      <trkpt lat="55.827842" lon="37.48996">
        <ele>0</ele>
      </trkpt>
      <trkpt lat="55.827858" lon="37.489947">
        <ele>0</ele>
      </trkpt>
      <trkpt lat="55.827933" lon="37.489884">
        <ele>0</ele>
      </trkpt>
      <trkpt lat="55.827974" lon="37.489851">
        <ele>0</ele>
      </trkpt>
      <trkpt lat="55.827979" lon="37.489847">
        <ele>0</ele>
      </trkpt>
      <trkpt lat="55.828064" lon="37.489776">
        <ele>0</ele>
      </trkpt>
      <trkpt lat="55.82817" lon="37.489688">
        <ele>0</ele>
      </trkpt>
      <trkpt lat="55.828532" lon="37.489385">
        <ele>0</ele>
      </trkpt>
      <trkpt lat="55.828624" lon="37.489307">
        <ele>0</ele>
      </trkpt>
      <trkpt lat="55.828694" lon="37.489254">
        <ele>0</ele>
      </trkpt>
      <trkpt lat="55.828725" lon="37.48923">
        <ele>0</ele>
      </trkpt>
      <trkpt lat="55.828731" lon="37.489225">
        <ele>0</ele>
      </trkpt>
      <trkpt lat="55.828818" lon="37.489155">
        <ele>0</ele>
      </trkpt>
      <trkpt lat="55.829019" lon="37.489008">
        <ele>0</ele>
      </trkpt>
      <trkpt lat="55.829046" lon="37.489131">
        <ele>0</ele>
      </trkpt>
      <trkpt lat="55.829078" lon="37.489106">
        <ele>0</ele>
      </trkpt>
      <trkpt lat="55.829137" lon="37.489092">
        <ele>0</ele>
      </trkpt>
      <trkpt lat="55.829137" lon="37.488983">
        <ele>0</ele>
      </trkpt>
      <trkpt lat="55.829147" lon="37.488957">
        <ele>0</ele>
      </trkpt>
      <trkpt lat="55.829353" lon="37.488746">
        <ele>0</ele>
      </trkpt>
      <trkpt lat="55.829827" lon="37.488384">
        <ele>0</ele>
      </trkpt>
      <trkpt lat="55.829915" lon="37.488305">
        <ele>0</ele>
      </trkpt>
      <trkpt lat="55.829952" lon="37.488259">
        <ele>0</ele>
      </trkpt>
      <trkpt lat="55.829999" lon="37.488198">
        <ele>0</ele>
      </trkpt>
      <trkpt lat="55.830052" lon="37.488123">
        <ele>0</ele>
      </trkpt>
      <trkpt lat="55.83008" lon="37.488089">
        <ele>0</ele>
      </trkpt>
      <trkpt lat="55.830108" lon="37.488062">
        <ele>0</ele>
      </trkpt>
      <trkpt lat="55.830245" lon="37.48795">
        <ele>0</ele>
      </trkpt>
      <trkpt lat="55.830453" lon="37.487786">
        <ele>0</ele>
      </trkpt>
      <trkpt lat="55.830517" lon="37.487767">
        <ele>0</ele>
      </trkpt>
      <trkpt lat="55.830571" lon="37.48776">
        <ele>0</ele>
      </trkpt>
      <trkpt lat="55.830749" lon="37.487739">
        <ele>0</ele>
      </trkpt>
      <trkpt lat="55.830762" lon="37.487734">
        <ele>0</ele>
      </trkpt>
      <trkpt lat="55.831206" lon="37.487364">
        <ele>0</ele>
      </trkpt>
      <trkpt lat="55.831317" lon="37.487257">
        <ele>0</ele>
      </trkpt>
      <trkpt lat="55.831337" lon="37.487226">
        <ele>0</ele>
      </trkpt>
      <trkpt lat="55.831439" lon="37.487045">
        <ele>0</ele>
      </trkpt>
      <trkpt lat="55.831471" lon="37.487001">
        <ele>0</ele>
      </trkpt>
      <trkpt lat="55.831499" lon="37.486974">
        <ele>0</ele>
      </trkpt>
      <trkpt lat="55.831698" lon="37.486807">
        <ele>0</ele>
      </trkpt>
      <trkpt lat="55.831781" lon="37.486744">
        <ele>0</ele>
      </trkpt>
      <trkpt lat="55.831794" lon="37.486744">
        <ele>0</ele>
      </trkpt>
      <trkpt lat="55.831813" lon="37.486759">
        <ele>0</ele>
      </trkpt>
      <trkpt lat="55.831839" lon="37.486643">
        <ele>0</ele>
      </trkpt>
      <trkpt lat="55.831879" lon="37.486549">
        <ele>0</ele>
      </trkpt>
      <trkpt lat="55.831951" lon="37.486412">
        <ele>0</ele>
      </trkpt>
      <trkpt lat="55.83195" lon="37.48641">
        <ele>0</ele>
      </trkpt>
      <trkpt lat="55.831951" lon="37.486412">
        <ele>0</ele>
      </trkpt>
      <trkpt lat="55.831962" lon="37.486391">
        <ele>0</ele>
      </trkpt>
      <trkpt lat="55.831884" lon="37.486071">
        <ele>0</ele>
      </trkpt>
      <trkpt lat="55.831872" lon="37.485945">
        <ele>0</ele>
      </trkpt>
      <trkpt lat="55.831822" lon="37.485932">
        <ele>0</ele>
      </trkpt>
      <trkpt lat="55.831517" lon="37.485548">
        <ele>0</ele>
      </trkpt>
      <trkpt lat="55.83142" lon="37.485174">
        <ele>0</ele>
      </trkpt>
      <trkpt lat="55.831289" lon="37.485283">
        <ele>0</ele>
      </trkpt>
      <trkpt lat="55.831186" lon="37.485149">
        <ele>0</ele>
      </trkpt>
      <trkpt lat="55.830943" lon="37.484832">
        <ele>0</ele>
      </trkpt>
      <trkpt lat="55.830914" lon="37.48465">
        <ele>0</ele>
      </trkpt>
      <trkpt lat="55.830785" lon="37.484439">
        <ele>0</ele>
      </trkpt>
      <trkpt lat="55.830651" lon="37.484287">
        <ele>0</ele>
      </trkpt>
      <trkpt lat="55.83061" lon="37.48422">
        <ele>0</ele>
      </trkpt>
      <trkpt lat="55.830578" lon="37.484141">
        <ele>0</ele>
      </trkpt>
      <trkpt lat="55.830546" lon="37.484056">
        <ele>0</ele>
      </trkpt>
      <trkpt lat="55.830499" lon="37.484">
        <ele>0</ele>
      </trkpt>
      <trkpt lat="55.830378" lon="37.483854">
        <ele>0</ele>
      </trkpt>
      <trkpt lat="55.830102" lon="37.483522">
        <ele>0</ele>
      </trkpt>
      <trkpt lat="55.830076" lon="37.483508">
        <ele>0</ele>
      </trkpt>
      <trkpt lat="55.830038" lon="37.483511">
        <ele>0</ele>
      </trkpt>
      <trkpt lat="55.830007" lon="37.483507">
        <ele>0</ele>
      </trkpt>
      <trkpt lat="55.829959" lon="37.483478">
        <ele>0</ele>
      </trkpt>
      <trkpt lat="55.829899" lon="37.483423">
        <ele>0</ele>
      </trkpt>
      <trkpt lat="55.829825" lon="37.483361">
        <ele>0</ele>
      </trkpt>
      <trkpt lat="55.829489" lon="37.482999">
        <ele>0</ele>
      </trkpt>
      <trkpt lat="55.829415" lon="37.482929">
        <ele>0</ele>
      </trkpt>
      <trkpt lat="55.829326" lon="37.482872">
        <ele>0</ele>
      </trkpt>
      <trkpt lat="55.829044" lon="37.482709">
        <ele>0</ele>
      </trkpt>
      <trkpt lat="55.828857" lon="37.482625">
        <ele>0</ele>
      </trkpt>
      <trkpt lat="55.82868" lon="37.482563">
        <ele>0</ele>
      </trkpt>
      <trkpt lat="55.828497" lon="37.482519">
        <ele>0</ele>
      </trkpt>
      <trkpt lat="55.828318" lon="37.482524">
        <ele>0</ele>
      </trkpt>
      <trkpt lat="55.828104" lon="37.482566">
        <ele>0</ele>
      </trkpt>
      <trkpt lat="55.828106" lon="37.482599">
        <ele>0</ele>
      </trkpt>
      <trkpt lat="55.828104" lon="37.482566">
        <ele>0</ele>
      </trkpt>
      <trkpt lat="55.827014" lon="37.482781">
        <ele>0</ele>
      </trkpt>
      <trkpt lat="55.827" lon="37.482855">
        <ele>0</ele>
      </trkpt>
      <trkpt lat="55.826937" lon="37.482837">
        <ele>0</ele>
      </trkpt>
      <trkpt lat="55.826893" lon="37.482821">
        <ele>0</ele>
      </trkpt>
      <trkpt lat="55.826809" lon="37.482803">
        <ele>0</ele>
      </trkpt>
      <trkpt lat="55.826765" lon="37.482772">
        <ele>0</ele>
      </trkpt>
      <trkpt lat="55.826721" lon="37.482739">
        <ele>0</ele>
      </trkpt>
      <trkpt lat="55.826694" lon="37.482729">
        <ele>0</ele>
      </trkpt>
      <trkpt lat="55.82652" lon="37.482603">
        <ele>0</ele>
      </trkpt>
      <trkpt lat="55.826153" lon="37.482279">
        <ele>0</ele>
      </trkpt>
      <trkpt lat="55.82596" lon="37.48215">
        <ele>0</ele>
      </trkpt>
      <trkpt lat="55.825791" lon="37.482041">
        <ele>0</ele>
      </trkpt>
      <trkpt lat="55.825425" lon="37.481809">
        <ele>0</ele>
      </trkpt>
      <trkpt lat="55.824933" lon="37.481502">
        <ele>0</ele>
      </trkpt>
      <trkpt lat="55.824706" lon="37.481295">
        <ele>0</ele>
      </trkpt>
      <trkpt lat="55.824364" lon="37.481044">
        <ele>0</ele>
      </trkpt>
      <trkpt lat="55.824035" lon="37.480865">
        <ele>0</ele>
      </trkpt>
      <trkpt lat="55.823784" lon="37.480729">
        <ele>0</ele>
      </trkpt>
      <trkpt lat="55.823684" lon="37.480691">
        <ele>0</ele>
      </trkpt>
      <trkpt lat="55.823631" lon="37.48066">
        <ele>0</ele>
      </trkpt>
      <trkpt lat="55.823505" lon="37.480584">
        <ele>0</ele>
      </trkpt>
      <trkpt lat="55.822799" lon="37.480165">
        <ele>0</ele>
      </trkpt>
      <trkpt lat="55.822431" lon="37.479946">
        <ele>0</ele>
      </trkpt>
      <trkpt lat="55.8221" lon="37.479703">
        <ele>0</ele>
      </trkpt>
      <trkpt lat="55.821882" lon="37.479469">
        <ele>0</ele>
      </trkpt>
      <trkpt lat="55.821865" lon="37.479445">
        <ele>0</ele>
      </trkpt>
      <trkpt lat="55.821762" lon="37.479294">
        <ele>0</ele>
      </trkpt>
      <trkpt lat="55.821754" lon="37.479282">
        <ele>0</ele>
      </trkpt>
      <trkpt lat="55.821715" lon="37.479213">
        <ele>0</ele>
      </trkpt>
      <trkpt lat="55.821671" lon="37.479116">
        <ele>0</ele>
      </trkpt>
      <trkpt lat="55.821602" lon="37.478949">
        <ele>0</ele>
      </trkpt>
      <trkpt lat="55.821584" lon="37.478924">
        <ele>0</ele>
      </trkpt>
      <trkpt lat="55.82157" lon="37.478894">
        <ele>0</ele>
      </trkpt>
      <trkpt lat="55.821437" lon="37.478587">
        <ele>0</ele>
      </trkpt>
      <trkpt lat="55.821188" lon="37.477982">
        <ele>0</ele>
      </trkpt>
      <trkpt lat="55.821024" lon="37.477529">
        <ele>0</ele>
      </trkpt>
      <trkpt lat="55.820948" lon="37.477375">
        <ele>0</ele>
      </trkpt>
      <trkpt lat="55.820862" lon="37.477234">
        <ele>0</ele>
      </trkpt>
      <trkpt lat="55.82078" lon="37.47711">
        <ele>0</ele>
      </trkpt>
      <trkpt lat="55.820248" lon="37.476526">
        <ele>0</ele>
      </trkpt>
      <trkpt lat="55.819998" lon="37.47616">
        <ele>0</ele>
      </trkpt>
      <trkpt lat="55.819972" lon="37.476124">
        <ele>0</ele>
      </trkpt>
      <trkpt lat="55.81992" lon="37.476024">
        <ele>0</ele>
      </trkpt>
      <trkpt lat="55.819607" lon="37.475447">
        <ele>0</ele>
      </trkpt>
      <trkpt lat="55.818692" lon="37.473756">
        <ele>0</ele>
      </trkpt>
      <trkpt lat="55.818634" lon="37.473694">
        <ele>0</ele>
      </trkpt>
      <trkpt lat="55.818553" lon="37.473616">
        <ele>0</ele>
      </trkpt>
      <trkpt lat="55.818454" lon="37.473558">
        <ele>0</ele>
      </trkpt>
      <trkpt lat="55.818433" lon="37.473535">
        <ele>0</ele>
      </trkpt>
      <trkpt lat="55.818276" lon="37.473323">
        <ele>0</ele>
      </trkpt>
      <trkpt lat="55.818185" lon="37.473165">
        <ele>0</ele>
      </trkpt>
      <trkpt lat="55.818099" lon="37.472982">
        <ele>0</ele>
      </trkpt>
      <trkpt lat="55.818033" lon="37.472726">
        <ele>0</ele>
      </trkpt>
      <trkpt lat="55.818028" lon="37.472679">
        <ele>0</ele>
      </trkpt>
      <trkpt lat="55.818032" lon="37.472631">
        <ele>0</ele>
      </trkpt>
      <trkpt lat="55.818127" lon="37.472029">
        <ele>0</ele>
      </trkpt>
      <trkpt lat="55.818191" lon="37.471748">
        <ele>0</ele>
      </trkpt>
      <trkpt lat="55.818115" lon="37.471619">
        <ele>0</ele>
      </trkpt>
      <trkpt lat="55.817841" lon="37.470627">
        <ele>0</ele>
      </trkpt>
      <trkpt lat="55.817417" lon="37.469091">
        <ele>0</ele>
      </trkpt>
      <trkpt lat="55.817438" lon="37.469047">
        <ele>0</ele>
      </trkpt>
      <trkpt lat="55.817417" lon="37.469091">
        <ele>0</ele>
      </trkpt>
      <trkpt lat="55.817841" lon="37.470627">
        <ele>0</ele>
      </trkpt>
      <trkpt lat="55.818115" lon="37.471619">
        <ele>0</ele>
      </trkpt>
      <trkpt lat="55.818191" lon="37.471748">
        <ele>0</ele>
      </trkpt>
      <trkpt lat="55.818127" lon="37.472029">
        <ele>0</ele>
      </trkpt>
      <trkpt lat="55.818032" lon="37.472631">
        <ele>0</ele>
      </trkpt>
      <trkpt lat="55.818028" lon="37.472679">
        <ele>0</ele>
      </trkpt>
      <trkpt lat="55.818033" lon="37.472726">
        <ele>0</ele>
      </trkpt>
      <trkpt lat="55.817897" lon="37.47319">
        <ele>0</ele>
      </trkpt>
      <trkpt lat="55.817756" lon="37.473758">
        <ele>0</ele>
      </trkpt>
      <trkpt lat="55.817489" lon="37.474814">
        <ele>0</ele>
      </trkpt>
      <trkpt lat="55.817395" lon="37.475118">
        <ele>0</ele>
      </trkpt>
      <trkpt lat="55.81732" lon="37.475311">
        <ele>0</ele>
      </trkpt>
      <trkpt lat="55.817126" lon="37.475712">
        <ele>0</ele>
      </trkpt>
      <trkpt lat="55.817032" lon="37.475928">
        <ele>0</ele>
      </trkpt>
      <trkpt lat="55.816974" lon="37.476047">
        <ele>0</ele>
      </trkpt>
      <trkpt lat="55.816914" lon="37.476148">
        <ele>0</ele>
      </trkpt>
      <trkpt lat="55.816876" lon="37.476204">
        <ele>0</ele>
      </trkpt>
      <trkpt lat="55.816599" lon="37.47665">
        <ele>0</ele>
      </trkpt>
      <trkpt lat="55.816362" lon="37.476952">
        <ele>0</ele>
      </trkpt>
      <trkpt lat="55.816219" lon="37.477119">
        <ele>0</ele>
      </trkpt>
      <trkpt lat="55.816141" lon="37.47721">
        <ele>0</ele>
      </trkpt>
      <trkpt lat="55.816085" lon="37.477276">
        <ele>0</ele>
      </trkpt>
      <trkpt lat="55.816043" lon="37.47734">
        <ele>0</ele>
      </trkpt>
      <trkpt lat="55.815918" lon="37.477533">
        <ele>0</ele>
      </trkpt>
      <trkpt lat="55.81591" lon="37.477546">
        <ele>0</ele>
      </trkpt>
      <trkpt lat="55.815841" lon="37.477713">
        <ele>0</ele>
      </trkpt>
      <trkpt lat="55.815756" lon="37.477947">
        <ele>0</ele>
      </trkpt>
      <trkpt lat="55.815752" lon="37.478313">
        <ele>0</ele>
      </trkpt>
      <trkpt lat="55.81567" lon="37.478941">
        <ele>0</ele>
      </trkpt>
      <trkpt lat="55.815566" lon="37.479469">
        <ele>0</ele>
      </trkpt>
      <trkpt lat="55.815595" lon="37.479905">
        <ele>0</ele>
      </trkpt>
      <trkpt lat="55.815611" lon="37.480235">
        <ele>0</ele>
      </trkpt>
      <trkpt lat="55.815609" lon="37.480367">
        <ele>0</ele>
      </trkpt>
      <trkpt lat="55.815595" lon="37.48051">
        <ele>0</ele>
      </trkpt>
      <trkpt lat="55.815599" lon="37.480606">
        <ele>0</ele>
      </trkpt>
      <trkpt lat="55.815608" lon="37.480696">
        <ele>0</ele>
      </trkpt>
      <trkpt lat="55.815676" lon="37.480932">
        <ele>0</ele>
      </trkpt>
      <trkpt lat="55.815719" lon="37.481131">
        <ele>0</ele>
      </trkpt>
      <trkpt lat="55.815726" lon="37.481174">
        <ele>0</ele>
      </trkpt>
      <trkpt lat="55.815746" lon="37.481163">
        <ele>0</ele>
      </trkpt>
      <trkpt lat="55.815726" lon="37.481174">
        <ele>0</ele>
      </trkpt>
      <trkpt lat="55.815764" lon="37.481403">
        <ele>0</ele>
      </trkpt>
      <trkpt lat="55.815809" lon="37.481715">
        <ele>0</ele>
      </trkpt>
      <trkpt lat="55.815954" lon="37.482342">
        <ele>0</ele>
      </trkpt>
      <trkpt lat="55.816036" lon="37.482498">
        <ele>0</ele>
      </trkpt>
      <trkpt lat="55.81616" lon="37.482599">
        <ele>0</ele>
      </trkpt>
      <trkpt lat="55.816362" lon="37.482825">
        <ele>0</ele>
      </trkpt>
      <trkpt lat="55.816653" lon="37.483276">
        <ele>0</ele>
      </trkpt>
      <trkpt lat="55.817258" lon="37.485142">
        <ele>0</ele>
      </trkpt>
      <trkpt lat="55.817253" lon="37.485183">
        <ele>0</ele>
      </trkpt>
      <trkpt lat="55.817231" lon="37.485359">
        <ele>0</ele>
      </trkpt>
      <trkpt lat="55.817207" lon="37.48547">
        <ele>0</ele>
      </trkpt>
      <trkpt lat="55.817197" lon="37.485506">
        <ele>0</ele>
      </trkpt>
      <trkpt lat="55.817159" lon="37.485679">
        <ele>0</ele>
      </trkpt>
      <trkpt lat="55.817134" lon="37.485845">
        <ele>0</ele>
      </trkpt>
      <trkpt lat="55.817076" lon="37.486032">
        <ele>0</ele>
      </trkpt>
      <trkpt lat="55.817028" lon="37.486186">
        <ele>0</ele>
      </trkpt>
      <trkpt lat="55.817022" lon="37.486815">
        <ele>0</ele>
      </trkpt>
      <trkpt lat="55.817021" lon="37.486924">
        <ele>0</ele>
      </trkpt>
      <trkpt lat="55.817022" lon="37.487266">
        <ele>0</ele>
      </trkpt>
      <trkpt lat="55.817018" lon="37.487266">
        <ele>0</ele>
      </trkpt>
      <trkpt lat="55.816989" lon="37.487264">
        <ele>0</ele>
      </trkpt>
      <trkpt lat="55.81696" lon="37.487262">
        <ele>0</ele>
      </trkpt>
      <trkpt lat="55.816954" lon="37.487265">
        <ele>0</ele>
      </trkpt>
      <trkpt lat="55.816938" lon="37.48729">
        <ele>0</ele>
      </trkpt>
      <trkpt lat="55.816924" lon="37.487321">
        <ele>0</ele>
      </trkpt>
      <trkpt lat="55.816923" lon="37.487334">
        <ele>0</ele>
      </trkpt>
      <trkpt lat="55.816921" lon="37.487394">
        <ele>0</ele>
      </trkpt>
      <trkpt lat="55.816919" lon="37.487461">
        <ele>0</ele>
      </trkpt>
      <trkpt lat="55.816918" lon="37.487498">
        <ele>0</ele>
      </trkpt>
      <trkpt lat="55.816656" lon="37.487481">
        <ele>0</ele>
      </trkpt>
      <trkpt lat="55.816551" lon="37.487467">
        <ele>0</ele>
      </trkpt>
      <trkpt lat="55.816277" lon="37.487427">
        <ele>0</ele>
      </trkpt>
      <trkpt lat="55.816118" lon="37.487413">
        <ele>0</ele>
      </trkpt>
      <trkpt lat="55.816065" lon="37.487413">
        <ele>0</ele>
      </trkpt>
      <trkpt lat="55.815938" lon="37.487455">
        <ele>0</ele>
      </trkpt>
      <trkpt lat="55.815923" lon="37.487461">
        <ele>0</ele>
      </trkpt>
      <trkpt lat="55.815911" lon="37.487472">
        <ele>0</ele>
      </trkpt>
      <trkpt lat="55.815891" lon="37.487509">
        <ele>0</ele>
      </trkpt>
      <trkpt lat="55.81588" lon="37.487492">
        <ele>0</ele>
      </trkpt>
      <trkpt lat="55.815848" lon="37.487433">
        <ele>0</ele>
      </trkpt>
      <trkpt lat="55.815818" lon="37.487368">
        <ele>0</ele>
      </trkpt>
      <trkpt lat="55.815801" lon="37.487333">
        <ele>0</ele>
      </trkpt>
      <trkpt lat="55.81579" lon="37.487327">
        <ele>0</ele>
      </trkpt>
      <trkpt lat="55.815776" lon="37.48733">
        <ele>0</ele>
      </trkpt>
      <trkpt lat="55.815722" lon="37.487407">
        <ele>0</ele>
      </trkpt>
      <trkpt lat="55.81569" lon="37.487426">
        <ele>0</ele>
      </trkpt>
      <trkpt lat="55.815653" lon="37.487419">
        <ele>0</ele>
      </trkpt>
      <trkpt lat="55.815653" lon="37.487422">
        <ele>0</ele>
      </trkpt>
    </trkseg>
    <trkseg>
      <trkpt lat="55.815594" lon="37.323256">
        <ele>0</ele>
      </trkpt>
      <trkpt lat="55.815624" lon="37.323176">
        <ele>0</ele>
      </trkpt>
      <trkpt lat="55.815512" lon="37.323041">
        <ele>0</ele>
      </trkpt>
      <trkpt lat="55.815187" lon="37.322632">
        <ele>0</ele>
      </trkpt>
      <trkpt lat="55.814884" lon="37.322239">
        <ele>0</ele>
      </trkpt>
      <trkpt lat="55.814846" lon="37.322172">
        <ele>0</ele>
      </trkpt>
      <trkpt lat="55.814749" lon="37.322038">
        <ele>0</ele>
      </trkpt>
      <trkpt lat="55.814573" lon="37.321847">
        <ele>0</ele>
      </trkpt>
      <trkpt lat="55.814423" lon="37.321683">
        <ele>0</ele>
      </trkpt>
      <trkpt lat="55.814162" lon="37.321374">
        <ele>0</ele>
      </trkpt>
      <trkpt lat="55.814062" lon="37.321256">
        <ele>0</ele>
      </trkpt>
      <trkpt lat="55.814015" lon="37.321188">
        <ele>0</ele>
      </trkpt>
      <trkpt lat="55.813931" lon="37.321067">
        <ele>0</ele>
      </trkpt>
      <trkpt lat="55.813909" lon="37.321012">
        <ele>0</ele>
      </trkpt>
      <trkpt lat="55.813892" lon="37.320797">
        <ele>0</ele>
      </trkpt>
      <trkpt lat="55.813876" lon="37.320736">
        <ele>0</ele>
      </trkpt>
      <trkpt lat="55.813849" lon="37.320706">
        <ele>0</ele>
      </trkpt>
      <trkpt lat="55.813816" lon="37.320696">
        <ele>0</ele>
      </trkpt>
      <trkpt lat="55.813729" lon="37.320697">
        <ele>0</ele>
      </trkpt>
      <trkpt lat="55.81369" lon="37.320697">
        <ele>0</ele>
      </trkpt>
      <trkpt lat="55.81367" lon="37.320689">
        <ele>0</ele>
      </trkpt>
      <trkpt lat="55.813636" lon="37.32066">
        <ele>0</ele>
      </trkpt>
      <trkpt lat="55.813595" lon="37.320619">
        <ele>0</ele>
      </trkpt>
      <trkpt lat="55.813548" lon="37.320545">
        <ele>0</ele>
      </trkpt>
      <trkpt lat="55.813396" lon="37.320364">
        <ele>0</ele>
      </trkpt>
      <trkpt lat="55.813351" lon="37.320423">
        <ele>0</ele>
      </trkpt>
      <trkpt lat="55.8132" lon="37.320232">
        <ele>0</ele>
      </trkpt>
      <trkpt lat="55.813235" lon="37.3202">
        <ele>0</ele>
      </trkpt>
      <trkpt lat="55.813212" lon="37.320149">
        <ele>0</ele>
      </trkpt>
      <trkpt lat="55.813156" lon="37.320069">
        <ele>0</ele>
      </trkpt>
      <trkpt lat="55.812736" lon="37.319551">
        <ele>0</ele>
      </trkpt>
      <trkpt lat="55.81248" lon="37.319231">
        <ele>0</ele>
      </trkpt>
      <trkpt lat="55.812471" lon="37.319189">
        <ele>0</ele>
      </trkpt>
      <trkpt lat="55.81248" lon="37.319231">
        <ele>0</ele>
      </trkpt>
      <trkpt lat="55.812321" lon="37.319035">
        <ele>0</ele>
      </trkpt>
      <trkpt lat="55.812296" lon="37.318993">
        <ele>0</ele>
      </trkpt>
      <trkpt lat="55.81227" lon="37.318939">
        <ele>0</ele>
      </trkpt>
      <trkpt lat="55.812248" lon="37.318879">
        <ele>0</ele>
      </trkpt>
      <trkpt lat="55.812228" lon="37.318818">
        <ele>0</ele>
      </trkpt>
      <trkpt lat="55.812205" lon="37.318717">
        <ele>0</ele>
      </trkpt>
      <trkpt lat="55.812178" lon="37.318543">
        <ele>0</ele>
      </trkpt>
      <trkpt lat="55.811991" lon="37.317178">
        <ele>0</ele>
      </trkpt>
      <trkpt lat="55.811951" lon="37.316924">
        <ele>0</ele>
      </trkpt>
      <trkpt lat="55.811917" lon="37.316787">
        <ele>0</ele>
      </trkpt>
      <trkpt lat="55.811896" lon="37.316632">
        <ele>0</ele>
      </trkpt>
      <trkpt lat="55.811893" lon="37.31653">
        <ele>0</ele>
      </trkpt>
      <trkpt lat="55.811733" lon="37.315318">
        <ele>0</ele>
      </trkpt>
      <trkpt lat="55.811726" lon="37.315241">
        <ele>0</ele>
      </trkpt>
      <trkpt lat="55.81172" lon="37.315107">
        <ele>0</ele>
      </trkpt>
      <trkpt lat="55.811725" lon="37.31492">
        <ele>0</ele>
      </trkpt>
      <trkpt lat="55.811738" lon="37.314724">
        <ele>0</ele>
      </trkpt>
      <trkpt lat="55.811771" lon="37.314333">
        <ele>0</ele>
      </trkpt>
      <trkpt lat="55.811797" lon="37.314035">
        <ele>0</ele>
      </trkpt>
      <trkpt lat="55.811824" lon="37.313741">
        <ele>0</ele>
      </trkpt>
      <trkpt lat="55.811848" lon="37.313484">
        <ele>0</ele>
      </trkpt>
      <trkpt lat="55.811853" lon="37.313415">
        <ele>0</ele>
      </trkpt>
      <trkpt lat="55.81191" lon="37.313431">
        <ele>0</ele>
      </trkpt>
      <trkpt lat="55.811959" lon="37.313442">
        <ele>0</ele>
      </trkpt>
      <trkpt lat="55.811965" lon="37.313343">
        <ele>0</ele>
      </trkpt>
      <trkpt lat="55.811993" lon="37.312461">
        <ele>0</ele>
      </trkpt>
      <trkpt lat="55.812013" lon="37.312025">
        <ele>0</ele>
      </trkpt>
      <trkpt lat="55.812021" lon="37.311998">
        <ele>0</ele>
      </trkpt>
      <trkpt lat="55.812038" lon="37.311969">
        <ele>0</ele>
      </trkpt>
      <trkpt lat="55.812048" lon="37.311871">
        <ele>0</ele>
      </trkpt>
      <trkpt lat="55.812101" lon="37.311195">
        <ele>0</ele>
      </trkpt>
      <trkpt lat="55.812113" lon="37.31108">
        <ele>0</ele>
      </trkpt>
      <trkpt lat="55.812141" lon="37.310864">
        <ele>0</ele>
      </trkpt>
      <trkpt lat="55.812166" lon="37.310652">
        <ele>0</ele>
      </trkpt>
      <trkpt lat="55.812199" lon="37.310402">
        <ele>0</ele>
      </trkpt>
      <trkpt lat="55.812205" lon="37.310361">
        <ele>0</ele>
      </trkpt>
      <trkpt lat="55.812212" lon="37.310326">
        <ele>0</ele>
      </trkpt>
      <trkpt lat="55.812366" lon="37.309697">
        <ele>0</ele>
      </trkpt>
      <trkpt lat="55.81241" lon="37.309516">
        <ele>0</ele>
      </trkpt>
      <trkpt lat="55.812768" lon="37.308484">
        <ele>0</ele>
      </trkpt>
      <trkpt lat="55.812867" lon="37.308255">
        <ele>0</ele>
      </trkpt>
      <trkpt lat="55.812921" lon="37.308145">
        <ele>0</ele>
      </trkpt>
      <trkpt lat="55.81294" lon="37.308106">
        <ele>0</ele>
      </trkpt>
      <trkpt lat="55.812958" lon="37.308105">
        <ele>0</ele>
      </trkpt>
      <trkpt lat="55.812966" lon="37.308001">
        <ele>0</ele>
      </trkpt>
      <trkpt lat="55.812988" lon="37.307952">
        <ele>0</ele>
      </trkpt>
      <trkpt lat="55.812999" lon="37.307929">
        <ele>0</ele>
      </trkpt>
      <trkpt lat="55.812971" lon="37.307888">
        <ele>0</ele>
      </trkpt>
      <trkpt lat="55.812931" lon="37.307825">
        <ele>0</ele>
      </trkpt>
      <trkpt lat="55.813285" lon="37.307103">
        <ele>0</ele>
      </trkpt>
      <trkpt lat="55.813383" lon="37.306905">
        <ele>0</ele>
      </trkpt>
      <trkpt lat="55.813435" lon="37.3068">
        <ele>0</ele>
      </trkpt>
      <trkpt lat="55.813472" lon="37.306726">
        <ele>0</ele>
      </trkpt>
      <trkpt lat="55.813544" lon="37.306583">
        <ele>0</ele>
      </trkpt>
      <trkpt lat="55.813562" lon="37.306548">
        <ele>0</ele>
      </trkpt>
      <trkpt lat="55.813709" lon="37.30625">
        <ele>0</ele>
      </trkpt>
      <trkpt lat="55.813917" lon="37.305824">
        <ele>0</ele>
      </trkpt>
      <trkpt lat="55.814006" lon="37.305642">
        <ele>0</ele>
      </trkpt>
      <trkpt lat="55.814045" lon="37.305562">
        <ele>0</ele>
      </trkpt>
      <trkpt lat="55.8141" lon="37.30545">
        <ele>0</ele>
      </trkpt>
      <trkpt lat="55.814222" lon="37.305199">
        <ele>0</ele>
      </trkpt>
      <trkpt lat="55.814228" lon="37.305183">
        <ele>0</ele>
      </trkpt>
      <trkpt lat="55.814228" lon="37.305175">
        <ele>0</ele>
      </trkpt>
      <trkpt lat="55.814228" lon="37.305167">
        <ele>0</ele>
      </trkpt>
      <trkpt lat="55.814221" lon="37.305154">
        <ele>0</ele>
      </trkpt>
      <trkpt lat="55.814015" lon="37.304826">
        <ele>0</ele>
      </trkpt>
      <trkpt lat="55.81405" lon="37.304758">
        <ele>0</ele>
      </trkpt>
      <trkpt lat="55.814043" lon="37.304748">
        <ele>0</ele>
      </trkpt>
      <trkpt lat="55.814029" lon="37.304725">
        <ele>0</ele>
      </trkpt>
      <trkpt lat="55.813984" lon="37.304812">
        <ele>0</ele>
      </trkpt>
      <trkpt lat="55.813908" lon="37.304677">
        <ele>0</ele>
      </trkpt>
      <trkpt lat="55.813895" lon="37.304655">
        <ele>0</ele>
      </trkpt>
      <trkpt lat="55.813841" lon="37.304758">
        <ele>0</ele>
      </trkpt>
      <trkpt lat="55.813827" lon="37.304735">
        <ele>0</ele>
      </trkpt>
      <trkpt lat="55.8139" lon="37.304594">
        <ele>0</ele>
      </trkpt>
      <trkpt lat="55.813914" lon="37.304527">
        <ele>0</ele>
      </trkpt>
      <trkpt lat="55.813934" lon="37.304486">
        <ele>0</ele>
      </trkpt>
      <trkpt lat="55.813964" lon="37.304429">
        <ele>0</ele>
      </trkpt>
      <trkpt lat="55.814" lon="37.304362">
        <ele>0</ele>
      </trkpt>
      <trkpt lat="55.814005" lon="37.304355">
        <ele>0</ele>
      </trkpt>
      <trkpt lat="55.814012" lon="37.304351">
        <ele>0</ele>
      </trkpt>
      <trkpt lat="55.81402" lon="37.304353">
        <ele>0</ele>
      </trkpt>
      <trkpt lat="55.814024" lon="37.304359">
        <ele>0</ele>
      </trkpt>
      <trkpt lat="55.81404" lon="37.304384">
        <ele>0</ele>
      </trkpt>
      <trkpt lat="55.814147" lon="37.304175">
        <ele>0</ele>
      </trkpt>
      <trkpt lat="55.814144" lon="37.30417">
        <ele>0</ele>
      </trkpt>
    </trkseg>
    <trkseg>
      <trkpt lat="55.81443" lon="37.30418">
        <ele>0</ele>
      </trkpt>
      <trkpt lat="55.814442" lon="37.304198">
        <ele>0</ele>
      </trkpt>
      <trkpt lat="55.814347" lon="37.304391">
        <ele>0</ele>
      </trkpt>
      <trkpt lat="55.814207" lon="37.304675">
        <ele>0</ele>
      </trkpt>
      <trkpt lat="55.814136" lon="37.304816">
        <ele>0</ele>
      </trkpt>
      <trkpt lat="55.814126" lon="37.304855">
        <ele>0</ele>
      </trkpt>
      <trkpt lat="55.814128" lon="37.304896">
        <ele>0</ele>
      </trkpt>
      <trkpt lat="55.814142" lon="37.304931">
        <ele>0</ele>
      </trkpt>
      <trkpt lat="55.814313" lon="37.305177">
        <ele>0</ele>
      </trkpt>
      <trkpt lat="55.814266" lon="37.305273">
        <ele>0</ele>
      </trkpt>
      <trkpt lat="55.814197" lon="37.305415">
        <ele>0</ele>
      </trkpt>
      <trkpt lat="55.814143" lon="37.305521">
        <ele>0</ele>
      </trkpt>
      <trkpt lat="55.814087" lon="37.305632">
        <ele>0</ele>
      </trkpt>
      <trkpt lat="55.813823" lon="37.306149">
        <ele>0</ele>
      </trkpt>
      <trkpt lat="55.813746" lon="37.306307">
        <ele>0</ele>
      </trkpt>
      <trkpt lat="55.813597" lon="37.306603">
        <ele>0</ele>
      </trkpt>
      <trkpt lat="55.81357" lon="37.306657">
        <ele>0</ele>
      </trkpt>
      <trkpt lat="55.813566" lon="37.306651">
        <ele>0</ele>
      </trkpt>
      <trkpt lat="55.81357" lon="37.306657">
        <ele>0</ele>
      </trkpt>
      <trkpt lat="55.813545" lon="37.306705">
        <ele>0</ele>
      </trkpt>
      <trkpt lat="55.813491" lon="37.306817">
        <ele>0</ele>
      </trkpt>
      <trkpt lat="55.813418" lon="37.306967">
        <ele>0</ele>
      </trkpt>
      <trkpt lat="55.813448" lon="37.307015">
        <ele>0</ele>
      </trkpt>
      <trkpt lat="55.813478" lon="37.307062">
        <ele>0</ele>
      </trkpt>
      <trkpt lat="55.813314" lon="37.307411">
        <ele>0</ele>
      </trkpt>
      <trkpt lat="55.81327" lon="37.307457">
        <ele>0</ele>
      </trkpt>
      <trkpt lat="55.813205" lon="37.307523">
        <ele>0</ele>
      </trkpt>
      <trkpt lat="55.812999" lon="37.307929">
        <ele>0</ele>
      </trkpt>
      <trkpt lat="55.812988" lon="37.307952">
        <ele>0</ele>
      </trkpt>
      <trkpt lat="55.812966" lon="37.308001">
        <ele>0</ele>
      </trkpt>
      <trkpt lat="55.812958" lon="37.308105">
        <ele>0</ele>
      </trkpt>
      <trkpt lat="55.81294" lon="37.308106">
        <ele>0</ele>
      </trkpt>
      <trkpt lat="55.812921" lon="37.308145">
        <ele>0</ele>
      </trkpt>
      <trkpt lat="55.812867" lon="37.308255">
        <ele>0</ele>
      </trkpt>
      <trkpt lat="55.812768" lon="37.308484">
        <ele>0</ele>
      </trkpt>
      <trkpt lat="55.81241" lon="37.309516">
        <ele>0</ele>
      </trkpt>
      <trkpt lat="55.812366" lon="37.309697">
        <ele>0</ele>
      </trkpt>
      <trkpt lat="55.812212" lon="37.310326">
        <ele>0</ele>
      </trkpt>
      <trkpt lat="55.812205" lon="37.310361">
        <ele>0</ele>
      </trkpt>
      <trkpt lat="55.812199" lon="37.310402">
        <ele>0</ele>
      </trkpt>
      <trkpt lat="55.812166" lon="37.310652">
        <ele>0</ele>
      </trkpt>
      <trkpt lat="55.812141" lon="37.310864">
        <ele>0</ele>
      </trkpt>
      <trkpt lat="55.812113" lon="37.31108">
        <ele>0</ele>
      </trkpt>
      <trkpt lat="55.812101" lon="37.311195">
        <ele>0</ele>
      </trkpt>
      <trkpt lat="55.812048" lon="37.311871">
        <ele>0</ele>
      </trkpt>
      <trkpt lat="55.812038" lon="37.311969">
        <ele>0</ele>
      </trkpt>
      <trkpt lat="55.812021" lon="37.311998">
        <ele>0</ele>
      </trkpt>
      <trkpt lat="55.812013" lon="37.312025">
        <ele>0</ele>
      </trkpt>
      <trkpt lat="55.811993" lon="37.312461">
        <ele>0</ele>
      </trkpt>
      <trkpt lat="55.811965" lon="37.313343">
        <ele>0</ele>
      </trkpt>
      <trkpt lat="55.811959" lon="37.313442">
        <ele>0</ele>
      </trkpt>
      <trkpt lat="55.81191" lon="37.313431">
        <ele>0</ele>
      </trkpt>
      <trkpt lat="55.811853" lon="37.313415">
        <ele>0</ele>
      </trkpt>
      <trkpt lat="55.811848" lon="37.313484">
        <ele>0</ele>
      </trkpt>
      <trkpt lat="55.811824" lon="37.313741">
        <ele>0</ele>
      </trkpt>
      <trkpt lat="55.811797" lon="37.314035">
        <ele>0</ele>
      </trkpt>
      <trkpt lat="55.811771" lon="37.314333">
        <ele>0</ele>
      </trkpt>
      <trkpt lat="55.811738" lon="37.314724">
        <ele>0</ele>
      </trkpt>
      <trkpt lat="55.811725" lon="37.31492">
        <ele>0</ele>
      </trkpt>
      <trkpt lat="55.81172" lon="37.315107">
        <ele>0</ele>
      </trkpt>
      <trkpt lat="55.811726" lon="37.315241">
        <ele>0</ele>
      </trkpt>
      <trkpt lat="55.811733" lon="37.315318">
        <ele>0</ele>
      </trkpt>
      <trkpt lat="55.811893" lon="37.31653">
        <ele>0</ele>
      </trkpt>
      <trkpt lat="55.811896" lon="37.316632">
        <ele>0</ele>
      </trkpt>
      <trkpt lat="55.811917" lon="37.316787">
        <ele>0</ele>
      </trkpt>
      <trkpt lat="55.811951" lon="37.316924">
        <ele>0</ele>
      </trkpt>
      <trkpt lat="55.811991" lon="37.317178">
        <ele>0</ele>
      </trkpt>
      <trkpt lat="55.812178" lon="37.318543">
        <ele>0</ele>
      </trkpt>
      <trkpt lat="55.812205" lon="37.318717">
        <ele>0</ele>
      </trkpt>
      <trkpt lat="55.812228" lon="37.318818">
        <ele>0</ele>
      </trkpt>
      <trkpt lat="55.812248" lon="37.318879">
        <ele>0</ele>
      </trkpt>
      <trkpt lat="55.81227" lon="37.318939">
        <ele>0</ele>
      </trkpt>
      <trkpt lat="55.812296" lon="37.318993">
        <ele>0</ele>
      </trkpt>
      <trkpt lat="55.812321" lon="37.319035">
        <ele>0</ele>
      </trkpt>
      <trkpt lat="55.812463" lon="37.31921">
        <ele>0</ele>
      </trkpt>
      <trkpt lat="55.812471" lon="37.319189">
        <ele>0</ele>
      </trkpt>
      <trkpt lat="55.812463" lon="37.31921">
        <ele>0</ele>
      </trkpt>
      <trkpt lat="55.81248" lon="37.319231">
        <ele>0</ele>
      </trkpt>
      <trkpt lat="55.812736" lon="37.319551">
        <ele>0</ele>
      </trkpt>
      <trkpt lat="55.813156" lon="37.320069">
        <ele>0</ele>
      </trkpt>
      <trkpt lat="55.813212" lon="37.320149">
        <ele>0</ele>
      </trkpt>
      <trkpt lat="55.813235" lon="37.3202">
        <ele>0</ele>
      </trkpt>
      <trkpt lat="55.8132" lon="37.320232">
        <ele>0</ele>
      </trkpt>
      <trkpt lat="55.813351" lon="37.320423">
        <ele>0</ele>
      </trkpt>
      <trkpt lat="55.813396" lon="37.320364">
        <ele>0</ele>
      </trkpt>
      <trkpt lat="55.813548" lon="37.320545">
        <ele>0</ele>
      </trkpt>
      <trkpt lat="55.813595" lon="37.320619">
        <ele>0</ele>
      </trkpt>
      <trkpt lat="55.813636" lon="37.32066">
        <ele>0</ele>
      </trkpt>
      <trkpt lat="55.81367" lon="37.320689">
        <ele>0</ele>
      </trkpt>
      <trkpt lat="55.81369" lon="37.320697">
        <ele>0</ele>
      </trkpt>
      <trkpt lat="55.813729" lon="37.320697">
        <ele>0</ele>
      </trkpt>
      <trkpt lat="55.813816" lon="37.320696">
        <ele>0</ele>
      </trkpt>
      <trkpt lat="55.813849" lon="37.320706">
        <ele>0</ele>
      </trkpt>
      <trkpt lat="55.813876" lon="37.320736">
        <ele>0</ele>
      </trkpt>
      <trkpt lat="55.813892" lon="37.320797">
        <ele>0</ele>
      </trkpt>
      <trkpt lat="55.813909" lon="37.321012">
        <ele>0</ele>
      </trkpt>
      <trkpt lat="55.813931" lon="37.321067">
        <ele>0</ele>
      </trkpt>
      <trkpt lat="55.814015" lon="37.321188">
        <ele>0</ele>
      </trkpt>
      <trkpt lat="55.814062" lon="37.321256">
        <ele>0</ele>
      </trkpt>
      <trkpt lat="55.814162" lon="37.321374">
        <ele>0</ele>
      </trkpt>
      <trkpt lat="55.814423" lon="37.321683">
        <ele>0</ele>
      </trkpt>
      <trkpt lat="55.814573" lon="37.321847">
        <ele>0</ele>
      </trkpt>
      <trkpt lat="55.814749" lon="37.322038">
        <ele>0</ele>
      </trkpt>
      <trkpt lat="55.814846" lon="37.322172">
        <ele>0</ele>
      </trkpt>
      <trkpt lat="55.814884" lon="37.322239">
        <ele>0</ele>
      </trkpt>
      <trkpt lat="55.815187" lon="37.322632">
        <ele>0</ele>
      </trkpt>
      <trkpt lat="55.815512" lon="37.323041">
        <ele>0</ele>
      </trkpt>
      <trkpt lat="55.815616" lon="37.323166">
        <ele>0</ele>
      </trkpt>
      <trkpt lat="55.815612" lon="37.323175">
        <ele>0</ele>
      </trkpt>
    </trkseg>
  </trk>
</gpx>
