<?xml version="1.0" encoding="UTF-8"?>
<gpx version="1.1" creator="Yandex Map Constructor" xmlns="http://www.topografix.com/GPX/1/1"><metadata><name><![CDATA[Импорт из «output_routes (11).gpx»]]></name><desc/><time>2026-06-29T15:38:23.940Z</time></metadata><rte><rtept lon="34.791947118584986" lat="64.99014349594727"/><rtept lon="34.81426309758889" lat="64.99755393071742"/><rtept lon="34.85958170110452" lat="64.99886144069634"/><rtept lon="34.88224100286232" lat="64.9990067156239"/><rtept lon="34.9402625482725" lat="65.00481706349909"/><rtept lon="35.05252908879982" lat="65.01236862213857"/><rtept lon="35.11982034856546" lat="65.01803088663203"/><rtept lon="35.29148172551854" lat="65.01948255542915"/><rtept lon="35.52665781194433" lat="65.02122445353535"/><rtept lon="35.64338754827244" lat="65.02267594825767"/><rtept lon="35.67325662786225" lat="65.02833602167924"/><rtept lon="35.682011358086854" lat="65.02949691364996"/><rtept lon="35.69128107244232" lat="65.030585203884"/></rte></gpx>