<?xml version="1.0" encoding="UTF-8"?>
<gpx version="1.1" creator="Yandex Map Constructor" xmlns="http://www.topografix.com/GPX/1/1"><metadata><name><![CDATA[Без названия]]></name><desc/><time>2026-06-29T16:38:24.431Z</time></metadata><rte><rtept lon="37.41331394746832" lat="55.972349986689"/><rtept lon="37.37331684663823" lat="55.963492752421224"/><rtept lon="37.33589466646245" lat="55.96753652498832"/><rtept lon="37.17587308979377" lat="55.983485837981185"/><rtept lon="37.04541044330938" lat="56.03964630662758"/><rtept lon="36.899841595653136" lat="56.180837981613806"/><rtept lon="36.853149701121886" lat="56.30777155252328"/><rtept lon="36.68251711175613" lat="56.90615252175894"/><rtept lon="36.42159181878737" lat="56.99920204717824"/><rtept lon="35.339438498474856" lat="57.09949359789863"/><rtept lon="32.60933595941213" lat="57.19056751533652"/><rtept lon="31.867758810974617" lat="57.26207412092732"/><rtept lon="31.480490744568186" lat="57.481677994892415"/><rtept lon="29.865500510193176" lat="58.46805547110808"/><rtept lon="28.338400900818176" lat="59.56149452874194"/><rtept lon="27.90444093988067" lat="59.81145312507801"/><rtept lon="27.15737062738067" lat="60.04168951772014"/><rtept lon="26.99532228753693" lat="60.071900672912015"/><rtept lon="26.437766135193172" lat="60.02107509006268"/><rtept lon="25.058981955505683" lat="59.84602173835392"/><rtept lon="23.80654054925569" lat="59.640850632946396"/><rtept lon="22.592551291443186" lat="59.39801592069728"/><rtept lon="21.642233908630686" lat="59.17598737017089"/><rtept lon="20.823752463318172" lat="58.322410786501884"/><rtept lon="20.18105226800568" lat="57.50681831756714"/><rtept lon="19.38454347894318" lat="56.317002449761446"/><rtept lon="19.19237186905279" lat="55.74516596083826"/><rtept lon="19.269276165927792" lat="55.62724197379289"/><rtept lon="20.07127811905278" lat="55.20540696796369"/><rtept lon="20.64806034561528" lat="54.9469679123322"/><rtept lon="20.645313763584035" lat="54.9153361531803"/><rtept lon="20.57527592178715" lat="54.88605452552712"/></rte></gpx>