<?xml version="1.0" encoding="UTF-8"?>
<gpx version="1.1" creator="Yandex Map Constructor" xmlns="http://www.topografix.com/GPX/1/1"><metadata><name><![CDATA[29 апреля 2026 (первая поездка)]]></name><desc/><time>2026-05-28T19:52:27.879Z</time></metadata><rte><desc><![CDATA[First ride]]></desc><rtept lon="37.436926" lat="55.82599"/><rtept lon="37.437408" lat="55.82655"/><rtept lon="37.437746" lat="55.826944"/><rtept lon="37.437711" lat="55.826953"/><rtept lon="37.43763" lat="55.826973"/><rtept lon="37.43766" lat="55.827116"/><rtept lon="37.43732" lat="55.82718"/><rtept lon="37.437363" lat="55.827238"/><rtept lon="37.437375" lat="55.827271"/><rtept lon="37.437404" lat="55.827317"/><rtept lon="37.437447" lat="55.827455"/><rtept lon="37.437651" lat="55.82794"/><rtept lon="37.437767" lat="55.828218"/><rtept lon="37.437831" lat="55.828208"/><rtept lon="37.438099" lat="55.828164"/><rtept lon="37.438248" lat="55.828142"/><rtept lon="37.43827" lat="55.828187"/><rtept lon="37.438633" lat="55.828216"/><rtept lon="37.439857" lat="55.828047"/><rtept lon="37.439976" lat="55.828075"/><rtept lon="37.440115" lat="55.828107"/><rtept lon="37.44048" lat="55.828011"/><rtept lon="37.441018" lat="55.827868"/><rtept lon="37.441445" lat="55.827755"/><rtept lon="37.441775" lat="55.827751"/><rtept lon="37.441826" lat="55.827724"/><rtept lon="37.441999" lat="55.8277"/><rtept lon="37.441991" lat="55.827714"/><rtept lon="37.441973" lat="55.827747"/><rtept lon="37.442434" lat="55.827638"/><rtept lon="37.442597" lat="55.82759"/><rtept lon="37.443239" lat="55.827394"/><rtept lon="37.443648" lat="55.827294"/><rtept lon="37.443721" lat="55.827284"/><rtept lon="37.443985" lat="55.827248"/><rtept lon="37.444023" lat="55.827243"/><rtept lon="37.444181" lat="55.827223"/><rtept lon="37.444251" lat="55.827218"/><rtept lon="37.445564" lat="55.827121"/><rtept lon="37.445922" lat="55.82709"/><rtept lon="37.445959" lat="55.827086"/><rtept lon="37.446164" lat="55.827058"/><rtept lon="37.446497" lat="55.826999"/><rtept lon="37.447221" lat="55.826949"/><rtept lon="37.447454" lat="55.826934"/><rtept lon="37.447527" lat="55.826929"/><rtept lon="37.447617" lat="55.826923"/><rtept lon="37.448427" lat="55.826868"/><rtept lon="37.448532" lat="55.826861"/><rtept lon="37.44866" lat="55.826852"/><rtept lon="37.448839" lat="55.82684"/><rtept lon="37.449754" lat="55.826779"/><rtept lon="37.449882" lat="55.826771"/><rtept lon="37.449958" lat="55.826766"/><rtept lon="37.450104" lat="55.826757"/><rtept lon="37.450159" lat="55.826753"/><rtept lon="37.45027" lat="55.826746"/><rtept lon="37.450504" lat="55.826731"/><rtept lon="37.450563" lat="55.826728"/><rtept lon="37.450682" lat="55.826721"/><rtept lon="37.451046" lat="55.826698"/><rtept lon="37.451569" lat="55.826666"/><rtept lon="37.45193" lat="55.826643"/><rtept lon="37.452128" lat="55.826631"/><rtept lon="37.452233" lat="55.826624"/><rtept lon="37.452274" lat="55.826621"/><rtept lon="37.452394" lat="55.826611"/><rtept lon="37.452445" lat="55.826607"/><rtept lon="37.452585" lat="55.826598"/><rtept lon="37.452603" lat="55.826663"/><rtept lon="37.452469" lat="55.826673"/><rtept lon="37.45249" lat="55.826759"/><rtept lon="37.452616" lat="55.827369"/><rtept lon="37.452625" lat="55.827411"/><rtept lon="37.452667" lat="55.827613"/><rtept lon="37.452802" lat="55.828256"/><rtept lon="37.452829" lat="55.828387"/><rtept lon="37.45285" lat="55.828483"/><rtept lon="37.452877" lat="55.828596"/><rtept lon="37.45315" lat="55.830006"/><rtept lon="37.453165" lat="55.83008"/><rtept lon="37.453186" lat="55.830175"/><rtept lon="37.453209" lat="55.830286"/><rtept lon="37.453304" lat="55.830754"/><rtept lon="37.453315" lat="55.83081"/><rtept lon="37.45333" lat="55.830882"/><rtept lon="37.453409" lat="55.831282"/><rtept lon="37.453421" lat="55.831346"/><rtept lon="37.453546" lat="55.831959"/><rtept lon="37.453614" lat="55.832301"/><rtept lon="37.453636" lat="55.832415"/><rtept lon="37.453657" lat="55.832505"/><rtept lon="37.453731" lat="55.832885"/><rtept lon="37.453756" lat="55.833007"/><rtept lon="37.453892" lat="55.833685"/><rtept lon="37.453906" lat="55.833755"/><rtept lon="37.453933" lat="55.833882"/><rtept lon="37.454068" lat="55.834526"/><rtept lon="37.45409" lat="55.83463"/><rtept lon="37.454111" lat="55.834735"/><rtept lon="37.454231" lat="55.834724"/><rtept lon="37.454252" lat="55.834902"/><rtept lon="37.454416" lat="55.834899"/><rtept lon="37.454721" lat="55.834949"/><rtept lon="37.454937" lat="55.834902"/><rtept lon="37.455392" lat="55.83487"/><rtept lon="37.456567" lat="55.834787"/><rtept lon="37.457088" lat="55.834761"/><rtept lon="37.457872" lat="55.834721"/><rtept lon="37.458151" lat="55.834707"/><rtept lon="37.458538" lat="55.834709"/><rtept lon="37.459469" lat="55.834816"/><rtept lon="37.460161" lat="55.834937"/><rtept lon="37.460753" lat="55.835099"/><rtept lon="37.460161" lat="55.834937"/><rtept lon="37.459469" lat="55.834816"/><rtept lon="37.458538" lat="55.834709"/><rtept lon="37.458151" lat="55.834707"/><rtept lon="37.457872" lat="55.834721"/><rtept lon="37.457088" lat="55.834761"/><rtept lon="37.457872" lat="55.834721"/><rtept lon="37.458151" lat="55.834707"/><rtept lon="37.458538" lat="55.834709"/><rtept lon="37.458382" lat="55.834519"/><rtept lon="37.458376" lat="55.834482"/><rtept lon="37.45849" lat="55.834475"/><rtept lon="37.461355" lat="55.834304"/><rtept lon="37.461446" lat="55.834298"/><rtept lon="37.461567" lat="55.834254"/><rtept lon="37.461555" lat="55.834162"/><rtept lon="37.460804" lat="55.833146"/><rtept lon="37.460563" lat="55.832811"/><rtept lon="37.46053" lat="55.832763"/><rtept lon="37.460466" lat="55.832682"/><rtept lon="37.460418" lat="55.832612"/><rtept lon="37.460311" lat="55.832468"/><rtept lon="37.460295" lat="55.832445"/><rtept lon="37.460109" lat="55.832189"/><rtept lon="37.460295" lat="55.832445"/><rtept lon="37.460311" lat="55.832468"/><rtept lon="37.460418" lat="55.832612"/><rtept lon="37.460466" lat="55.832682"/><rtept lon="37.46054" lat="55.832667"/><rtept lon="37.461184" lat="55.833541"/><rtept lon="37.46054" lat="55.832667"/><rtept lon="37.460487" lat="55.832595"/><rtept lon="37.460418" lat="55.832612"/><rtept lon="37.460311" lat="55.832468"/><rtept lon="37.460295" lat="55.832445"/><rtept lon="37.460109" lat="55.832189"/><rtept lon="37.459784" lat="55.83174"/><rtept lon="37.45924" lat="55.830974"/><rtept lon="37.458848" lat="55.830433"/><rtept lon="37.458757" lat="55.830307"/><rtept lon="37.458459" lat="55.829906"/><rtept lon="37.458376" lat="55.829797"/><rtept lon="37.458331" lat="55.82974"/><rtept lon="37.458285" lat="55.82968"/><rtept lon="37.458898" lat="55.829459"/><rtept lon="37.45901" lat="55.829433"/><rtept lon="37.4608" lat="55.829025"/><rtept lon="37.460921" lat="55.828997"/><rtept lon="37.460929" lat="55.828961"/><rtept lon="37.461342" lat="55.828838"/><rtept lon="37.460982" lat="55.828438"/><rtept lon="37.460966" lat="55.828421"/><rtept lon="37.460821" lat="55.828265"/><rtept lon="37.459837" lat="55.827206"/><rtept lon="37.459797" lat="55.827031"/><rtept lon="37.459958" lat="55.82684"/><rtept lon="37.46021" lat="55.826655"/><rtept lon="37.461102" lat="55.825804"/><rtept lon="37.461413" lat="55.825546"/><rtept lon="37.461416" lat="55.825488"/><rtept lon="37.461473" lat="55.825388"/><rtept lon="37.461758" lat="55.825051"/><rtept lon="37.461911" lat="55.824907"/><rtept lon="37.462018" lat="55.824816"/><rtept lon="37.462117" lat="55.824754"/><rtept lon="37.46229" lat="55.824651"/><rtept lon="37.462491" lat="55.824601"/><rtept lon="37.462729" lat="55.824568"/><rtept lon="37.463233" lat="55.824494"/><rtept lon="37.463493" lat="55.824457"/><rtept lon="37.463782" lat="55.824365"/><rtept lon="37.464002" lat="55.824251"/><rtept lon="37.46417" lat="55.824087"/><rtept lon="37.464389" lat="55.823534"/><rtept lon="37.464591" lat="55.823068"/><rtept lon="37.464655" lat="55.822957"/><rtept lon="37.464699" lat="55.822965"/><rtept lon="37.464738" lat="55.822972"/><rtept lon="37.464763" lat="55.822927"/><rtept lon="37.465165" lat="55.822973"/><rtept lon="37.465859" lat="55.82305"/><rtept lon="37.465992" lat="55.823064"/><rtept lon="37.466836" lat="55.823021"/><rtept lon="37.467503" lat="55.82345"/><rtept lon="37.46904" lat="55.824141"/><rtept lon="37.469616" lat="55.824312"/><rtept lon="37.470321" lat="55.824517"/><rtept lon="37.470838" lat="55.824668"/><rtept lon="37.471276" lat="55.824737"/><rtept lon="37.471685" lat="55.824801"/><rtept lon="37.472247" lat="55.824818"/><rtept lon="37.472467" lat="55.824824"/><rtept lon="37.473001" lat="55.824887"/><rtept lon="37.47316" lat="55.82492"/><rtept lon="37.473294" lat="55.82497"/><rtept lon="37.473496" lat="55.824925"/><rtept lon="37.473921" lat="55.824914"/><rtept lon="37.474664" lat="55.824637"/><rtept lon="37.475073" lat="55.824542"/><rtept lon="37.475938" lat="55.824596"/><rtept lon="37.476391" lat="55.824456"/><rtept lon="37.477426" lat="55.82404"/><rtept lon="37.477582" lat="55.823969"/><rtept lon="37.478051" lat="55.823757"/><rtept lon="37.479061" lat="55.823419"/><rtept lon="37.479832" lat="55.823073"/><rtept lon="37.480119" lat="55.82285"/><rtept lon="37.48019" lat="55.822795"/><rtept lon="37.479735" lat="55.822124"/><rtept lon="37.480092" lat="55.822013"/><rtept lon="37.480514" lat="55.821787"/><rtept lon="37.481256" lat="55.8214"/><rtept lon="37.48128" lat="55.821389"/><rtept lon="37.481359" lat="55.821172"/><rtept lon="37.481428" lat="55.821077"/><rtept lon="37.481695" lat="55.820708"/><rtept lon="37.481758" lat="55.820414"/><rtept lon="37.481748" lat="55.82022"/><rtept lon="37.481769" lat="55.819802"/><rtept lon="37.481882" lat="55.81966"/><rtept lon="37.482132" lat="55.819448"/><rtept lon="37.482325" lat="55.819307"/><rtept lon="37.482654" lat="55.819059"/><rtept lon="37.483347" lat="55.818537"/><rtept lon="37.483915" lat="55.818242"/><rtept lon="37.484365" lat="55.818014"/><rtept lon="37.484614" lat="55.817816"/><rtept lon="37.484909" lat="55.817487"/><rtept lon="37.484986" lat="55.817432"/><rtept lon="37.485191" lat="55.817287"/><rtept lon="37.485504" lat="55.817252"/><rtept lon="37.485572" lat="55.817235"/><rtept lon="37.485941" lat="55.817116"/><rtept lon="37.485987" lat="55.817102"/><rtept lon="37.48617" lat="55.817043"/><rtept lon="37.486339" lat="55.817"/><rtept lon="37.486762" lat="55.816996"/><rtept lon="37.487266" lat="55.81699"/><rtept lon="37.487267" lat="55.817023"/><rtept lon="37.487268" lat="55.817037"/><rtept lon="37.487358" lat="55.817036"/><rtept lon="37.487406" lat="55.817035"/><rtept lon="37.487398" lat="55.816988"/><rtept lon="37.487392" lat="55.816918"/><rtept lon="37.487384" lat="55.816825"/><rtept lon="37.487362" lat="55.816585"/><rtept lon="37.48735" lat="55.816447"/><rtept lon="37.487334" lat="55.816295"/><rtept lon="37.48731" lat="55.816018"/><rtept lon="37.487434" lat="55.815843"/><rtept lon="37.487367" lat="55.815812"/><rtept lon="37.487336" lat="55.815797"/><rtept lon="37.487554" lat="55.815658"/><rtept lon="37.48746" lat="55.815617"/><rtept lon="37.487372" lat="55.815621"/><rtept lon="37.487356" lat="55.815621"/><rtept lon="37.487355" lat="55.815607"/><rtept lon="37.487324" lat="55.815597"/><rtept lon="37.487303" lat="55.815389"/></rte></gpx>