<?xml version="1.0" encoding="UTF-8"?>
<gpx version="1.1" creator="Yandex Map Constructor" xmlns="http://www.topografix.com/GPX/1/1"><metadata><name><![CDATA[Импорт из «output_routes (11).gpx»]]></name><desc/><time>2026-06-29T15:36:32.794Z</time></metadata><rte><rtept lon="31.406906080372323" lat="61.63324784990408"/><rtept lon="31.404717397816178" lat="61.633492897169695"/><rtept lon="31.401756239063722" lat="61.632686275901506"/><rtept lon="31.400661897785653" lat="61.63064410245856"/><rtept lon="31.385233831531913" lat="61.61190084894701"/><rtept lon="31.365149450428387" lat="61.59702071597224"/><rtept lon="31.359312963612002" lat="61.577714919210436"/><rtept lon="31.362231207020194" lat="61.56642034705573"/><rtept lon="31.33201880467624" lat="61.539640647636"/><rtept lon="31.25786108983248" lat="61.518659323436886"/><rtept lon="31.14525122655124" lat="61.48913028494771"/><rtept lon="31.039507818348106" lat="61.45365830645456"/><rtept lon="30.933299772088837" lat="61.419928647898764"/><rtept lon="30.921626798456042" lat="61.40446234418845"/><rtept lon="30.92591833287978" lat="61.398537043555486"/><rtept lon="30.931154004876852" lat="61.39409232816274"/><rtept lon="30.936046354120005" lat="61.39149928460728"/><rtept lon="30.941067449395817" lat="61.38954406933646"/><rtept lon="30.943513624017406" lat="61.38704327310997"/><rtept lon="30.944114438836717" lat="61.38651838916035"/></rte></gpx>