<?xml version="1.0" encoding="UTF-8"?>
<gpx version="1.1" creator="Yandex Map Constructor" xmlns="http://www.topografix.com/GPX/1/1"><metadata><name><![CDATA[8 мая 2026 Дом-Нахабино-Шишкин лес-Дом]]></name><desc/><time>2026-05-31T12:53:36.181Z</time></metadata><rte><desc><![CDATA[8 мая 2026 (Дом - Шишкин лес)]]></desc><rtept lon="37.323065" lat="55.8156"/><rtept lon="37.322994" lat="55.815628000000004"/><rtept lon="37.322827" lat="55.815495000000006"/><rtept lon="37.322751" lat="55.815529000000005"/><rtept lon="37.322246" lat="55.815631"/><rtept lon="37.322021" lat="55.815649"/><rtept lon="37.321968999999996" lat="55.815719"/><rtept lon="37.321833999999996" lat="55.815779000000006"/><rtept lon="37.321706" lat="55.815796000000006"/><rtept lon="37.321153" lat="55.815797"/><rtept lon="37.319971" lat="55.815805000000005"/><rtept lon="37.319973000000005" lat="55.815934000000006"/><rtept lon="37.319913" lat="55.81597000000001"/><rtept lon="37.319931" lat="55.81683300000001"/><rtept lon="37.320139" lat="55.81684100000001"/><rtept lon="37.320476" lat="55.81684200000001"/><rtept lon="37.320578" lat="55.81686700000001"/><rtept lon="37.320587" lat="55.817282000000006"/><rtept lon="37.320587" lat="55.81750200000001"/><rtept lon="37.320499000000005" lat="55.81763100000001"/><rtept lon="37.320461" lat="55.817881000000014"/><rtept lon="37.32042" lat="55.81793600000002"/><rtept lon="37.320495" lat="55.81796700000002"/><rtept lon="37.320797000000006" lat="55.81812900000002"/><rtept lon="37.31992100000001" lat="55.81884700000002"/><rtept lon="37.31959000000001" lat="55.81875100000002"/><rtept lon="37.31882800000001" lat="55.81938200000002"/><rtept lon="37.31871200000001" lat="55.81952700000002"/><rtept lon="37.31811600000001" lat="55.81938600000002"/><rtept lon="37.31758600000001" lat="55.819315000000024"/><rtept lon="37.317349000000014" lat="55.81929400000003"/><rtept lon="37.317095000000016" lat="55.819278000000025"/><rtept lon="37.31663600000002" lat="55.819284000000025"/><rtept lon="37.316133000000015" lat="55.818417000000025"/><rtept lon="37.31549200000001" lat="55.81748100000002"/><rtept lon="37.315494000000015" lat="55.81744400000002"/><rtept lon="37.31516900000002" lat="55.81739600000002"/><rtept lon="37.31510200000002" lat="55.81735100000002"/><rtept lon="37.315018000000016" lat="55.81731800000002"/><rtept lon="37.314864000000014" lat="55.81730700000002"/><rtept lon="37.31426000000001" lat="55.81735900000002"/><rtept lon="37.31421300000001" lat="55.81737200000002"/><rtept lon="37.314060000000005" lat="55.81732200000002"/><rtept lon="37.31376100000001" lat="55.81736200000002"/><rtept lon="37.31347000000001" lat="55.817385000000016"/><rtept lon="37.31321000000001" lat="55.81740000000001"/><rtept lon="37.31319000000001" lat="55.81761400000001"/><rtept lon="37.31307600000002" lat="55.818052000000016"/><rtept lon="37.31308100000002" lat="55.81813000000002"/><rtept lon="37.31314600000002" lat="55.81853700000002"/><rtept lon="37.313144000000015" lat="55.81855800000002"/><rtept lon="37.31299700000002" lat="55.81876600000002"/><rtept lon="37.312908000000014" lat="55.81900200000002"/><rtept lon="37.31289000000001" lat="55.81902300000002"/><rtept lon="37.31275600000001" lat="55.81907400000002"/><rtept lon="37.312428000000004" lat="55.819425000000024"/><rtept lon="37.312476000000004" lat="55.819472000000026"/><rtept lon="37.312291" lat="55.819577000000024"/><rtept lon="37.31343900000001" lat="55.820677000000025"/><rtept lon="37.31360100000001" lat="55.820758000000026"/><rtept lon="37.31366600000001" lat="55.82077100000003"/><rtept lon="37.31483200000001" lat="55.82221000000003"/><rtept lon="37.31482200000001" lat="55.822259000000024"/><rtept lon="37.314237000000006" lat="55.82266800000002"/><rtept lon="37.31321200000001" lat="55.82334400000002"/><rtept lon="37.31205900000001" lat="55.82410900000002"/><rtept lon="37.31102000000001" lat="55.824724000000025"/><rtept lon="37.31033900000001" lat="55.825138000000024"/><rtept lon="37.310012000000015" lat="55.82532800000003"/><rtept lon="37.30995400000001" lat="55.82529900000003"/><rtept lon="37.309866000000014" lat="55.82535000000003"/><rtept lon="37.30942800000001" lat="55.82557700000003"/><rtept lon="37.30870700000001" lat="55.82594600000003"/><rtept lon="37.307336000000014" lat="55.82663000000002"/><rtept lon="37.305925000000016" lat="55.82737000000002"/><rtept lon="37.30451100000002" lat="55.828059000000025"/><rtept lon="37.30518500000002" lat="55.828397000000024"/><rtept lon="37.305615000000024" lat="55.828602000000025"/><rtept lon="37.30664000000003" lat="55.82907300000003"/><rtept lon="37.30578900000002" lat="55.82960200000002"/><rtept lon="37.30541800000002" lat="55.82984100000002"/><rtept lon="37.30538500000002" lat="55.82993400000002"/><rtept lon="37.30413400000002" lat="55.83074500000002"/><rtept lon="37.30342700000002" lat="55.83117400000002"/><rtept lon="37.303254000000024" lat="55.831085000000016"/><rtept lon="37.303203000000025" lat="55.83107000000002"/><rtept lon="37.302871000000025" lat="55.83107900000002"/><rtept lon="37.302671000000025" lat="55.83106400000001"/><rtept lon="37.30260200000002" lat="55.83109100000001"/><rtept lon="37.30244800000002" lat="55.831185000000005"/><rtept lon="37.30225200000002" lat="55.83107700000001"/><rtept lon="37.30079700000001" lat="55.830319"/><rtept lon="37.30067000000001" lat="55.830261"/><rtept lon="37.30041800000001" lat="55.830398"/><rtept lon="37.300278000000006" lat="55.830488"/><rtept lon="37.30013100000001" lat="55.830408000000006"/><rtept lon="37.29970500000001" lat="55.83066000000001"/><rtept lon="37.29945700000001" lat="55.83055400000001"/><rtept lon="37.29935500000001" lat="55.83053700000001"/><rtept lon="37.29866900000002" lat="55.83065500000001"/><rtept lon="37.298532000000016" lat="55.83057600000001"/><rtept lon="37.297359000000014" lat="55.829980000000006"/><rtept lon="37.296976000000015" lat="55.829782"/><rtept lon="37.296909000000014" lat="55.829797"/><rtept lon="37.29677000000001" lat="55.829728"/><rtept lon="37.29666400000001" lat="55.829657000000005"/><rtept lon="37.29645500000001" lat="55.82954000000001"/><rtept lon="37.296321000000006" lat="55.82947800000001"/><rtept lon="37.296251000000005" lat="55.82941300000001"/><rtept lon="37.29545600000001" lat="55.829552000000014"/><rtept lon="37.29534500000001" lat="55.829355000000014"/><rtept lon="37.295037000000015" lat="55.828840000000014"/><rtept lon="37.29500700000001" lat="55.82879800000001"/><rtept lon="37.29449800000002" lat="55.828569000000016"/><rtept lon="37.29444500000002" lat="55.82851100000001"/><rtept lon="37.29432800000002" lat="55.82841900000001"/><rtept lon="37.29424000000002" lat="55.82837300000001"/><rtept lon="37.29393400000003" lat="55.82831500000001"/><rtept lon="37.29367700000003" lat="55.82819800000001"/><rtept lon="37.293656000000034" lat="55.82816200000001"/><rtept lon="37.293155000000034" lat="55.82820200000001"/><rtept lon="37.29305400000003" lat="55.82818000000001"/><rtept lon="37.29281200000003" lat="55.828114000000014"/><rtept lon="37.292446000000034" lat="55.828020000000016"/><rtept lon="37.292105000000035" lat="55.82792300000002"/><rtept lon="37.292060000000035" lat="55.827879000000024"/><rtept lon="37.29210900000003" lat="55.827825000000026"/><rtept lon="37.29212500000002" lat="55.827577000000026"/><rtept lon="37.29166000000002" lat="55.827682000000024"/><rtept lon="37.29154200000002" lat="55.827752000000025"/><rtept lon="37.29140700000002" lat="55.82790500000002"/><rtept lon="37.29136000000002" lat="55.827997000000025"/><rtept lon="37.29135200000002" lat="55.828067000000026"/><rtept lon="37.29139100000002" lat="55.828124000000024"/><rtept lon="37.291584000000014" lat="55.828200000000024"/><rtept lon="37.29269000000003" lat="55.828459000000024"/><rtept lon="37.292767000000026" lat="55.82846200000002"/><rtept lon="37.29292700000002" lat="55.828441000000026"/><rtept lon="37.29297800000002" lat="55.82844500000002"/><rtept lon="37.29372300000002" lat="55.82839200000002"/><rtept lon="37.29377300000002" lat="55.82840100000002"/><rtept lon="37.29421500000002" lat="55.828586000000016"/><rtept lon="37.29444500000002" lat="55.82851100000001"/><rtept lon="37.29449800000002" lat="55.828569000000016"/><rtept lon="37.29500700000001" lat="55.82879800000001"/><rtept lon="37.295037000000015" lat="55.828840000000014"/><rtept lon="37.29534500000001" lat="55.829355000000014"/><rtept lon="37.29545600000001" lat="55.829552000000014"/><rtept lon="37.29644300000001" lat="55.83001800000002"/><rtept lon="37.29565900000001" lat="55.830497000000015"/><rtept lon="37.295711000000004" lat="55.830531000000015"/><rtept lon="37.295597" lat="55.83061400000001"/><rtept lon="37.295481" lat="55.83072400000001"/><rtept lon="37.295369" lat="55.83084300000001"/><rtept lon="37.295291" lat="55.83111100000001"/><rtept lon="37.295272" lat="55.831295000000004"/><rtept lon="37.295207" lat="55.831652000000005"/><rtept lon="37.295147" lat="55.83195200000001"/><rtept lon="37.295132" lat="55.832049000000005"/><rtept lon="37.294954000000004" lat="55.83204100000001"/><rtept lon="37.29383800000001" lat="55.83204100000001"/><rtept lon="37.29347700000001" lat="55.83206700000001"/><rtept lon="37.29333600000001" lat="55.83209800000001"/><rtept lon="37.29329400000001" lat="55.83212800000001"/><rtept lon="37.29318200000001" lat="55.832242000000015"/><rtept lon="37.29227300000001" lat="55.83226000000001"/><rtept lon="37.29196500000001" lat="55.83226800000001"/><rtept lon="37.29201700000001" lat="55.83289400000001"/><rtept lon="37.291809000000015" lat="55.832954000000015"/><rtept lon="37.290410000000016" lat="55.832999000000015"/><rtept lon="37.28989600000002" lat="55.83295900000002"/><rtept lon="37.28984000000002" lat="55.83291900000002"/><rtept lon="37.28971400000002" lat="55.832883000000024"/><rtept lon="37.289600000000014" lat="55.83294600000002"/><rtept lon="37.289394000000016" lat="55.83302300000002"/><rtept lon="37.28918800000002" lat="55.83314400000002"/><rtept lon="37.288941000000015" lat="55.83326200000002"/><rtept lon="37.28839700000002" lat="55.83351500000002"/><rtept lon="37.28685100000001" lat="55.83426800000002"/><rtept lon="37.285719000000014" lat="55.834864000000024"/><rtept lon="37.285578000000015" lat="55.834934000000025"/><rtept lon="37.285488000000015" lat="55.83495300000003"/><rtept lon="37.28549800000002" lat="55.834990000000026"/><rtept lon="37.28529000000002" lat="55.83494200000003"/><rtept lon="37.28402800000002" lat="55.834579000000026"/><rtept lon="37.28408100000002" lat="55.834523000000026"/><rtept lon="37.28320300000002" lat="55.83428200000002"/><rtept lon="37.28247500000002" lat="55.83409100000002"/><rtept lon="37.28073400000002" lat="55.833589000000025"/><rtept lon="37.280692000000016" lat="55.833555000000025"/><rtept lon="37.28049900000001" lat="55.83271500000003"/><rtept lon="37.28027200000001" lat="55.832725000000025"/><rtept lon="37.280341000000014" lat="55.833051000000026"/><rtept lon="37.280439000000015" lat="55.833485000000024"/><rtept lon="37.28032800000001" lat="55.833485000000024"/><rtept lon="37.27912000000001" lat="55.833338000000026"/><rtept lon="37.279041000000014" lat="55.83332600000003"/><rtept lon="37.27885300000001" lat="55.83327200000003"/><rtept lon="37.27871800000001" lat="55.833248000000026"/><rtept lon="37.276646000000014" lat="55.83304700000003"/><rtept lon="37.275365000000015" lat="55.83294000000003"/><rtept lon="37.27475000000001" lat="55.83290300000003"/><rtept lon="37.27411100000002" lat="55.832846000000025"/><rtept lon="37.273889000000025" lat="55.832882000000026"/><rtept lon="37.27330800000003" lat="55.83283300000003"/><rtept lon="37.27286300000003" lat="55.83276800000003"/><rtept lon="37.27276000000003" lat="55.83276000000003"/><rtept lon="37.27127300000003" lat="55.83281900000003"/><rtept lon="37.26982700000003" lat="55.833110000000026"/><rtept lon="37.26950600000003" lat="55.83327300000003"/><rtept lon="37.26888700000003" lat="55.83348900000003"/><rtept lon="37.26741200000003" lat="55.834146000000025"/><rtept lon="37.26701500000003" lat="55.83433100000003"/><rtept lon="37.26582700000003" lat="55.83484800000003"/><rtept lon="37.26428700000003" lat="55.83545000000003"/><rtept lon="37.26243800000003" lat="55.83616500000003"/><rtept lon="37.26154900000003" lat="55.83651400000004"/><rtept lon="37.26042500000003" lat="55.836957000000034"/><rtept lon="37.258286000000034" lat="55.83779800000003"/><rtept lon="37.25650000000003" lat="55.83850200000003"/><rtept lon="37.256256000000036" lat="55.83858400000003"/><rtept lon="37.25563600000004" lat="55.83875700000003"/><rtept lon="37.25528400000004" lat="55.83880600000003"/><rtept lon="37.25477500000004" lat="55.83886100000003"/><rtept lon="37.254452000000036" lat="55.83888800000003"/><rtept lon="37.25363500000004" lat="55.838966000000035"/><rtept lon="37.25323800000004" lat="55.838986000000034"/><rtept lon="37.25291400000004" lat="55.83895300000003"/><rtept lon="37.25256900000004" lat="55.83899000000003"/><rtept lon="37.252522000000035" lat="55.83900700000003"/><rtept lon="37.25251700000003" lat="55.83903800000003"/><rtept lon="37.252421000000034" lat="55.83904700000003"/><rtept lon="37.252116000000036" lat="55.83829500000003"/><rtept lon="37.251967000000036" lat="55.83783200000003"/><rtept lon="37.25197100000004" lat="55.83768000000002"/><rtept lon="37.251842000000046" lat="55.837650000000025"/><rtept lon="37.251780000000046" lat="55.837625000000024"/><rtept lon="37.251679000000046" lat="55.837675000000026"/><rtept lon="37.251555000000046" lat="55.837712000000025"/><rtept lon="37.25141100000005" lat="55.837740000000025"/><rtept lon="37.250570000000046" lat="55.837870000000024"/><rtept lon="37.25039400000005" lat="55.837937000000025"/><rtept lon="37.250047000000045" lat="55.83796700000003"/><rtept lon="37.24881000000004" lat="55.83808800000003"/><rtept lon="37.24854600000004" lat="55.838092000000024"/><rtept lon="37.24788500000004" lat="55.838041000000025"/><rtept lon="37.24768800000004" lat="55.838030000000025"/><rtept lon="37.24621500000004" lat="55.83798400000003"/><rtept lon="37.24597800000004" lat="55.83798600000003"/><rtept lon="37.24441700000004" lat="55.83802000000003"/><rtept lon="37.24322200000004" lat="55.83803900000003"/><rtept lon="37.24149300000004" lat="55.83806000000003"/><rtept lon="37.24136700000004" lat="55.83813000000003"/><rtept lon="37.24129400000004" lat="55.838156000000026"/><rtept lon="37.24105400000004" lat="55.83819300000003"/><rtept lon="37.24092200000004" lat="55.83818800000003"/><rtept lon="37.24075700000004" lat="55.83815100000003"/><rtept lon="37.240674000000034" lat="55.838091000000034"/><rtept lon="37.23980900000004" lat="55.838122000000034"/><rtept lon="37.23934400000004" lat="55.838144000000035"/><rtept lon="37.238191000000036" lat="55.83816600000004"/><rtept lon="37.237949000000036" lat="55.838178000000035"/><rtept lon="37.237806000000035" lat="55.83819600000003"/><rtept lon="37.237691000000034" lat="55.838223000000035"/><rtept lon="37.23761100000004" lat="55.838254000000035"/><rtept lon="37.23748900000004" lat="55.83836900000003"/><rtept lon="37.237460000000034" lat="55.83844400000003"/><rtept lon="37.237448000000036" lat="55.83864100000003"/><rtept lon="37.237460000000034" lat="55.838845000000035"/><rtept lon="37.237505000000034" lat="55.83897300000003"/><rtept lon="37.23754900000003" lat="55.839062000000034"/><rtept lon="37.23766500000003" lat="55.839208000000035"/><rtept lon="37.23771600000003" lat="55.839315000000035"/><rtept lon="37.23771800000003" lat="55.83934800000004"/><rtept lon="37.23713300000003" lat="55.83934700000004"/><rtept lon="37.23423300000003" lat="55.83960000000004"/><rtept lon="37.231333000000035" lat="55.83985200000004"/><rtept lon="37.22843300000004" lat="55.840105000000044"/><rtept lon="37.22837100000004" lat="55.839843000000045"/><rtept lon="37.225710000000035" lat="55.840116000000044"/><rtept lon="37.22351000000003" lat="55.840352000000046"/><rtept lon="37.223335000000034" lat="55.840493000000045"/><rtept lon="37.22329500000003" lat="55.84051000000004"/><rtept lon="37.222266000000026" lat="55.84060600000004"/><rtept lon="37.221625000000024" lat="55.84065600000004"/><rtept lon="37.22153300000003" lat="55.84057500000004"/><rtept lon="37.22127200000003" lat="55.84061900000003"/><rtept lon="37.221289000000034" lat="55.84079300000003"/><rtept lon="37.21941000000003" lat="55.840964000000035"/><rtept lon="37.217267000000035" lat="55.84115400000004"/><rtept lon="37.21575700000004" lat="55.84128600000003"/><rtept lon="37.21523700000004" lat="55.841341000000035"/><rtept lon="37.21485400000004" lat="55.84139000000003"/><rtept lon="37.21442100000004" lat="55.841457000000034"/><rtept lon="37.21411100000004" lat="55.84151200000004"/><rtept lon="37.21366300000004" lat="55.841609000000034"/><rtept lon="37.21299200000004" lat="55.841763000000036"/><rtept lon="37.211919000000044" lat="55.84201600000004"/><rtept lon="37.211502000000046" lat="55.84211600000003"/><rtept lon="37.20858500000004" lat="55.84284200000003"/><rtept lon="37.20610400000004" lat="55.84344800000003"/><rtept lon="37.20561600000004" lat="55.843566000000024"/><rtept lon="37.20339600000004" lat="55.84409300000002"/><rtept lon="37.20305200000004" lat="55.84417600000002"/><rtept lon="37.201765000000044" lat="55.84448000000002"/><rtept lon="37.201405000000044" lat="55.84456400000002"/><rtept lon="37.20036500000004" lat="55.84481200000002"/><rtept lon="37.20018300000004" lat="55.84458700000002"/><rtept lon="37.20006500000004" lat="55.84442600000002"/><rtept lon="37.199948000000035" lat="55.84424700000002"/><rtept lon="37.19969400000004" lat="55.843916000000014"/><rtept lon="37.199635000000036" lat="55.84384900000001"/><rtept lon="37.199537000000035" lat="55.843769000000016"/><rtept lon="37.199433000000035" lat="55.843733000000014"/><rtept lon="37.19926500000003" lat="55.84372800000001"/><rtept lon="37.198921000000034" lat="55.84380700000001"/><rtept lon="37.19866800000003" lat="55.843828000000016"/><rtept lon="37.198611000000035" lat="55.843727000000015"/><rtept lon="37.19849700000003" lat="55.843654000000015"/><rtept lon="37.198333000000034" lat="55.84347000000002"/><rtept lon="37.19824300000003" lat="55.84333700000002"/><rtept lon="37.198121000000036" lat="55.84318600000002"/><rtept lon="37.19780700000003" lat="55.842810000000014"/><rtept lon="37.19771700000003" lat="55.84268500000002"/><rtept lon="37.19707900000003" lat="55.84275000000002"/><rtept lon="37.19703800000003" lat="55.842745000000015"/><rtept lon="37.196884000000026" lat="55.842694000000016"/><rtept lon="37.19632200000002" lat="55.84281900000001"/><rtept lon="37.196161000000025" lat="55.84260000000001"/><rtept lon="37.19466800000003" lat="55.84290100000001"/><rtept lon="37.19414700000003" lat="55.843010000000014"/><rtept lon="37.19384800000003" lat="55.843085000000016"/><rtept lon="37.191646000000034" lat="55.84358000000002"/><rtept lon="37.191114000000034" lat="55.84370300000002"/><rtept lon="37.189695000000036" lat="55.84408900000002"/><rtept lon="37.18955400000004" lat="55.84413000000002"/><rtept lon="37.188851000000035" lat="55.84321100000002"/><rtept lon="37.18845600000004" lat="55.84268900000002"/><rtept lon="37.18785000000004" lat="55.841883000000024"/><rtept lon="37.18661300000004" lat="55.842147000000026"/><rtept lon="37.18603000000004" lat="55.842285000000025"/><rtept lon="37.186000000000035" lat="55.842246000000024"/><rtept lon="37.185890000000036" lat="55.842201000000024"/><rtept lon="37.18584600000003" lat="55.842204000000024"/><rtept lon="37.18540000000004" lat="55.84230900000002"/><rtept lon="37.18524800000004" lat="55.84208700000002"/><rtept lon="37.185150000000036" lat="55.84206200000002"/><rtept lon="37.18471500000004" lat="55.84215200000001"/><rtept lon="37.18463000000004" lat="55.84213900000002"/><rtept lon="37.184582000000034" lat="55.84208500000002"/><rtept lon="37.184590000000036" lat="55.84206600000002"/><rtept lon="37.18533800000004" lat="55.84189500000002"/><rtept lon="37.18535700000003" lat="55.84187800000002"/><rtept lon="37.18503000000003" lat="55.84144000000001"/><rtept lon="37.18486500000003" lat="55.84122700000001"/><rtept lon="37.18482600000003" lat="55.84120100000001"/><rtept lon="37.18476500000003" lat="55.84120400000001"/><rtept lon="37.184171000000035" lat="55.84133700000001"/><rtept lon="37.184140000000035" lat="55.84129400000001"/><rtept lon="37.184571000000034" lat="55.84120100000001"/><rtept lon="37.18455300000004" lat="55.841180000000016"/><rtept lon="37.18404900000004" lat="55.841290000000015"/><rtept lon="37.18393800000003" lat="55.841310000000014"/><rtept lon="37.183715000000035" lat="55.84132700000001"/><rtept lon="37.18343400000004" lat="55.841323"/><rtept lon="37.18319900000004" lat="55.841301"/><rtept lon="37.18277700000004" lat="55.841244"/><rtept lon="37.182690000000036" lat="55.841448"/><rtept lon="37.182274000000035" lat="55.841384"/><rtept lon="37.18221100000003" lat="55.841362"/><rtept lon="37.18213300000003" lat="55.841313"/><rtept lon="37.18129300000003" lat="55.841107"/><rtept lon="37.18128200000003" lat="55.841092"/><rtept lon="37.18024200000003" lat="55.84096400000001"/><rtept lon="37.18005800000003" lat="55.84096900000001"/><rtept lon="37.179569000000036" lat="55.840903000000004"/><rtept lon="37.17912100000004" lat="55.840835000000006"/><rtept lon="37.17879600000004" lat="55.840773000000006"/><rtept lon="37.17787300000004" lat="55.84063400000001"/><rtept lon="37.17770200000004" lat="55.84062300000001"/><rtept lon="37.17662700000004" lat="55.840613000000005"/><rtept lon="37.17584700000004" lat="55.840619000000004"/><rtept lon="37.17531800000004" lat="55.840617"/><rtept lon="37.17291000000004" lat="55.840611"/><rtept lon="37.172356000000036" lat="55.840614"/><rtept lon="37.172264000000034" lat="55.840592"/><rtept lon="37.171613000000036" lat="55.840593000000005"/><rtept lon="37.17151700000004" lat="55.840618000000006"/><rtept lon="37.170963000000036" lat="55.840618000000006"/><rtept lon="37.169016000000035" lat="55.84061200000001"/><rtept lon="37.168324000000034" lat="55.84063400000001"/><rtept lon="37.16799400000003" lat="55.84061900000001"/><rtept lon="37.167697000000025" lat="55.84061600000001"/><rtept lon="37.16740000000002" lat="55.84062700000001"/><rtept lon="37.16716300000002" lat="55.84064800000001"/><rtept lon="37.166639000000025" lat="55.84073200000001"/><rtept lon="37.16657900000002" lat="55.840632000000014"/><rtept lon="37.166361000000016" lat="55.84067100000001"/><rtept lon="37.16621400000001" lat="55.84067700000001"/><rtept lon="37.16609900000001" lat="55.840663000000006"/><rtept lon="37.16599700000001" lat="55.84063000000001"/><rtept lon="37.16559400000001" lat="55.84045100000001"/><rtept lon="37.16473000000001" lat="55.83998700000001"/><rtept lon="37.16470800000001" lat="55.84000000000001"/><rtept lon="37.164144000000015" lat="55.83971200000001"/><rtept lon="37.16412600000001" lat="55.83972700000001"/><rtept lon="37.164508000000005" lat="55.83992600000001"/><rtept lon="37.16431600000001" lat="55.84004000000001"/><rtept lon="37.16393400000001" lat="55.83983700000001"/><rtept lon="37.16391400000001" lat="55.83985000000001"/><rtept lon="37.164141000000015" lat="55.83997100000001"/><rtept lon="37.16412900000001" lat="55.83999400000001"/><rtept lon="37.16372600000001" lat="55.83978000000001"/><rtept lon="37.16370100000002" lat="55.839855000000014"/><rtept lon="37.16364000000002" lat="55.839863000000015"/><rtept lon="37.16359300000002" lat="55.83984200000001"/><rtept lon="37.16361200000002" lat="55.839793000000014"/><rtept lon="37.16307700000002" lat="55.839765000000014"/><rtept lon="37.16291300000002" lat="55.83977800000001"/><rtept lon="37.16264400000002" lat="55.83984200000001"/><rtept lon="37.16205400000002" lat="55.840007000000014"/><rtept lon="37.16107500000002" lat="55.84023000000001"/><rtept lon="37.16047800000002" lat="55.84030300000001"/><rtept lon="37.16009000000002" lat="55.84032600000001"/><rtept lon="37.15892900000002" lat="55.840226000000015"/><rtept lon="37.15872600000002" lat="55.84034500000001"/><rtept lon="37.15815800000002" lat="55.84000500000001"/><rtept lon="37.15780900000002" lat="55.83980800000001"/><rtept lon="37.157670000000024" lat="55.839720000000014"/><rtept lon="37.157113000000024" lat="55.83942200000001"/><rtept lon="37.156868000000024" lat="55.839548000000015"/><rtept lon="37.156490000000026" lat="55.83971600000002"/><rtept lon="37.15547000000003" lat="55.839092000000015"/><rtept lon="37.15407800000003" lat="55.838205000000016"/><rtept lon="37.154028000000025" lat="55.838149000000016"/><rtept lon="37.154017000000024" lat="55.83810600000002"/><rtept lon="37.15385800000003" lat="55.83804000000002"/><rtept lon="37.152894000000025" lat="55.83793400000002"/><rtept lon="37.15277400000002" lat="55.83790300000002"/><rtept lon="37.15272000000002" lat="55.83787000000002"/><rtept lon="37.152387000000026" lat="55.83757300000001"/><rtept lon="37.152058000000025" lat="55.83757300000001"/><rtept lon="37.151960000000024" lat="55.83764100000001"/><rtept lon="37.15119300000003" lat="55.83763000000001"/><rtept lon="37.15113300000003" lat="55.83761600000002"/><rtept lon="37.14968000000003" lat="55.83733600000002"/><rtept lon="37.149648000000035" lat="55.83733400000002"/><rtept lon="37.14973600000003" lat="55.83696300000002"/><rtept lon="37.14992300000003" lat="55.83619700000002"/><rtept lon="37.15002900000003" lat="55.83573700000002"/><rtept lon="37.15010800000003" lat="55.83560300000003"/><rtept lon="37.150183000000034" lat="55.83554000000003"/><rtept lon="37.150371000000035" lat="55.83545300000003"/><rtept lon="37.15098100000004" lat="55.83528700000003"/><rtept lon="37.15097200000004" lat="55.835240000000034"/><rtept lon="37.15210900000004" lat="55.834941000000036"/><rtept lon="37.15247200000004" lat="55.834854000000036"/><rtept lon="37.15405300000004" lat="55.83450400000004"/><rtept lon="37.15426500000004" lat="55.83445500000004"/><rtept lon="37.15447800000004" lat="55.834361000000044"/><rtept lon="37.15452600000004" lat="55.83430500000004"/><rtept lon="37.15440100000004" lat="55.834290000000045"/><rtept lon="37.154339000000036" lat="55.83426000000004"/><rtept lon="37.15422000000004" lat="55.83405600000005"/><rtept lon="37.154077000000036" lat="55.83379700000005"/><rtept lon="37.154016000000034" lat="55.83372800000004"/><rtept lon="37.15419500000004" lat="55.83368600000004"/><rtept lon="37.15423700000004" lat="55.833663000000044"/><rtept lon="37.154294000000036" lat="55.83357700000005"/><rtept lon="37.154224000000035" lat="55.83312600000005"/><rtept lon="37.15414000000004" lat="55.83296300000005"/><rtept lon="37.15373700000004" lat="55.83261900000005"/><rtept lon="37.153854000000045" lat="55.83257700000005"/><rtept lon="37.153671000000045" lat="55.83242500000005"/><rtept lon="37.15215300000005" lat="55.83118700000005"/><rtept lon="37.15178100000005" lat="55.83087300000005"/><rtept lon="37.15140400000005" lat="55.83056200000004"/><rtept lon="37.15108100000005" lat="55.830283000000044"/><rtept lon="37.15085600000004" lat="55.830105000000046"/><rtept lon="37.15070900000004" lat="55.830024000000044"/><rtept lon="37.15054600000004" lat="55.82997200000004"/><rtept lon="37.15045400000004" lat="55.82995400000004"/><rtept lon="37.15050400000004" lat="55.82987900000004"/><rtept lon="37.15050800000004" lat="55.82967200000004"/><rtept lon="37.15049600000004" lat="55.82965200000004"/><rtept lon="37.14992400000004" lat="55.82913700000004"/><rtept lon="37.14959800000004" lat="55.82881600000004"/><rtept lon="37.14956100000004" lat="55.828789000000036"/><rtept lon="37.14889400000004" lat="55.828393000000034"/><rtept lon="37.14884100000004" lat="55.828379000000034"/><rtept lon="37.148696000000044" lat="55.82838500000003"/><rtept lon="37.148279000000045" lat="55.828564000000036"/><rtept lon="37.14797700000005" lat="55.82871000000004"/><rtept lon="37.147770000000044" lat="55.82883100000004"/><rtept lon="37.14768300000004" lat="55.82887300000004"/><rtept lon="37.14712700000004" lat="55.82919100000004"/><rtept lon="37.14563200000004" lat="55.829802000000036"/><rtept lon="37.14536300000004" lat="55.829918000000035"/><rtept lon="37.14515800000004" lat="55.82974700000004"/><rtept lon="37.144969000000046" lat="55.82963900000004"/><rtept lon="37.14472100000005" lat="55.829557000000044"/><rtept lon="37.14456200000005" lat="55.82952500000005"/><rtept lon="37.14430100000005" lat="55.829483000000046"/><rtept lon="37.14398000000005" lat="55.82943900000004"/><rtept lon="37.142993000000054" lat="55.82929600000004"/><rtept lon="37.142992000000056" lat="55.82918100000004"/><rtept lon="37.14294600000006" lat="55.828857000000035"/><rtept lon="37.14291800000006" lat="55.82846400000003"/><rtept lon="37.142913000000064" lat="55.828204000000035"/><rtept lon="37.142907000000065" lat="55.82746200000003"/><rtept lon="37.14291900000006" lat="55.82735900000003"/><rtept lon="37.14294000000007" lat="55.82729600000003"/><rtept lon="37.14300600000007" lat="55.82719000000004"/><rtept lon="37.14312800000007" lat="55.82703200000004"/><rtept lon="37.14298900000007" lat="55.82699200000004"/><rtept lon="37.14227900000007" lat="55.82682100000004"/><rtept lon="37.14106700000007" lat="55.82651900000004"/><rtept lon="37.14055900000007" lat="55.82639800000004"/><rtept lon="37.13975400000007" lat="55.82620000000004"/><rtept lon="37.13852600000007" lat="55.82589700000004"/><rtept lon="37.138429000000066" lat="55.825977000000044"/><rtept lon="37.13762300000007" lat="55.82577900000005"/><rtept lon="37.13757000000007" lat="55.82584600000005"/><rtept lon="37.137495000000065" lat="55.825873000000044"/><rtept lon="37.13743100000006" lat="55.825861000000046"/><rtept lon="37.13735000000006" lat="55.825965000000046"/><rtept lon="37.13712700000006" lat="55.82591100000005"/><rtept lon="37.137109000000066" lat="55.825937000000046"/><rtept lon="37.13686100000007" lat="55.826002000000045"/><rtept lon="37.13670000000007" lat="55.826019000000045"/><rtept lon="37.13651500000007" lat="55.825982000000046"/><rtept lon="37.134123000000066" lat="55.82551300000004"/><rtept lon="37.13283300000007" lat="55.825285000000044"/><rtept lon="37.13260300000007" lat="55.82524300000004"/><rtept lon="37.13239100000007" lat="55.82521600000004"/><rtept lon="37.13217600000007" lat="55.82519500000004"/><rtept lon="37.130779000000075" lat="55.82513400000004"/><rtept lon="37.12955100000008" lat="55.825113000000044"/><rtept lon="37.12763100000008" lat="55.82511500000005"/><rtept lon="37.12611500000008" lat="55.825132000000046"/><rtept lon="37.125286000000074" lat="55.825088000000044"/><rtept lon="37.12499700000007" lat="55.825059000000046"/><rtept lon="37.12413700000007" lat="55.82493200000005"/><rtept lon="37.12337600000007" lat="55.82479300000005"/><rtept lon="37.12321800000007" lat="55.82475700000005"/><rtept lon="37.12318700000007" lat="55.82471400000005"/><rtept lon="37.12314600000007" lat="55.82459500000005"/><rtept lon="37.12291600000006" lat="55.82466600000005"/><rtept lon="37.12243100000006" lat="55.82452100000005"/><rtept lon="37.12231600000006" lat="55.82448300000004"/><rtept lon="37.121890000000064" lat="55.82443000000004"/><rtept lon="37.12079100000006" lat="55.82411900000004"/><rtept lon="37.12000000000006" lat="55.82386200000004"/><rtept lon="37.11983800000006" lat="55.82380700000004"/><rtept lon="37.11968200000006" lat="55.82382700000004"/><rtept lon="37.11915900000006" lat="55.823656000000035"/><rtept lon="37.11869200000006" lat="55.82349700000004"/><rtept lon="37.11821900000006" lat="55.823321000000035"/><rtept lon="37.11788800000006" lat="55.82317600000003"/><rtept lon="37.11751800000006" lat="55.82299400000004"/><rtept lon="37.11741500000006" lat="55.823040000000034"/><rtept lon="37.11727700000006" lat="55.82306700000003"/><rtept lon="37.11714700000006" lat="55.82306700000003"/><rtept lon="37.11707700000006" lat="55.82305500000003"/><rtept lon="37.11683500000006" lat="55.82298200000003"/><rtept lon="37.11667400000006" lat="55.82294000000003"/><rtept lon="37.11519400000006" lat="55.82246400000003"/><rtept lon="37.11403600000006" lat="55.82209900000003"/><rtept lon="37.11294400000006" lat="55.82174400000003"/><rtept lon="37.11271200000006" lat="55.82166400000003"/><rtept lon="37.11245300000006" lat="55.821552000000025"/><rtept lon="37.11230900000006" lat="55.821473000000026"/><rtept lon="37.11177100000006" lat="55.82113100000002"/><rtept lon="37.11126800000006" lat="55.82080500000002"/><rtept lon="37.11066800000006" lat="55.820407000000024"/><rtept lon="37.10899600000006" lat="55.819301000000024"/><rtept lon="37.108753000000064" lat="55.81914200000003"/><rtept lon="37.10783600000006" lat="55.81855300000003"/><rtept lon="37.107106000000066" lat="55.81812300000003"/><rtept lon="37.10659800000006" lat="55.81783600000003"/><rtept lon="37.105874000000064" lat="55.81743100000003"/><rtept lon="37.10572600000006" lat="55.817353000000026"/><rtept lon="37.10541300000006" lat="55.817173000000025"/><rtept lon="37.104970000000066" lat="55.81693300000003"/><rtept lon="37.10410400000006" lat="55.816444000000025"/><rtept lon="37.103670000000065" lat="55.816211000000024"/><rtept lon="37.103335000000065" lat="55.81601500000002"/><rtept lon="37.10320400000006" lat="55.81592700000002"/><rtept lon="37.10308000000006" lat="55.815831000000024"/><rtept lon="37.103009000000064" lat="55.815758000000024"/><rtept lon="37.10288800000006" lat="55.815580000000026"/><rtept lon="37.10259500000006" lat="55.81495600000002"/><rtept lon="37.10240400000006" lat="55.814564000000026"/><rtept lon="37.10215300000006" lat="55.81408900000003"/><rtept lon="37.10167700000006" lat="55.81413800000003"/><rtept lon="37.10154700000006" lat="55.81415500000003"/><rtept lon="37.09982500000006" lat="55.81440200000003"/><rtept lon="37.097941000000056" lat="55.814671000000025"/><rtept lon="37.09721100000005" lat="55.81475400000002"/><rtept lon="37.096467000000054" lat="55.81482000000002"/><rtept lon="37.09594400000005" lat="55.81485000000002"/><rtept lon="37.09557300000005" lat="55.814880000000024"/><rtept lon="37.095071000000054" lat="55.81491100000002"/><rtept lon="37.094820000000055" lat="55.814941000000026"/><rtept lon="37.093621000000056" lat="55.81510900000003"/><rtept lon="37.09331600000006" lat="55.815141000000025"/><rtept lon="37.09299600000006" lat="55.81518700000002"/><rtept lon="37.09280200000006" lat="55.81519000000002"/><rtept lon="37.092658000000064" lat="55.81517500000002"/><rtept lon="37.09220300000007" lat="55.81511300000002"/><rtept lon="37.09185900000007" lat="55.81507100000002"/><rtept lon="37.09159100000007" lat="55.815061000000014"/><rtept lon="37.09136400000007" lat="55.81507400000002"/><rtept lon="37.09119000000007" lat="55.815032000000016"/><rtept lon="37.09108000000006" lat="55.814981000000024"/><rtept lon="37.09099000000006" lat="55.81492300000002"/><rtept lon="37.09083500000006" lat="55.81468400000002"/><rtept lon="37.09080100000006" lat="55.81464600000002"/><rtept lon="37.090477000000064" lat="55.814422000000015"/><rtept lon="37.09032400000007" lat="55.81433300000001"/><rtept lon="37.090234000000066" lat="55.81432200000001"/><rtept lon="37.089871000000066" lat="55.81425000000001"/><rtept lon="37.08940900000007" lat="55.81417900000001"/><rtept lon="37.089303000000065" lat="55.81416800000001"/><rtept lon="37.08913300000007" lat="55.81419000000001"/><rtept lon="37.08903000000007" lat="55.81423500000001"/><rtept lon="37.088914000000074" lat="55.81419300000002"/><rtept lon="37.08877100000007" lat="55.81419200000002"/><rtept lon="37.088731000000074" lat="55.81416800000002"/><rtept lon="37.08871300000007" lat="55.81409800000003"/><rtept lon="37.08801500000007" lat="55.81415200000003"/><rtept lon="37.08800300000007" lat="55.814083000000025"/><rtept lon="37.087906000000075" lat="55.81408700000002"/><rtept lon="37.08787600000007" lat="55.81396200000002"/><rtept lon="37.08775800000007" lat="55.81397300000002"/><rtept lon="37.08764200000007" lat="55.813707000000015"/><rtept lon="37.08769100000007" lat="55.813641000000025"/><rtept lon="37.08759200000007" lat="55.813475000000025"/><rtept lon="37.08718700000007" lat="55.81326000000003"/><rtept lon="37.08672100000007" lat="55.81302000000003"/><rtept lon="37.08671800000007" lat="55.81297100000003"/><rtept lon="37.08663100000007" lat="55.81291600000003"/><rtept lon="37.08648400000007" lat="55.81262700000003"/><rtept lon="37.08656200000007" lat="55.81261000000003"/><rtept lon="37.08643000000007" lat="55.81242400000003"/><rtept lon="37.08648900000007" lat="55.81239800000003"/><rtept lon="37.08629700000007" lat="55.81212100000003"/><rtept lon="37.08609300000007" lat="55.81187400000003"/><rtept lon="37.08565700000007" lat="55.811293000000035"/><rtept lon="37.08548800000007" lat="55.81107200000003"/><rtept lon="37.08517800000007" lat="55.810691000000034"/><rtept lon="37.08482100000007" lat="55.81027500000003"/><rtept lon="37.08422200000007" lat="55.809672000000035"/><rtept lon="37.08311200000007" lat="55.808608000000035"/><rtept lon="37.08196000000007" lat="55.807499000000035"/><rtept lon="37.081593000000076" lat="55.807156000000035"/><rtept lon="37.08130800000008" lat="55.80688200000004"/><rtept lon="37.08124100000008" lat="55.80684000000004"/><rtept lon="37.081244000000076" lat="55.806767000000036"/><rtept lon="37.08137200000007" lat="55.80623500000004"/><rtept lon="37.081360000000075" lat="55.80611300000004"/><rtept lon="37.081200000000074" lat="55.80559600000004"/><rtept lon="37.08134800000008" lat="55.80558400000004"/><rtept lon="37.08106000000008" lat="55.80481000000004"/><rtept lon="37.08067100000008" lat="55.80368300000004"/><rtept lon="37.08043400000008" lat="55.80300800000004"/><rtept lon="37.08037500000008" lat="55.80287800000004"/><rtept lon="37.08028800000008" lat="55.802759000000044"/><rtept lon="37.079966000000084" lat="55.802475000000044"/><rtept lon="37.07921500000008" lat="55.80193800000004"/><rtept lon="37.077979000000084" lat="55.80111300000004"/><rtept lon="37.07651400000008" lat="55.80009500000004"/><rtept lon="37.07642600000008" lat="55.80007200000004"/><rtept lon="37.07635600000008" lat="55.80008700000004"/><rtept lon="37.07614000000008" lat="55.79993600000004"/><rtept lon="37.075758" lat="55.799734"/><rtept lon="37.075022" lat="55.799225"/><rtept lon="37.073685999999995" lat="55.798364"/><rtept lon="37.07211099999999" lat="55.797363"/><rtept lon="37.07103999999999" lat="55.79665"/><rtept lon="37.069968999999986" lat="55.795935"/><rtept lon="37.06939599999998" lat="55.795499"/><rtept lon="37.069239999999986" lat="55.795371"/><rtept lon="37.06916599999999" lat="55.795278"/><rtept lon="37.06899299999999" lat="55.795094"/><rtept lon="37.068386999999994" lat="55.7952"/><rtept lon="37.068369999999994" lat="55.79514"/><rtept lon="37.068420999999994" lat="55.794990999999996"/><rtept lon="37.06838299999999" lat="55.794957999999994"/><rtept lon="37.06830799999999" lat="55.79494699999999"/><rtept lon="37.06809999999999" lat="55.79483199999999"/><rtept lon="37.06799199999999" lat="55.794757999999995"/><rtept lon="37.06775599999999" lat="55.794529"/><rtept lon="37.06769899999998" lat="55.79446"/><rtept lon="37.067669999999985" lat="55.794352"/><rtept lon="37.06756099999999" lat="55.794262"/><rtept lon="37.06752399999999" lat="55.794185000000006"/><rtept lon="37.06741499999999" lat="55.794121000000004"/><rtept lon="37.06738599999999" lat="55.794081000000006"/><rtept lon="37.06739399999999" lat="55.79402"/><rtept lon="37.06743699999999" lat="55.793935000000005"/><rtept lon="37.06743999999999" lat="55.793885"/><rtept lon="37.06735399999999" lat="55.793835"/><rtept lon="37.067267999999984" lat="55.793754"/><rtept lon="37.06673099999999" lat="55.793574"/><rtept lon="37.06661499999999" lat="55.793558999999995"/><rtept lon="37.06631099999999" lat="55.793642"/><rtept lon="37.06603199999999" lat="55.793684999999996"/><rtept lon="37.06577899999999" lat="55.793704"/><rtept lon="37.06551199999999" lat="55.7937"/><rtept lon="37.06522699999999" lat="55.793672"/><rtept lon="37.065070999999996" lat="55.793669"/><rtept lon="37.064966999999996" lat="55.793688"/><rtept lon="37.064201" lat="55.793933"/><rtept lon="37.064040000000006" lat="55.793996"/><rtept lon="37.06390100000001" lat="55.794144"/><rtept lon="37.063826000000006" lat="55.794256000000004"/><rtept lon="37.063756000000005" lat="55.79444800000001"/><rtept lon="37.063626000000006" lat="55.794539000000015"/><rtept lon="37.06356000000001" lat="55.794626000000015"/><rtept lon="37.06353100000001" lat="55.794725000000014"/><rtept lon="37.06348600000001" lat="55.79482700000001"/><rtept lon="37.06345800000001" lat="55.794933000000015"/><rtept lon="37.06346500000001" lat="55.79515400000002"/><rtept lon="37.063393000000005" lat="55.79525600000002"/><rtept lon="37.063384000000006" lat="55.79532100000002"/><rtept lon="37.063430000000004" lat="55.79548900000002"/><rtept lon="37.063421000000005" lat="55.795538000000015"/><rtept lon="37.06337500000001" lat="55.795622000000016"/><rtept lon="37.06327100000001" lat="55.79574500000002"/><rtept lon="37.063156000000006" lat="55.79585900000002"/><rtept lon="37.063010000000006" lat="55.796046000000025"/><rtept lon="37.062969" lat="55.79611000000002"/><rtept lon="37.062978" lat="55.79617500000002"/><rtept lon="37.063018" lat="55.79622300000002"/><rtept lon="37.063308" lat="55.79639700000002"/><rtept lon="37.063375" lat="55.79646500000002"/><rtept lon="37.063404000000006" lat="55.79662300000002"/><rtept lon="37.06343400000001" lat="55.79668800000002"/><rtept lon="37.06353300000001" lat="55.79678000000002"/><rtept lon="37.063402" lat="55.79686200000003"/><rtept lon="37.063337" lat="55.79706000000004"/><rtept lon="37.063297999999996" lat="55.79710100000004"/><rtept lon="37.063222999999994" lat="55.79714000000004"/><rtept lon="37.06306099999999" lat="55.79717600000004"/><rtept lon="37.06256799999999" lat="55.79725000000004"/><rtept lon="37.06245199999999" lat="55.797276000000046"/><rtept lon="37.062405999999996" lat="55.797305000000044"/><rtept lon="37.062369" lat="55.797358000000045"/><rtept lon="37.062232" lat="55.79746600000004"/><rtept lon="37.061997" lat="55.797595000000044"/><rtept lon="37.061952999999995" lat="55.79764600000004"/><rtept lon="37.06195099999999" lat="55.79769800000004"/><rtept lon="37.06198199999999" lat="55.79779600000004"/><rtept lon="37.06198299999999" lat="55.79790100000004"/><rtept lon="37.06195799999999" lat="55.79801600000004"/><rtept lon="37.06196899999999" lat="55.79812000000004"/><rtept lon="37.06203399999999" lat="55.798172000000044"/><rtept lon="37.06225099999999" lat="55.79817900000004"/><rtept lon="37.06235299999999" lat="55.79819600000004"/><rtept lon="37.06244999999999" lat="55.79824900000004"/><rtept lon="37.06245199999999" lat="55.79828300000004"/><rtept lon="37.062239999999996" lat="55.79849800000004"/><rtept lon="37.062208" lat="55.798544000000035"/><rtept lon="37.062213" lat="55.79858800000004"/><rtept lon="37.062312" lat="55.798702000000034"/><rtept lon="37.062345" lat="55.79875900000003"/><rtept lon="37.062356" lat="55.79895600000003"/><rtept lon="37.062375" lat="55.79899800000003"/><rtept lon="37.062470000000005" lat="55.799063000000025"/><rtept lon="37.06257300000001" lat="55.799052000000025"/><rtept lon="37.06273100000001" lat="55.798995000000026"/><rtept lon="37.06280900000001" lat="55.79897800000003"/><rtept lon="37.06293500000001" lat="55.798981000000026"/><rtept lon="37.06304700000001" lat="55.79902500000003"/><rtept lon="37.06327500000001" lat="55.79914900000003"/><rtept lon="37.06346900000001" lat="55.79926700000003"/><rtept lon="37.06362400000001" lat="55.79934000000003"/><rtept lon="37.06372100000001" lat="55.79936800000003"/><rtept lon="37.06384100000001" lat="55.79938300000003"/><rtept lon="37.06436400000001" lat="55.79938300000003"/><rtept lon="37.06462700000001" lat="55.79934100000003"/><rtept lon="37.06492500000001" lat="55.79931000000003"/><rtept lon="37.06519000000001" lat="55.79925100000003"/><rtept lon="37.06544200000001" lat="55.799128000000024"/><rtept lon="37.066051000000016" lat="55.79890400000003"/><rtept lon="37.06651500000002" lat="55.798725000000026"/><rtept lon="37.06682900000002" lat="55.798576000000025"/><rtept lon="37.06712500000002" lat="55.79839200000003"/><rtept lon="37.06757800000002" lat="55.79817300000003"/><rtept lon="37.067661000000015" lat="55.798146000000024"/><rtept lon="37.06787300000001" lat="55.79811300000002"/><rtept lon="37.06818100000001" lat="55.79801700000002"/><rtept lon="37.06852700000001" lat="55.797901000000024"/><rtept lon="37.06871500000001" lat="55.79785100000002"/><rtept lon="37.068905000000015" lat="55.797819000000025"/><rtept lon="37.06919300000001" lat="55.79779600000003"/><rtept lon="37.069747000000014" lat="55.797757000000026"/><rtept lon="37.070110000000014" lat="55.797735000000024"/><rtept lon="37.070453000000015" lat="55.797724000000024"/><rtept lon="37.070568000000016" lat="55.797701000000025"/><rtept lon="37.07072700000001" lat="55.79762700000003"/><rtept lon="37.070836000000014" lat="55.797535000000025"/><rtept lon="37.071007000000016" lat="55.79732700000003"/><rtept lon="37.07102600000002" lat="55.79731300000003"/><rtept lon="37.07147000000001" lat="55.797081000000034"/><rtept lon="37.07142500000001" lat="55.79704600000004"/><rtept lon="37.070521000000014" lat="55.796462000000034"/><rtept lon="37.07046000000001" lat="55.796442000000035"/><rtept lon="37.07018500000001" lat="55.79639200000003"/><rtept lon="37.07003500000001" lat="55.79634700000003"/><rtept lon="37.06994700000001" lat="55.79630200000003"/><rtept lon="37.06983500000001" lat="55.796220000000034"/><rtept lon="37.06970300000001" lat="55.796155000000034"/><rtept lon="37.06939200000001" lat="55.796025000000036"/><rtept lon="37.06914200000001" lat="55.79592600000004"/><rtept lon="37.068971000000005" lat="55.795828000000036"/><rtept lon="37.06875900000001" lat="55.79572200000003"/><rtept lon="37.068574000000005" lat="55.79565200000003"/><rtept lon="37.06853400000001" lat="55.79562700000003"/><rtept lon="37.06851300000001" lat="55.79554100000003"/><rtept lon="37.06850900000001" lat="55.79542300000003"/><rtept lon="37.06845600000001" lat="55.79531900000003"/><rtept lon="37.06840000000001" lat="55.79524600000003"/><rtept lon="37.06838700000001" lat="55.79520000000003"/><rtept lon="37.068993000000006" lat="55.79509400000003"/><rtept lon="37.06771200000001" lat="55.793733000000024"/><rtept lon="37.06704700000001" lat="55.79295200000002"/><rtept lon="37.06677300000001" lat="55.79304500000002"/><rtept lon="37.06659100000001" lat="55.79305000000002"/><rtept lon="37.06645000000001" lat="55.79307400000002"/><rtept lon="37.06628000000001" lat="55.79316200000002"/><rtept lon="37.06615900000001" lat="55.793171000000015"/><rtept lon="37.066009000000015" lat="55.793196000000016"/><rtept lon="37.06583400000002" lat="55.79314900000001"/><rtept lon="37.06502200000001" lat="55.79314800000001"/><rtept lon="37.064785000000015" lat="55.793132000000014"/><rtept lon="37.06439000000002" lat="55.79314400000001"/><rtept lon="37.06419300000002" lat="55.79314200000001"/><rtept lon="37.06408200000001" lat="55.79317000000001"/><rtept lon="37.063867000000016" lat="55.79329600000001"/><rtept lon="37.063811000000015" lat="55.79337000000001"/><rtept lon="37.063730000000014" lat="55.79350500000001"/><rtept lon="37.06371200000001" lat="55.793650000000014"/><rtept lon="37.06366900000001" lat="55.79369300000001"/><rtept lon="37.06350100000001" lat="55.793790000000016"/><rtept lon="37.06345300000001" lat="55.79386200000002"/><rtept lon="37.06342600000001" lat="55.79398500000002"/><rtept lon="37.06340000000001" lat="55.79401700000002"/><rtept lon="37.06322600000001" lat="55.79408400000002"/><rtept lon="37.063106000000005" lat="55.79414400000002"/><rtept lon="37.06302900000001" lat="55.794215000000015"/><rtept lon="37.06297300000001" lat="55.79428900000002"/><rtept lon="37.06291000000001" lat="55.79433200000002"/><rtept lon="37.06286200000001" lat="55.79440700000002"/><rtept lon="37.06282900000001" lat="55.79455600000002"/><rtept lon="37.06279500000001" lat="55.79460200000002"/><rtept lon="37.062560000000005" lat="55.79479100000002"/><rtept lon="37.062444000000006" lat="55.79485600000002"/><rtept lon="37.06225700000001" lat="55.794916000000015"/><rtept lon="37.06210600000001" lat="55.79497400000002"/><rtept lon="37.06200400000001" lat="55.79503200000002"/><rtept lon="37.06181500000001" lat="55.79523200000002"/><rtept lon="37.06180800000001" lat="55.79531100000002"/><rtept lon="37.06193900000002" lat="55.79545900000002"/><rtept lon="37.06204500000002" lat="55.79560400000002"/><rtept lon="37.062094000000016" lat="55.79565400000002"/><rtept lon="37.062162000000015" lat="55.79569600000002"/><rtept lon="37.06224500000001" lat="55.79583000000002"/><rtept lon="37.06229300000001" lat="55.795862000000014"/><rtept lon="37.06241100000001" lat="55.79591100000001"/><rtept lon="37.06257800000001" lat="55.79603700000001"/><rtept lon="37.06269100000001" lat="55.796143000000015"/><rtept lon="37.062777000000004" lat="55.796160000000015"/><rtept lon="37.06297000000001" lat="55.79615600000002"/><rtept lon="37.06301800000001" lat="55.79622300000002"/><rtept lon="37.063308000000006" lat="55.79639700000002"/><rtept lon="37.06337500000001" lat="55.79646500000002"/><rtept lon="37.06340400000001" lat="55.79662300000002"/><rtept lon="37.063434000000015" lat="55.79668800000002"/><rtept lon="37.063533000000014" lat="55.79678000000002"/><rtept lon="37.063715000000016" lat="55.79682100000002"/><rtept lon="37.06395400000002" lat="55.796823000000025"/><rtept lon="37.06427200000002" lat="55.79683300000003"/><rtept lon="37.06463200000002" lat="55.796851000000025"/><rtept lon="37.065032000000016" lat="55.79686100000003"/><rtept lon="37.06497800000002" lat="55.796949000000026"/><rtept lon="37.064962000000016" lat="55.797011000000026"/><rtept lon="37.064954000000014" lat="55.797152000000025"/><rtept lon="37.06491600000001" lat="55.797374000000026"/><rtept lon="37.064881000000014" lat="55.797493000000024"/><rtept lon="37.06481800000002" lat="55.797580000000025"/><rtept lon="37.064746000000014" lat="55.79762400000003"/><rtept lon="37.064717000000016" lat="55.79775800000003"/><rtept lon="37.064639000000014" lat="55.79853200000003"/><rtept lon="37.064633000000015" lat="55.79886200000003"/><rtept lon="37.06461500000002" lat="55.79903600000003"/><rtept lon="37.06454500000002" lat="55.79922000000003"/><rtept lon="37.06455600000002" lat="55.79935500000003"/><rtept lon="37.06458300000001" lat="55.79939700000003"/><rtept lon="37.06466600000001" lat="55.79943900000003"/><rtept lon="37.06484800000001" lat="55.799502000000025"/><rtept lon="37.065092000000014" lat="55.799567000000025"/><rtept lon="37.06514100000001" lat="55.79958800000002"/><rtept lon="37.06531200000001" lat="55.79989100000002"/><rtept lon="37.06535700000001" lat="55.799984000000016"/><rtept lon="37.06540300000001" lat="55.80001700000002"/><rtept lon="37.06557000000001" lat="55.80005300000001"/><rtept lon="37.066242" lat="55.80000800000001"/><rtept lon="37.066329" lat="55.80001100000001"/><rtept lon="37.066471" lat="55.80006200000001"/><rtept lon="37.066618" lat="55.800148000000014"/><rtept lon="37.066835" lat="55.80025100000002"/><rtept lon="37.067284" lat="55.800429000000015"/><rtept lon="37.06745" lat="55.80052700000002"/><rtept lon="37.068041" lat="55.801031000000016"/><rtept lon="37.068361" lat="55.80127200000002"/><rtept lon="37.068472" lat="55.80138900000002"/><rtept lon="37.068504999999995" lat="55.80146000000002"/><rtept lon="37.068464999999996" lat="55.80160900000002"/><rtept lon="37.068419" lat="55.80172000000002"/><rtept lon="37.068104999999996" lat="55.801710000000014"/><rtept lon="37.068132" lat="55.80205400000001"/><rtept lon="37.06812" lat="55.802199000000016"/><rtept lon="37.068135" lat="55.80265700000001"/><rtept lon="37.068157" lat="55.80307100000001"/><rtept lon="37.068149" lat="55.80331500000001"/><rtept lon="37.068335" lat="55.803297000000015"/><rtept lon="37.068464" lat="55.80329300000002"/><rtept lon="37.068517" lat="55.80325800000002"/><rtept lon="37.068581" lat="55.80310700000002"/><rtept lon="37.06862" lat="55.80296300000002"/><rtept lon="37.068632" lat="55.80283500000002"/><rtept lon="37.068642" lat="55.80243200000002"/><rtept lon="37.068621" lat="55.802005000000015"/><rtept lon="37.06861" lat="55.80191700000002"/><rtept lon="37.068616" lat="55.80173700000002"/><rtept lon="37.070322" lat="55.801448000000015"/><rtept lon="37.072025999999994" lat="55.80115700000002"/><rtept lon="37.07213099999999" lat="55.80111100000001"/><rtept lon="37.07240999999999" lat="55.80094600000001"/><rtept lon="37.07239499999999" lat="55.80091200000001"/><rtept lon="37.073015999999996" lat="55.80079100000001"/><rtept lon="37.07314199999999" lat="55.800786000000016"/><rtept lon="37.07349399999999" lat="55.800834000000016"/><rtept lon="37.07367199999999" lat="55.80082100000002"/><rtept lon="37.07380599999999" lat="55.80077600000002"/><rtept lon="37.07387199999999" lat="55.80073400000002"/><rtept lon="37.07401299999999" lat="55.80060800000002"/><rtept lon="37.07414599999999" lat="55.80055200000002"/><rtept lon="37.07486999999999" lat="55.800404000000015"/><rtept lon="37.07618299999999" lat="55.800145000000015"/><rtept lon="37.076356" lat="55.80008700000001"/><rtept lon="37.076502999999995" lat="55.80017700000001"/><rtept lon="37.076808" lat="55.80040700000001"/><rtept lon="37.077597" lat="55.800940000000004"/><rtept lon="37.078252" lat="55.801376000000005"/><rtept lon="37.078789" lat="55.801739000000005"/><rtept lon="37.079136" lat="55.801970000000004"/><rtept lon="37.079215" lat="55.80193800000001"/><rtept lon="37.079966" lat="55.80247500000001"/><rtept lon="37.080287999999996" lat="55.80275900000001"/><rtept lon="37.080375" lat="55.80287800000001"/><rtept lon="37.080434" lat="55.803008000000005"/><rtept lon="37.080670999999995" lat="55.80368300000001"/><rtept lon="37.081059999999994" lat="55.80481"/><rtept lon="37.08134799999999" lat="55.805584"/><rtept lon="37.08119999999999" lat="55.805596"/><rtept lon="37.08135999999999" lat="55.806113"/><rtept lon="37.08137199999999" lat="55.806235"/><rtept lon="37.08124399999999" lat="55.806767"/><rtept lon="37.08124099999999" lat="55.80684"/><rtept lon="37.08130799999999" lat="55.806882"/><rtept lon="37.08159299999999" lat="55.807156"/><rtept lon="37.08195999999999" lat="55.807499"/><rtept lon="37.083111999999986" lat="55.808608"/><rtept lon="37.08422199999998" lat="55.809672"/><rtept lon="37.084820999999984" lat="55.810275"/><rtept lon="37.085177999999985" lat="55.810691"/><rtept lon="37.085487999999984" lat="55.811071999999996"/><rtept lon="37.08565699999998" lat="55.811293"/><rtept lon="37.086092999999984" lat="55.811873999999996"/><rtept lon="37.08629699999999" lat="55.812121"/><rtept lon="37.086488999999986" lat="55.812397999999995"/><rtept lon="37.086429999999986" lat="55.81242399999999"/><rtept lon="37.08656199999999" lat="55.81260999999999"/><rtept lon="37.086483999999984" lat="55.81262699999999"/><rtept lon="37.08663099999998" lat="55.812915999999994"/><rtept lon="37.08671799999998" lat="55.812971"/><rtept lon="37.08683999999998" lat="55.812973"/><rtept lon="37.08755799999998" lat="55.813359000000005"/><rtept lon="37.08766499999998" lat="55.81342000000001"/><rtept lon="37.087702999999976" lat="55.81345700000001"/><rtept lon="37.087829999999975" lat="55.81361900000001"/><rtept lon="37.08794999999998" lat="55.81360200000001"/><rtept lon="37.088127999999976" lat="55.81382900000001"/><rtept lon="37.088175999999976" lat="55.813915000000016"/><rtept lon="37.088794999999976" lat="55.81393200000002"/><rtept lon="37.08923299999998" lat="55.813982000000024"/><rtept lon="37.08923499999998" lat="55.81397500000003"/></rte></gpx>