<?xml version="1.0" encoding="UTF-8"?>
<gpx version="1.1" creator="Yandex Map Constructor" xmlns="http://www.topografix.com/GPX/1/1"><metadata><name><![CDATA[20 мвя 2026]]></name><desc/><time>2026-05-31T19:08:08.062Z</time></metadata><rte><rtept lon="37.32298008964981" lat="55.81547251495042"/><rtept lon="37.32282452152692" lat="55.81553292418812"/><rtept lon="37.323613090977304" lat="55.816227623719904"/><rtept lon="37.323082013592334" lat="55.81634541936316"/><rtept lon="37.32276014851055" lat="55.8164179088118"/><rtept lon="37.32292644546944" lat="55.81670182450691"/><rtept lon="37.322985454067755" lat="55.81697969743447"/><rtept lon="37.3220574097486" lat="55.816880025852676"/><rtept lon="37.32162825630624" lat="55.81685586300635"/><rtept lon="37.32048563526588" lat="55.81685586300635"/><rtept lon="37.3197292523237" lat="55.81681659834896"/><rtept lon="37.31937520073373" lat="55.81676525219848"/><rtept lon="37.318146772251595" lat="55.816745606692834"/><rtept lon="37.31789464460417" lat="55.81679997323054"/><rtept lon="37.31718117700623" lat="55.816802993591516"/><rtept lon="37.31702024446534" lat="55.81687548218416"/><rtept lon="37.31683785425231" lat="55.81685736004872"/><rtept lon="37.316859311924446" lat="55.81702649964997"/><rtept lon="37.316746659145814" lat="55.817098987824494"/><rtept lon="37.31581861482666" lat="55.81689662466481"/><rtept lon="37.315598673687425" lat="55.816866421117496"/><rtept lon="37.31551820741698" lat="55.817005357240184"/><rtept lon="37.315400190220295" lat="55.81714429283294"/><rtept lon="37.31385523782773" lat="55.817352695335686"/><rtept lon="37.3132061432461" lat="55.81740706102162"/><rtept lon="37.31315786348384" lat="55.8178087606704"/><rtept lon="37.31308276163142" lat="55.81815005108482"/><rtept lon="37.313147134647785" lat="55.818560803697245"/><rtept lon="37.31296474443476" lat="55.81879638044025"/><rtept lon="37.31222445474666" lat="55.81890208748759"/><rtept lon="37.311843581066555" lat="55.81891114807822"/><rtept lon="37.31188113199277" lat="55.81904101631122"/><rtept lon="37.31211716638606" lat="55.8192916909718"/><rtept lon="37.31307739721339" lat="55.820327594351404"/><rtept lon="37.313533372745944" lat="55.820732283777375"/><rtept lon="37.31435412870449" lat="55.82168660926153"/><rtept lon="37.31482083307309" lat="55.822260401240214"/><rtept lon="37.31325978742642" lat="55.82331132452319"/><rtept lon="37.3105400274852" lat="55.82499636612615"/><rtept lon="37.30964953409224" lat="55.825509715494604"/><rtept lon="37.30726773248701" lat="55.82669643239815"/><rtept lon="37.30452115045574" lat="55.8280793797558"/><rtept lon="37.30639869676615" lat="55.82896105841766"/><rtept lon="37.306404061184175" lat="55.829069757136914"/><rtept lon="37.30632359491373" lat="55.829235824035656"/><rtept lon="37.306125111446626" lat="55.82937471580414"/><rtept lon="37.3064442943194" lat="55.82919355252262"/><rtept lon="37.3066213201144" lat="55.82908032504534"/><rtept lon="37.30631018386867" lat="55.82898068459151"/><rtept lon="37.30669642196682" lat="55.829095422061414"/><rtept lon="37.306693739757804" lat="55.82925394037515"/><rtept lon="37.30669642196682" lat="55.82936867703558"/><rtept lon="37.306656188831596" lat="55.829400380526565"/><rtept lon="37.30694318519619" lat="55.829545310440544"/><rtept lon="37.307023651466636" lat="55.82957701378693"/><rtept lon="37.30725968585995" lat="55.82945020023928"/><rtept lon="37.30738038526562" lat="55.82951964580139"/><rtept lon="37.30749303804422" lat="55.829486432722014"/><rtept lon="37.30805630193735" lat="55.82912410636301"/><rtept lon="37.30913723217036" lat="55.82839642401936"/><rtept lon="37.309705860481515" lat="55.828091457649364"/><rtept lon="37.31099332080866" lat="55.82744226380965"/><rtept lon="37.31213057743094" lat="55.82681721573841"/><rtept lon="37.31346631752036" lat="55.82601097942588"/><rtept lon="37.314946896896586" lat="55.82505072101711"/><rtept lon="37.315950043068156" lat="55.824440733190784"/><rtept lon="37.31649184928908" lat="55.82410553775847"/><rtept lon="37.316730565891405" lat="55.82401041419931"/><rtept lon="37.31706852422727" lat="55.82420368085542"/><rtept lon="37.31756205068603" lat="55.824393926778306"/><rtept lon="37.317701525554796" lat="55.82423236879251"/><rtept lon="37.31780344949737" lat="55.82402853298928"/><rtept lon="37.317908055648935" lat="55.82393038944223"/><rtept lon="37.31791610227597" lat="55.82389113195379"/><rtept lon="37.31803680168164" lat="55.82386395366926"/><rtept lon="37.31814677225126" lat="55.82413573565654"/><rtept lon="37.318240649566775" lat="55.82411912681201"/><rtept lon="37.31838548885359" lat="55.824088928894646"/><rtept lon="37.31837744222655" lat="55.82386244376402"/><rtept lon="37.318535692558434" lat="55.8235423425148"/><rtept lon="37.31883341775905" lat="55.82296705957"/><rtept lon="37.31885219322214" lat="55.822808515526326"/><rtept lon="37.31892461286555" lat="55.822665070349906"/><rtept lon="37.319200880394085" lat="55.82247330597717"/><rtept lon="37.31944496141444" lat="55.82234495921318"/><rtept lon="37.31998140321741" lat="55.82208675442878"/><rtept lon="37.320426649913884" lat="55.82186478753592"/><rtept lon="37.320957727298826" lat="55.82164583935477"/><rtept lon="37.321183032856084" lat="55.82159298960997"/><rtept lon="37.321386880741215" lat="55.82150691987123"/><rtept lon="37.32145125375759" lat="55.82160506955164"/><rtept lon="37.32170606361399" lat="55.82173190877852"/><rtept lon="37.32185090290078" lat="55.82182854791075"/><rtept lon="37.32209230171212" lat="55.82172737881328"/><rtept lon="37.32221031890878" lat="55.821677549160704"/><rtept lon="37.32230687843333" lat="55.821689629082364"/><rtept lon="37.32245439992913" lat="55.821697179031496"/><rtept lon="37.32266361223231" lat="55.821712278925325"/><rtept lon="37.32279772268305" lat="55.82174247869534"/><rtept lon="37.32278967605601" lat="55.82183911780121"/><rtept lon="37.32282722698222" lat="55.821908577009644"/><rtept lon="37.322969384059995" lat="55.821908577009644"/><rtept lon="37.32309276567468" lat="55.82192669678268"/><rtept lon="37.32313568101892" lat="55.82191914687829"/><rtept lon="37.32305521474847" lat="55.8216911390723"/><rtept lon="37.322921104297734" lat="55.82145255993137"/><rtept lon="37.32284063802729" lat="55.821286459655624"/><rtept lon="37.3228433202363" lat="55.82112639872226"/><rtept lon="37.32283259140025" lat="55.8210433479774"/><rtept lon="37.3226260613061" lat="55.82092707663551"/><rtept lon="37.323100812301696" lat="55.82073077357173"/><rtept lon="37.32362920747762" lat="55.8204906784801"/><rtept lon="37.324436552391106" lat="55.820119207664334"/><rtept lon="37.325029320583404" lat="55.8198368270647"/><rtept lon="37.32520634637838" lat="55.81975830375148"/><rtept lon="37.32535655008322" lat="55.81970394136449"/><rtept lon="37.32543433414465" lat="55.819700921229646"/><rtept lon="37.32544774518972" lat="55.8198217264399"/><rtept lon="37.32525999055864" lat="55.82040762635975"/><rtept lon="37.32521171079638" lat="55.82067339247742"/><rtept lon="37.32519025312425" lat="55.820750403909486"/><rtept lon="37.32547724948884" lat="55.81972357222887"/><rtept lon="37.32531363473893" lat="55.819705451425435"/><rtept lon="37.32369894491197" lat="55.82047255802271"/><rtept lon="37.32264349566463" lat="55.820939156759295"/><rtept lon="37.32261533246995" lat="55.820921036524396"/><rtept lon="37.3229117165661" lat="55.82079268461787"/><rtept lon="37.322616673574466" lat="55.82055334492704"/><rtept lon="37.32197696672438" lat="55.820033134619585"/><rtept lon="37.321443207130415" lat="55.82011014732431"/><rtept lon="37.321067697868315" lat="55.8200195441264"/><rtept lon="37.3209925960159" lat="55.81994706141551"/><rtept lon="37.32148880468362" lat="55.8196344781652"/><rtept lon="37.32174897895808" lat="55.81948347086374"/><rtept lon="37.32175434337605" lat="55.819009304105336"/><rtept lon="37.32206011520376" lat="55.81882658224752"/><rtept lon="37.321950144634144" lat="55.818704263828145"/><rtept lon="37.32067341314305" lat="55.81808360515068"/><rtept lon="37.32038373456944" lat="55.817967324920104"/><rtept lon="37.32032204376211" lat="55.81792202084218"/><rtept lon="37.320453472003834" lat="55.817854064625976"/><rtept lon="37.320501751766095" lat="55.817618482153726"/><rtept lon="37.32059562908161" lat="55.81749464976709"/><rtept lon="37.32144588933935" lat="55.81748256853745"/><rtept lon="37.32140833841314" lat="55.81686944118038"/><rtept lon="37.32149416910162" lat="55.81684225796978"/><rtept lon="37.319933123454945" lat="55.81683168671607"/><rtept lon="37.31991971240988" lat="55.815958793238224"/><rtept lon="37.31996799217214" lat="55.81591348681193"/><rtept lon="37.319962627754116" lat="55.81580928183041"/><rtept lon="37.32176507221213" lat="55.81579871028853"/><rtept lon="37.32193136917105" lat="55.81572924011987"/><rtept lon="37.32198769556035" lat="55.81569450499202"/><rtept lon="37.322009153232486" lat="55.81565674938294"/><rtept lon="37.32230956064214" lat="55.815617483510486"/><rtept lon="37.322760171756684" lat="55.81553140049065"/><rtept lon="37.322939879760675" lat="55.8155193186489"/><rtept lon="37.32317323194498" lat="55.81552535956389"/></rte></gpx>