<?xml version="1.0" encoding="UTF-8"?>
<gpx version="1.1" creator="Yandex Map Constructor" xmlns="http://www.topografix.com/GPX/1/1"><metadata><name><![CDATA[Без названия]]></name><desc/><time>2026-06-29T17:57:50.468Z</time></metadata><rte><rtept lon="20.498188100605557" lat="54.693944721300696"/><rtept lon="20.493982396870216" lat="54.695436203411454"/><rtept lon="20.491450391560154" lat="54.69831957933988"/><rtept lon="20.49076374605234" lat="54.70137672725483"/><rtept lon="20.490162931233005" lat="54.70460760765023"/><rtept lon="20.487115941792077" lat="54.70850917246077"/><rtept lon="20.48441227510507" lat="54.7105964790749"/><rtept lon="20.47432716920903" lat="54.71196310946228"/><rtept lon="20.452268682270567" lat="54.7101243596373"/><rtept lon="20.442569814472684" lat="54.70922980240798"/><rtept lon="20.436132512836934" lat="54.70995041950227"/><rtept lon="20.419009290485864" lat="54.714472619329115"/><rtept lon="20.36789711549801" lat="54.72801134191918"/><rtept lon="20.328243337421846" lat="54.73844175418275"/><rtept lon="20.234859548359346" lat="54.7320844905236"/><rtept lon="20.16104515626951" lat="54.74598970340539"/><rtept lon="20.058048330097623" lat="54.739236341682954"/><rtept lon="20.014961324482403" lat="54.73625655780873"/><rtept lon="19.99865349367185" lat="54.72970025830611"/><rtept lon="19.992473684101547" lat="54.72761393952861"/><rtept lon="19.980285726337865" lat="54.726620416475264"/><rtept lon="19.97204598024413" lat="54.723739061260986"/><rtept lon="19.961574636249985" lat="54.713404233173236"/><rtept lon="19.958141408710876" lat="54.709378896616165"/><rtept lon="19.948356710224544" lat="54.70460760760145"/><rtept lon="19.945009313373962" lat="54.70157555806995"/><rtept lon="19.943721853046814" lat="54.69645535112251"/><rtept lon="19.939945302753838" lat="54.69272663666664"/><rtept lon="19.93539627626455" lat="54.688848408502515"/><rtept lon="19.91711433961904" lat="54.65756037074814"/><rtept lon="19.91428192689932" lat="54.65412666365534"/><rtept lon="19.89677246645009" lat="54.64432157699437"/></rte></gpx>