<?xml version="1.0" encoding="UTF-8"?>
<gpx version="1.1" creator="Yandex Map Constructor" xmlns="http://www.topografix.com/GPX/1/1"><metadata><name><![CDATA[16 мая 2026 (Дом - НовРиж - Липовая роща - Парк Рублево - Пойма - Красногорская) ]]></name><desc/><time>2026-05-31T13:06:26.512Z</time></metadata><rte><rtept lon="37.322945341847074" lat="55.81557645132175"/><rtept lon="37.32278440930618" lat="55.81550698075464"/><rtept lon="37.32223723866713" lat="55.81564592175163"/><rtept lon="37.322028026363974" lat="55.81567008535242"/><rtept lon="37.32175980546248" lat="55.815799964448566"/><rtept lon="37.319195613644254" lat="55.81580298488746"/><rtept lon="37.31897567250502" lat="55.81584225057196"/><rtept lon="37.31893275716078" lat="55.81598723121619"/><rtept lon="37.31806372143995" lat="55.81599025164051"/><rtept lon="37.31796716191542" lat="55.81611408883492"/><rtept lon="37.31736098267805" lat="55.81634061926402"/><rtept lon="37.316840634129164" lat="55.8163678028265"/><rtept lon="37.3168835494734" lat="55.81694469392761"/><rtept lon="37.31678162553085" lat="55.81704436534306"/><rtept lon="37.316652879498115" lat="55.81707154841186"/><rtept lon="37.31545124985941" lat="55.816826900099755"/><rtept lon="37.314732417843416" lat="55.81691147005915"/><rtept lon="37.31067155339486" lat="55.817467210908504"/><rtept lon="37.30975960232981" lat="55.81747325152619"/><rtept lon="37.30869208314188" lat="55.81679971685298"/><rtept lon="37.308439955494485" lat="55.816585270620934"/><rtept lon="37.3076031062818" lat="55.81611408880953"/><rtept lon="37.30690036751989" lat="55.81579996442316"/><rtept lon="37.30637465455297" lat="55.815534164870186"/><rtept lon="37.305457339069875" lat="55.81486965802723"/><rtept lon="37.304969177029136" lat="55.814455845729434"/><rtept lon="37.304872617504586" lat="55.814356167655774"/><rtept lon="37.30464731194735" lat="55.8142142014719"/><rtept lon="37.30479751565217" lat="55.814153790172064"/><rtept lon="37.305215940258456" lat="55.81430179768299"/><rtept lon="37.3055190298771" lat="55.814138687313324"/><rtept lon="37.306025967380926" lat="55.81389402049065"/><rtept lon="37.30600450970879" lat="55.81383964987583"/><rtept lon="37.30595622994653" lat="55.81389553078442"/><rtept lon="37.30549220778697" lat="55.81419154722642"/><rtept lon="37.30520789363139" lat="55.81432898266303"/><rtept lon="37.30490212180368" lat="55.81411905361297"/><rtept lon="37.30473046042673" lat="55.81403598784747"/><rtept lon="37.30481629111521" lat="55.81397255568849"/><rtept lon="37.30467681624642" lat="55.81391516459803"/><rtept lon="37.304746553680815" lat="55.813847201354676"/><rtept lon="37.30470632054559" lat="55.81382907780298"/><rtept lon="37.304558799049765" lat="55.813907613132436"/><rtept lon="37.30449442603342" lat="55.813904592545775"/><rtept lon="37.30459366776696" lat="55.81385475283205"/><rtept lon="37.30452124812355" lat="55.81383360869171"/><rtept lon="37.304244980595044" lat="55.813987658592886"/><rtept lon="37.30422888734093" lat="55.81394990132084"/><rtept lon="37.30470095612756" lat="55.813706743607376"/><rtept lon="37.30421279408681" lat="55.813282346669524"/><rtept lon="37.30430130698429" lat="55.81313584557572"/><rtept lon="37.30478678681601" lat="55.81264196669534"/><rtept lon="37.30510060527074" lat="55.81249093213556"/><rtept lon="37.305151567242035" lat="55.812296096692265"/><rtept lon="37.30484847762329" lat="55.811998555391575"/><rtept lon="37.30329547860368" lat="55.81084008606562"/><rtept lon="37.30195973851427" lat="55.80996101583987"/><rtept lon="37.30179880597338" lat="55.80957736038529"/><rtept lon="37.301310643932666" lat="55.80957736038529"/><rtept lon="37.30105851628525" lat="55.80917255444337"/><rtept lon="37.30084393956407" lat="55.80887045770681"/><rtept lon="37.30027531125291" lat="55.80864690460591"/><rtept lon="37.29934726693376" lat="55.80840522412751"/><rtept lon="37.29878400304055" lat="55.808196773466456"/><rtept lon="37.29859088399148" lat="55.80793998492607"/><rtept lon="37.29856942631935" lat="55.80780101630068"/><rtept lon="37.2986659858439" lat="55.80758954134954"/><rtept lon="37.298848376056895" lat="55.807223989063985"/><rtept lon="37.298714265606165" lat="55.80645964134034"/><rtept lon="37.298419222614484" lat="55.805133326316984"/><rtept lon="37.29808662869664" lat="55.80487953877249"/><rtept lon="37.29818318822117" lat="55.804788899961096"/><rtept lon="37.29864989258977" lat="55.80471638875939"/><rtept lon="37.2993043515894" lat="55.80463481349536"/><rtept lon="37.29978178479405" lat="55.804589493830065"/><rtept lon="37.30154131390778" lat="55.80483724068053"/><rtept lon="37.3018148992273" lat="55.80471638875303"/><rtept lon="37.30248545148103" lat="55.80452000356097"/><rtept lon="37.303070173046265" lat="55.804387065332165"/><rtept lon="37.303359851619874" lat="55.804362894696126"/><rtept lon="37.303799733898316" lat="55.80431153204451"/><rtept lon="37.30397675969331" lat="55.80428131868824"/><rtept lon="37.30408941247192" lat="55.804163486367486"/><rtept lon="37.30348323323455" lat="55.80367402522773"/><rtept lon="37.30309699513643" lat="55.803583383591416"/><rtept lon="37.30228696801393" lat="55.803528998511716"/><rtept lon="37.30190072991577" lat="55.80341720671941"/><rtept lon="37.30184708573543" lat="55.80324498629409"/><rtept lon="37.30184708573543" lat="55.803142257960594"/><rtept lon="37.30183099248136" lat="55.80291565038009"/><rtept lon="37.302404985210536" lat="55.802918671823214"/><rtept lon="37.30279122330864" lat="55.80276759937246"/><rtept lon="37.3029092405053" lat="55.802667891236666"/><rtept lon="37.30289314725117" lat="55.802102873617116"/><rtept lon="37.30283950307088" lat="55.80145928737395"/><rtept lon="37.302732214710275" lat="55.80073712858219"/><rtept lon="37.303021893283876" lat="55.80068273950976"/><rtept lon="37.30283950307088" lat="55.799857829224116"/><rtept lon="37.303064808628086" lat="55.79937133543759"/><rtept lon="37.30322574116898" lat="55.79870655145885"/><rtept lon="37.30342422463609" lat="55.798600789320474"/><rtept lon="37.303735360881795" lat="55.79868842082705"/><rtept lon="37.30424498059463" lat="55.798766986836974"/><rtept lon="37.304588303348524" lat="55.79873676915969"/><rtept lon="37.304550752422344" lat="55.79885763972757"/><rtept lon="37.30644439198686" lat="55.799250466471044"/><rtept lon="37.3064175698967" lat="55.79935622683737"/><rtept lon="37.306369290134434" lat="55.799271618567374"/><rtept lon="37.306186899921414" lat="55.799235357823726"/><rtept lon="37.30634783246231" lat="55.7990268578896"/><rtept lon="37.30742071606827" lat="55.79928370546805"/><rtept lon="37.30852578618239" lat="55.79953752964507"/><rtept lon="37.30936263539505" lat="55.79968257127958"/><rtept lon="37.31234525181961" lat="55.799909197757245"/><rtept lon="37.3139706704826" lat="55.8000361079998"/><rtept lon="37.31539224126048" lat="55.800235537551686"/><rtept lon="37.31584821679301" lat="55.80035338180473"/><rtept lon="37.31655095555492" lat="55.80045007425769"/><rtept lon="37.31539224126048" lat="55.800271797360004"/><rtept lon="37.31483970620341" lat="55.800175104462475"/><rtept lon="37.31496308781809" lat="55.799806460578495"/><rtept lon="37.31505964734264" lat="55.79959494201344"/><rtept lon="37.315258130809745" lat="55.7994257263306"/><rtept lon="37.31547807194896" lat="55.7993501833766"/><rtept lon="37.316229090473136" lat="55.7994257263306"/><rtept lon="37.31682990529247" lat="55.799579833500346"/><rtept lon="37.318433866283385" lat="55.80021136432096"/><rtept lon="37.318911299488015" lat="55.800350360155356"/><rtept lon="37.319431648036904" lat="55.80055583134564"/><rtept lon="37.31978033520885" lat="55.800631371950686"/><rtept lon="37.3202202174873" lat="55.800528636685485"/><rtept lon="37.320402607700295" lat="55.800583025974085"/><rtept lon="37.320644006511635" lat="55.80072504209019"/><rtept lon="37.32106243111797" lat="55.80062230707953"/><rtept lon="37.321164355060525" lat="55.80042287951068"/><rtept lon="37.3211589906425" lat="55.80036546835555"/><rtept lon="37.3216256950111" lat="55.80037755492159"/><rtept lon="37.321706719479785" lat="55.80045284617873"/><rtept lon="37.32177645691418" lat="55.800579754648204"/><rtept lon="37.32266963251613" lat="55.800579754648204"/><rtept lon="37.32270181902432" lat="55.800756519324175"/><rtept lon="37.32287079819223" lat="55.80080184346391"/><rtept lon="37.3245981407978" lat="55.80061903575061"/><rtept lon="37.328294224820326" lat="55.80023075533857"/><rtept lon="37.32851416595956" lat="55.80026701515135"/><rtept lon="37.331271476826856" lat="55.799892328784004"/><rtept lon="37.33167917259712" lat="55.7999406756155"/><rtept lon="37.331947393498616" lat="55.80007665075591"/><rtept lon="37.33158261307259" lat="55.79987419870665"/><rtept lon="37.33157724865451" lat="55.79974124453433"/><rtept lon="37.33179718979375" lat="55.799816786726424"/><rtept lon="37.33205468185917" lat="55.799943697277804"/><rtept lon="37.33216197021977" lat="55.80007362907862"/><rtept lon="37.332414097867165" lat="55.80056615730034"/><rtept lon="37.33264476784245" lat="55.800977096304884"/><rtept lon="37.332848615727585" lat="55.8011553699596"/><rtept lon="37.33230144508853" lat="55.80124903883951"/><rtept lon="37.331979580006745" lat="55.801094938304075"/><rtept lon="37.33187229164614" lat="55.80078673539573"/><rtept lon="37.331984944424775" lat="55.80062658978004"/><rtept lon="37.33218342789188" lat="55.80050270309528"/><rtept lon="37.332033224187036" lat="55.80019449547919"/><rtept lon="37.331829376301904" lat="55.799967870669064"/><rtept lon="37.33167917259709" lat="55.79989837212855"/><rtept lon="37.33137340076938" lat="55.80000110905743"/><rtept lon="37.33128220566288" lat="55.800167300571914"/><rtept lon="37.33446866997252" lat="55.799783548173714"/><rtept lon="37.33701676853669" lat="55.79950857365164"/><rtept lon="37.33720452316771" lat="55.79946929141152"/><rtept lon="37.33697921761048" lat="55.79936957479322"/><rtept lon="37.336829013905636" lat="55.79934237930103"/><rtept lon="37.336587615094295" lat="55.79957202947099"/><rtept lon="37.33679682739746" lat="55.79990139378784"/><rtept lon="37.3369470311023" lat="55.800100824032604"/><rtept lon="37.337311811528316" lat="55.80013104064689"/><rtept lon="37.33773560055266" lat="55.80002226071895"/><rtept lon="37.33797163494597" lat="55.7999618272973"/><rtept lon="37.33756930359374" lat="55.80012499731956"/><rtept lon="37.337558574757686" lat="55.80021262538143"/><rtept lon="37.33776242264282" lat="55.800297231598094"/><rtept lon="37.33808965214263" lat="55.8003274480593"/><rtept lon="37.33771414288055" lat="55.80023679860503"/><rtept lon="37.337617583356" lat="55.800158235573235"/><rtept lon="37.33805210121642" lat="55.7999618272973"/><rtept lon="37.339806265912124" lat="55.7997170709701"/><rtept lon="37.34107763298519" lat="55.799499508498926"/><rtept lon="37.34154433735377" lat="55.79952066045942"/><rtept lon="37.344607420048746" lat="55.79885587903452"/><rtept lon="37.34498829372885" lat="55.79883774847255"/><rtept lon="37.34539062508109" lat="55.798614137511024"/><rtept lon="37.34767586716178" lat="55.79785264185468"/><rtept lon="37.34804064758781" lat="55.79768946226978"/><rtept lon="37.349220819554326" lat="55.79721805071002"/><rtept lon="37.34969825275898" lat="55.79698838659817"/><rtept lon="37.35019177921772" lat="55.79690981697815"/><rtept lon="37.350942797741844" lat="55.79682520335733"/><rtept lon="37.351237840733475" lat="55.796933992248206"/><rtept lon="37.351699180683994" lat="55.797266400850724"/><rtept lon="37.3519888592576" lat="55.79701860560628"/><rtept lon="37.35243410595407" lat="55.79660762464731"/><rtept lon="37.35292226799478" lat="55.79593070533736"/><rtept lon="37.35340506561746" lat="55.79548647061857"/><rtept lon="37.35413999088756" lat="55.79505734108568"/><rtept lon="37.35500366219034" lat="55.79463727307669"/><rtept lon="37.355990715107836" lat="55.79423835535956"/><rtept lon="37.35683829315649" lat="55.793890810057995"/><rtept lon="37.35836715229498" lat="55.79340726359658"/><rtept lon="37.358764119229185" lat="55.79367623705981"/><rtept lon="37.35894650944219" lat="55.79369134787319"/><rtept lon="37.35993892677766" lat="55.794156758035626"/><rtept lon="37.360201783261125" lat="55.79427159864673"/><rtept lon="37.360496826252756" lat="55.794353195716376"/><rtept lon="37.3606470299576" lat="55.79421720050491"/><rtept lon="37.3612961245392" lat="55.794446881029074"/><rtept lon="37.36170918472749" lat="55.79452545563297"/><rtept lon="37.361886210522485" lat="55.79429577557415"/><rtept lon="37.36219198235014" lat="55.793981474329314"/><rtept lon="37.362470932087696" lat="55.79376387967644"/><rtept lon="37.36302346714474" lat="55.79349490682104"/><rtept lon="37.36336678989866" lat="55.79346166285544"/><rtept lon="37.363753027996815" lat="55.79350095117536"/><rtept lon="37.36391396053771" lat="55.79356441683883"/><rtept lon="37.364187545857185" lat="55.79347375156717"/><rtept lon="37.36443430908655" lat="55.793540239449115"/><rtept lon="37.36484200485681" lat="55.793582549860105"/><rtept lon="37.365099496922234" lat="55.79367623703447"/><rtept lon="37.36541599758599" lat="55.79375179104248"/><rtept lon="37.36592561729883" lat="55.793993562879"/><rtept lon="37.366161651692146" lat="55.794344129364745"/><rtept lon="37.366494245609985" lat="55.79446199150415"/><rtept lon="37.36674637325738" lat="55.794316930335256"/><rtept lon="37.36739546783898" lat="55.79390289859791"/><rtept lon="37.36919254787889" lat="55.79254290920699"/><rtept lon="37.36967534550157" lat="55.79335890854915"/><rtept lon="37.37038344868149" lat="55.793782012560136"/><rtept lon="37.37132758625474" lat="55.794241377402884"/><rtept lon="37.372014231762556" lat="55.7944831461873"/><rtept lon="37.37276525028673" lat="55.7949425027253"/><rtept lon="37.37328023441758" lat="55.794972723359415"/><rtept lon="37.373891778072995" lat="55.79479139920149"/><rtept lon="37.3742029143187" lat="55.794882061386424"/><rtept lon="37.37463206776109" lat="55.79521448758452"/><rtept lon="37.37486810215441" lat="55.79553482286123"/><rtept lon="37.37551183231798" lat="55.79616339759422"/><rtept lon="37.37590879925219" lat="55.796374934878585"/><rtept lon="37.37596244343248" lat="55.796997452192194"/><rtept lon="37.3752114249083" lat="55.7973479915241"/><rtept lon="37.37478227146593" lat="55.797051846434165"/><rtept lon="37.374170727810515" lat="55.79679196214507"/><rtept lon="37.37332314976181" lat="55.79648372503266"/><rtept lon="37.37285108097521" lat="55.79627823226321"/><rtept lon="37.37237901218858" lat="55.7960243867505"/><rtept lon="37.371670909008635" lat="55.79575845157399"/><rtept lon="37.371295399746565" lat="55.795528778817555"/><rtept lon="37.36995429523907" lat="55.79493645858301"/><rtept lon="37.36913890369855" lat="55.79475513425551"/><rtept lon="37.36794800289593" lat="55.794640295076256"/><rtept lon="37.367154069027535" lat="55.79444688095306"/><rtept lon="37.367014594158746" lat="55.7943199524105"/><rtept lon="37.367636866650216" lat="55.79418697920603"/><rtept lon="37.369364209255814" lat="55.79418697920603"/><rtept lon="37.37020105846844" lat="55.79413862520046"/><rtept lon="37.37109155186138" lat="55.79404796127751"/><rtept lon="37.37204641827069" lat="55.793896854268276"/><rtept lon="37.37295836933576" lat="55.794162802204454"/><rtept lon="37.37372011669599" lat="55.794465013561755"/><rtept lon="37.374213643154725" lat="55.79506942921135"/><rtept lon="37.374782271465854" lat="55.79531723689847"/><rtept lon="37.37495393284281" lat="55.79572218752601"/><rtept lon="37.37554938324411" lat="55.79612108997992"/><rtept lon="37.3757854176374" lat="55.79622383691713"/><rtept lon="37.37600535877659" lat="55.79644443970916"/><rtept lon="37.375892705997984" lat="55.796894707279456"/><rtept lon="37.37622529991582" lat="55.79710926247039"/><rtept lon="37.37663299568609" lat="55.79732986023177"/><rtept lon="37.377244539341476" lat="55.79773781168965"/><rtept lon="37.377818532070656" lat="55.79807625704926"/><rtept lon="37.37823159225897" lat="55.79840865586004"/><rtept lon="37.37907380588962" lat="55.799009988298074"/><rtept lon="37.37921328075841" lat="55.799158053635836"/><rtept lon="37.37908989914373" lat="55.79989535022837"/><rtept lon="37.37895578869299" lat="55.800058520530364"/><rtept lon="37.3792830181928" lat="55.80021564683886"/><rtept lon="37.37874121197178" lat="55.80069004355432"/><rtept lon="37.377571768841285" lat="55.801357815091265"/><rtept lon="37.37617702015351" lat="55.80218269345786"/><rtept lon="37.375892705997934" lat="55.80236398305555"/><rtept lon="37.37510950096557" lat="55.80246973492939"/><rtept lon="37.37389714249084" lat="55.802575486514776"/><rtept lon="37.373489446720576" lat="55.802575486514776"/><rtept lon="37.37339825161408" lat="55.80270238803647"/><rtept lon="37.374117083630026" lat="55.804397389956044"/><rtept lon="37.37450332172818" lat="55.805373266538794"/><rtept lon="37.374599881252706" lat="55.80642162669704"/><rtept lon="37.374830551227994" lat="55.80784155058866"/><rtept lon="37.37499148376889" lat="55.80996831800324"/><rtept lon="37.37514705189175" lat="55.810578533700955"/><rtept lon="37.37537326120203" lat="55.810666930332246"/><rtept lon="37.375915067423044" lat="55.81058234674457"/><rtept lon="37.37700404428309" lat="55.810310469670476"/><rtept lon="37.37801255487269" lat="55.81009598752688"/><rtept lon="37.378624098528086" lat="55.80994192215603"/><rtept lon="37.37892987035579" lat="55.80980598161436"/><rtept lon="37.37998129628963" lat="55.80960660128445"/><rtept lon="37.38054992460078" lat="55.80953712002162"/><rtept lon="37.38079132341212" lat="55.80944347116595"/><rtept lon="37.38076450132196" lat="55.80961566404868"/><rtept lon="37.38089324735467" lat="55.809657956914045"/><rtept lon="37.38083960317439" lat="55.80992681766224"/><rtept lon="37.381016628969356" lat="55.81033463658545"/><rtept lon="37.381252663362645" lat="55.81065484693574"/><rtept lon="37.3811212351209" lat="55.810722815771186"/><rtept lon="37.381089048612736" lat="55.81096146098289"/><rtept lon="37.38119633697332" lat="55.81127109339657"/><rtept lon="37.381204383600284" lat="55.81180728023497"/><rtept lon="37.38113464616591" lat="55.81228757654699"/><rtept lon="37.38126339219862" lat="55.81248392237555"/><rtept lon="37.38164426587873" lat="55.81269234994263"/><rtept lon="37.38212706350141" lat="55.812647039697325"/><rtept lon="37.38258303903395" lat="55.812656101750626"/><rtept lon="37.383178489435245" lat="55.81281317700449"/><rtept lon="37.383607642877635" lat="55.81310316040966"/><rtept lon="37.38377393983655" lat="55.813317625911964"/><rtept lon="37.383639829385814" lat="55.813649894064675"/><rtept lon="37.383178489435245" lat="55.814178496611895"/><rtept lon="37.38289093997713" lat="55.81437135367665"/><rtept lon="37.38227403190371" lat="55.8146190380169"/><rtept lon="37.381855607297375" lat="55.81465226384456"/><rtept lon="37.381270885732135" lat="55.814570709489445"/><rtept lon="37.38101339366669" lat="55.81446499062554"/><rtept lon="37.38072371509309" lat="55.814404579716665"/><rtept lon="37.38014972236391" lat="55.8144378057282"/><rtept lon="37.37999951865907" lat="55.814712674360955"/><rtept lon="37.379838586118176" lat="55.814984520547945"/><rtept lon="37.37943089034791" lat="55.815032848559326"/><rtept lon="37.379210949208705" lat="55.81510231997009"/><rtept lon="37.379109025266125" lat="55.81504191005475"/><rtept lon="37.37898564365145" lat="55.815177832231825"/><rtept lon="37.37909293201205" lat="55.81527750819202"/><rtept lon="37.3791733982825" lat="55.81536208153294"/><rtept lon="37.379076838757946" lat="55.8154375932885"/><rtept lon="37.37871742274994" lat="55.815537268580535"/><rtept lon="37.37840628650424" lat="55.81574265928292"/><rtept lon="37.37802004840608" lat="55.81583629291833"/><rtept lon="37.37750506427522" lat="55.81591482418002"/><rtept lon="37.37731730964419" lat="55.81591180374982"/><rtept lon="37.37659311321017" lat="55.81494223348856"/><rtept lon="37.37591987874727" lat="55.81403154016653"/><rtept lon="37.3750079276822" lat="55.81271454627156"/><rtept lon="37.375426352288514" lat="55.81328847113165"/><rtept lon="37.375726759698196" lat="55.81317368683959"/><rtept lon="37.37576967504243" lat="55.812974323840066"/><rtept lon="37.3760218026898" lat="55.81304984022936"/><rtept lon="37.376338303353535" lat="55.812998489087676"/><rtept lon="37.37654751565672" lat="55.81306494349336"/><rtept lon="37.37678355005001" lat="55.813131397785114"/><rtept lon="37.376869380738505" lat="55.81310723260128"/><rtept lon="37.37684792306637" lat="55.81296526184211"/><rtept lon="37.377062499787556" lat="55.81298640645622"/><rtept lon="37.377502382066" lat="55.81292599324243"/><rtept lon="37.37803345945064" lat="55.812868600500366"/><rtept lon="37.37877374913874" lat="55.81289880716377"/><rtept lon="37.37931019094174" lat="55.81321899634838"/><rtept lon="37.37990027692499" lat="55.812935055128776"/><rtept lon="37.3805654647607" lat="55.81283839381341"/><rtept lon="37.38109117772762" lat="55.81269340138832"/><rtept lon="37.381016075875195" lat="55.81130990470456"/><rtept lon="37.38116091516201" lat="55.81086282535302"/><rtept lon="37.381311118866826" lat="55.81065136710652"/><rtept lon="37.382029950882824" lat="55.81143375685593"/><rtept lon="37.38297408845603" lat="55.81231581438322"/><rtept lon="37.38353735234916" lat="55.8128686004813"/><rtept lon="37.383945048119415" lat="55.813282429715386"/><rtept lon="37.384433210160125" lat="55.81320087247748"/><rtept lon="37.38459950711884" lat="55.81421881528955"/><rtept lon="37.38481944825808" lat="55.815251833813285"/><rtept lon="37.38506621148744" lat="55.815964660952034"/><rtept lon="37.3851842286841" lat="55.816293886008935"/><rtept lon="37.38500183847108" lat="55.81642980379465"/><rtept lon="37.38468533780734" lat="55.816526456152225"/><rtept lon="37.38467460897126" lat="55.81669257682853"/><rtept lon="37.38490527894655" lat="55.81850777634892"/><rtept lon="37.384755075241706" lat="55.81871919172361"/><rtept lon="37.38485699918429" lat="55.820168866118195"/><rtept lon="37.38487845685637" lat="55.8203440314282"/><rtept lon="37.379750073219796" lat="55.82114736564022"/><rtept lon="37.37731462743424" lat="55.821564126451506"/><rtept lon="37.37702494886063" lat="55.82164264610485"/><rtept lon="37.376429498459295" lat="55.82157318641328"/><rtept lon="37.37576967504162" lat="55.82065811893332"/><rtept lon="37.37583941247601" lat="55.82088462279758"/><rtept lon="37.375426352287725" lat="55.82096918390077"/><rtept lon="37.3745304944767" lat="55.8198245733035"/><rtept lon="37.373876035477075" lat="55.81904235294802"/><rtept lon="37.37356489923134" lat="55.81906349424636"/><rtept lon="37.373876035477075" lat="55.81899705012704"/><rtept lon="37.373162567879106" lat="55.81815138773965"/><rtept lon="37.37360781457558" lat="55.81802453679056"/><rtept lon="37.37390822198526" lat="55.817876543491764"/><rtept lon="37.374128163124446" lat="55.81757149429026"/><rtept lon="37.37446612146031" lat="55.81741141800926"/><rtept lon="37.374932825828914" lat="55.81734195073179"/><rtept lon="37.37561947133673" lat="55.81733591009365"/><rtept lon="37.37566775109899" lat="55.81725436138638"/><rtept lon="37.375989616180775" lat="55.81730268656059"/><rtept lon="37.37569457318912" lat="55.817000653193205"/><rtept lon="37.37518495347631" lat="55.81630294711405"/><rtept lon="37.37453049447668" lat="55.81537265278712"/><rtept lon="37.37423008706692" lat="55.814976968871235"/><rtept lon="37.37408256557109" lat="55.814963376604524"/><rtept lon="37.37422204043988" lat="55.81494374332198"/><rtept lon="37.37446075704221" lat="55.815265425851614"/><rtept lon="37.37448489692333" lat="55.81525183368608"/><rtept lon="37.374315917755396" lat="55.81500717389129"/><rtept lon="37.37436956193568" lat="55.81500113288917"/><rtept lon="37.3744795325053" lat="55.815177831812335"/><rtept lon="37.37451976564052" lat="55.815165749860334"/><rtept lon="37.37436419751766" lat="55.81496186635236"/><rtept lon="37.37440443065288" lat="55.81495582534319"/><rtept lon="37.37454926993969" lat="55.81513856545459"/><rtept lon="37.374589503074915" lat="55.8151310142274"/><rtept lon="37.37396991279249" lat="55.81429583941119"/><rtept lon="37.37321084764127" lat="55.81320540324894"/><rtept lon="37.37298554208401" lat="55.81290182761269"/><rtept lon="37.37275755431773" lat="55.81272058728685"/><rtept lon="37.37247324016216" lat="55.812441173467064"/><rtept lon="37.372494697834284" lat="55.81229466919976"/><rtept lon="37.37239277389171" lat="55.8121179571302"/><rtept lon="37.37212187078117" lat="55.81187176717085"/><rtept lon="37.37170612838387" lat="55.81167239747396"/><rtept lon="37.371448636318426" lat="55.81162104450714"/><rtept lon="37.37122869517922" lat="55.8116739078543"/><rtept lon="37.37114286449074" lat="55.81181286259441"/><rtept lon="37.37116968658088" lat="55.81198655531898"/><rtept lon="37.37123137738823" lat="55.81216477834894"/><rtept lon="37.37114822890877" lat="55.81224180669296"/><rtept lon="37.371014118458035" lat="55.81228862776845"/><rtept lon="37.3709363343966" lat="55.81237320763238"/><rtept lon="37.37085318591714" lat="55.8124290906555"/><rtept lon="37.37060642268775" lat="55.81248044255164"/><rtept lon="37.370386481548536" lat="55.81245174591218"/><rtept lon="37.37025505330681" lat="55.81232789701394"/><rtept lon="37.37016117599128" lat="55.81212550893815"/><rtept lon="37.370145082737196" lat="55.81198051384597"/><rtept lon="37.37025505330681" lat="55.81185666344183"/><rtept lon="37.370324790741186" lat="55.81175999943678"/><rtept lon="37.37073248651147" lat="55.81153495260965"/><rtept lon="37.37126892831444" lat="55.81129329013898"/><rtept lon="37.37153178479789" lat="55.811202666304915"/><rtept lon="37.37163370874047" lat="55.81108787583508"/><rtept lon="37.37170612838387" lat="55.81092626236046"/><rtept lon="37.37168198850273" lat="55.81066345022441"/><rtept lon="37.37146472957253" lat="55.810414230166984"/><rtept lon="37.371134817863705" lat="55.810140841479914"/><rtept lon="37.37066006686801" lat="55.809902191196294"/><rtept lon="37.37015849378224" lat="55.809669581296475"/><rtept lon="37.36959791209812" lat="55.80948530493028"/><rtept lon="37.36890321996322" lat="55.809340299947905"/><rtept lon="37.36885494020096" lat="55.809231545864655"/><rtept lon="37.368683278824015" lat="55.809190763004786"/><rtept lon="37.36849284198395" lat="55.80921644110675"/><rtept lon="37.36841774013153" lat="55.809252692515855"/><rtept lon="37.36791348483671" lat="55.809175658224625"/><rtept lon="37.36714637305846" lat="55.80911826003045"/><rtept lon="37.36643826987854" lat="55.80912128098382"/><rtept lon="37.365512907768405" lat="55.80924362965409"/><rtept lon="37.3643327358018" lat="55.80952910837647"/><rtept lon="37.36418521430598" lat="55.80957593272914"/><rtept lon="37.364222765232185" lat="55.80965749759547"/><rtept lon="37.36441320207225" lat="55.81002906870336"/><rtept lon="37.36425763394936" lat="55.810101569961276"/><rtept lon="37.36429786708458" lat="55.810208811166"/><rtept lon="37.364102065826366" lat="55.810223160293425"/><rtept lon="37.36291554760474" lat="55.81030719333793"/><rtept lon="37.36291286539568" lat="55.81057453907702"/><rtept lon="37.36283239912523" lat="55.81072558109879"/><rtept lon="37.36252662729752" lat="55.81086453923894"/><rtept lon="37.362322779412395" lat="55.81123609877533"/><rtept lon="37.3623388726665" lat="55.811402242130946"/><rtept lon="37.36195799898637" lat="55.81150494857638"/><rtept lon="37.35907730650439" lat="55.81193087533596"/><rtept lon="37.35890028070936" lat="55.81155932245395"/><rtept lon="37.35870179724226" lat="55.81132370171157"/><rtept lon="37.3583852965785" lat="55.81111526678385"/><rtept lon="37.35834238123426" lat="55.8108433934544"/><rtept lon="37.35808488916884" lat="55.81040839216046"/><rtept lon="37.35844430517681" lat="55.81104578822552"/><rtept lon="37.35825118612776" lat="55.81112130839173"/><rtept lon="37.356357546563245" lat="55.81085849757829"/><rtept lon="37.35557434153088" lat="55.81071953941647"/><rtept lon="37.35398647379403" lat="55.81029964106776"/><rtept lon="37.353718252892556" lat="55.810628914253556"/><rtept lon="37.35355195593361" lat="55.81078599772358"/><rtept lon="37.353332014794404" lat="55.81123609875621"/><rtept lon="37.35216257166391" lat="55.810937038914936"/><rtept lon="37.351937266106646" lat="55.810813185176265"/><rtept lon="37.35079464506631" lat="55.81051714292258"/><rtept lon="37.3501079995585" lat="55.81036610008851"/><rtept lon="37.348906369919824" lat="55.81003984555809"/><rtept lon="37.347854943985986" lat="55.80977098558757"/><rtept lon="37.34431979250435" lat="55.809052002588736"/><rtept lon="37.34388527464396" lat="55.809085233189364"/><rtept lon="37.34385308813578" lat="55.80929065808811"/><rtept lon="37.34332201075083" lat="55.81011234678944"/><rtept lon="37.34245297503" lat="55.811169641182765"/><rtept lon="37.341991635079424" lat="55.81160161316669"/><rtept lon="37.34221694063668" lat="55.811438491444825"/><rtept lon="37.34193799089913" lat="55.81144453300233"/><rtept lon="37.34060225080972" lat="55.810813185150835"/><rtept lon="37.33965811323644" lat="55.81041745468637"/><rtept lon="37.33903047632694" lat="55.81026036972267"/><rtept lon="37.33873543333531" lat="55.8104990177818"/><rtept lon="37.33849403452397" lat="55.81038724608895"/><rtept lon="37.3365896661234" lat="55.809559521352355"/><rtept lon="37.33437416147705" lat="55.80858677115033"/><rtept lon="37.33081218790529" lat="55.80708832556169"/><rtept lon="37.32958373617645" lat="55.80655056281491"/><rtept lon="37.32943353247164" lat="55.806638176354376"/><rtept lon="37.32917604040619" lat="55.80653545701224"/><rtept lon="37.32749697756289" lat="55.80791308199838"/><rtept lon="37.327282400841675" lat="55.80781942921251"/><rtept lon="37.32552287172793" lat="55.80704905098197"/><rtept lon="37.32396182608125" lat="55.806372313942845"/><rtept lon="37.32316789221281" lat="55.80601279258243"/><rtept lon="37.322577806229525" lat="55.805731819791234"/><rtept lon="37.321966262574136" lat="55.80577411690077"/><rtept lon="37.32159611773008" lat="55.80581943518119"/><rtept lon="37.32167121958248" lat="55.80598862296002"/><rtept lon="37.32149419378751" lat="55.80581037152934"/><rtept lon="37.320651980156825" lat="55.8059553897046"/><rtept lon="37.32051786970609" lat="55.805891944319676"/><rtept lon="37.319750757927835" lat="55.80585871097501"/><rtept lon="37.31939670633786" lat="55.80586173218876"/><rtept lon="37.3193591554116" lat="55.80567139525626"/><rtept lon="37.31899437498558" lat="55.80568348016824"/><rtept lon="37.318441839928525" lat="55.80596445330981"/><rtept lon="37.317862482781294" lat="55.80619104306326"/><rtept lon="37.31696662497033" lat="55.80642065266875"/><rtept lon="37.31629070829857" lat="55.8067016204672"/><rtept lon="37.3155986983727" lat="55.8070007129762"/><rtept lon="37.31528756212697" lat="55.80742064705759"/><rtept lon="37.314976425881184" lat="55.807861723993405"/><rtept lon="37.31508907865982" lat="55.808127576164416"/><rtept lon="37.31542703699571" lat="55.808320922052616"/><rtept lon="37.315990300888835" lat="55.80866531702072"/><rtept lon="37.31618878435594" lat="55.80886168120656"/><rtept lon="37.3163899656912" lat="55.80923386511599"/><rtept lon="37.316448974289514" lat="55.80937887048384"/><rtept lon="37.31487719980679" lat="55.80946345669789"/><rtept lon="37.31357364622556" lat="55.80955408457955"/><rtept lon="37.31326250997982" lat="55.80961752397061"/><rtept lon="37.31331078974211" lat="55.81039993458335"/><rtept lon="37.31332688299604" lat="55.81051699268442"/><rtept lon="37.31340064374394" lat="55.810606862891746"/><rtept lon="37.31333895293661" lat="55.8104482682613"/><rtept lon="37.3132906731743" lat="55.8096039297479"/><rtept lon="37.313615220465095" lat="55.80953746940122"/><rtept lon="37.31361656156959" lat="55.80990375508759"/><rtept lon="37.31364472476414" lat="55.81036292891723"/><rtept lon="37.31385393706725" lat="55.81085532642185"/><rtept lon="37.31383247939514" lat="55.81097313839584"/><rtept lon="37.313792246259865" lat="55.8111679804836"/><rtept lon="37.31361253825588" lat="55.81124047961744"/><rtept lon="37.31362058488292" lat="55.81132506176883"/><rtept lon="37.31361253825588" lat="55.81144891387175"/><rtept lon="37.31359644500178" lat="55.81152443325248"/><rtept lon="37.313338952936334" lat="55.81176609423743"/><rtept lon="37.31312974063315" lat="55.81188088269854"/><rtept lon="37.311944204248526" lat="55.81194129753518"/><rtept lon="37.31187446681411" lat="55.81201379520974"/><rtept lon="37.31063528624922" lat="55.81215274873125"/><rtept lon="37.309621411241594" lat="55.8123853437284"/><rtept lon="37.30830712882429" lat="55.81282938484029"/><rtept lon="37.30677826968577" lat="55.81357548328385"/><rtept lon="37.30524404612925" lat="55.814345731790205"/><rtept lon="37.30490608779336" lat="55.81414788510396"/><rtept lon="37.30523868171123" lat="55.814374427027225"/><rtept lon="37.30520917741206" lat="55.814469574240086"/><rtept lon="37.30529232589152" lat="55.81458284442698"/><rtept lon="37.305737572587994" lat="55.81502686036063"/><rtept lon="37.30644031134985" lat="55.815549403209054"/><rtept lon="37.307180601037956" lat="55.815913366744084"/><rtept lon="37.30790479747198" lat="55.81631357167191"/><rtept lon="37.30836613742255" lat="55.8166186307702"/><rtept lon="37.309216397680274" lat="55.81721212994989"/><rtept lon="37.309559720434166" lat="55.81745375551341"/><rtept lon="37.30979307261847" lat="55.817545874862795"/><rtept lon="37.310109573282226" lat="55.817585138774824"/><rtept lon="37.31050654021644" lat="55.81757154742294"/><rtept lon="37.31194420424843" lat="55.81737975783191"/><rtept lon="37.31525941459075" lat="55.81689952461598"/><rtept lon="37.315720754541296" lat="55.81691764673169"/><rtept lon="37.31655760375395" lat="55.81709886742286"/><rtept lon="37.31672390071287" lat="55.81709433690956"/><rtept lon="37.31686069337262" lat="55.81701278769389"/><rtept lon="37.316868739999634" lat="55.816340755208884"/><rtept lon="37.3175714787615" lat="55.81628336761924"/><rtept lon="37.31809182731039" lat="55.816058347064946"/><rtept lon="37.3181508359087" lat="55.81597226503083"/><rtept lon="37.31897963849432" lat="55.815987367149575"/><rtept lon="37.31899036733037" lat="55.815827284324286"/><rtept lon="37.31905742255575" lat="55.81580916169862"/><rtept lon="37.321838873304145" lat="55.81579707993709"/><rtept lon="37.32193006841067" lat="55.81575630398566"/><rtept lon="37.32200248805405" lat="55.81570948709958"/><rtept lon="37.32203735677125" lat="55.815640016777316"/><rtept lon="37.3222599801195" lat="55.81562944519561"/><rtept lon="37.32282592622164" lat="55.815501075759144"/><rtept lon="37.322992223180556" lat="55.815581117928275"/><rtept lon="37.32313974467638" lat="55.81556299518748"/></rte></gpx>