<?xml version="1.0" encoding="UTF-8"?>
<gpx xmlns="http://www.topografix.com/GPX/1/1" xmlns:xsi="http://www.w3.org/2001/XMLSchema-instance" xsi:schemaLocation="http://www.topografix.com/GPX/1/1 http://www.topografix.com/GPX/1/1/gpx.xsd" version="1.1" creator="gpx.py -- https://github.com/tkrajina/gpxpy">
  <rte>
    <name>masstransit 115.0 km</name>
    <rtept lat="55.773422" lon="37.657677">
    </rtept>
    <rtept lat="55.773500999999996" lon="37.657629">
    </rtept>
    <rtept lat="55.77332199999999" lon="37.656683">
    </rtept>
    <rtept lat="55.77340099999999" lon="37.656637">
    </rtept>
    <rtept lat="55.77346399999999" lon="37.656600000000005">
    </rtept>
    <rtept lat="55.77372099999999" lon="37.657970000000006">
    </rtept>
    <rtept lat="55.77367799999999" lon="37.658038000000005">
    </rtept>
    <rtept lat="55.77367799999999" lon="37.658038000000005">
    </rtept>
    <rtept lat="55.77353699999999" lon="37.65812400000001">
    </rtept>
    <rtept lat="55.77397599999999" lon="37.660388000000005">
    </rtept>
    <rtept lat="55.77403299999999" lon="37.660682">
    </rtept>
    <rtept lat="55.77418299999999" lon="37.661228">
    </rtept>
    <rtept lat="55.774174999999985" lon="37.661207000000005">
    </rtept>
    <rtept lat="55.774807999999986" lon="37.663068">
    </rtept>
    <rtept lat="55.775303999999984" lon="37.664144">
    </rtept>
    <rtept lat="55.776277999999984" lon="37.665799">
    </rtept>
    <rtept lat="55.777250999999985" lon="37.667456">
    </rtept>
    <rtept lat="55.77738799999999" lon="37.667688">
    </rtept>
    <rtept lat="55.77737699999999" lon="37.667669">
    </rtept>
    <rtept lat="55.777684999999984" lon="37.66833">
    </rtept>
    <rtept lat="55.777920999999985" lon="37.668945">
    </rtept>
    <rtept lat="55.77830299999999" lon="37.670167">
    </rtept>
    <rtept lat="55.778891999999985" lon="37.672321">
    </rtept>
    <rtept lat="55.779234999999986" lon="37.673573">
    </rtept>
    <rtept lat="55.77985599999999" lon="37.675698">
    </rtept>
    <rtept lat="55.78047699999999" lon="37.677825999999996">
    </rtept>
    <rtept lat="55.78090199999999" lon="37.679283">
    </rtept>
    <rtept lat="55.78143699999999" lon="37.681481999999995">
    </rtept>
    <rtept lat="55.78145899999999" lon="37.681571">
    </rtept>
    <rtept lat="55.78158799999999" lon="37.68237">
    </rtept>
    <rtept lat="55.78180499999999" lon="37.684734999999996">
    </rtept>
    <rtept lat="55.781893999999994" lon="37.6857">
    </rtept>
    <rtept lat="55.78192899999999" lon="37.686575999999995">
    </rtept>
    <rtept lat="55.78192699999999" lon="37.686536999999994">
    </rtept>
    <rtept lat="55.78194399999999" lon="37.68893299999999">
    </rtept>
    <rtept lat="55.78195799999999" lon="37.69105599999999">
    </rtept>
    <rtept lat="55.782023999999986" lon="37.69344899999999">
    </rtept>
    <rtept lat="55.78205899999998" lon="37.69475099999999">
    </rtept>
    <rtept lat="55.78206199999998" lon="37.69690299999999">
    </rtept>
    <rtept lat="55.782018999999984" lon="37.69929899999999">
    </rtept>
    <rtept lat="55.78200299999998" lon="37.70022799999999">
    </rtept>
    <rtept lat="55.78191599999998" lon="37.70136999999999">
    </rtept>
    <rtept lat="55.78172399999998" lon="37.70258899999999">
    </rtept>
    <rtept lat="55.781407999999985" lon="37.70402599999999">
    </rtept>
    <rtept lat="55.78100699999999" lon="37.70544299999999">
    </rtept>
    <rtept lat="55.780557999999985" lon="37.70691699999999">
    </rtept>
    <rtept lat="55.780216999999986" lon="37.70783999999999">
    </rtept>
    <rtept lat="55.779842999999985" lon="37.70859799999999">
    </rtept>
    <rtept lat="55.779237999999985" lon="37.70958899999999">
    </rtept>
    <rtept lat="55.778610999999984" lon="37.710371999999985">
    </rtept>
    <rtept lat="55.77780899999998" lon="37.71120699999999">
    </rtept>
    <rtept lat="55.77661699999998" lon="37.71232099999999">
    </rtept>
    <rtept lat="55.77550899999998" lon="37.71335599999999">
    </rtept>
    <rtept lat="55.77449499999998" lon="37.71422999999999">
    </rtept>
    <rtept lat="55.77325899999998" lon="37.71518699999999">
    </rtept>
    <rtept lat="55.773167999999984" lon="37.71525799999999">
    </rtept>
    <rtept lat="55.77200399999998" lon="37.71608099999999">
    </rtept>
    <rtept lat="55.77073799999998" lon="37.71689699999999">
    </rtept>
    <rtept lat="55.77031799999998" lon="37.71716799999999">
    </rtept>
    <rtept lat="55.76976399999998" lon="37.717626999999986">
    </rtept>
    <rtept lat="55.76856799999998" lon="37.718730999999984">
    </rtept>
    <rtept lat="55.76737199999998" lon="37.71983499999998">
    </rtept>
    <rtept lat="55.76729399999998" lon="37.719906999999985">
    </rtept>
    <rtept lat="55.766745999999976" lon="37.720314999999985">
    </rtept>
    <rtept lat="55.766239999999975" lon="37.72058399999999">
    </rtept>
    <rtept lat="55.765972999999974" lon="37.720677999999985">
    </rtept>
    <rtept lat="55.76559199999998" lon="37.72075899999999">
    </rtept>
    <rtept lat="55.764908999999975" lon="37.72077199999999">
    </rtept>
    <rtept lat="55.76367199999997" lon="37.72068899999999">
    </rtept>
    <rtept lat="55.762747999999974" lon="37.72059099999999">
    </rtept>
    <rtept lat="55.762065999999976" lon="37.720375999999995">
    </rtept>
    <rtept lat="55.761519999999976" lon="37.72009299999999">
    </rtept>
    <rtept lat="55.760239999999975" lon="37.71934099999999">
    </rtept>
    <rtept lat="55.75895999999997" lon="37.718588999999994">
    </rtept>
    <rtept lat="55.75856999999997" lon="37.71835899999999">
    </rtept>
    <rtept lat="55.75772699999997" lon="37.71794299999999">
    </rtept>
    <rtept lat="55.757246999999964" lon="37.717769999999994">
    </rtept>
    <rtept lat="55.756458999999964" lon="37.717589">
    </rtept>
    <rtept lat="55.75553399999996" lon="37.717572">
    </rtept>
    <rtept lat="55.75471899999996" lon="37.717721999999995">
    </rtept>
    <rtept lat="55.75387399999996" lon="37.718036999999995">
    </rtept>
    <rtept lat="55.75318699999996" lon="37.71843">
    </rtept>
    <rtept lat="55.75264299999996" lon="37.718844">
    </rtept>
    <rtept lat="55.75223799999996" lon="37.719201999999996">
    </rtept>
    <rtept lat="55.751465999999965" lon="37.720045999999996">
    </rtept>
    <rtept lat="55.750908999999965" lon="37.720844">
    </rtept>
    <rtept lat="55.75043999999996" lon="37.721629">
    </rtept>
    <rtept lat="55.74972499999996" lon="37.723091">
    </rtept>
    <rtept lat="55.74919899999996" lon="37.724467">
    </rtept>
    <rtept lat="55.748623999999964" lon="37.726631999999995">
    </rtept>
    <rtept lat="55.74804799999996" lon="37.72879699999999">
    </rtept>
    <rtept lat="55.74747199999996" lon="37.73096099999999">
    </rtept>
    <rtept lat="55.74689699999996" lon="37.733124999999994">
    </rtept>
    <rtept lat="55.74632099999996" lon="37.73528999999999">
    </rtept>
    <rtept lat="55.74574499999996" lon="37.73745499999999">
    </rtept>
    <rtept lat="55.745536999999956" lon="37.73823699999999">
    </rtept>
    <rtept lat="55.745148999999955" lon="37.73939999999999">
    </rtept>
    <rtept lat="55.744518999999954" lon="37.74088699999999">
    </rtept>
    <rtept lat="55.744535999999954" lon="37.740847999999986">
    </rtept>
    <rtept lat="55.74376299999995" lon="37.74221499999999">
    </rtept>
    <rtept lat="55.74300599999995" lon="37.74334099999999">
    </rtept>
    <rtept lat="55.74302299999995" lon="37.743315999999986">
    </rtept>
    <rtept lat="55.74249399999995" lon="37.74400799999999">
    </rtept>
    <rtept lat="55.74137299999995" lon="37.74533599999999">
    </rtept>
    <rtept lat="55.741219999999956" lon="37.745516999999985">
    </rtept>
    <rtept lat="55.740536999999954" lon="37.74650399999999">
    </rtept>
    <rtept lat="55.74001499999996" lon="37.74738699999999">
    </rtept>
    <rtept lat="55.739638999999954" lon="37.74817199999999">
    </rtept>
    <rtept lat="55.73931899999995" lon="37.74895199999999">
    </rtept>
    <rtept lat="55.73888899999995" lon="37.750182999999986">
    </rtept>
    <rtept lat="55.73834499999995" lon="37.75235399999998">
    </rtept>
    <rtept lat="55.73796799999995" lon="37.75465099999998">
    </rtept>
    <rtept lat="55.73796299999995" lon="37.754680999999984">
    </rtept>
    <rtept lat="55.73765999999995" lon="37.757012999999986">
    </rtept>
    <rtept lat="55.73737199999995" lon="37.75922399999999">
    </rtept>
    <rtept lat="55.73698399999995" lon="37.76122499999999">
    </rtept>
    <rtept lat="55.73663999999995" lon="37.76237099999999">
    </rtept>
    <rtept lat="55.73631599999995" lon="37.76313799999999">
    </rtept>
    <rtept lat="55.735779999999956" lon="37.76426499999999">
    </rtept>
    <rtept lat="55.73490399999996" lon="37.766083999999985">
    </rtept>
    <rtept lat="55.73447499999996" lon="37.76697799999999">
    </rtept>
    <rtept lat="55.73355599999996" lon="37.76872999999999">
    </rtept>
    <rtept lat="55.73354399999996" lon="37.76875099999999">
    </rtept>
    <rtept lat="55.73318599999996" lon="37.76954399999999">
    </rtept>
    <rtept lat="55.73227799999996" lon="37.77131199999999">
    </rtept>
    <rtept lat="55.731369999999956" lon="37.773079999999986">
    </rtept>
    <rtept lat="55.730691999999955" lon="37.774402999999985">
    </rtept>
    <rtept lat="55.73019599999996" lon="37.77540299999998">
    </rtept>
    <rtept lat="55.72982399999996" lon="37.77631799999998">
    </rtept>
    <rtept lat="55.72914499999996" lon="37.77838499999998">
    </rtept>
    <rtept lat="55.72846599999996" lon="37.78045299999998">
    </rtept>
    <rtept lat="55.72778799999996" lon="37.78251999999998">
    </rtept>
    <rtept lat="55.72775099999996" lon="37.78263399999998">
    </rtept>
    <rtept lat="55.72705699999996" lon="37.78468599999998">
    </rtept>
    <rtept lat="55.72636299999996" lon="37.78673699999998">
    </rtept>
    <rtept lat="55.72566999999996" lon="37.78878899999998">
    </rtept>
    <rtept lat="55.724975999999955" lon="37.79084099999998">
    </rtept>
    <rtept lat="55.72428199999995" lon="37.79289199999998">
    </rtept>
    <rtept lat="55.723588999999954" lon="37.79494299999998">
    </rtept>
    <rtept lat="55.72329499999996" lon="37.79581499999998">
    </rtept>
    <rtept lat="55.72258299999996" lon="37.797845999999986">
    </rtept>
    <rtept lat="55.72234599999996" lon="37.798518999999985">
    </rtept>
    <rtept lat="55.72235899999996" lon="37.798478999999986">
    </rtept>
    <rtept lat="55.721687999999965" lon="37.80055299999999">
    </rtept>
    <rtept lat="55.721014999999966" lon="37.80262599999999">
    </rtept>
    <rtept lat="55.72034199999997" lon="37.80469899999999">
    </rtept>
    <rtept lat="55.72011899999997" lon="37.805384999999994">
    </rtept>
    <rtept lat="55.71942899999997" lon="37.807438999999995">
    </rtept>
    <rtept lat="55.718737999999966" lon="37.809493999999994">
    </rtept>
    <rtept lat="55.71804799999997" lon="37.811547999999995">
    </rtept>
    <rtept lat="55.71735799999997" lon="37.81360099999999">
    </rtept>
    <rtept lat="55.716666999999966" lon="37.81565499999999">
    </rtept>
    <rtept lat="55.71644299999996" lon="37.81632199999999">
    </rtept>
    <rtept lat="55.71643199999996" lon="37.81635099999999">
    </rtept>
    <rtept lat="55.71643199999996" lon="37.81635099999999">
    </rtept>
    <rtept lat="55.715743999999965" lon="37.81840499999999">
    </rtept>
    <rtept lat="55.71505399999997" lon="37.820460999999995">
    </rtept>
    <rtept lat="55.71436399999997" lon="37.82251599999999">
    </rtept>
    <rtept lat="55.71367399999997" lon="37.824569999999994">
    </rtept>
    <rtept lat="55.71298399999997" lon="37.82662499999999">
    </rtept>
    <rtept lat="55.71229399999997" lon="37.828678999999994">
    </rtept>
    <rtept lat="55.71160499999997" lon="37.83073399999999">
    </rtept>
    <rtept lat="55.71091399999997" lon="37.83278899999999">
    </rtept>
    <rtept lat="55.71022399999997" lon="37.83484199999999">
    </rtept>
    <rtept lat="55.70983599999997" lon="37.83599899999999">
    </rtept>
    <rtept lat="55.70913799999997" lon="37.83804499999999">
    </rtept>
    <rtept lat="55.70843999999997" lon="37.84009099999999">
    </rtept>
    <rtept lat="55.70785199999997" lon="37.84181499999999">
    </rtept>
    <rtept lat="55.70712199999997" lon="37.84382499999999">
    </rtept>
    <rtept lat="55.70694699999997" lon="37.84430599999999">
    </rtept>
    <rtept lat="55.706258999999974" lon="37.84636199999999">
    </rtept>
    <rtept lat="55.705852999999976" lon="37.84757299999999">
    </rtept>
    <rtept lat="55.70515399999998" lon="37.84961899999999">
    </rtept>
    <rtept lat="55.70445699999998" lon="37.85166399999999">
    </rtept>
    <rtept lat="55.704420999999975" lon="37.85176799999999">
    </rtept>
    <rtept lat="55.703688999999976" lon="37.85374199999999">
    </rtept>
    <rtept lat="55.70328599999998" lon="37.85471399999999">
    </rtept>
    <rtept lat="55.702447999999976" lon="37.85658799999999">
    </rtept>
    <rtept lat="55.70181299999997" lon="37.85800899999999">
    </rtept>
    <rtept lat="55.70091899999997" lon="37.85979599999999">
    </rtept>
    <rtept lat="55.70002399999997" lon="37.86158499999999">
    </rtept>
    <rtept lat="55.69912999999997" lon="37.86337199999999">
    </rtept>
    <rtept lat="55.698691999999966" lon="37.864248999999994">
    </rtept>
    <rtept lat="55.697791999999964" lon="37.866029999999995">
    </rtept>
    <rtept lat="55.69689199999996" lon="37.86780999999999">
    </rtept>
    <rtept lat="55.69599499999996" lon="37.86959099999999">
    </rtept>
    <rtept lat="55.69509499999996" lon="37.87137099999999">
    </rtept>
    <rtept lat="55.694583999999956" lon="37.87238099999999">
    </rtept>
    <rtept lat="55.693660999999956" lon="37.87412099999999">
    </rtept>
    <rtept lat="55.692735999999954" lon="37.87585899999999">
    </rtept>
    <rtept lat="55.69181099999995" lon="37.87759899999999">
    </rtept>
    <rtept lat="55.69088799999995" lon="37.87933899999999">
    </rtept>
    <rtept lat="55.69081299999995" lon="37.87947899999999">
    </rtept>
    <rtept lat="55.69029799999995" lon="37.88075899999999">
    </rtept>
    <rtept lat="55.68960999999995" lon="37.882814999999994">
    </rtept>
    <rtept lat="55.68955899999995" lon="37.882966999999994">
    </rtept>
    <rtept lat="55.68889199999995" lon="37.884499999999996">
    </rtept>
    <rtept lat="55.68814199999996" lon="37.885878">
    </rtept>
    <rtept lat="55.688150999999955" lon="37.885858999999996">
    </rtept>
    <rtept lat="55.687162999999956" lon="37.887485999999996">
    </rtept>
    <rtept lat="55.686712999999955" lon="37.88822699999999">
    </rtept>
    <rtept lat="55.685963999999956" lon="37.889556999999996">
    </rtept>
    <rtept lat="55.68512999999996" lon="37.891355">
    </rtept>
    <rtept lat="55.68421399999996" lon="37.893105">
    </rtept>
    <rtept lat="55.68402799999996" lon="37.893459">
    </rtept>
    <rtept lat="55.68314999999996" lon="37.895268">
    </rtept>
    <rtept lat="55.68249399999996" lon="37.896619">
    </rtept>
    <rtept lat="55.68249399999996" lon="37.896619">
    </rtept>
    <rtept lat="55.68246999999996" lon="37.896669">
    </rtept>
    <rtept lat="55.68156999999996" lon="37.898447000000004">
    </rtept>
    <rtept lat="55.68067099999996" lon="37.900225000000006">
    </rtept>
    <rtept lat="55.68045199999996" lon="37.90065500000001">
    </rtept>
    <rtept lat="55.67960799999996" lon="37.902088000000006">
    </rtept>
    <rtept lat="55.67870999999996" lon="37.90386900000001">
    </rtept>
    <rtept lat="55.67781199999996" lon="37.90565000000001">
    </rtept>
    <rtept lat="55.67691399999996" lon="37.90743200000001">
    </rtept>
    <rtept lat="55.676014999999964" lon="37.90921300000001">
    </rtept>
    <rtept lat="55.675116999999965" lon="37.910993000000005">
    </rtept>
    <rtept lat="55.67421799999997" lon="37.912774000000006">
    </rtept>
    <rtept lat="55.67331999999997" lon="37.91455500000001">
    </rtept>
    <rtept lat="55.67242099999997" lon="37.916335000000004">
    </rtept>
    <rtept lat="55.671521999999975" lon="37.918116000000005">
    </rtept>
    <rtept lat="55.671425999999975" lon="37.918307000000006">
    </rtept>
    <rtept lat="55.67092399999998" lon="37.919236000000005">
    </rtept>
    <rtept lat="55.669953999999976" lon="37.920892">
    </rtept>
    <rtept lat="55.66986199999997" lon="37.92105">
    </rtept>
    <rtept lat="55.668957999999975" lon="37.922822000000004">
    </rtept>
    <rtept lat="55.668692999999976" lon="37.923341">
    </rtept>
    <rtept lat="55.667795999999974" lon="37.925126">
    </rtept>
    <rtept lat="55.66751899999998" lon="37.925678">
    </rtept>
    <rtept lat="55.666666999999975" lon="37.927529">
    </rtept>
    <rtept lat="55.66611699999998" lon="37.928721">
    </rtept>
    <rtept lat="55.66521899999998" lon="37.930502000000004">
    </rtept>
    <rtept lat="55.66431999999998" lon="37.932282">
    </rtept>
    <rtept lat="55.66342199999998" lon="37.934062">
    </rtept>
    <rtept lat="55.66252399999998" lon="37.935841999999994">
    </rtept>
    <rtept lat="55.66162499999999" lon="37.937622999999995">
    </rtept>
    <rtept lat="55.66072599999999" lon="37.93940299999999">
    </rtept>
    <rtept lat="55.66038199999999" lon="37.940082999999994">
    </rtept>
    <rtept lat="55.659941999999994" lon="37.941016">
    </rtept>
    <rtept lat="55.659625999999996" lon="37.941812">
    </rtept>
    <rtept lat="55.659051999999996" lon="37.943548">
    </rtept>
    <rtept lat="55.65828499999999" lon="37.945512">
    </rtept>
    <rtept lat="55.65751699999999" lon="37.947476">
    </rtept>
    <rtept lat="55.657456999999994" lon="37.947631">
    </rtept>
    <rtept lat="55.65677999999999" lon="37.949694">
    </rtept>
    <rtept lat="55.65646099999999" lon="37.950667">
    </rtept>
    <rtept lat="55.655857999999995" lon="37.952804">
    </rtept>
    <rtept lat="55.655339" lon="37.954643">
    </rtept>
    <rtept lat="55.654807999999996" lon="37.956838999999995">
    </rtept>
    <rtept lat="55.65427699999999" lon="37.959033999999996">
    </rtept>
    <rtept lat="55.654275999999996" lon="37.959036999999995">
    </rtept>
    <rtept lat="55.653814" lon="37.961279999999995">
    </rtept>
    <rtept lat="55.653642" lon="37.962115">
    </rtept>
    <rtept lat="55.653226" lon="37.964386999999995">
    </rtept>
    <rtept lat="55.652809999999995" lon="37.966657">
    </rtept>
    <rtept lat="55.65239199999999" lon="37.968928999999996">
    </rtept>
    <rtept lat="55.65217499999999" lon="37.970116">
    </rtept>
    <rtept lat="55.65177099999999" lon="37.972395">
    </rtept>
    <rtept lat="55.651366999999986" lon="37.974672">
    </rtept>
    <rtept lat="55.65096399999999" lon="37.976951">
    </rtept>
    <rtept lat="55.65055899999999" lon="37.97923">
    </rtept>
    <rtept lat="55.65015599999999" lon="37.981507">
    </rtept>
    <rtept lat="55.64999199999999" lon="37.982427">
    </rtept>
    <rtept lat="55.64958499999999" lon="37.984703">
    </rtept>
    <rtept lat="55.64929499999999" lon="37.986322">
    </rtept>
    <rtept lat="55.648907999999984" lon="37.988609000000004">
    </rtept>
    <rtept lat="55.64852299999998" lon="37.990897000000004">
    </rtept>
    <rtept lat="55.648152999999986" lon="37.993087">
    </rtept>
    <rtept lat="55.64774199999999" lon="37.995361">
    </rtept>
    <rtept lat="55.64733099999999" lon="37.997635">
    </rtept>
    <rtept lat="55.64691899999999" lon="37.999909">
    </rtept>
    <rtept lat="55.64650699999999" lon="38.002183">
    </rtept>
    <rtept lat="55.646094999999995" lon="38.004456000000005">
    </rtept>
    <rtept lat="55.645683999999996" lon="38.006730000000005">
    </rtept>
    <rtept lat="55.645576" lon="38.00733100000001">
    </rtept>
    <rtept lat="55.645246" lon="38.008914000000004">
    </rtept>
    <rtept lat="55.644791" lon="38.010808000000004">
    </rtept>
    <rtept lat="55.644211999999996" lon="38.012964000000004">
    </rtept>
    <rtept lat="55.643632999999994" lon="38.01512">
    </rtept>
    <rtept lat="55.643618" lon="38.015179">
    </rtept>
    <rtept lat="55.642979" lon="38.017282">
    </rtept>
    <rtept lat="55.642342" lon="38.019386000000004">
    </rtept>
    <rtept lat="55.641704" lon="38.021488000000005">
    </rtept>
    <rtept lat="55.641065999999995" lon="38.02359200000001">
    </rtept>
    <rtept lat="55.640429" lon="38.025695000000006">
    </rtept>
    <rtept lat="55.63979" lon="38.027798000000004">
    </rtept>
    <rtept lat="55.639151999999996" lon="38.029900000000005">
    </rtept>
    <rtept lat="55.638513999999994" lon="38.032003">
    </rtept>
    <rtept lat="55.63787599999999" lon="38.034106">
    </rtept>
    <rtept lat="55.63723799999999" lon="38.036208">
    </rtept>
    <rtept lat="55.63659999999999" lon="38.038311">
    </rtept>
    <rtept lat="55.635961999999985" lon="38.040414">
    </rtept>
    <rtept lat="55.635322999999985" lon="38.042517">
    </rtept>
    <rtept lat="55.634796999999985" lon="38.04424899999999">
    </rtept>
    <rtept lat="55.63415899999998" lon="38.046350999999994">
    </rtept>
    <rtept lat="55.63351999999998" lon="38.048452999999995">
    </rtept>
    <rtept lat="55.63288099999998" lon="38.050554999999996">
    </rtept>
    <rtept lat="55.632241999999984" lon="38.052656">
    </rtept>
    <rtept lat="55.63160399999998" lon="38.054758">
    </rtept>
    <rtept lat="55.63096499999998" lon="38.05686">
    </rtept>
    <rtept lat="55.63032599999998" lon="38.058961000000004">
    </rtept>
    <rtept lat="55.62968699999998" lon="38.06106200000001">
    </rtept>
    <rtept lat="55.62942599999998" lon="38.061918000000006">
    </rtept>
    <rtept lat="55.62881899999998" lon="38.064049000000004">
    </rtept>
    <rtept lat="55.62821299999998" lon="38.066179000000005">
    </rtept>
    <rtept lat="55.62779899999998" lon="38.067628000000006">
    </rtept>
    <rtept lat="55.627164999999984" lon="38.069734000000004">
    </rtept>
    <rtept lat="55.62655199999998" lon="38.071767">
    </rtept>
    <rtept lat="55.626001999999986" lon="38.073588">
    </rtept>
    <rtept lat="55.62532499999998" lon="38.07565">
    </rtept>
    <rtept lat="55.62490899999998" lon="38.076914">
    </rtept>
    <rtept lat="55.62459699999998" lon="38.078054">
    </rtept>
    <rtept lat="55.62395299999998" lon="38.080151">
    </rtept>
    <rtept lat="55.62330899999998" lon="38.082248">
    </rtept>
    <rtept lat="55.62266599999998" lon="38.084342">
    </rtept>
    <rtept lat="55.62224799999998" lon="38.085703">
    </rtept>
    <rtept lat="55.62155799999998" lon="38.087752">
    </rtept>
    <rtept lat="55.62130399999998" lon="38.088505000000005">
    </rtept>
    <rtept lat="55.62056199999998" lon="38.090495000000004">
    </rtept>
    <rtept lat="55.620441999999976" lon="38.090818000000006">
    </rtept>
    <rtept lat="55.61996499999998" lon="38.091848000000006">
    </rtept>
    <rtept lat="55.61917399999998" lon="38.093779000000005">
    </rtept>
    <rtept lat="55.61838199999998" lon="38.095710000000004">
    </rtept>
    <rtept lat="55.61759099999998" lon="38.097642">
    </rtept>
    <rtept lat="55.616798999999986" lon="38.099573">
    </rtept>
    <rtept lat="55.61600699999999" lon="38.101503">
    </rtept>
    <rtept lat="55.61591499999999" lon="38.101729">
    </rtept>
    <rtept lat="55.61512599999999" lon="38.103663">
    </rtept>
    <rtept lat="55.61433699999999" lon="38.105596">
    </rtept>
    <rtept lat="55.613547999999994" lon="38.10753">
    </rtept>
    <rtept lat="55.61275799999999" lon="38.109463999999996">
    </rtept>
    <rtept lat="55.611968999999995" lon="38.111397999999994">
    </rtept>
    <rtept lat="55.61117899999999" lon="38.113330999999995">
    </rtept>
    <rtept lat="55.610389999999995" lon="38.115263999999996">
    </rtept>
    <rtept lat="55.609601" lon="38.117197999999995">
    </rtept>
    <rtept lat="55.608810999999996" lon="38.119130999999996">
    </rtept>
    <rtept lat="55.608022" lon="38.121064">
    </rtept>
    <rtept lat="55.607231999999996" lon="38.122997">
    </rtept>
    <rtept lat="55.606443" lon="38.124931">
    </rtept>
    <rtept lat="55.605654" lon="38.12686299999999">
    </rtept>
    <rtept lat="55.604863" lon="38.128795999999994">
    </rtept>
    <rtept lat="55.604074000000004" lon="38.130728999999995">
    </rtept>
    <rtept lat="55.603284" lon="38.13266099999999">
    </rtept>
    <rtept lat="55.602494" lon="38.13459299999999">
    </rtept>
    <rtept lat="55.601862" lon="38.13614399999999">
    </rtept>
    <rtept lat="55.601068" lon="38.13807099999999">
    </rtept>
    <rtept lat="55.600276" lon="38.13999899999999">
    </rtept>
    <rtept lat="55.599482" lon="38.14192699999999">
    </rtept>
    <rtept lat="55.598689" lon="38.14385499999999">
    </rtept>
    <rtept lat="55.598252" lon="38.14491599999999">
    </rtept>
    <rtept lat="55.59747" lon="38.14685699999999">
    </rtept>
    <rtept lat="55.596687" lon="38.14879899999999">
    </rtept>
    <rtept lat="55.59608" lon="38.15030299999999">
    </rtept>
    <rtept lat="55.595279" lon="38.152219999999986">
    </rtept>
    <rtept lat="55.594477" lon="38.154136999999984">
    </rtept>
    <rtept lat="55.593869999999995" lon="38.15559099999999">
    </rtept>
    <rtept lat="55.593087999999995" lon="38.15753199999999">
    </rtept>
    <rtept lat="55.592304999999996" lon="38.15947399999999">
    </rtept>
    <rtept lat="55.592152" lon="38.159854999999986">
    </rtept>
    <rtept lat="55.59136" lon="38.16178499999999">
    </rtept>
    <rtept lat="55.590569" lon="38.163713999999985">
    </rtept>
    <rtept lat="55.589777000000005" lon="38.16564299999998">
    </rtept>
    <rtept lat="55.58898500000001" lon="38.16757199999998">
    </rtept>
    <rtept lat="55.58819400000001" lon="38.169500999999975">
    </rtept>
    <rtept lat="55.58742000000001" lon="38.171383999999975">
    </rtept>
    <rtept lat="55.58664000000001" lon="38.173328999999974">
    </rtept>
    <rtept lat="55.58586100000001" lon="38.175272999999976">
    </rtept>
    <rtept lat="55.585080000000005" lon="38.17721599999997">
    </rtept>
    <rtept lat="55.58444600000001" lon="38.17879599999997">
    </rtept>
    <rtept lat="55.583650000000006" lon="38.18071999999997">
    </rtept>
    <rtept lat="55.582854000000005" lon="38.18264299999997">
    </rtept>
    <rtept lat="55.582403000000006" lon="38.18373299999997">
    </rtept>
    <rtept lat="55.581619" lon="38.185672999999966">
    </rtept>
    <rtept lat="55.580836000000005" lon="38.187611999999966">
    </rtept>
    <rtept lat="55.58055400000001" lon="38.188307999999964">
    </rtept>
    <rtept lat="55.579761000000005" lon="38.190234999999966">
    </rtept>
    <rtept lat="55.578968" lon="38.19216199999997">
    </rtept>
    <rtept lat="55.578174000000004" lon="38.194087999999965">
    </rtept>
    <rtept lat="55.57738200000001" lon="38.196015999999965">
    </rtept>
    <rtept lat="55.57658800000001" lon="38.19794299999997">
    </rtept>
    <rtept lat="55.57579500000001" lon="38.19986999999997">
    </rtept>
    <rtept lat="55.575002000000005" lon="38.201795999999966">
    </rtept>
    <rtept lat="55.574208000000006" lon="38.20372199999996">
    </rtept>
    <rtept lat="55.573415000000004" lon="38.205648999999966">
    </rtept>
    <rtept lat="55.572953000000005" lon="38.206768999999966">
    </rtept>
    <rtept lat="55.57215600000001" lon="38.208690999999966">
    </rtept>
    <rtept lat="55.571360000000006" lon="38.21061199999997">
    </rtept>
    <rtept lat="55.570562" lon="38.21253399999997">
    </rtept>
    <rtept lat="55.569764" lon="38.21445399999997">
    </rtept>
    <rtept lat="55.569065" lon="38.21613699999997">
    </rtept>
    <rtept lat="55.568302" lon="38.21810099999997">
    </rtept>
    <rtept lat="55.567539000000004" lon="38.22006399999997">
    </rtept>
    <rtept lat="55.566834" lon="38.22187399999997">
    </rtept>
    <rtept lat="55.566106" lon="38.22387899999997">
    </rtept>
    <rtept lat="55.565377" lon="38.22588499999997">
    </rtept>
    <rtept lat="55.565227" lon="38.22629899999997">
    </rtept>
    <rtept lat="55.565188" lon="38.22640499999997">
    </rtept>
    <rtept lat="55.565188" lon="38.22640499999997">
    </rtept>
    <rtept lat="55.564462999999996" lon="38.22841299999997">
    </rtept>
    <rtept lat="55.563736" lon="38.23041999999997">
    </rtept>
    <rtept lat="55.563010999999996" lon="38.23242799999996">
    </rtept>
    <rtept lat="55.562709" lon="38.233257999999964">
    </rtept>
    <rtept lat="55.562418" lon="38.23315199999996">
    </rtept>
    <rtept lat="55.561699000000004" lon="38.235165999999964">
    </rtept>
    <rtept lat="55.560979" lon="38.23718199999996">
    </rtept>
    <rtept lat="55.560261000000004" lon="38.23919699999996">
    </rtept>
    <rtept lat="55.560231" lon="38.23927799999996">
    </rtept>
    <rtept lat="55.55951" lon="38.241289999999964">
    </rtept>
    <rtept lat="55.559161" lon="38.242262999999966">
    </rtept>
    <rtept lat="55.558863" lon="38.24297999999997">
    </rtept>
    <rtept lat="55.558429000000004" lon="38.24387099999997">
    </rtept>
    <rtept lat="55.55748200000001" lon="38.24556699999997">
    </rtept>
    <rtept lat="55.55700600000001" lon="38.24641999999997">
    </rtept>
    <rtept lat="55.55655600000001" lon="38.24729499999997">
    </rtept>
    <rtept lat="55.556230000000006" lon="38.24805199999997">
    </rtept>
    <rtept lat="55.555519000000004" lon="38.250074999999974">
    </rtept>
    <rtept lat="55.554908000000005" lon="38.25181299999998">
    </rtept>
    <rtept lat="55.554370000000006" lon="38.25397599999998">
    </rtept>
    <rtept lat="55.55388000000001" lon="38.25555999999998">
    </rtept>
    <rtept lat="55.553138000000004" lon="38.25754799999998">
    </rtept>
    <rtept lat="55.552397000000006" lon="38.25953799999998">
    </rtept>
    <rtept lat="55.551655000000004" lon="38.261525999999975">
    </rtept>
    <rtept lat="55.550914000000006" lon="38.26351499999998">
    </rtept>
    <rtept lat="55.550714000000006" lon="38.264050999999974">
    </rtept>
    <rtept lat="55.55007700000001" lon="38.26567599999997">
    </rtept>
    <rtept lat="55.54923200000001" lon="38.26753099999997">
    </rtept>
    <rtept lat="55.54838500000001" lon="38.26938499999997">
    </rtept>
    <rtept lat="55.54818400000001" lon="38.26982799999997">
    </rtept>
    <rtept lat="55.547755000000016" lon="38.27086999999997">
    </rtept>
    <rtept lat="55.54756600000002" lon="38.27144399999997">
    </rtept>
    <rtept lat="55.547238000000014" lon="38.27283899999997">
    </rtept>
    <rtept lat="55.54680900000002" lon="38.27509699999997">
    </rtept>
    <rtept lat="55.546641000000015" lon="38.27598199999996">
    </rtept>
    <rtept lat="55.546154000000016" lon="38.27820299999996">
    </rtept>
    <rtept lat="55.54606300000002" lon="38.27861499999996">
    </rtept>
    <rtept lat="55.54549500000002" lon="38.28077499999996">
    </rtept>
    <rtept lat="55.545479000000014" lon="38.28083399999996">
    </rtept>
    <rtept lat="55.54482800000002" lon="38.282909999999966">
    </rtept>
    <rtept lat="55.54410100000002" lon="38.28491499999996">
    </rtept>
    <rtept lat="55.54337300000002" lon="38.28691999999996">
    </rtept>
    <rtept lat="55.54264600000002" lon="38.28892399999996">
    </rtept>
    <rtept lat="55.54191900000002" lon="38.29092999999996">
    </rtept>
    <rtept lat="55.541192000000024" lon="38.29293499999996">
    </rtept>
    <rtept lat="55.540595000000025" lon="38.294576999999954">
    </rtept>
    <rtept lat="55.539931000000024" lon="38.29636999999995">
    </rtept>
    <rtept lat="55.539151000000025" lon="38.298310999999956">
    </rtept>
    <rtept lat="55.53914100000002" lon="38.298333999999954">
    </rtept>
    <rtept lat="55.538307000000025" lon="38.30020399999995">
    </rtept>
    <rtept lat="55.53794000000003" lon="38.30102699999995">
    </rtept>
    <rtept lat="55.53705300000003" lon="38.30281999999995">
    </rtept>
    <rtept lat="55.53629500000003" lon="38.304357999999944">
    </rtept>
    <rtept lat="55.53533500000003" lon="38.306031999999945">
    </rtept>
    <rtept lat="55.534546000000034" lon="38.307410999999945">
    </rtept>
    <rtept lat="55.53353100000003" lon="38.30897799999995">
    </rtept>
    <rtept lat="55.53251600000003" lon="38.31054499999995">
    </rtept>
    <rtept lat="55.53150200000003" lon="38.31211199999995">
    </rtept>
    <rtept lat="55.53048700000003" lon="38.313677999999946">
    </rtept>
    <rtept lat="55.530038000000026" lon="38.31437199999995">
    </rtept>
    <rtept lat="55.52901500000002" lon="38.31592299999995">
    </rtept>
    <rtept lat="55.52799200000002" lon="38.317471999999945">
    </rtept>
    <rtept lat="55.52697000000002" lon="38.319022999999945">
    </rtept>
    <rtept lat="55.525947000000016" lon="38.320572999999946">
    </rtept>
    <rtept lat="55.52492400000001" lon="38.32212199999994">
    </rtept>
    <rtept lat="55.52390100000001" lon="38.323671999999945">
    </rtept>
    <rtept lat="55.52287900000001" lon="38.325222999999944">
    </rtept>
    <rtept lat="55.52185600000001" lon="38.32677199999994">
    </rtept>
    <rtept lat="55.520833" lon="38.32832099999994">
    </rtept>
    <rtept lat="55.51981" lon="38.32987099999994">
    </rtept>
    <rtept lat="55.518983" lon="38.33112299999994">
    </rtept>
    <rtept lat="55.518454999999996" lon="38.331844999999944">
    </rtept>
    <rtept lat="55.51742899999999" lon="38.333389999999945">
    </rtept>
    <rtept lat="55.51640299999999" lon="38.33493299999994">
    </rtept>
    <rtept lat="55.51560899999999" lon="38.33612999999994">
    </rtept>
    <rtept lat="55.51458699999999" lon="38.33768299999994">
    </rtept>
    <rtept lat="55.51431399999999" lon="38.33809699999994">
    </rtept>
    <rtept lat="55.51359999999999" lon="38.33926399999994">
    </rtept>
    <rtept lat="55.51256799999999" lon="38.340796999999945">
    </rtept>
    <rtept lat="55.51153799999999" lon="38.34232999999995">
    </rtept>
    <rtept lat="55.51050699999999" lon="38.343861999999945">
    </rtept>
    <rtept lat="55.51019499999999" lon="38.344325999999946">
    </rtept>
    <rtept lat="55.509179999999986" lon="38.34589199999994">
    </rtept>
    <rtept lat="55.50844699999999" lon="38.347021999999946">
    </rtept>
    <rtept lat="55.50742199999999" lon="38.348566999999946">
    </rtept>
    <rtept lat="55.50639799999999" lon="38.350111999999946">
    </rtept>
    <rtept lat="55.50537299999999" lon="38.35165599999995">
    </rtept>
    <rtept lat="55.50527799999999" lon="38.35179999999995">
    </rtept>
    <rtept lat="55.50499099999999" lon="38.35213099999995">
    </rtept>
    <rtept lat="55.50397599999999" lon="38.35369199999995">
    </rtept>
    <rtept lat="55.502957999999985" lon="38.35525399999995">
    </rtept>
    <rtept lat="55.50293199999999" lon="38.355294999999956">
    </rtept>
    <rtept lat="55.50210099999999" lon="38.35668699999996">
    </rtept>
    <rtept lat="55.50115399999999" lon="38.35837799999996">
    </rtept>
    <rtept lat="55.50020599999999" lon="38.36006799999996">
    </rtept>
    <rtept lat="55.50010199999999" lon="38.360252999999965">
    </rtept>
    <rtept lat="55.49922699999999" lon="38.362059999999964">
    </rtept>
    <rtept lat="55.49858699999999" lon="38.36337799999996">
    </rtept>
    <rtept lat="55.49858699999999" lon="38.36337799999996">
    </rtept>
    <rtept lat="55.49857699999999" lon="38.36339899999996">
    </rtept>
    <rtept lat="55.49775199999999" lon="38.36527899999996">
    </rtept>
    <rtept lat="55.49773499999999" lon="38.36531699999996">
    </rtept>
    <rtept lat="55.49780099999999" lon="38.365346999999964">
    </rtept>
    <rtept lat="55.49742299999999" lon="38.36618399999996">
    </rtept>
    <rtept lat="55.49662999999999" lon="38.36810699999996">
    </rtept>
    <rtept lat="55.49583599999999" lon="38.37002999999996">
    </rtept>
    <rtept lat="55.49504299999999" lon="38.37195199999996">
    </rtept>
    <rtept lat="55.49424999999999" lon="38.373874999999956">
    </rtept>
    <rtept lat="55.493456999999985" lon="38.37579799999995">
    </rtept>
    <rtept lat="55.49266199999999" lon="38.377719999999954">
    </rtept>
    <rtept lat="55.49186899999999" lon="38.37964299999995">
    </rtept>
    <rtept lat="55.491075999999985" lon="38.38156499999995">
    </rtept>
    <rtept lat="55.490281999999986" lon="38.38348799999995">
    </rtept>
    <rtept lat="55.489488999999985" lon="38.38540899999995">
    </rtept>
    <rtept lat="55.488694999999986" lon="38.38733099999995">
    </rtept>
    <rtept lat="55.487901999999984" lon="38.389252999999954">
    </rtept>
    <rtept lat="55.48710699999999" lon="38.391174999999954">
    </rtept>
    <rtept lat="55.486313999999986" lon="38.393096999999955">
    </rtept>
    <rtept lat="55.48551999999999" lon="38.395018999999955">
    </rtept>
    <rtept lat="55.484726999999985" lon="38.396940999999956">
    </rtept>
    <rtept lat="55.483932999999986" lon="38.398862999999956">
    </rtept>
    <rtept lat="55.483178999999986" lon="38.400689999999955">
    </rtept>
    <rtept lat="55.48238399999999" lon="38.40261099999996">
    </rtept>
    <rtept lat="55.48158999999999" lon="38.40453199999996">
    </rtept>
    <rtept lat="55.48079499999999" lon="38.40645099999996">
    </rtept>
    <rtept lat="55.48" lon="38.408371999999964">
    </rtept>
    <rtept lat="55.479206" lon="38.41029299999997">
    </rtept>
    <rtept lat="55.478411" lon="38.412212999999966">
    </rtept>
    <rtept lat="55.477617" lon="38.414132999999964">
    </rtept>
    <rtept lat="55.476822000000006" lon="38.41605399999997">
    </rtept>
    <rtept lat="55.47602800000001" lon="38.417973999999965">
    </rtept>
    <rtept lat="55.475232000000005" lon="38.419893999999964">
    </rtept>
    <rtept lat="55.474438000000006" lon="38.42181399999996">
    </rtept>
    <rtept lat="55.47401800000001" lon="38.422828999999965">
    </rtept>
    <rtept lat="55.473220000000005" lon="38.424744999999966">
    </rtept>
    <rtept lat="55.472421000000004" lon="38.426658999999965">
    </rtept>
    <rtept lat="55.47208200000001" lon="38.427474999999966">
    </rtept>
    <rtept lat="55.471239000000004" lon="38.429329999999965">
    </rtept>
    <rtept lat="55.470395" lon="38.431184999999964">
    </rtept>
    <rtept lat="55.469552" lon="38.433038999999965">
    </rtept>
    <rtept lat="55.468709" lon="38.434893999999964">
    </rtept>
    <rtept lat="55.467867" lon="38.436747999999966">
    </rtept>
    <rtept lat="55.467023999999995" lon="38.438602999999965">
    </rtept>
    <rtept lat="55.46618099999999" lon="38.44045699999997">
    </rtept>
    <rtept lat="55.46533799999999" lon="38.442311999999966">
    </rtept>
    <rtept lat="55.46449399999999" lon="38.44416599999997">
    </rtept>
    <rtept lat="55.463650999999984" lon="38.446018999999964">
    </rtept>
    <rtept lat="55.462808999999986" lon="38.44787199999996">
    </rtept>
    <rtept lat="55.462079999999986" lon="38.44947299999996">
    </rtept>
    <rtept lat="55.462079999999986" lon="38.44947299999996">
    </rtept>
    <rtept lat="55.46207899999999" lon="38.449477999999964">
    </rtept>
    <rtept lat="55.46123899999999" lon="38.45133699999997">
    </rtept>
    <rtept lat="55.460398999999995" lon="38.453194999999965">
    </rtept>
    <rtept lat="55.459560999999994" lon="38.455052999999964">
    </rtept>
    <rtept lat="55.458721" lon="38.45691199999997">
    </rtept>
    <rtept lat="55.458482" lon="38.45743699999997">
    </rtept>
    <rtept lat="55.45766999999999" lon="38.45933199999997">
    </rtept>
    <rtept lat="55.457539999999995" lon="38.459633999999966">
    </rtept>
    <rtept lat="55.456782999999994" lon="38.461598999999964">
    </rtept>
    <rtept lat="55.456331999999996" lon="38.462771999999966">
    </rtept>
    <rtept lat="55.455653" lon="38.464823999999965">
    </rtept>
    <rtept lat="55.454972" lon="38.46687699999996">
    </rtept>
    <rtept lat="55.454293" lon="38.46892799999996">
    </rtept>
    <rtept lat="55.453614" lon="38.47097999999996">
    </rtept>
    <rtept lat="55.452934" lon="38.47303299999996">
    </rtept>
    <rtept lat="55.452256" lon="38.47508399999996">
    </rtept>
    <rtept lat="55.451575999999996" lon="38.47713599999996">
    </rtept>
    <rtept lat="55.450897" lon="38.47918799999996">
    </rtept>
    <rtept lat="55.450216999999995" lon="38.48123899999996">
    </rtept>
    <rtept lat="55.449538" lon="38.48329099999996">
    </rtept>
    <rtept lat="55.448857999999994" lon="38.48534199999996">
    </rtept>
    <rtept lat="55.448178999999996" lon="38.48739299999996">
    </rtept>
    <rtept lat="55.448071999999996" lon="38.48771399999996">
    </rtept>
    <rtept lat="55.447382999999995" lon="38.489755999999964">
    </rtept>
    <rtept lat="55.446693999999994" lon="38.491795999999965">
    </rtept>
    <rtept lat="55.44600499999999" lon="38.493836999999964">
    </rtept>
    <rtept lat="55.44531599999999" lon="38.49587899999997">
    </rtept>
    <rtept lat="55.44497099999999" lon="38.49689699999997">
    </rtept>
    <rtept lat="55.44497099999999" lon="38.49689699999997">
    </rtept>
    <rtept lat="55.44496999999999" lon="38.49689999999997">
    </rtept>
    <rtept lat="55.44429499999999" lon="38.49895699999997">
    </rtept>
    <rtept lat="55.44362099999999" lon="38.50101299999997">
    </rtept>
    <rtept lat="55.44323299999999" lon="38.50219299999997">
    </rtept>
    <rtept lat="55.442584999999994" lon="38.50427599999997">
    </rtept>
    <rtept lat="55.442401999999994" lon="38.50486599999997">
    </rtept>
    <rtept lat="55.44216699999999" lon="38.50540599999997">
    </rtept>
    <rtept lat="55.44148799999999" lon="38.507456999999974">
    </rtept>
    <rtept lat="55.440808999999994" lon="38.509507999999975">
    </rtept>
    <rtept lat="55.44012899999999" lon="38.511559999999974">
    </rtept>
    <rtept lat="55.439449999999994" lon="38.513610999999976">
    </rtept>
    <rtept lat="55.43877199999999" lon="38.51566099999997">
    </rtept>
    <rtept lat="55.43809099999999" lon="38.517711999999975">
    </rtept>
    <rtept lat="55.437411999999995" lon="38.519762999999976">
    </rtept>
    <rtept lat="55.43709199999999" lon="38.52072999999998">
    </rtept>
    <rtept lat="55.43642299999999" lon="38.52279199999998">
    </rtept>
    <rtept lat="55.43641999999999" lon="38.52279999999998">
    </rtept>
    <rtept lat="55.43580299999999" lon="38.524889999999985">
    </rtept>
    <rtept lat="55.43580299999999" lon="38.524889999999985">
    </rtept>
    <rtept lat="55.43580299999999" lon="38.524892999999985">
    </rtept>
    <rtept lat="55.43529699999999" lon="38.52673699999998">
    </rtept>
    <rtept lat="55.43474299999999" lon="38.52890199999998">
    </rtept>
    <rtept lat="55.43429899999999" lon="38.53063899999998">
    </rtept>
    <rtept lat="55.433759999999985" lon="38.53281599999998">
    </rtept>
    <rtept lat="55.43322099999998" lon="38.53499199999998">
    </rtept>
    <rtept lat="55.43268199999998" lon="38.537168999999984">
    </rtept>
    <rtept lat="55.43214199999998" lon="38.53934499999998">
    </rtept>
    <rtept lat="55.431602999999974" lon="38.54152099999998">
    </rtept>
    <rtept lat="55.43106399999997" lon="38.54369699999998">
    </rtept>
    <rtept lat="55.43052499999997" lon="38.54587299999998">
    </rtept>
    <rtept lat="55.429985999999964" lon="38.54804899999998">
    </rtept>
    <rtept lat="55.42994199999996" lon="38.54822499999998">
    </rtept>
    <rtept lat="55.42939399999996" lon="38.55039399999998">
    </rtept>
    <rtept lat="55.42884599999996" lon="38.55256399999998">
    </rtept>
    <rtept lat="55.42829899999996" lon="38.554732999999985">
    </rtept>
    <rtept lat="55.42775099999996" lon="38.55690199999999">
    </rtept>
    <rtept lat="55.427202999999956" lon="38.55907099999999">
    </rtept>
    <rtept lat="55.426913999999954" lon="38.56021799999999">
    </rtept>
    <rtept lat="55.426913999999954" lon="38.56021799999999">
    </rtept>
    <rtept lat="55.426912999999956" lon="38.56021899999999">
    </rtept>
    <rtept lat="55.426375999999955" lon="38.56239599999999">
    </rtept>
    <rtept lat="55.425838999999954" lon="38.56457399999999">
    </rtept>
    <rtept lat="55.42530199999995" lon="38.566751">
    </rtept>
    <rtept lat="55.42513299999995" lon="38.567434">
    </rtept>
    <rtept lat="55.42458699999995" lon="38.569604">
    </rtept>
    <rtept lat="55.424039999999955" lon="38.571774">
    </rtept>
    <rtept lat="55.423493999999955" lon="38.573944">
    </rtept>
    <rtept lat="55.42294699999996" lon="38.576114999999994">
    </rtept>
    <rtept lat="55.42240099999996" lon="38.578284999999994">
    </rtept>
    <rtept lat="55.42185399999996" lon="38.58045499999999">
    </rtept>
    <rtept lat="55.42130799999996" lon="38.58262599999999">
    </rtept>
    <rtept lat="55.42076099999996" lon="38.58479499999999">
    </rtept>
    <rtept lat="55.42061199999996" lon="38.585387999999995">
    </rtept>
    <rtept lat="55.42009199999996" lon="38.587579">
    </rtept>
    <rtept lat="55.41994399999996" lon="38.588204">
    </rtept>
    <rtept lat="55.41953299999996" lon="38.590466">
    </rtept>
    <rtept lat="55.419446999999955" lon="38.590942">
    </rtept>
    <rtept lat="55.41913699999996" lon="38.593253">
    </rtept>
    <rtept lat="55.418979999999955" lon="38.594421">
    </rtept>
    <rtept lat="55.41880999999996" lon="38.596089">
    </rtept>
    <rtept lat="55.418695999999954" lon="38.597817">
    </rtept>
    <rtept lat="55.418613999999955" lon="38.600187">
    </rtept>
    <rtept lat="55.418594999999954" lon="38.600757">
    </rtept>
    <rtept lat="55.41861299999995" lon="38.602777">
    </rtept>
    <rtept lat="55.41872199999995" lon="38.605143000000005">
    </rtept>
    <rtept lat="55.41873099999995" lon="38.60533100000001">
    </rtept>
    <rtept lat="55.41893199999995" lon="38.607679000000005">
    </rtept>
    <rtept lat="55.41898799999995" lon="38.608347">
    </rtept>
    <rtept lat="55.41928499999995" lon="38.610662000000005">
    </rtept>
    <rtept lat="55.41958099999995" lon="38.612978000000005">
    </rtept>
    <rtept lat="55.41987899999995" lon="38.615294000000006">
    </rtept>
    <rtept lat="55.42017499999995" lon="38.617610000000006">
    </rtept>
    <rtept lat="55.420398999999954" lon="38.61935700000001">
    </rtept>
    <rtept lat="55.420490999999956" lon="38.62052200000001">
    </rtept>
    <rtept lat="55.42059099999996" lon="38.62288900000001">
    </rtept>
    <rtept lat="55.42059599999996" lon="38.623014000000005">
    </rtept>
    <rtept lat="55.42059999999996" lon="38.624286000000005">
    </rtept>
    <rtept lat="55.42055699999996" lon="38.625668000000005">
    </rtept>
    <rtept lat="55.42047199999996" lon="38.627008000000004">
    </rtept>
    <rtept lat="55.420312999999965" lon="38.628562">
    </rtept>
    <rtept lat="55.41998699999996" lon="38.630865">
    </rtept>
    <rtept lat="55.41994499999996" lon="38.631162">
    </rtept>
    <rtept lat="55.41950999999996" lon="38.633409">
    </rtept>
    <rtept lat="55.41950499999996" lon="38.633432">
    </rtept>
    <rtept lat="55.41919199999996" lon="38.634696">
    </rtept>
    <rtept lat="55.41873699999996" lon="38.636229">
    </rtept>
    <rtept lat="55.41801899999996" lon="38.638237">
    </rtept>
    <rtept lat="55.41791399999996" lon="38.638527999999994">
    </rtept>
    <rtept lat="55.41719099999996" lon="38.64016399999999">
    </rtept>
    <rtept lat="55.41667099999996" lon="38.641175999999994">
    </rtept>
    <rtept lat="55.415959999999956" lon="38.642402999999995">
    </rtept>
    <rtept lat="55.414969999999954" lon="38.64386999999999">
    </rtept>
    <rtept lat="55.413894999999954" lon="38.64529799999999">
    </rtept>
    <rtept lat="55.41281799999995" lon="38.64672699999999">
    </rtept>
    <rtept lat="55.41174299999995" lon="38.64815499999999">
    </rtept>
    <rtept lat="55.41066599999995" lon="38.64958399999999">
    </rtept>
    <rtept lat="55.40958999999995" lon="38.65101299999999">
    </rtept>
    <rtept lat="55.408513999999954" lon="38.65244099999999">
    </rtept>
    <rtept lat="55.407437999999956" lon="38.653868999999986">
    </rtept>
    <rtept lat="55.406360999999954" lon="38.65529699999998">
    </rtept>
    <rtept lat="55.405740999999956" lon="38.656120999999985">
    </rtept>
    <rtept lat="55.405740999999956" lon="38.656120999999985">
    </rtept>
    <rtept lat="55.404665999999956" lon="38.65754899999998">
    </rtept>
    <rtept lat="55.403588999999954" lon="38.65897699999998">
    </rtept>
    <rtept lat="55.40251199999995" lon="38.66040399999998">
    </rtept>
    <rtept lat="55.401435999999954" lon="38.661831999999976">
    </rtept>
    <rtept lat="55.40035999999996" lon="38.663258999999975">
    </rtept>
    <rtept lat="55.39928399999996" lon="38.66468699999997">
    </rtept>
    <rtept lat="55.39820699999996" lon="38.66611399999997">
    </rtept>
    <rtept lat="55.397129999999954" lon="38.66754099999997">
    </rtept>
    <rtept lat="55.39605399999996" lon="38.66896899999997">
    </rtept>
    <rtept lat="55.394976999999955" lon="38.67039599999997">
    </rtept>
    <rtept lat="55.39390099999996" lon="38.67182299999997">
    </rtept>
    <rtept lat="55.39282499999996" lon="38.67324899999997">
    </rtept>
    <rtept lat="55.39174799999996" lon="38.67467599999997">
    </rtept>
    <rtept lat="55.390670999999955" lon="38.67610199999997">
    </rtept>
    <rtept lat="55.38959399999995" lon="38.67752899999997">
    </rtept>
    <rtept lat="55.38854499999995" lon="38.67891999999997">
    </rtept>
    <rtept lat="55.38743899999995" lon="38.68027399999997">
    </rtept>
    <rtept lat="55.38682899999995" lon="38.68101899999997">
    </rtept>
    <rtept lat="55.38565799999995" lon="38.68219199999997">
    </rtept>
    <rtept lat="55.38557599999995" lon="38.682272999999974">
    </rtept>
    <rtept lat="55.38469899999995" lon="38.68301899999997">
    </rtept>
    <rtept lat="55.383452999999946" lon="38.683921999999974">
    </rtept>
    <rtept lat="55.38344699999995" lon="38.68392599999997">
    </rtept>
    <rtept lat="55.38266399999995" lon="38.68439299999997">
    </rtept>
    <rtept lat="55.38199999999995" lon="38.684740999999974">
    </rtept>
    <rtept lat="55.38068899999995" lon="38.68529099999997">
    </rtept>
    <rtept lat="55.380666999999946" lon="38.68529999999997">
    </rtept>
    <rtept lat="55.37981799999994" lon="38.68555999999997">
    </rtept>
    <rtept lat="55.37872199999995" lon="38.68582099999997">
    </rtept>
    <rtept lat="55.37823699999995" lon="38.68588999999997">
    </rtept>
    <rtept lat="55.37703999999995" lon="38.68598099999997">
    </rtept>
    <rtept lat="55.37569299999995" lon="38.685956999999966">
    </rtept>
    <rtept lat="55.37434499999995" lon="38.68593299999996">
    </rtept>
    <rtept lat="55.372997999999946" lon="38.68590899999996">
    </rtept>
    <rtept lat="55.37165099999994" lon="38.685884999999956">
    </rtept>
    <rtept lat="55.37030299999994" lon="38.68586099999995">
    </rtept>
    <rtept lat="55.36895599999994" lon="38.68583699999995">
    </rtept>
    <rtept lat="55.36760899999994" lon="38.685812999999946">
    </rtept>
    <rtept lat="55.36666599999994" lon="38.685796999999944">
    </rtept>
    <rtept lat="55.365318999999936" lon="38.685781999999946">
    </rtept>
    <rtept lat="55.36397199999993" lon="38.68576699999995">
    </rtept>
    <rtept lat="55.36262499999993" lon="38.68575199999995">
    </rtept>
    <rtept lat="55.36127799999993" lon="38.68573699999995">
    </rtept>
    <rtept lat="55.361005999999925" lon="38.685733999999954">
    </rtept>
    <rtept lat="55.359657999999925" lon="38.685693999999955">
    </rtept>
    <rtept lat="55.35861799999992" lon="38.68566199999996">
    </rtept>
    <rtept lat="55.35726999999992" lon="38.68564499999996">
    </rtept>
    <rtept lat="55.35592399999992" lon="38.68562799999996">
    </rtept>
    <rtept lat="55.35457699999992" lon="38.68560999999996">
    </rtept>
    <rtept lat="55.35409299999992" lon="38.68560399999996">
    </rtept>
    <rtept lat="55.35274499999992" lon="38.685568999999965">
    </rtept>
    <rtept lat="55.35139799999992" lon="38.68553399999997">
    </rtept>
    <rtept lat="55.351387999999915" lon="38.68553399999997">
    </rtept>
    <rtept lat="55.350039999999915" lon="38.68551999999997">
    </rtept>
    <rtept lat="55.34869399999992" lon="38.68550599999997">
    </rtept>
    <rtept lat="55.347346999999914" lon="38.68549099999997">
    </rtept>
    <rtept lat="55.345997999999916" lon="38.68547699999997">
    </rtept>
    <rtept lat="55.34579999999992" lon="38.68547499999997">
    </rtept>
    <rtept lat="55.344624999999915" lon="38.68543299999997">
    </rtept>
    <rtept lat="55.343276999999915" lon="38.68542699999997">
    </rtept>
    <rtept lat="55.34192999999991" lon="38.68542099999997">
    </rtept>
    <rtept lat="55.34058299999991" lon="38.68541499999997">
    </rtept>
    <rtept lat="55.33923399999991" lon="38.68540999999997">
    </rtept>
    <rtept lat="55.33827399999991" lon="38.68540499999997">
    </rtept>
    <rtept lat="55.33692699999991" lon="38.68536299999997">
    </rtept>
    <rtept lat="55.33592399999991" lon="38.68533199999997">
    </rtept>
    <rtept lat="55.33457699999991" lon="38.68531399999997">
    </rtept>
    <rtept lat="55.33322999999991" lon="38.68529699999997">
    </rtept>
    <rtept lat="55.33188099999991" lon="38.68527999999997">
    </rtept>
    <rtept lat="55.33053399999991" lon="38.68526199999997">
    </rtept>
    <rtept lat="55.33000399999991" lon="38.68525399999997">
    </rtept>
    <rtept lat="55.32884799999991" lon="38.68526499999997">
    </rtept>
    <rtept lat="55.328350999999905" lon="38.68532199999997">
    </rtept>
    <rtept lat="55.327875999999904" lon="38.68542099999997">
    </rtept>
    <rtept lat="55.3273169999999" lon="38.68559699999997">
    </rtept>
    <rtept lat="55.327295999999905" lon="38.685604999999974">
    </rtept>
    <rtept lat="55.327295999999905" lon="38.685604999999974">
    </rtept>
    <rtept lat="55.3268439999999" lon="38.68577999999997">
    </rtept>
    <rtept lat="55.3264539999999" lon="38.68598899999997">
    </rtept>
    <rtept lat="55.325683999999896" lon="38.68647699999997">
    </rtept>
    <rtept lat="55.324811999999895" lon="38.68717699999997">
    </rtept>
    <rtept lat="55.324842999999895" lon="38.68714999999997">
    </rtept>
    <rtept lat="55.324079999999896" lon="38.687926999999966">
    </rtept>
    <rtept lat="55.324105999999894" lon="38.68789599999997">
    </rtept>
    <rtept lat="55.32300699999989" lon="38.68926599999997">
    </rtept>
    <rtept lat="55.32290799999989" lon="38.68938899999997">
    </rtept>
    <rtept lat="55.322864999999894" lon="38.68933899999997">
    </rtept>
    <rtept lat="55.321769999999894" lon="38.690718999999966">
    </rtept>
    <rtept lat="55.32067599999989" lon="38.692100999999965">
    </rtept>
    <rtept lat="55.31958099999989" lon="38.69348099999996">
    </rtept>
    <rtept lat="55.31848599999989" lon="38.69486299999996">
    </rtept>
    <rtept lat="55.317392999999896" lon="38.69624299999996">
    </rtept>
    <rtept lat="55.3162979999999" lon="38.69762299999996">
    </rtept>
    <rtept lat="55.315203999999895" lon="38.69900399999996">
    </rtept>
    <rtept lat="55.31416899999989" lon="38.70030699999996">
    </rtept>
    <rtept lat="55.31369999999989" lon="38.70085499999996">
    </rtept>
    <rtept lat="55.31322899999989" lon="38.70124699999996">
    </rtept>
    <rtept lat="55.31324899999989" lon="38.70122999999996">
    </rtept>
    <rtept lat="55.31278799999989" lon="38.70156399999996">
    </rtept>
    <rtept lat="55.31278799999989" lon="38.70156399999996">
    </rtept>
    <rtept lat="55.31271499999989" lon="38.70161699999996">
    </rtept>
    <rtept lat="55.31273699999989" lon="38.70160399999996">
    </rtept>
    <rtept lat="55.311753999999894" lon="38.70232499999996">
    </rtept>
    <rtept lat="55.31104499999989" lon="38.70304899999996">
    </rtept>
    <rtept lat="55.31071299999989" lon="38.70347099999996">
    </rtept>
    <rtept lat="55.31025999999989" lon="38.70418799999996">
    </rtept>
    <rtept lat="55.30936299999989" lon="38.70595499999996">
    </rtept>
    <rtept lat="55.30922299999989" lon="38.70623199999996">
    </rtept>
    <rtept lat="55.30869299999989" lon="38.707169999999955">
    </rtept>
    <rtept lat="55.30764599999989" lon="38.708661999999954">
    </rtept>
    <rtept lat="55.30709499999989" lon="38.70944599999996">
    </rtept>
    <rtept lat="55.30600299999989" lon="38.71082999999996">
    </rtept>
    <rtept lat="55.30490999999989" lon="38.712215999999955">
    </rtept>
    <rtept lat="55.303816999999896" lon="38.71359999999996">
    </rtept>
    <rtept lat="55.3027239999999" lon="38.71498399999996">
    </rtept>
    <rtept lat="55.3016309999999" lon="38.71636799999996">
    </rtept>
    <rtept lat="55.300537999999904" lon="38.71775199999996">
    </rtept>
    <rtept lat="55.299444999999906" lon="38.71913699999996">
    </rtept>
    <rtept lat="55.29835199999991" lon="38.72052099999996">
    </rtept>
    <rtept lat="55.29725899999991" lon="38.721904999999964">
    </rtept>
    <rtept lat="55.29616699999991" lon="38.72328999999996">
    </rtept>
    <rtept lat="55.295073999999914" lon="38.72467299999996">
    </rtept>
    <rtept lat="55.29397999999991" lon="38.72605699999996">
    </rtept>
    <rtept lat="55.292886999999915" lon="38.72744099999996">
    </rtept>
    <rtept lat="55.29179399999992" lon="38.728824999999965">
    </rtept>
    <rtept lat="55.291617999999914" lon="38.72904899999997">
    </rtept>
    <rtept lat="55.29047599999991" lon="38.73030699999997">
    </rtept>
    <rtept lat="55.289993999999915" lon="38.73083799999997">
    </rtept>
    <rtept lat="55.288819999999916" lon="38.73199999999997">
    </rtept>
    <rtept lat="55.28764499999991" lon="38.733160999999974">
    </rtept>
    <rtept lat="55.286574999999914" lon="38.73421999999997">
    </rtept>
    <rtept lat="55.28608099999991" lon="38.73466799999997">
    </rtept>
    <rtept lat="55.28586099999991" lon="38.73485399999997">
    </rtept>
    <rtept lat="55.28460399999991" lon="38.73570699999997">
    </rtept>
    <rtept lat="55.28424399999991" lon="38.73595099999997">
    </rtept>
    <rtept lat="55.28329599999991" lon="38.73653399999997">
    </rtept>
    <rtept lat="55.28326199999991" lon="38.73647899999997">
    </rtept>
    <rtept lat="55.28322499999991" lon="38.736499999999964">
    </rtept>
    <rtept lat="55.28322499999991" lon="38.736499999999964">
    </rtept>
    <rtept lat="55.28195199999991" lon="38.73727199999996">
    </rtept>
    <rtept lat="55.281210999999914" lon="38.737720999999965">
    </rtept>
    <rtept lat="55.281229999999915" lon="38.73770799999996">
    </rtept>
    <rtept lat="55.280337999999915" lon="38.738331999999964">
    </rtept>
    <rtept lat="55.27953099999991" lon="38.73879799999997">
    </rtept>
    <rtept lat="55.27823999999991" lon="38.73947799999997">
    </rtept>
    <rtept lat="55.276949999999914" lon="38.74015699999997">
    </rtept>
    <rtept lat="55.27680399999991" lon="38.740233999999965">
    </rtept>
    <rtept lat="55.275527999999916" lon="38.74099499999996">
    </rtept>
    <rtept lat="55.274252999999916" lon="38.741753999999965">
    </rtept>
    <rtept lat="55.27297699999992" lon="38.742513999999964">
    </rtept>
    <rtept lat="55.27170099999992" lon="38.743273999999964">
    </rtept>
    <rtept lat="55.270424999999925" lon="38.744033999999964">
    </rtept>
    <rtept lat="55.27027499999993" lon="38.744122999999966">
    </rtept>
    <rtept lat="55.270252999999926" lon="38.74413599999997">
    </rtept>
    <rtept lat="55.270252999999926" lon="38.74413599999997">
    </rtept>
    <rtept lat="55.268977999999926" lon="38.74489599999997">
    </rtept>
    <rtept lat="55.26770199999993" lon="38.74565499999997">
    </rtept>
    <rtept lat="55.26642599999993" lon="38.74641499999997">
    </rtept>
    <rtept lat="55.26514899999993" lon="38.74717499999997">
    </rtept>
    <rtept lat="55.26387399999993" lon="38.74793299999997">
    </rtept>
    <rtept lat="55.26308199999993" lon="38.74840499999997">
    </rtept>
    <rtept lat="55.261803999999934" lon="38.74915099999997">
    </rtept>
    <rtept lat="55.260525999999935" lon="38.74989899999997">
    </rtept>
    <rtept lat="55.25924699999994" lon="38.75064599999997">
    </rtept>
    <rtept lat="55.25796899999994" lon="38.751392999999965">
    </rtept>
    <rtept lat="55.25668999999994" lon="38.75213999999996">
    </rtept>
    <rtept lat="55.256328999999944" lon="38.752349999999964">
    </rtept>
    <rtept lat="55.25505299999995" lon="38.75310899999997">
    </rtept>
    <rtept lat="55.253775999999945" lon="38.75386799999997">
    </rtept>
    <rtept lat="55.252500999999945" lon="38.75462499999997">
    </rtept>
    <rtept lat="55.251223999999944" lon="38.75538399999997">
    </rtept>
    <rtept lat="55.251040999999944" lon="38.75549099999997">
    </rtept>
    <rtept lat="55.251017999999945" lon="38.75550499999997">
    </rtept>
    <rtept lat="55.251017999999945" lon="38.75550499999997">
    </rtept>
    <rtept lat="55.24974099999994" lon="38.75625499999997">
    </rtept>
    <rtept lat="55.248462999999944" lon="38.75700599999997">
    </rtept>
    <rtept lat="55.247184999999945" lon="38.757755999999965">
    </rtept>
    <rtept lat="55.24590799999994" lon="38.75850599999996">
    </rtept>
    <rtept lat="55.244629999999944" lon="38.75925499999996">
    </rtept>
    <rtept lat="55.243351999999945" lon="38.76000599999996">
    </rtept>
    <rtept lat="55.242073999999945" lon="38.76075599999996">
    </rtept>
    <rtept lat="55.240796999999944" lon="38.761505999999954">
    </rtept>
    <rtept lat="55.23951799999995" lon="38.76225599999995">
    </rtept>
    <rtept lat="55.23823999999995" lon="38.76300599999995">
    </rtept>
    <rtept lat="55.23696199999995" lon="38.76375499999995">
    </rtept>
    <rtept lat="55.23568499999995" lon="38.76450499999994">
    </rtept>
    <rtept lat="55.23440699999995" lon="38.76525499999994">
    </rtept>
    <rtept lat="55.23326099999995" lon="38.76592699999994">
    </rtept>
    <rtept lat="55.231964999999946" lon="38.766572999999944">
    </rtept>
    <rtept lat="55.231449999999946" lon="38.76682999999994">
    </rtept>
    <rtept lat="55.23028599999994" lon="38.76731799999994">
    </rtept>
    <rtept lat="55.228964999999945" lon="38.76778699999994">
    </rtept>
    <rtept lat="55.228263999999946" lon="38.76803699999994">
    </rtept>
    <rtept lat="55.22693499999995" lon="38.76842599999994">
    </rtept>
    <rtept lat="55.22560699999995" lon="38.768815999999944">
    </rtept>
    <rtept lat="55.22427799999995" lon="38.76920599999995">
    </rtept>
    <rtept lat="55.22294899999995" lon="38.76959599999995">
    </rtept>
    <rtept lat="55.22161899999995" lon="38.76998599999995">
    </rtept>
    <rtept lat="55.220290999999946" lon="38.77037499999995">
    </rtept>
    <rtept lat="55.21896199999995" lon="38.77076599999995">
    </rtept>
    <rtept lat="55.21763299999995" lon="38.77115499999995">
    </rtept>
    <rtept lat="55.21630299999995" lon="38.77154499999995">
    </rtept>
    <rtept lat="55.21497399999995" lon="38.77193399999995">
    </rtept>
    <rtept lat="55.214963999999945" lon="38.77193799999995">
    </rtept>
    <rtept lat="55.214940999999946" lon="38.77194399999995">
    </rtept>
    <rtept lat="55.214940999999946" lon="38.77194399999995">
    </rtept>
    <rtept lat="55.21361199999995" lon="38.772332999999946">
    </rtept>
    <rtept lat="55.21228399999995" lon="38.77272099999995">
    </rtept>
    <rtept lat="55.21095499999995" lon="38.77310899999995">
    </rtept>
    <rtept lat="55.209624999999946" lon="38.77349799999995">
    </rtept>
    <rtept lat="55.20829599999995" lon="38.77388599999995">
    </rtept>
    <rtept lat="55.20696699999995" lon="38.774274999999946">
    </rtept>
    <rtept lat="55.20563799999995" lon="38.77466299999995">
    </rtept>
    <rtept lat="55.20430899999995" lon="38.77505099999995">
    </rtept>
    <rtept lat="55.202979999999954" lon="38.77543899999995">
    </rtept>
    <rtept lat="55.201650999999956" lon="38.77582799999995">
    </rtept>
    <rtept lat="55.20032099999995" lon="38.77621599999995">
    </rtept>
    <rtept lat="55.198991999999954" lon="38.77660399999995">
    </rtept>
    <rtept lat="55.19766399999995" lon="38.77699299999995">
    </rtept>
    <rtept lat="55.19633399999995" lon="38.77737999999995">
    </rtept>
    <rtept lat="55.19500499999995" lon="38.77776899999995">
    </rtept>
    <rtept lat="55.193675999999954" lon="38.77815699999995">
    </rtept>
    <rtept lat="55.192346999999955" lon="38.778543999999954">
    </rtept>
    <rtept lat="55.19101699999995" lon="38.77893299999995">
    </rtept>
    <rtept lat="55.19048599999995" lon="38.77908799999995">
    </rtept>
    <rtept lat="55.19045299999995" lon="38.77909699999995">
    </rtept>
    <rtept lat="55.19045299999995" lon="38.77909699999995">
    </rtept>
    <rtept lat="55.18912399999995" lon="38.77947899999995">
    </rtept>
    <rtept lat="55.18779499999995" lon="38.77986199999995">
    </rtept>
    <rtept lat="55.18646399999995" lon="38.78024299999995">
    </rtept>
    <rtept lat="55.18513399999995" lon="38.78062499999995">
    </rtept>
    <rtept lat="55.18392699999995" lon="38.78097199999995">
    </rtept>
    <rtept lat="55.18259799999995" lon="38.78136399999995">
    </rtept>
    <rtept lat="55.18126999999995" lon="38.78175699999995">
    </rtept>
    <rtept lat="55.17994099999995" lon="38.78214999999995">
    </rtept>
    <rtept lat="55.17861299999995" lon="38.78254199999995">
    </rtept>
    <rtept lat="55.17728399999995" lon="38.78293499999995">
    </rtept>
    <rtept lat="55.17595499999995" lon="38.783327999999955">
    </rtept>
    <rtept lat="55.17462699999995" lon="38.78372099999996">
    </rtept>
    <rtept lat="55.17455699999995" lon="38.78374099999996">
    </rtept>
    <rtept lat="55.17322699999995" lon="38.784118999999954">
    </rtept>
    <rtept lat="55.171896999999944" lon="38.78449799999996">
    </rtept>
    <rtept lat="55.170568999999944" lon="38.78487499999996">
    </rtept>
    <rtept lat="55.16958699999994" lon="38.78519799999996">
    </rtept>
    <rtept lat="55.16825699999994" lon="38.78557799999996">
    </rtept>
    <rtept lat="55.16692699999994" lon="38.78595699999996">
    </rtept>
    <rtept lat="55.165596999999934" lon="38.78633699999996">
    </rtept>
    <rtept lat="55.16426699999993" lon="38.78671699999996">
    </rtept>
    <rtept lat="55.16293699999993" lon="38.78709599999996">
    </rtept>
    <rtept lat="55.161606999999925" lon="38.78747599999996">
    </rtept>
    <rtept lat="55.161235999999924" lon="38.787581999999965">
    </rtept>
    <rtept lat="55.16027499999993" lon="38.78774999999997">
    </rtept>
    <rtept lat="55.158927999999925" lon="38.78780499999997">
    </rtept>
    <rtept lat="55.15867599999992" lon="38.78781499999997">
    </rtept>
    <rtept lat="55.15732899999992" lon="38.78775999999997">
    </rtept>
    <rtept lat="55.155981999999916" lon="38.78770399999997">
    </rtept>
    <rtept lat="55.154634999999914" lon="38.787648999999966">
    </rtept>
    <rtept lat="55.15328799999991" lon="38.78759399999996">
    </rtept>
    <rtept lat="55.15194199999991" lon="38.78753799999996">
    </rtept>
    <rtept lat="55.15059399999991" lon="38.78748299999996">
    </rtept>
    <rtept lat="55.14924699999991" lon="38.787427999999956">
    </rtept>
    <rtept lat="55.14789999999991" lon="38.78737099999996">
    </rtept>
    <rtept lat="55.146552999999905" lon="38.787315999999954">
    </rtept>
    <rtept lat="55.1452059999999" lon="38.78726099999995">
    </rtept>
    <rtept lat="55.1438589999999" lon="38.78720599999995">
    </rtept>
    <rtept lat="55.1436499999999" lon="38.78719699999995">
    </rtept>
    <rtept lat="55.1436499999999" lon="38.78719699999995">
    </rtept>
    <rtept lat="55.143648999999904" lon="38.78719699999995">
    </rtept>
    <rtept lat="55.142302999999906" lon="38.787141999999946">
    </rtept>
    <rtept lat="55.140954999999906" lon="38.787085999999945">
    </rtept>
    <rtept lat="55.13960899999991" lon="38.78703099999994">
    </rtept>
    <rtept lat="55.13826099999991" lon="38.78697599999994">
    </rtept>
    <rtept lat="55.13691499999991" lon="38.78691999999994">
    </rtept>
    <rtept lat="55.13556699999991" lon="38.786864999999935">
    </rtept>
    <rtept lat="55.13422099999991" lon="38.786808999999934">
    </rtept>
    <rtept lat="55.13287399999991" lon="38.78675399999993">
    </rtept>
    <rtept lat="55.13152599999991" lon="38.78669899999993">
    </rtept>
    <rtept lat="55.13017999999991" lon="38.78664299999993">
    </rtept>
    <rtept lat="55.12883199999991" lon="38.786587999999924">
    </rtept>
    <rtept lat="55.12748599999991" lon="38.78653299999992">
    </rtept>
    <rtept lat="55.12613799999991" lon="38.78647699999992">
    </rtept>
    <rtept lat="55.124791999999914" lon="38.78642199999992">
    </rtept>
    <rtept lat="55.123443999999914" lon="38.786365999999916">
    </rtept>
    <rtept lat="55.123001999999914" lon="38.78634799999992">
    </rtept>
    <rtept lat="55.121655999999916" lon="38.78622499999992">
    </rtept>
    <rtept lat="55.121312999999915" lon="38.78619399999992">
    </rtept>
    <rtept lat="55.120310999999916" lon="38.786036999999915">
    </rtept>
    <rtept lat="55.118971999999914" lon="38.78578799999992">
    </rtept>
    <rtept lat="55.11763299999991" lon="38.78553899999992">
    </rtept>
    <rtept lat="55.11677299999991" lon="38.78537899999992">
    </rtept>
    <rtept lat="55.11677299999991" lon="38.78537899999992">
    </rtept>
    <rtept lat="55.11675599999991" lon="38.78537599999992">
    </rtept>
    <rtept lat="55.11541699999991" lon="38.78510099999992">
    </rtept>
    <rtept lat="55.11495699999991" lon="38.78500699999992">
    </rtept>
    <rtept lat="55.11362699999991" lon="38.784622999999925">
    </rtept>
    <rtept lat="55.11229799999991" lon="38.78423899999993">
    </rtept>
    <rtept lat="55.11096899999991" lon="38.78385599999993">
    </rtept>
    <rtept lat="55.109639999999914" lon="38.78347199999993">
    </rtept>
    <rtept lat="55.108310999999915" lon="38.783087999999935">
    </rtept>
    <rtept lat="55.10698099999991" lon="38.782704999999936">
    </rtept>
    <rtept lat="55.10604999999991" lon="38.78243599999993">
    </rtept>
    <rtept lat="55.10472099999991" lon="38.782040999999936">
    </rtept>
    <rtept lat="55.10339299999991" lon="38.78164599999994">
    </rtept>
    <rtept lat="55.10206399999991" lon="38.78125099999994">
    </rtept>
    <rtept lat="55.101725999999914" lon="38.78115099999994">
    </rtept>
    <rtept lat="55.100956999999916" lon="38.78100999999994">
    </rtept>
    <rtept lat="55.10052799999992" lon="38.78101599999994">
    </rtept>
    <rtept lat="55.10052799999992" lon="38.78107099999994">
    </rtept>
    <rtept lat="55.10052799999992" lon="38.78107099999994">
    </rtept>
    <rtept lat="55.10052799999992" lon="38.78107599999994">
    </rtept>
    <rtept lat="55.10018999999992" lon="38.78108499999994">
    </rtept>
    <rtept lat="55.10010099999992" lon="38.78109899999994">
    </rtept>
    <rtept lat="55.10009499999992" lon="38.78097999999994">
    </rtept>
  </rte>
</gpx>