<?xml version="1.0" encoding="UTF-8"?>
<gpx version="1.1" creator="Yandex Map Constructor" xmlns="http://www.topografix.com/GPX/1/1"><metadata><name><![CDATA[Без названия]]></name><desc/><time>2026-06-29T16:53:32.333Z</time></metadata><rte><rtept lon="37.41331394746832" lat="55.972349986689"/><rtept lon="37.37675007417727" lat="55.960411498002294"/><rtept lon="37.33589466646245" lat="55.957137395251735"/><rtept lon="37.25657052363591" lat="55.95664134396155"/><rtept lon="37.17724638080939" lat="55.965004209286896"/><rtept lon="37.03717069721564" lat="56.007344820393"/><rtept lon="36.85864286518435" lat="56.145588818093394"/><rtept lon="36.83117704487187" lat="56.26805467091352"/><rtept lon="36.89675051019361" lat="56.96321053875549"/><rtept lon="36.663291037537334" lat="57.026172762155305"/><rtept lon="35.570151389099834" lat="57.02467490424616"/><rtept lon="32.73567873284958" lat="57.10397790587186"/><rtept lon="32.0819922094121" lat="57.187585052765954"/><rtept lon="31.44753176019319" lat="57.44911765551282"/><rtept lon="29.70619875238063" lat="58.42485771115237"/><rtept lon="28.338400900818176" lat="59.56149452874194"/><rtept lon="27.99233156488063" lat="59.81975287551431"/><rtept lon="27.333151877380637" lat="60.099341288247416"/><rtept lon="27.011801779724426" lat="60.11853608587329"/><rtept lon="26.349875510193186" lat="60.07601822632437"/><rtept lon="24.971091330505647" lat="59.86812676395722"/><rtept lon="23.905417502380683" lat="59.696426947096874"/><rtept lon="22.63649660394319" lat="59.453995379432044"/><rtept lon="21.400534689880672" lat="59.24922055113597"/><rtept lon="20.823752463318172" lat="58.322410786501884"/><rtept lon="20.33486086175563" lat="57.41801016069708"/><rtept lon="19.834982932068183" lat="56.35971778330908"/><rtept lon="19.66478397842773" lat="55.90595749809766"/><rtept lon="19.68675663467777" lat="55.67693770919655"/><rtept lon="20.07127811905278" lat="55.20540696796369"/><rtept lon="20.64806034561528" lat="54.9469679123322"/><rtept lon="20.645313763584035" lat="54.9153361531803"/><rtept lon="20.57527592178715" lat="54.88605452552712"/></rte></gpx>