<?xml version="1.0" encoding="UTF-8"?>
<gpx version="1.1" creator="Yandex Map Constructor" xmlns="http://www.topografix.com/GPX/1/1"><metadata><name><![CDATA[Без названия]]></name><desc/><time>2026-06-29T15:55:54.658Z</time></metadata><rte><rtept lon="30.36232288911866" lat="59.92957666048727"/><rtept lon="30.365584455280768" lat="59.92078728590348"/><rtept lon="30.36730106905031" lat="59.91259900230104"/><rtept lon="30.388243757038595" lat="59.896906312831476"/><rtept lon="30.531752668171375" lat="59.795068358863304"/><rtept lon="30.58668430879636" lat="59.75836822305667"/><rtept lon="30.62376316621823" lat="59.74658790300684"/><rtept lon="30.803664289265114" lat="59.59515282462918"/><rtept lon="30.89979466035886" lat="59.53522338245491"/><rtept lon="31.532881818561997" lat="59.20228443738608"/><rtept lon="31.94898899629633" lat="58.976135598189444"/><rtept lon="32.35548313692133" lat="58.78201742647434"/><rtept lon="32.50517185762446" lat="58.7056359392987"/><rtept lon="32.646620832233836" lat="58.671316616042404"/><rtept lon="32.85536106660882" lat="58.59827537515311"/><rtept lon="33.1835776193432" lat="58.42364688033654"/><rtept lon="33.334639631061904" lat="58.35802637006693"/><rtept lon="33.617537580280654" lat="58.150265351976515"/><rtept lon="33.72190769746816" lat="58.09867928176178"/><rtept lon="33.970473371296286" lat="57.94931243062158"/><rtept lon="34.06248386934316" lat="57.88280730931414"/><rtept lon="34.12153538301504" lat="57.872564778748696"/><rtept lon="34.20118626192129" lat="57.82423912009419"/><rtept lon="34.28633030489003" lat="57.77658202004284"/><rtept lon="34.327529035358786" lat="57.72445356480917"/><rtept lon="34.43464573457754" lat="57.66709866038133"/><rtept lon="34.514296613483786" lat="57.610389623356994"/><rtept lon="34.631026349811904" lat="57.58679606875431"/><rtept lon="34.7903281076244" lat="57.55654436324256"/><rtept lon="34.961989484577494" lat="57.44269040729359"/><rtept lon="35.35749729707746" lat="57.18782311275018"/><rtept lon="35.43302830293684" lat="57.14455051237687"/><rtept lon="35.527785383014965" lat="57.09375234126716"/><rtept lon="35.61704929903057" lat="57.01892201821486"/><rtept lon="35.835402570514944" lat="56.88008637233559"/><rtept lon="35.85600193574933" lat="56.8515044819506"/><rtept lon="36.008437238483694" lat="56.789753017822584"/><rtept lon="36.052382550983694" lat="56.75280395579696"/><rtept lon="36.16087254121807" lat="56.70826579307756"/><rtept lon="36.24327000215559" lat="56.69920069896523"/><rtept lon="36.28034885957746" lat="56.6833315078031"/><rtept lon="36.29408176973371" lat="56.65005999149536"/><rtept lon="36.31330784395245" lat="56.62584399538177"/><rtept lon="36.43690403535871" lat="56.55461920613778"/><rtept lon="36.55088718965557" lat="56.46805925370967"/><rtept lon="36.64289768770242" lat="56.38434822694685"/><rtept lon="36.71568211153053" lat="56.33708407871145"/><rtept lon="36.734908185749276" lat="56.30503299145408"/><rtept lon="36.76237400606178" lat="56.263784741592666"/><rtept lon="36.82279881074928" lat="56.23855547531522"/><rtept lon="36.93128880098366" lat="56.20642134758458"/><rtept lon="36.99308689668679" lat="56.17349408451678"/><rtept lon="37.02329929903054" lat="56.132103366939376"/><rtept lon="37.0603781564524" lat="56.08145388950512"/><rtept lon="37.148268781452366" lat="56.004584669914394"/><rtept lon="37.19358738496799" lat="55.97379390745838"/><rtept lon="37.31718357637424" lat="55.94683178589865"/><rtept lon="37.381728254108616" lat="55.927561577969385"/><rtept lon="37.55064304903049" lat="55.85192949528287"/><rtept lon="37.610381208210185" lat="55.813284649729376"/><rtept lon="37.642138562946506" lat="55.79249710757358"/><rtept lon="37.655528150348864" lat="55.776536317340664"/></rte></gpx>