<?xml version="1.0" encoding="UTF-8"?>
<gpx version="1.1" creator="Route Map" xmlns="http://www.topografix.com/GPX/1/1">
  <trk>
    <name>Тимирязево - Сокольники</name>
    <trkseg>
      <trkpt lat="55.8153705" lon="37.4933083">
        <ele>0</ele>
      </trkpt>
      <trkpt lat="55.8154671" lon="37.4932224">
        <ele>0</ele>
      </trkpt>
      <trkpt lat="55.8155336" lon="37.4894727">
        <ele>0</ele>
      </trkpt>
      <trkpt lat="55.8155819" lon="37.4895156">
        <ele>0</ele>
      </trkpt>
      <trkpt lat="55.8155305" lon="37.4929059">
        <ele>0</ele>
      </trkpt>
      <trkpt lat="55.8154399" lon="37.4958778">
        <ele>0</ele>
      </trkpt>
      <trkpt lat="55.815304" lon="37.4997509">
        <ele>0</ele>
      </trkpt>
      <trkpt lat="55.8152164" lon="37.4997134">
        <ele>0</ele>
      </trkpt>
      <trkpt lat="55.8151439" lon="37.5001747">
        <ele>0</ele>
      </trkpt>
      <trkpt lat="55.8150745" lon="37.5004966">
        <ele>0</ele>
      </trkpt>
      <trkpt lat="55.815008" lon="37.5008077">
        <ele>0</ele>
      </trkpt>
      <trkpt lat="55.815005" lon="37.5018967">
        <ele>0</ele>
      </trkpt>
      <trkpt lat="55.8151892" lon="37.5019182">
        <ele>0</ele>
      </trkpt>
      <trkpt lat="55.8152315" lon="37.5017572">
        <ele>0</ele>
      </trkpt>
      <trkpt lat="55.816334" lon="37.5007809">
        <ele>0</ele>
      </trkpt>
      <trkpt lat="55.8178532" lon="37.4995203">
        <ele>0</ele>
      </trkpt>
      <trkpt lat="55.8179801" lon="37.4996973">
        <ele>0</ele>
      </trkpt>
      <trkpt lat="55.8184573" lon="37.5016017">
        <ele>0</ele>
      </trkpt>
      <trkpt lat="55.8190824" lon="37.5039727">
        <ele>0</ele>
      </trkpt>
      <trkpt lat="55.8203056" lon="37.5087149">
        <ele>0</ele>
      </trkpt>
      <trkpt lat="55.8209851" lon="37.5114024">
        <ele>0</ele>
      </trkpt>
      <trkpt lat="55.8225766" lon="37.5174911">
        <ele>0</ele>
      </trkpt>
      <trkpt lat="55.8227186" lon="37.5182421">
        <ele>0</ele>
      </trkpt>
      <trkpt lat="55.8231746" lon="37.5198997">
        <ele>0</ele>
      </trkpt>
      <trkpt lat="55.8256176" lon="37.529223">
        <ele>0</ele>
      </trkpt>
      <trkpt lat="55.8255693" lon="37.5294001">
        <ele>0</ele>
      </trkpt>
      <trkpt lat="55.8257202" lon="37.5294752">
        <ele>0</ele>
      </trkpt>
      <trkpt lat="55.8258712" lon="37.529266">
        <ele>0</ele>
      </trkpt>
      <trkpt lat="55.8259377" lon="37.5292713">
        <ele>0</ele>
      </trkpt>
      <trkpt lat="55.8260162" lon="37.5296415">
        <ele>0</ele>
      </trkpt>
      <trkpt lat="55.8259105" lon="37.5302584">
        <ele>0</ele>
      </trkpt>
      <trkpt lat="55.8257897" lon="37.5302959">
        <ele>0</ele>
      </trkpt>
      <trkpt lat="55.8256478" lon="37.5304515">
        <ele>0</ele>
      </trkpt>
      <trkpt lat="55.8249472" lon="37.5297434">
        <ele>0</ele>
      </trkpt>
      <trkpt lat="55.8248898" lon="37.5297246">
        <ele>0</ele>
      </trkpt>
      <trkpt lat="55.8242859" lon="37.5291345">
        <ele>0</ele>
      </trkpt>
      <trkpt lat="55.8242058" lon="37.5291694">
        <ele>0</ele>
      </trkpt>
      <trkpt lat="55.8242255" lon="37.529097">
        <ele>0</ele>
      </trkpt>
      <trkpt lat="55.8249698" lon="37.5298158">
        <ele>0</ele>
      </trkpt>
      <trkpt lat="55.8256825" lon="37.5304676">
        <ele>0</ele>
      </trkpt>
      <trkpt lat="55.825832" lon="37.5304595">
        <ele>0</ele>
      </trkpt>
      <trkpt lat="55.8260011" lon="37.530363">
        <ele>0</ele>
      </trkpt>
      <trkpt lat="55.8260328" lon="37.530312">
        <ele>0</ele>
      </trkpt>
      <trkpt lat="55.8266759" lon="37.5318865">
        <ele>0</ele>
      </trkpt>
      <trkpt lat="55.8269387" lon="37.5324041">
        <ele>0</ele>
      </trkpt>
      <trkpt lat="55.8269809" lon="37.5331444">
        <ele>0</ele>
      </trkpt>
      <trkpt lat="55.8271047" lon="37.5350434">
        <ele>0</ele>
      </trkpt>
      <trkpt lat="55.8269583" lon="37.5351346">
        <ele>0</ele>
      </trkpt>
      <trkpt lat="55.8268918" lon="37.5352687">
        <ele>0</ele>
      </trkpt>
      <trkpt lat="55.8267922" lon="37.5355531">
        <ele>0</ele>
      </trkpt>
      <trkpt lat="55.8266699" lon="37.5369156">
        <ele>0</ele>
      </trkpt>
      <trkpt lat="55.8257927" lon="37.5377417">
        <ele>0</ele>
      </trkpt>
      <trkpt lat="55.8254303" lon="37.5382889">
        <ele>0</ele>
      </trkpt>
      <trkpt lat="55.8247268" lon="37.5389487">
        <ele>0</ele>
      </trkpt>
      <trkpt lat="55.8240473" lon="37.5405259">
        <ele>0</ele>
      </trkpt>
      <trkpt lat="55.8242557" lon="37.5409175">
        <ele>0</ele>
      </trkpt>
      <trkpt lat="55.8300955" lon="37.5524188">
        <ele>0</ele>
      </trkpt>
      <trkpt lat="55.8301181" lon="37.55251">
        <ele>0</ele>
      </trkpt>
      <trkpt lat="55.8300125" lon="37.5525904">
        <ele>0</ele>
      </trkpt>
      <trkpt lat="55.8301468" lon="37.5530572">
        <ele>0</ele>
      </trkpt>
      <trkpt lat="55.8299989" lon="37.5526092">
        <ele>0</ele>
      </trkpt>
      <trkpt lat="55.823318" lon="37.558156">
        <ele>0</ele>
      </trkpt>
      <trkpt lat="55.8234328" lon="37.5585745">
        <ele>0</ele>
      </trkpt>
      <trkpt lat="55.8235596" lon="37.5585584">
        <ele>0</ele>
      </trkpt>
      <trkpt lat="55.8236351" lon="37.5591216">
        <ele>0</ele>
      </trkpt>
      <trkpt lat="55.8237529" lon="37.5590358">
        <ele>0</ele>
      </trkpt>
      <trkpt lat="55.823774" lon="37.5586657">
        <ele>0</ele>
      </trkpt>
      <trkpt lat="55.8238525" lon="37.5584833">
        <ele>0</ele>
      </trkpt>
      <trkpt lat="55.8241122" lon="37.5581829">
        <ele>0</ele>
      </trkpt>
      <trkpt lat="55.824236" lon="37.5577805">
        <ele>0</ele>
      </trkpt>
      <trkpt lat="55.8242874" lon="37.5575338">
        <ele>0</ele>
      </trkpt>
      <trkpt lat="55.827141" lon="37.5552002">
        <ele>0</ele>
      </trkpt>
      <trkpt lat="55.8273357" lon="37.5558681">
        <ele>0</ele>
      </trkpt>
      <trkpt lat="55.8260298" lon="37.5569088">
        <ele>0</ele>
      </trkpt>
      <trkpt lat="55.8264767" lon="37.5584699">
        <ele>0</ele>
      </trkpt>
      <trkpt lat="55.8266156" lon="37.5587059">
        <ele>0</ele>
      </trkpt>
      <trkpt lat="55.8269024" lon="37.5585503">
        <ele>0</ele>
      </trkpt>
      <trkpt lat="55.8271168" lon="37.5584699">
        <ele>0</ele>
      </trkpt>
      <trkpt lat="55.8275577" lon="37.5581051">
        <ele>0</ele>
      </trkpt>
      <trkpt lat="55.8276845" lon="37.5579173">
        <ele>0</ele>
      </trkpt>
      <trkpt lat="55.8278536" lon="37.5577242">
        <ele>0</ele>
      </trkpt>
      <trkpt lat="55.8273735" lon="37.5559486">
        <ele>0</ele>
      </trkpt>
      <trkpt lat="55.8271757" lon="37.5553665">
        <ele>0</ele>
      </trkpt>
      <trkpt lat="55.8272784" lon="37.5552955">
        <ele>0</ele>
      </trkpt>
      <trkpt lat="55.8239975" lon="37.5622451">
        <ele>0</ele>
      </trkpt>
      <trkpt lat="55.8239741" lon="37.5621364">
        <ele>0</ele>
      </trkpt>
      <trkpt lat="55.8241711" lon="37.5620305">
        <ele>0</ele>
      </trkpt>
      <trkpt lat="55.8244708" lon="37.5636277">
        <ele>0</ele>
      </trkpt>
      <trkpt lat="55.8247879" lon="37.5652129">
        <ele>0</ele>
      </trkpt>
      <trkpt lat="55.8231814" lon="37.5660605">
        <ele>0</ele>
      </trkpt>
      <trkpt lat="55.8231512" lon="37.5662751">
        <ele>0</ele>
      </trkpt>
      <trkpt lat="55.8230847" lon="37.566436">
        <ele>0</ele>
      </trkpt>
      <trkpt lat="55.8227797" lon="37.5666184">
        <ele>0</ele>
      </trkpt>
      <trkpt lat="55.8225653" lon="37.5669349">
        <ele>0</ele>
      </trkpt>
      <trkpt lat="55.822061" lon="37.5665755">
        <ele>0</ele>
      </trkpt>
      <trkpt lat="55.8219266" lon="37.5664226">
        <ele>0</ele>
      </trkpt>
      <trkpt lat="55.8218662" lon="37.5662375">
        <ele>0</ele>
      </trkpt>
      <trkpt lat="55.821836" lon="37.5660927">
        <ele>0</ele>
      </trkpt>
      <trkpt lat="55.8216684" lon="37.5660283">
        <ele>0</ele>
      </trkpt>
      <trkpt lat="55.8215612" lon="37.5659559">
        <ele>0</ele>
      </trkpt>
      <trkpt lat="55.8214449" lon="37.5659747">
        <ele>0</ele>
      </trkpt>
      <trkpt lat="55.8213422" lon="37.5658808">
        <ele>0</ele>
      </trkpt>
      <trkpt lat="55.8211127" lon="37.5654355">
        <ele>0</ele>
      </trkpt>
      <trkpt lat="55.8207171" lon="37.5654892">
        <ele>0</ele>
      </trkpt>
      <trkpt lat="55.8202006" lon="37.5655482">
        <ele>0</ele>
      </trkpt>
      <trkpt lat="55.8200315" lon="37.565634">
        <ele>0</ele>
      </trkpt>
      <trkpt lat="55.8197718" lon="37.5659237">
        <ele>0</ele>
      </trkpt>
      <trkpt lat="55.8193309" lon="37.5664172">
        <ele>0</ele>
      </trkpt>
      <trkpt lat="55.8188718" lon="37.5668249">
        <ele>0</ele>
      </trkpt>
      <trkpt lat="55.818606" lon="37.5670368">
        <ele>0</ele>
      </trkpt>
      <trkpt lat="55.8185169" lon="37.5670663">
        <ele>0</ele>
      </trkpt>
      <trkpt lat="55.8184565" lon="37.5671441">
        <ele>0</ele>
      </trkpt>
      <trkpt lat="55.8184218" lon="37.5672782">
        <ele>0</ele>
      </trkpt>
      <trkpt lat="55.8183916" lon="37.5672836">
        <ele>0</ele>
      </trkpt>
      <trkpt lat="55.8182949" lon="37.5673024">
        <ele>0</ele>
      </trkpt>
      <trkpt lat="55.8176546" lon="37.5678066">
        <ele>0</ele>
      </trkpt>
      <trkpt lat="55.8177196" lon="37.5679783">
        <ele>0</ele>
      </trkpt>
      <trkpt lat="55.8177241" lon="37.5677718">
        <ele>0</ele>
      </trkpt>
      <trkpt lat="55.8183432" lon="37.5672675">
        <ele>0</ele>
      </trkpt>
      <trkpt lat="55.8184571" lon="37.5673242">
        <ele>0</ele>
      </trkpt>
      <trkpt lat="55.8193616" lon="37.5680215">
        <ele>0</ele>
      </trkpt>
      <trkpt lat="55.8204066" lon="37.5688101">
        <ele>0</ele>
      </trkpt>
      <trkpt lat="55.8205274" lon="37.5688584">
        <ele>0</ele>
      </trkpt>
      <trkpt lat="55.8206965" lon="37.5688048">
        <ele>0</ele>
      </trkpt>
      <trkpt lat="55.8229464" lon="37.5678231">
        <ele>0</ele>
      </trkpt>
      <trkpt lat="55.8234553" lon="37.5675924">
        <ele>0</ele>
      </trkpt>
      <trkpt lat="55.8237467" lon="37.5693466">
        <ele>0</ele>
      </trkpt>
      <trkpt lat="55.8237693" lon="37.5694646">
        <ele>0</ele>
      </trkpt>
      <trkpt lat="55.8238599" lon="37.5694485">
        <ele>0</ele>
      </trkpt>
      <trkpt lat="55.8244186" lon="37.5724579">
        <ele>0</ele>
      </trkpt>
      <trkpt lat="55.8248534" lon="37.5724204">
        <ele>0</ele>
      </trkpt>
      <trkpt lat="55.8251358" lon="37.5724177">
        <ele>0</ele>
      </trkpt>
      <trkpt lat="55.8251388" lon="37.5725089">
        <ele>0</ele>
      </trkpt>
      <trkpt lat="55.8253003" lon="37.572523">
        <ele>0</ele>
      </trkpt>
      <trkpt lat="55.8252972" lon="37.5741431">
        <ele>0</ele>
      </trkpt>
      <trkpt lat="55.8255222" lon="37.5741404">
        <ele>0</ele>
      </trkpt>
      <trkpt lat="55.8255735" lon="37.5740009">
        <ele>0</ele>
      </trkpt>
      <trkpt lat="55.8258634" lon="37.5746849">
        <ele>0</ele>
      </trkpt>
      <trkpt lat="55.8258951" lon="37.5755942">
        <ele>0</ele>
      </trkpt>
      <trkpt lat="55.8258378" lon="37.5757604">
        <ele>0</ele>
      </trkpt>
      <trkpt lat="55.8258212" lon="37.5759723">
        <ele>0</ele>
      </trkpt>
      <trkpt lat="55.8259102" lon="37.5775763">
        <ele>0</ele>
      </trkpt>
      <trkpt lat="55.8253003" lon="37.5776568">
        <ele>0</ele>
      </trkpt>
      <trkpt lat="55.825258" lon="37.5778043">
        <ele>0</ele>
      </trkpt>
      <trkpt lat="55.8251946" lon="37.5778553">
        <ele>0</ele>
      </trkpt>
      <trkpt lat="55.8247054" lon="37.5779652">
        <ele>0</ele>
      </trkpt>
      <trkpt lat="55.824728" lon="37.57833">
        <ele>0</ele>
      </trkpt>
      <trkpt lat="55.8245952" lon="37.5783193">
        <ele>0</ele>
      </trkpt>
      <trkpt lat="55.8246661" lon="37.5789657">
        <ele>0</ele>
      </trkpt>
      <trkpt lat="55.824719" lon="37.5795504">
        <ele>0</ele>
      </trkpt>
      <trkpt lat="55.82426" lon="37.5796523">
        <ele>0</ele>
      </trkpt>
      <trkpt lat="55.8243053" lon="37.5799259">
        <ele>0</ele>
      </trkpt>
      <trkpt lat="55.8243838" lon="37.5807011">
        <ele>0</ele>
      </trkpt>
      <trkpt lat="55.8245272" lon="37.5813931">
        <ele>0</ele>
      </trkpt>
      <trkpt lat="55.8249938" lon="37.5831848">
        <ele>0</ele>
      </trkpt>
      <trkpt lat="55.8251855" lon="37.5838741">
        <ele>0</ele>
      </trkpt>
      <trkpt lat="55.8244955" lon="37.5849309">
        <ele>0</ele>
      </trkpt>
      <trkpt lat="55.8216312" lon="37.5894558">
        <ele>0</ele>
      </trkpt>
      <trkpt lat="55.8217912" lon="37.5898742">
        <ele>0</ele>
      </trkpt>
      <trkpt lat="55.8220539" lon="37.5894183">
        <ele>0</ele>
      </trkpt>
      <trkpt lat="55.8223499" lon="37.5889516">
        <ele>0</ele>
      </trkpt>
      <trkpt lat="55.8226277" lon="37.5885707">
        <ele>0</ele>
      </trkpt>
      <trkpt lat="55.8226821" lon="37.588517">
        <ele>0</ele>
      </trkpt>
      <trkpt lat="55.8227629" lon="37.588517">
        <ele>0</ele>
      </trkpt>
      <trkpt lat="55.8228089" lon="37.5886163">
        <ele>0</ele>
      </trkpt>
      <trkpt lat="55.8227561" lon="37.5885398">
        <ele>0</ele>
      </trkpt>
      <trkpt lat="55.8226141" lon="37.5885452">
        <ele>0</ele>
      </trkpt>
      <trkpt lat="55.821989" lon="37.589488">
        <ele>0</ele>
      </trkpt>
      <trkpt lat="55.8224692" lon="37.5903758">
        <ele>0</ele>
      </trkpt>
      <trkpt lat="55.8227576" lon="37.5910034">
        <ele>0</ele>
      </trkpt>
      <trkpt lat="55.8227108" lon="37.5912046">
        <ele>0</ele>
      </trkpt>
      <trkpt lat="55.8226625" lon="37.5912395">
        <ele>0</ele>
      </trkpt>
      <trkpt lat="55.8224239" lon="37.5906494">
        <ele>0</ele>
      </trkpt>
      <trkpt lat="55.8226836" lon="37.5912556">
        <ele>0</ele>
      </trkpt>
      <trkpt lat="55.8227485" lon="37.591395">
        <ele>0</ele>
      </trkpt>
      <trkpt lat="55.8228678" lon="37.5916391">
        <ele>0</ele>
      </trkpt>
      <trkpt lat="55.8228557" lon="37.5918376">
        <ele>0</ele>
      </trkpt>
      <trkpt lat="55.8229569" lon="37.592079">
        <ele>0</ele>
      </trkpt>
      <trkpt lat="55.823964" lon="37.5941577">
        <ele>0</ele>
      </trkpt>
      <trkpt lat="55.8243053" lon="37.5942194">
        <ele>0</ele>
      </trkpt>
      <trkpt lat="55.8245227" lon="37.5939726">
        <ele>0</ele>
      </trkpt>
      <trkpt lat="55.8245272" lon="37.5939136">
        <ele>0</ele>
      </trkpt>
      <trkpt lat="55.8244019" lon="37.5940156">
        <ele>0</ele>
      </trkpt>
      <trkpt lat="55.8239761" lon="37.5945627">
        <ele>0</ele>
      </trkpt>
      <trkpt lat="55.823582" lon="37.5950804">
        <ele>0</ele>
      </trkpt>
      <trkpt lat="55.8232846" lon="37.5952977">
        <ele>0</ele>
      </trkpt>
      <trkpt lat="55.8229267" lon="37.5957536">
        <ele>0</ele>
      </trkpt>
      <trkpt lat="55.8224012" lon="37.5965824">
        <ele>0</ele>
      </trkpt>
      <trkpt lat="55.82222" lon="37.5968775">
        <ele>0</ele>
      </trkpt>
      <trkpt lat="55.8221491" lon="37.5971457">
        <ele>0</ele>
      </trkpt>
      <trkpt lat="55.822143" lon="37.5981864">
        <ele>0</ele>
      </trkpt>
      <trkpt lat="55.822143" lon="37.598865">
        <ele>0</ele>
      </trkpt>
      <trkpt lat="55.8220766" lon="37.5989213">
        <ele>0</ele>
      </trkpt>
      <trkpt lat="55.82206" lon="37.6003348">
        <ele>0</ele>
      </trkpt>
      <trkpt lat="55.8220026" lon="37.6020407">
        <ele>0</ele>
      </trkpt>
      <trkpt lat="55.8220343" lon="37.6025477">
        <ele>0</ele>
      </trkpt>
      <trkpt lat="55.8219422" lon="37.6025369">
        <ele>0</ele>
      </trkpt>
      <trkpt lat="55.8219029" lon="37.6022231">
        <ele>0</ele>
      </trkpt>
      <trkpt lat="55.8218154" lon="37.6024699">
        <ele>0</ele>
      </trkpt>
      <trkpt lat="55.8216447" lon="37.6027327">
        <ele>0</ele>
      </trkpt>
      <trkpt lat="55.8214439" lon="37.6028025">
        <ele>0</ele>
      </trkpt>
      <trkpt lat="55.8214077" lon="37.6026764">
        <ele>0</ele>
      </trkpt>
      <trkpt lat="55.8214605" lon="37.6031297">
        <ele>0</ele>
      </trkpt>
      <trkpt lat="55.8214198" lon="37.6036071">
        <ele>0</ele>
      </trkpt>
      <trkpt lat="55.8213503" lon="37.6101678">
        <ele>0</ele>
      </trkpt>
      <trkpt lat="55.8212778" lon="37.6195931">
        <ele>0</ele>
      </trkpt>
      <trkpt lat="55.8212386" lon="37.6199472">
        <ele>0</ele>
      </trkpt>
      <trkpt lat="55.8212355" lon="37.6205909">
        <ele>0</ele>
      </trkpt>
      <trkpt lat="55.8198795" lon="37.6204407">
        <ele>0</ele>
      </trkpt>
      <trkpt lat="55.8176144" lon="37.6202234">
        <ele>0</ele>
      </trkpt>
      <trkpt lat="55.8176159" lon="37.6205238">
        <ele>0</ele>
      </trkpt>
      <trkpt lat="55.8166856" lon="37.6204997">
        <ele>0</ele>
      </trkpt>
      <trkpt lat="55.8166705" lon="37.6214385">
        <ele>0</ele>
      </trkpt>
      <trkpt lat="55.8166826" lon="37.6220017">
        <ele>0</ele>
      </trkpt>
      <trkpt lat="55.8164425" lon="37.6220017">
        <ele>0</ele>
      </trkpt>
      <trkpt lat="55.8164032" lon="37.6229405">
        <ele>0</ele>
      </trkpt>
      <trkpt lat="55.8160574" lon="37.6229244">
        <ele>0</ele>
      </trkpt>
      <trkpt lat="55.8158399" lon="37.6229083">
        <ele>0</ele>
      </trkpt>
      <trkpt lat="55.8157387" lon="37.6229781">
        <ele>0</ele>
      </trkpt>
      <trkpt lat="55.8154125" lon="37.6229164">
        <ele>0</ele>
      </trkpt>
      <trkpt lat="55.8152721" lon="37.6229459">
        <ele>0</ele>
      </trkpt>
      <trkpt lat="55.815112" lon="37.6230666">
        <ele>0</ele>
      </trkpt>
      <trkpt lat="55.81526" lon="37.6240831">
        <ele>0</ele>
      </trkpt>
      <trkpt lat="55.8149051" lon="37.6245069">
        <ele>0</ele>
      </trkpt>
      <trkpt lat="55.8148114" lon="37.624802">
        <ele>0</ele>
      </trkpt>
      <trkpt lat="55.8147299" lon="37.6249683">
        <ele>0</ele>
      </trkpt>
      <trkpt lat="55.8142013" lon="37.6256174">
        <ele>0</ele>
      </trkpt>
      <trkpt lat="55.8138751" lon="37.6260304">
        <ele>0</ele>
      </trkpt>
      <trkpt lat="55.8139536" lon="37.6261538">
        <ele>0</ele>
      </trkpt>
      <trkpt lat="55.813869" lon="37.626245">
        <ele>0</ele>
      </trkpt>
      <trkpt lat="55.8138207" lon="37.6261216">
        <ele>0</ele>
      </trkpt>
      <trkpt lat="55.8131018" lon="37.6268136">
        <ele>0</ele>
      </trkpt>
      <trkpt lat="55.8135881" lon="37.6280367">
        <ele>0</ele>
      </trkpt>
      <trkpt lat="55.8140865" lon="37.6289111">
        <ele>0</ele>
      </trkpt>
      <trkpt lat="55.8145124" lon="37.6300215">
        <ele>0</ele>
      </trkpt>
      <trkpt lat="55.8149685" lon="37.6312554">
        <ele>0</ele>
      </trkpt>
      <trkpt lat="55.8149957" lon="37.6317703">
        <ele>0</ele>
      </trkpt>
      <trkpt lat="55.8149232" lon="37.6323229">
        <ele>0</ele>
      </trkpt>
      <trkpt lat="55.8147933" lon="37.6324731">
        <ele>0</ele>
      </trkpt>
      <trkpt lat="55.8149534" lon="37.6328432">
        <ele>0</ele>
      </trkpt>
      <trkpt lat="55.8140774" lon="37.6336264">
        <ele>0</ele>
      </trkpt>
      <trkpt lat="55.814017" lon="37.6346135">
        <ele>0</ele>
      </trkpt>
      <trkpt lat="55.8138448" lon="37.6375425">
        <ele>0</ele>
      </trkpt>
      <trkpt lat="55.8134824" lon="37.6374566">
        <ele>0</ele>
      </trkpt>
      <trkpt lat="55.8134824" lon="37.6376444">
        <ele>0</ele>
      </trkpt>
      <trkpt lat="55.8130988" lon="37.63758">
        <ele>0</ele>
      </trkpt>
      <trkpt lat="55.8133857" lon="37.6375907">
        <ele>0</ele>
      </trkpt>
      <trkpt lat="55.8133223" lon="37.6384544">
        <ele>0</ele>
      </trkpt>
      <trkpt lat="55.8130565" lon="37.6384008">
        <ele>0</ele>
      </trkpt>
      <trkpt lat="55.8134854" lon="37.6384544">
        <ele>0</ele>
      </trkpt>
      <trkpt lat="55.8136153" lon="37.6385241">
        <ele>0</ele>
      </trkpt>
      <trkpt lat="55.8135186" lon="37.6398652">
        <ele>0</ele>
      </trkpt>
      <trkpt lat="55.8133011" lon="37.642923">
        <ele>0</ele>
      </trkpt>
      <trkpt lat="55.8131652" lon="37.645927">
        <ele>0</ele>
      </trkpt>
      <trkpt lat="55.8129779" lon="37.6491189">
        <ele>0</ele>
      </trkpt>
      <trkpt lat="55.8128631" lon="37.6509267">
        <ele>0</ele>
      </trkpt>
      <trkpt lat="55.8127846" lon="37.6512754">
        <ele>0</ele>
      </trkpt>
      <trkpt lat="55.8124795" lon="37.6521283">
        <ele>0</ele>
      </trkpt>
      <trkpt lat="55.8117213" lon="37.6531368">
        <ele>0</ele>
      </trkpt>
      <trkpt lat="55.811244" lon="37.6538074">
        <ele>0</ele>
      </trkpt>
      <trkpt lat="55.8110567" lon="37.6538664">
        <ele>0</ele>
      </trkpt>
      <trkpt lat="55.8109299" lon="37.6539576">
        <ele>0</ele>
      </trkpt>
      <trkpt lat="55.8108664" lon="37.6542687">
        <ele>0</ele>
      </trkpt>
      <trkpt lat="55.8096974" lon="37.6559049">
        <ele>0</ele>
      </trkpt>
      <trkpt lat="55.8089331" lon="37.6569456">
        <ele>0</ele>
      </trkpt>
      <trkpt lat="55.808779" lon="37.6572406">
        <ele>0</ele>
      </trkpt>
      <trkpt lat="55.8086189" lon="37.6573908">
        <ele>0</ele>
      </trkpt>
      <trkpt lat="55.8085343" lon="37.6572406">
        <ele>0</ele>
      </trkpt>
      <trkpt lat="55.8082775" lon="37.6582491">
        <ele>0</ele>
      </trkpt>
      <trkpt lat="55.8081325" lon="37.6581472">
        <ele>0</ele>
      </trkpt>
      <trkpt lat="55.8043288" lon="37.6633882">
        <ele>0</ele>
      </trkpt>
      <trkpt lat="55.798884" lon="37.6708448">
        <ele>0</ele>
      </trkpt>
      <trkpt lat="55.7956143" lon="37.6753133">
        <ele>0</ele>
      </trkpt>
      <trkpt lat="55.7953454" lon="37.6748681">
        <ele>0</ele>
      </trkpt>
      <trkpt lat="55.7950311" lon="37.6746106">
        <ele>0</ele>
      </trkpt>
      <trkpt lat="55.7946533" lon="37.6745516">
        <ele>0</ele>
      </trkpt>
      <trkpt lat="55.7943843" lon="37.6746481">
        <ele>0</ele>
      </trkpt>
      <trkpt lat="55.7941547" lon="37.6748037">
        <ele>0</ele>
      </trkpt>
      <trkpt lat="55.7938645" lon="37.6752221">
        <ele>0</ele>
      </trkpt>
      <trkpt lat="55.7936439" lon="37.6760107">
        <ele>0</ele>
      </trkpt>
      <trkpt lat="55.7936107" lon="37.6765793">
        <ele>0</ele>
      </trkpt>
      <trkpt lat="55.793662" lon="37.6771265">
        <ele>0</ele>
      </trkpt>
      <trkpt lat="55.7937557" lon="37.6774966">
        <ele>0</ele>
      </trkpt>
      <trkpt lat="55.7938524" lon="37.6777756">
        <ele>0</ele>
      </trkpt>
      <trkpt lat="55.794061" lon="37.6781082">
        <ele>0</ele>
      </trkpt>
      <trkpt lat="55.7943753" lon="37.6783979">
        <ele>0</ele>
      </trkpt>
      <trkpt lat="55.7947984" lon="37.6784998">
        <ele>0</ele>
      </trkpt>
      <trkpt lat="55.7951761" lon="37.6783389">
        <ele>0</ele>
      </trkpt>
      <trkpt lat="55.7954632" lon="37.6780599">
        <ele>0</ele>
      </trkpt>
      <trkpt lat="55.7957322" lon="37.6774913">
        <ele>0</ele>
      </trkpt>
      <trkpt lat="55.7958561" lon="37.6767724">
        <ele>0</ele>
      </trkpt>
      <trkpt lat="55.7958047" lon="37.6759302">
        <ele>0</ele>
      </trkpt>
      <trkpt lat="55.7956355" lon="37.6753723">
        <ele>0</ele>
      </trkpt>
      <trkpt lat="55.7952819" lon="37.6748332">
        <ele>0</ele>
      </trkpt>
      <trkpt lat="55.7947969" lon="37.6745355">
        <ele>0</ele>
      </trkpt>
      <trkpt lat="55.7944266" lon="37.6745945">
        <ele>0</ele>
      </trkpt>
      <trkpt lat="55.7940564" lon="37.6749566">
        <ele>0</ele>
      </trkpt>
      <trkpt lat="55.7937361" lon="37.675595">
        <ele>0</ele>
      </trkpt>
      <trkpt lat="55.7935971" lon="37.6763621">
        <ele>0</ele>
      </trkpt>
      <trkpt lat="55.793662" lon="37.6772016">
        <ele>0</ele>
      </trkpt>
      <trkpt lat="55.7926874" lon="37.6777112">
        <ele>0</ele>
      </trkpt>
      <trkpt lat="55.7924093" lon="37.6778775">
        <ele>0</ele>
      </trkpt>
      <trkpt lat="55.7923187" lon="37.6774484">
        <ele>0</ele>
      </trkpt>
      <trkpt lat="55.7919046" lon="37.6766866">
        <ele>0</ele>
      </trkpt>
      <trkpt lat="55.7921071" lon="37.6766169">
        <ele>0</ele>
      </trkpt>
      <trkpt lat="55.7918955" lon="37.6756566">
        <ele>0</ele>
      </trkpt>
      <trkpt lat="55.7916628" lon="37.6753831">
        <ele>0</ele>
      </trkpt>
      <trkpt lat="55.7916538" lon="37.6739025">
        <ele>0</ele>
      </trkpt>
      <trkpt lat="55.7917172" lon="37.6689136">
        <ele>0</ele>
      </trkpt>
      <trkpt lat="55.7914906" lon="37.6652014">
        <ele>0</ele>
      </trkpt>
      <trkpt lat="55.7913848" lon="37.6651853">
        <ele>0</ele>
      </trkpt>
      <trkpt lat="55.7912065" lon="37.6651317">
        <ele>0</ele>
      </trkpt>
      <trkpt lat="55.7904599" lon="37.6652014">
        <ele>0</ele>
      </trkpt>
      <trkpt lat="55.7896862" lon="37.6663655">
        <ele>0</ele>
      </trkpt>
      <trkpt lat="55.7888459" lon="37.6642304">
        <ele>0</ele>
      </trkpt>
      <trkpt lat="55.78845" lon="37.6635062">
        <ele>0</ele>
      </trkpt>
      <trkpt lat="55.787791" lon="37.6621383">
        <ele>0</ele>
      </trkpt>
      <trkpt lat="55.7873225" lon="37.6619506">
        <ele>0</ele>
      </trkpt>
      <trkpt lat="55.7870958" lon="37.6619506">
        <ele>0</ele>
      </trkpt>
      <trkpt lat="55.7870172" lon="37.6622563">
        <ele>0</ele>
      </trkpt>
      <trkpt lat="55.7871049" lon="37.662149">
        <ele>0</ele>
      </trkpt>
      <trkpt lat="55.7871321" lon="37.6617789">
        <ele>0</ele>
      </trkpt>
      <trkpt lat="55.7872349" lon="37.6611995">
        <ele>0</ele>
      </trkpt>
      <trkpt lat="55.7872319" lon="37.6608348">
        <ele>0</ele>
      </trkpt>
      <trkpt lat="55.7871382" lon="37.6605397">
        <ele>0</ele>
      </trkpt>
      <trkpt lat="55.7864248" lon="37.659043">
        <ele>0</ele>
      </trkpt>
      <trkpt lat="55.7863553" lon="37.6590269">
        <ele>0</ele>
      </trkpt>
      <trkpt lat="55.7863009" lon="37.6591932">
        <ele>0</ele>
      </trkpt>
      <trkpt lat="55.7861981" lon="37.659102">
        <ele>0</ele>
      </trkpt>
      <trkpt lat="55.7851129" lon="37.6603573">
        <ele>0</ele>
      </trkpt>
      <trkpt lat="55.7848076" lon="37.6595097">
        <ele>0</ele>
      </trkpt>
      <trkpt lat="55.7840277" lon="37.6571279">
        <ele>0</ele>
      </trkpt>
      <trkpt lat="55.7837526" lon="37.6576805">
        <ele>0</ele>
      </trkpt>
      <trkpt lat="55.7836529" lon="37.6579004">
        <ele>0</ele>
      </trkpt>
      <trkpt lat="55.7832448" lon="37.6583779">
        <ele>0</ele>
      </trkpt>
      <trkpt lat="55.7823711" lon="37.6560712">
        <ele>0</ele>
      </trkpt>
      <trkpt lat="55.7809654" lon="37.6577931">
        <ele>0</ele>
      </trkpt>
      <trkpt lat="55.7805361" lon="37.6585602">
        <ele>0</ele>
      </trkpt>
      <trkpt lat="55.7799254" lon="37.6592093">
        <ele>0</ele>
      </trkpt>
      <trkpt lat="55.7796865" lon="37.6593488">
        <ele>0</ele>
      </trkpt>
      <trkpt lat="55.7794114" lon="37.6594615">
        <ele>0</ele>
      </trkpt>
      <trkpt lat="55.7792331" lon="37.6593756">
        <ele>0</ele>
      </trkpt>
      <trkpt lat="55.7790214" lon="37.6590377">
        <ele>0</ele>
      </trkpt>
      <trkpt lat="55.7789065" lon="37.6586836">
        <ele>0</ele>
      </trkpt>
      <trkpt lat="55.7784561" lon="37.6592093">
        <ele>0</ele>
      </trkpt>
      <trkpt lat="55.7783351" lon="37.6593381">
        <ele>0</ele>
      </trkpt>
      <trkpt lat="55.7781628" lon="37.6592469">
        <ele>0</ele>
      </trkpt>
      <trkpt lat="55.7779058" lon="37.6589626">
        <ele>0</ele>
      </trkpt>
      <trkpt lat="55.7777939" lon="37.6587909">
        <ele>0</ele>
      </trkpt>
      <trkpt lat="55.7777184" lon="37.6585012">
        <ele>0</ele>
      </trkpt>
      <trkpt lat="55.7775702" lon="37.65841">
        <ele>0</ele>
      </trkpt>
      <trkpt lat="55.7772769" lon="37.6585549">
        <ele>0</ele>
      </trkpt>
      <trkpt lat="55.7767418" lon="37.6584583">
        <ele>0</ele>
      </trkpt>
      <trkpt lat="55.7765332" lon="37.65841">
        <ele>0</ele>
      </trkpt>
      <trkpt lat="55.776382" lon="37.65841">
        <ele>0</ele>
      </trkpt>
      <trkpt lat="55.776258" lon="37.6576107">
        <ele>0</ele>
      </trkpt>
      <trkpt lat="55.7759164" lon="37.6565057">
        <ele>0</ele>
      </trkpt>
      <trkpt lat="55.7756352" lon="37.6552504">
        <ele>0</ele>
      </trkpt>
      <trkpt lat="55.7752965" lon="37.6537966">
        <ele>0</ele>
      </trkpt>
      <trkpt lat="55.7751272" lon="37.6531207">
        <ele>0</ele>
      </trkpt>
      <trkpt lat="55.7750698" lon="37.6526218">
        <ele>0</ele>
      </trkpt>
      <trkpt lat="55.7759224" lon="37.6519674">
        <ele>0</ele>
      </trkpt>
    </trkseg>
    <trkseg>
      <trkpt lat="55.815594" lon="37.323256">
        <ele>0</ele>
      </trkpt>
      <trkpt lat="55.815624" lon="37.323176">
        <ele>0</ele>
      </trkpt>
      <trkpt lat="55.815512" lon="37.323041">
        <ele>0</ele>
      </trkpt>
      <trkpt lat="55.815187" lon="37.322632">
        <ele>0</ele>
      </trkpt>
      <trkpt lat="55.814884" lon="37.322239">
        <ele>0</ele>
      </trkpt>
      <trkpt lat="55.814846" lon="37.322172">
        <ele>0</ele>
      </trkpt>
      <trkpt lat="55.814749" lon="37.322038">
        <ele>0</ele>
      </trkpt>
      <trkpt lat="55.814573" lon="37.321847">
        <ele>0</ele>
      </trkpt>
      <trkpt lat="55.814423" lon="37.321683">
        <ele>0</ele>
      </trkpt>
      <trkpt lat="55.814162" lon="37.321374">
        <ele>0</ele>
      </trkpt>
      <trkpt lat="55.814062" lon="37.321256">
        <ele>0</ele>
      </trkpt>
      <trkpt lat="55.814015" lon="37.321188">
        <ele>0</ele>
      </trkpt>
      <trkpt lat="55.813931" lon="37.321067">
        <ele>0</ele>
      </trkpt>
      <trkpt lat="55.813909" lon="37.321012">
        <ele>0</ele>
      </trkpt>
      <trkpt lat="55.813892" lon="37.320797">
        <ele>0</ele>
      </trkpt>
      <trkpt lat="55.813876" lon="37.320736">
        <ele>0</ele>
      </trkpt>
      <trkpt lat="55.813849" lon="37.320706">
        <ele>0</ele>
      </trkpt>
      <trkpt lat="55.813816" lon="37.320696">
        <ele>0</ele>
      </trkpt>
      <trkpt lat="55.813729" lon="37.320697">
        <ele>0</ele>
      </trkpt>
      <trkpt lat="55.81369" lon="37.320697">
        <ele>0</ele>
      </trkpt>
      <trkpt lat="55.81367" lon="37.320689">
        <ele>0</ele>
      </trkpt>
      <trkpt lat="55.813636" lon="37.32066">
        <ele>0</ele>
      </trkpt>
      <trkpt lat="55.813595" lon="37.320619">
        <ele>0</ele>
      </trkpt>
      <trkpt lat="55.813548" lon="37.320545">
        <ele>0</ele>
      </trkpt>
      <trkpt lat="55.813396" lon="37.320364">
        <ele>0</ele>
      </trkpt>
      <trkpt lat="55.813351" lon="37.320423">
        <ele>0</ele>
      </trkpt>
      <trkpt lat="55.8132" lon="37.320232">
        <ele>0</ele>
      </trkpt>
      <trkpt lat="55.813235" lon="37.3202">
        <ele>0</ele>
      </trkpt>
      <trkpt lat="55.813212" lon="37.320149">
        <ele>0</ele>
      </trkpt>
      <trkpt lat="55.813156" lon="37.320069">
        <ele>0</ele>
      </trkpt>
      <trkpt lat="55.812736" lon="37.319551">
        <ele>0</ele>
      </trkpt>
      <trkpt lat="55.81248" lon="37.319231">
        <ele>0</ele>
      </trkpt>
      <trkpt lat="55.812471" lon="37.319189">
        <ele>0</ele>
      </trkpt>
      <trkpt lat="55.81248" lon="37.319231">
        <ele>0</ele>
      </trkpt>
      <trkpt lat="55.812321" lon="37.319035">
        <ele>0</ele>
      </trkpt>
      <trkpt lat="55.812296" lon="37.318993">
        <ele>0</ele>
      </trkpt>
      <trkpt lat="55.81227" lon="37.318939">
        <ele>0</ele>
      </trkpt>
      <trkpt lat="55.812248" lon="37.318879">
        <ele>0</ele>
      </trkpt>
      <trkpt lat="55.812228" lon="37.318818">
        <ele>0</ele>
      </trkpt>
      <trkpt lat="55.812205" lon="37.318717">
        <ele>0</ele>
      </trkpt>
      <trkpt lat="55.812178" lon="37.318543">
        <ele>0</ele>
      </trkpt>
      <trkpt lat="55.811991" lon="37.317178">
        <ele>0</ele>
      </trkpt>
      <trkpt lat="55.811951" lon="37.316924">
        <ele>0</ele>
      </trkpt>
      <trkpt lat="55.811917" lon="37.316787">
        <ele>0</ele>
      </trkpt>
      <trkpt lat="55.811896" lon="37.316632">
        <ele>0</ele>
      </trkpt>
      <trkpt lat="55.811893" lon="37.31653">
        <ele>0</ele>
      </trkpt>
      <trkpt lat="55.811733" lon="37.315318">
        <ele>0</ele>
      </trkpt>
      <trkpt lat="55.811726" lon="37.315241">
        <ele>0</ele>
      </trkpt>
      <trkpt lat="55.81172" lon="37.315107">
        <ele>0</ele>
      </trkpt>
      <trkpt lat="55.811725" lon="37.31492">
        <ele>0</ele>
      </trkpt>
      <trkpt lat="55.811738" lon="37.314724">
        <ele>0</ele>
      </trkpt>
      <trkpt lat="55.811771" lon="37.314333">
        <ele>0</ele>
      </trkpt>
      <trkpt lat="55.811797" lon="37.314035">
        <ele>0</ele>
      </trkpt>
      <trkpt lat="55.811824" lon="37.313741">
        <ele>0</ele>
      </trkpt>
      <trkpt lat="55.811848" lon="37.313484">
        <ele>0</ele>
      </trkpt>
      <trkpt lat="55.811853" lon="37.313415">
        <ele>0</ele>
      </trkpt>
      <trkpt lat="55.81191" lon="37.313431">
        <ele>0</ele>
      </trkpt>
      <trkpt lat="55.811959" lon="37.313442">
        <ele>0</ele>
      </trkpt>
      <trkpt lat="55.811965" lon="37.313343">
        <ele>0</ele>
      </trkpt>
      <trkpt lat="55.811993" lon="37.312461">
        <ele>0</ele>
      </trkpt>
      <trkpt lat="55.812013" lon="37.312025">
        <ele>0</ele>
      </trkpt>
      <trkpt lat="55.812021" lon="37.311998">
        <ele>0</ele>
      </trkpt>
      <trkpt lat="55.812038" lon="37.311969">
        <ele>0</ele>
      </trkpt>
      <trkpt lat="55.812048" lon="37.311871">
        <ele>0</ele>
      </trkpt>
      <trkpt lat="55.812101" lon="37.311195">
        <ele>0</ele>
      </trkpt>
      <trkpt lat="55.812113" lon="37.31108">
        <ele>0</ele>
      </trkpt>
      <trkpt lat="55.812141" lon="37.310864">
        <ele>0</ele>
      </trkpt>
      <trkpt lat="55.812166" lon="37.310652">
        <ele>0</ele>
      </trkpt>
      <trkpt lat="55.812199" lon="37.310402">
        <ele>0</ele>
      </trkpt>
      <trkpt lat="55.812205" lon="37.310361">
        <ele>0</ele>
      </trkpt>
      <trkpt lat="55.812212" lon="37.310326">
        <ele>0</ele>
      </trkpt>
      <trkpt lat="55.812366" lon="37.309697">
        <ele>0</ele>
      </trkpt>
      <trkpt lat="55.81241" lon="37.309516">
        <ele>0</ele>
      </trkpt>
      <trkpt lat="55.812768" lon="37.308484">
        <ele>0</ele>
      </trkpt>
      <trkpt lat="55.812867" lon="37.308255">
        <ele>0</ele>
      </trkpt>
      <trkpt lat="55.812921" lon="37.308145">
        <ele>0</ele>
      </trkpt>
      <trkpt lat="55.81294" lon="37.308106">
        <ele>0</ele>
      </trkpt>
      <trkpt lat="55.812958" lon="37.308105">
        <ele>0</ele>
      </trkpt>
      <trkpt lat="55.812966" lon="37.308001">
        <ele>0</ele>
      </trkpt>
      <trkpt lat="55.812988" lon="37.307952">
        <ele>0</ele>
      </trkpt>
      <trkpt lat="55.812999" lon="37.307929">
        <ele>0</ele>
      </trkpt>
      <trkpt lat="55.812971" lon="37.307888">
        <ele>0</ele>
      </trkpt>
      <trkpt lat="55.812931" lon="37.307825">
        <ele>0</ele>
      </trkpt>
      <trkpt lat="55.813285" lon="37.307103">
        <ele>0</ele>
      </trkpt>
      <trkpt lat="55.813383" lon="37.306905">
        <ele>0</ele>
      </trkpt>
      <trkpt lat="55.813435" lon="37.3068">
        <ele>0</ele>
      </trkpt>
      <trkpt lat="55.813472" lon="37.306726">
        <ele>0</ele>
      </trkpt>
      <trkpt lat="55.813544" lon="37.306583">
        <ele>0</ele>
      </trkpt>
      <trkpt lat="55.813562" lon="37.306548">
        <ele>0</ele>
      </trkpt>
      <trkpt lat="55.813709" lon="37.30625">
        <ele>0</ele>
      </trkpt>
      <trkpt lat="55.813917" lon="37.305824">
        <ele>0</ele>
      </trkpt>
      <trkpt lat="55.814006" lon="37.305642">
        <ele>0</ele>
      </trkpt>
      <trkpt lat="55.814045" lon="37.305562">
        <ele>0</ele>
      </trkpt>
      <trkpt lat="55.8141" lon="37.30545">
        <ele>0</ele>
      </trkpt>
      <trkpt lat="55.814222" lon="37.305199">
        <ele>0</ele>
      </trkpt>
      <trkpt lat="55.814228" lon="37.305183">
        <ele>0</ele>
      </trkpt>
      <trkpt lat="55.814228" lon="37.305175">
        <ele>0</ele>
      </trkpt>
      <trkpt lat="55.814228" lon="37.305167">
        <ele>0</ele>
      </trkpt>
      <trkpt lat="55.814221" lon="37.305154">
        <ele>0</ele>
      </trkpt>
      <trkpt lat="55.814015" lon="37.304826">
        <ele>0</ele>
      </trkpt>
      <trkpt lat="55.81405" lon="37.304758">
        <ele>0</ele>
      </trkpt>
      <trkpt lat="55.814043" lon="37.304748">
        <ele>0</ele>
      </trkpt>
      <trkpt lat="55.814029" lon="37.304725">
        <ele>0</ele>
      </trkpt>
      <trkpt lat="55.813984" lon="37.304812">
        <ele>0</ele>
      </trkpt>
      <trkpt lat="55.813908" lon="37.304677">
        <ele>0</ele>
      </trkpt>
      <trkpt lat="55.813895" lon="37.304655">
        <ele>0</ele>
      </trkpt>
      <trkpt lat="55.813841" lon="37.304758">
        <ele>0</ele>
      </trkpt>
      <trkpt lat="55.813827" lon="37.304735">
        <ele>0</ele>
      </trkpt>
      <trkpt lat="55.8139" lon="37.304594">
        <ele>0</ele>
      </trkpt>
      <trkpt lat="55.813914" lon="37.304527">
        <ele>0</ele>
      </trkpt>
      <trkpt lat="55.813934" lon="37.304486">
        <ele>0</ele>
      </trkpt>
      <trkpt lat="55.813964" lon="37.304429">
        <ele>0</ele>
      </trkpt>
      <trkpt lat="55.814" lon="37.304362">
        <ele>0</ele>
      </trkpt>
      <trkpt lat="55.814005" lon="37.304355">
        <ele>0</ele>
      </trkpt>
      <trkpt lat="55.814012" lon="37.304351">
        <ele>0</ele>
      </trkpt>
      <trkpt lat="55.81402" lon="37.304353">
        <ele>0</ele>
      </trkpt>
      <trkpt lat="55.814024" lon="37.304359">
        <ele>0</ele>
      </trkpt>
      <trkpt lat="55.81404" lon="37.304384">
        <ele>0</ele>
      </trkpt>
      <trkpt lat="55.814147" lon="37.304175">
        <ele>0</ele>
      </trkpt>
      <trkpt lat="55.814144" lon="37.30417">
        <ele>0</ele>
      </trkpt>
    </trkseg>
    <trkseg>
      <trkpt lat="55.81443" lon="37.30418">
        <ele>0</ele>
      </trkpt>
      <trkpt lat="55.814442" lon="37.304198">
        <ele>0</ele>
      </trkpt>
      <trkpt lat="55.814347" lon="37.304391">
        <ele>0</ele>
      </trkpt>
      <trkpt lat="55.814207" lon="37.304675">
        <ele>0</ele>
      </trkpt>
      <trkpt lat="55.814136" lon="37.304816">
        <ele>0</ele>
      </trkpt>
      <trkpt lat="55.814126" lon="37.304855">
        <ele>0</ele>
      </trkpt>
      <trkpt lat="55.814128" lon="37.304896">
        <ele>0</ele>
      </trkpt>
      <trkpt lat="55.814142" lon="37.304931">
        <ele>0</ele>
      </trkpt>
      <trkpt lat="55.814313" lon="37.305177">
        <ele>0</ele>
      </trkpt>
      <trkpt lat="55.814266" lon="37.305273">
        <ele>0</ele>
      </trkpt>
      <trkpt lat="55.814197" lon="37.305415">
        <ele>0</ele>
      </trkpt>
      <trkpt lat="55.814143" lon="37.305521">
        <ele>0</ele>
      </trkpt>
      <trkpt lat="55.814087" lon="37.305632">
        <ele>0</ele>
      </trkpt>
      <trkpt lat="55.813823" lon="37.306149">
        <ele>0</ele>
      </trkpt>
      <trkpt lat="55.813746" lon="37.306307">
        <ele>0</ele>
      </trkpt>
      <trkpt lat="55.813597" lon="37.306603">
        <ele>0</ele>
      </trkpt>
      <trkpt lat="55.81357" lon="37.306657">
        <ele>0</ele>
      </trkpt>
      <trkpt lat="55.813566" lon="37.306651">
        <ele>0</ele>
      </trkpt>
      <trkpt lat="55.81357" lon="37.306657">
        <ele>0</ele>
      </trkpt>
      <trkpt lat="55.813545" lon="37.306705">
        <ele>0</ele>
      </trkpt>
      <trkpt lat="55.813491" lon="37.306817">
        <ele>0</ele>
      </trkpt>
      <trkpt lat="55.813418" lon="37.306967">
        <ele>0</ele>
      </trkpt>
      <trkpt lat="55.813448" lon="37.307015">
        <ele>0</ele>
      </trkpt>
      <trkpt lat="55.813478" lon="37.307062">
        <ele>0</ele>
      </trkpt>
      <trkpt lat="55.813314" lon="37.307411">
        <ele>0</ele>
      </trkpt>
      <trkpt lat="55.81327" lon="37.307457">
        <ele>0</ele>
      </trkpt>
      <trkpt lat="55.813205" lon="37.307523">
        <ele>0</ele>
      </trkpt>
      <trkpt lat="55.812999" lon="37.307929">
        <ele>0</ele>
      </trkpt>
      <trkpt lat="55.812988" lon="37.307952">
        <ele>0</ele>
      </trkpt>
      <trkpt lat="55.812966" lon="37.308001">
        <ele>0</ele>
      </trkpt>
      <trkpt lat="55.812958" lon="37.308105">
        <ele>0</ele>
      </trkpt>
      <trkpt lat="55.81294" lon="37.308106">
        <ele>0</ele>
      </trkpt>
      <trkpt lat="55.812921" lon="37.308145">
        <ele>0</ele>
      </trkpt>
      <trkpt lat="55.812867" lon="37.308255">
        <ele>0</ele>
      </trkpt>
      <trkpt lat="55.812768" lon="37.308484">
        <ele>0</ele>
      </trkpt>
      <trkpt lat="55.81241" lon="37.309516">
        <ele>0</ele>
      </trkpt>
      <trkpt lat="55.812366" lon="37.309697">
        <ele>0</ele>
      </trkpt>
      <trkpt lat="55.812212" lon="37.310326">
        <ele>0</ele>
      </trkpt>
      <trkpt lat="55.812205" lon="37.310361">
        <ele>0</ele>
      </trkpt>
      <trkpt lat="55.812199" lon="37.310402">
        <ele>0</ele>
      </trkpt>
      <trkpt lat="55.812166" lon="37.310652">
        <ele>0</ele>
      </trkpt>
      <trkpt lat="55.812141" lon="37.310864">
        <ele>0</ele>
      </trkpt>
      <trkpt lat="55.812113" lon="37.31108">
        <ele>0</ele>
      </trkpt>
      <trkpt lat="55.812101" lon="37.311195">
        <ele>0</ele>
      </trkpt>
      <trkpt lat="55.812048" lon="37.311871">
        <ele>0</ele>
      </trkpt>
      <trkpt lat="55.812038" lon="37.311969">
        <ele>0</ele>
      </trkpt>
      <trkpt lat="55.812021" lon="37.311998">
        <ele>0</ele>
      </trkpt>
      <trkpt lat="55.812013" lon="37.312025">
        <ele>0</ele>
      </trkpt>
      <trkpt lat="55.811993" lon="37.312461">
        <ele>0</ele>
      </trkpt>
      <trkpt lat="55.811965" lon="37.313343">
        <ele>0</ele>
      </trkpt>
      <trkpt lat="55.811959" lon="37.313442">
        <ele>0</ele>
      </trkpt>
      <trkpt lat="55.81191" lon="37.313431">
        <ele>0</ele>
      </trkpt>
      <trkpt lat="55.811853" lon="37.313415">
        <ele>0</ele>
      </trkpt>
      <trkpt lat="55.811848" lon="37.313484">
        <ele>0</ele>
      </trkpt>
      <trkpt lat="55.811824" lon="37.313741">
        <ele>0</ele>
      </trkpt>
      <trkpt lat="55.811797" lon="37.314035">
        <ele>0</ele>
      </trkpt>
      <trkpt lat="55.811771" lon="37.314333">
        <ele>0</ele>
      </trkpt>
      <trkpt lat="55.811738" lon="37.314724">
        <ele>0</ele>
      </trkpt>
      <trkpt lat="55.811725" lon="37.31492">
        <ele>0</ele>
      </trkpt>
      <trkpt lat="55.81172" lon="37.315107">
        <ele>0</ele>
      </trkpt>
      <trkpt lat="55.811726" lon="37.315241">
        <ele>0</ele>
      </trkpt>
      <trkpt lat="55.811733" lon="37.315318">
        <ele>0</ele>
      </trkpt>
      <trkpt lat="55.811893" lon="37.31653">
        <ele>0</ele>
      </trkpt>
      <trkpt lat="55.811896" lon="37.316632">
        <ele>0</ele>
      </trkpt>
      <trkpt lat="55.811917" lon="37.316787">
        <ele>0</ele>
      </trkpt>
      <trkpt lat="55.811951" lon="37.316924">
        <ele>0</ele>
      </trkpt>
      <trkpt lat="55.811991" lon="37.317178">
        <ele>0</ele>
      </trkpt>
      <trkpt lat="55.812178" lon="37.318543">
        <ele>0</ele>
      </trkpt>
      <trkpt lat="55.812205" lon="37.318717">
        <ele>0</ele>
      </trkpt>
      <trkpt lat="55.812228" lon="37.318818">
        <ele>0</ele>
      </trkpt>
      <trkpt lat="55.812248" lon="37.318879">
        <ele>0</ele>
      </trkpt>
      <trkpt lat="55.81227" lon="37.318939">
        <ele>0</ele>
      </trkpt>
      <trkpt lat="55.812296" lon="37.318993">
        <ele>0</ele>
      </trkpt>
      <trkpt lat="55.812321" lon="37.319035">
        <ele>0</ele>
      </trkpt>
      <trkpt lat="55.812463" lon="37.31921">
        <ele>0</ele>
      </trkpt>
      <trkpt lat="55.812471" lon="37.319189">
        <ele>0</ele>
      </trkpt>
      <trkpt lat="55.812463" lon="37.31921">
        <ele>0</ele>
      </trkpt>
      <trkpt lat="55.81248" lon="37.319231">
        <ele>0</ele>
      </trkpt>
      <trkpt lat="55.812736" lon="37.319551">
        <ele>0</ele>
      </trkpt>
      <trkpt lat="55.813156" lon="37.320069">
        <ele>0</ele>
      </trkpt>
      <trkpt lat="55.813212" lon="37.320149">
        <ele>0</ele>
      </trkpt>
      <trkpt lat="55.813235" lon="37.3202">
        <ele>0</ele>
      </trkpt>
      <trkpt lat="55.8132" lon="37.320232">
        <ele>0</ele>
      </trkpt>
      <trkpt lat="55.813351" lon="37.320423">
        <ele>0</ele>
      </trkpt>
      <trkpt lat="55.813396" lon="37.320364">
        <ele>0</ele>
      </trkpt>
      <trkpt lat="55.813548" lon="37.320545">
        <ele>0</ele>
      </trkpt>
      <trkpt lat="55.813595" lon="37.320619">
        <ele>0</ele>
      </trkpt>
      <trkpt lat="55.813636" lon="37.32066">
        <ele>0</ele>
      </trkpt>
      <trkpt lat="55.81367" lon="37.320689">
        <ele>0</ele>
      </trkpt>
      <trkpt lat="55.81369" lon="37.320697">
        <ele>0</ele>
      </trkpt>
      <trkpt lat="55.813729" lon="37.320697">
        <ele>0</ele>
      </trkpt>
      <trkpt lat="55.813816" lon="37.320696">
        <ele>0</ele>
      </trkpt>
      <trkpt lat="55.813849" lon="37.320706">
        <ele>0</ele>
      </trkpt>
      <trkpt lat="55.813876" lon="37.320736">
        <ele>0</ele>
      </trkpt>
      <trkpt lat="55.813892" lon="37.320797">
        <ele>0</ele>
      </trkpt>
      <trkpt lat="55.813909" lon="37.321012">
        <ele>0</ele>
      </trkpt>
      <trkpt lat="55.813931" lon="37.321067">
        <ele>0</ele>
      </trkpt>
      <trkpt lat="55.814015" lon="37.321188">
        <ele>0</ele>
      </trkpt>
      <trkpt lat="55.814062" lon="37.321256">
        <ele>0</ele>
      </trkpt>
      <trkpt lat="55.814162" lon="37.321374">
        <ele>0</ele>
      </trkpt>
      <trkpt lat="55.814423" lon="37.321683">
        <ele>0</ele>
      </trkpt>
      <trkpt lat="55.814573" lon="37.321847">
        <ele>0</ele>
      </trkpt>
      <trkpt lat="55.814749" lon="37.322038">
        <ele>0</ele>
      </trkpt>
      <trkpt lat="55.814846" lon="37.322172">
        <ele>0</ele>
      </trkpt>
      <trkpt lat="55.814884" lon="37.322239">
        <ele>0</ele>
      </trkpt>
      <trkpt lat="55.815187" lon="37.322632">
        <ele>0</ele>
      </trkpt>
      <trkpt lat="55.815512" lon="37.323041">
        <ele>0</ele>
      </trkpt>
      <trkpt lat="55.815616" lon="37.323166">
        <ele>0</ele>
      </trkpt>
      <trkpt lat="55.815612" lon="37.323175">
        <ele>0</ele>
      </trkpt>
    </trkseg>
  </trk>
</gpx>
