<?xml version="1.0" encoding="UTF-8"?>
<gpx version="1.1" creator="Yandex Map Constructor" xmlns="http://www.topografix.com/GPX/1/1"><metadata><name><![CDATA[5 мая 2026]]></name><desc/><time>2026-05-31T12:43:52.754Z</time></metadata><rte><desc><![CDATA[5 may 2026. Krasnogorsk]]></desc><rtept lon="37.322932" lat="55.81555"/><rtept lon="37.322848" lat="55.815483"/><rtept lon="37.322705" lat="55.815515"/><rtept lon="37.322293" lat="55.815617"/><rtept lon="37.321939" lat="55.815677"/><rtept lon="37.321897" lat="55.815613"/><rtept lon="37.321193" lat="55.815617"/><rtept lon="37.321207" lat="55.815752"/><rtept lon="37.32001" lat="55.815752"/><rtept lon="37.319979" lat="55.81582"/><rtept lon="37.319976" lat="55.815967"/><rtept lon="37.319544" lat="55.815968"/><rtept lon="37.318967" lat="55.815997"/><rtept lon="37.318808" lat="55.816091"/><rtept lon="37.318797" lat="55.816753"/><rtept lon="37.318142" lat="55.816754"/><rtept lon="37.317274" lat="55.81678"/><rtept lon="37.31694" lat="55.816727"/><rtept lon="37.316945" lat="55.816995"/><rtept lon="37.316885" lat="55.817016"/><rtept lon="37.316847" lat="55.817077"/><rtept lon="37.316694" lat="55.817049"/><rtept lon="37.316683" lat="55.817069"/><rtept lon="37.316658" lat="55.817113"/><rtept lon="37.316075" lat="55.817005"/><rtept lon="37.315785" lat="55.816952"/><rtept lon="37.315563" lat="55.816916"/><rtept lon="37.315495" lat="55.816912"/><rtept lon="37.315368" lat="55.816854"/><rtept lon="37.315346" lat="55.816808"/><rtept lon="37.315368" lat="55.816854"/><rtept lon="37.315495" lat="55.816912"/><rtept lon="37.314881" lat="55.816981"/><rtept lon="37.314294" lat="55.817062"/><rtept lon="37.313765" lat="55.817134"/><rtept lon="37.313069" lat="55.817229"/><rtept lon="37.312263" lat="55.817337"/><rtept lon="37.31186" lat="55.817392"/><rtept lon="37.311782" lat="55.817403"/><rtept lon="37.310756" lat="55.817545"/><rtept lon="37.310503" lat="55.817575"/><rtept lon="37.310436" lat="55.817581"/><rtept lon="37.309932" lat="55.817569"/><rtept lon="37.309686" lat="55.817507"/><rtept lon="37.309436" lat="55.817341"/><rtept lon="37.309208" lat="55.817189"/><rtept lon="37.308663" lat="55.816827"/><rtept lon="37.30855" lat="55.816751"/><rtept lon="37.308407" lat="55.816816"/><rtept lon="37.308324" lat="55.816848"/><rtept lon="37.308137" lat="55.81692"/><rtept lon="37.307898" lat="55.817012"/><rtept lon="37.307861" lat="55.817072"/><rtept lon="37.307888" lat="55.817129"/><rtept lon="37.307987" lat="55.817177"/><rtept lon="37.308008" lat="55.817235"/><rtept lon="37.307973" lat="55.817295"/><rtept lon="37.307838" lat="55.81773"/><rtept lon="37.307507" lat="55.818422"/><rtept lon="37.307301" lat="55.818852"/><rtept lon="37.307317" lat="55.819093"/><rtept lon="37.307527" lat="55.819389"/><rtept lon="37.307585" lat="55.819634"/><rtept lon="37.307623" lat="55.819826"/><rtept lon="37.307623" lat="55.819856"/><rtept lon="37.307496" lat="55.820211"/><rtept lon="37.307242" lat="55.820483"/><rtept lon="37.306625" lat="55.821013"/><rtept lon="37.305492" lat="55.821728"/><rtept lon="37.303516" lat="55.822974"/><rtept lon="37.30321" lat="55.823167"/><rtept lon="37.301907" lat="55.823989"/><rtept lon="37.301827" lat="55.82404"/><rtept lon="37.301422" lat="55.824295"/><rtept lon="37.300584" lat="55.82481"/><rtept lon="37.300245" lat="55.824969"/><rtept lon="37.299662" lat="55.825136"/><rtept lon="37.299569" lat="55.825154"/><rtept lon="37.298828" lat="55.825402"/><rtept lon="37.298181" lat="55.825565"/><rtept lon="37.297785" lat="55.825646"/><rtept lon="37.296964" lat="55.825759"/><rtept lon="37.296594" lat="55.825865"/><rtept lon="37.296073" lat="55.826097"/><rtept lon="37.295447" lat="55.826325"/><rtept lon="37.295161" lat="55.826455"/><rtept lon="37.294933" lat="55.826656"/><rtept lon="37.294708" lat="55.826938"/><rtept lon="37.294687" lat="55.827032"/><rtept lon="37.294702" lat="55.827115"/><rtept lon="37.294825" lat="55.82727"/><rtept lon="37.29488" lat="55.827327"/><rtept lon="37.294873" lat="55.827367"/><rtept lon="37.294731" lat="55.827357"/><rtept lon="37.294675" lat="55.827352"/><rtept lon="37.294531" lat="55.827344"/><rtept lon="37.293961" lat="55.827319"/><rtept lon="37.293524" lat="55.827326"/><rtept lon="37.293132" lat="55.827349"/><rtept lon="37.292865" lat="55.827391"/><rtept lon="37.292144" lat="55.827547"/><rtept lon="37.291654" lat="55.82767"/><rtept lon="37.291536" lat="55.827757"/><rtept lon="37.291406" lat="55.827888"/><rtept lon="37.291381" lat="55.82805"/><rtept lon="37.291406" lat="55.828084"/><rtept lon="37.291432" lat="55.828122"/><rtept lon="37.291623" lat="55.828178"/><rtept lon="37.291643" lat="55.828184"/><rtept lon="37.291784" lat="55.828222"/><rtept lon="37.29178" lat="55.828296"/><rtept lon="37.291726" lat="55.828416"/><rtept lon="37.291886" lat="55.829601"/><rtept lon="37.291957" lat="55.829744"/><rtept lon="37.291995" lat="55.829821"/><rtept lon="37.292083" lat="55.830185"/><rtept lon="37.292255" lat="55.830267"/><rtept lon="37.292276" lat="55.830376"/><rtept lon="37.292219" lat="55.830569"/><rtept lon="37.292153" lat="55.830569"/><rtept lon="37.291951" lat="55.830584"/><rtept lon="37.291806" lat="55.830651"/><rtept lon="37.291811" lat="55.830682"/><rtept lon="37.29187" lat="55.831065"/><rtept lon="37.291954" lat="55.831746"/><rtept lon="37.291975" lat="55.831973"/><rtept lon="37.292196" lat="55.831971"/><rtept lon="37.291975" lat="55.831973"/><rtept lon="37.291994" lat="55.83226"/><rtept lon="37.292043" lat="55.832936"/><rtept lon="37.292046" lat="55.832971"/><rtept lon="37.292058" lat="55.833073"/><rtept lon="37.292139" lat="55.833576"/><rtept lon="37.292156" lat="55.833622"/><rtept lon="37.292179" lat="55.833927"/><rtept lon="37.292217" lat="55.833971"/><rtept lon="37.292403" lat="55.833984"/><rtept lon="37.29233" lat="55.834666"/><rtept lon="37.292324" lat="55.834722"/><rtept lon="37.292324" lat="55.835518"/><rtept lon="37.292408" lat="55.835576"/><rtept lon="37.292726" lat="55.835577"/><rtept lon="37.293347" lat="55.83558"/><rtept lon="37.293437" lat="55.835581"/><rtept lon="37.293512" lat="55.835682"/><rtept lon="37.29367" lat="55.835894"/><rtept lon="37.29376" lat="55.836016"/><rtept lon="37.293671" lat="55.836036"/><rtept lon="37.293633" lat="55.836045"/><rtept lon="37.293237" lat="55.836133"/><rtept lon="37.29312" lat="55.836159"/><rtept lon="37.292984" lat="55.836188"/><rtept lon="37.293161" lat="55.83646"/><rtept lon="37.293023" lat="55.836488"/><rtept lon="37.29306" lat="55.836544"/><rtept lon="37.293103" lat="55.83661"/><rtept lon="37.292998" lat="55.83663"/><rtept lon="37.293052" lat="55.836721"/><rtept lon="37.292713" lat="55.836783"/><rtept lon="37.292521" lat="55.836819"/><rtept lon="37.292554" lat="55.837249"/><rtept lon="37.29256" lat="55.837385"/><rtept lon="37.292455" lat="55.837387"/><rtept lon="37.292355" lat="55.837388"/><rtept lon="37.292373" lat="55.837636"/><rtept lon="37.29238" lat="55.83773"/><rtept lon="37.292382" lat="55.837758"/><rtept lon="37.292412" lat="55.838205"/><rtept lon="37.292151" lat="55.838203"/><rtept lon="37.292113" lat="55.838462"/><rtept lon="37.292071" lat="55.838474"/><rtept lon="37.291929" lat="55.838514"/><rtept lon="37.292071" lat="55.838474"/><rtept lon="37.292113" lat="55.838462"/><rtept lon="37.292151" lat="55.838203"/><rtept lon="37.292412" lat="55.838205"/><rtept lon="37.292414" lat="55.838236"/><rtept lon="37.292434" lat="55.838429"/><rtept lon="37.292561" lat="55.838807"/><rtept lon="37.292646" lat="55.838908"/><rtept lon="37.292502" lat="55.839138"/><rtept lon="37.292624" lat="55.83925"/><rtept lon="37.293292" lat="55.839555"/><rtept lon="37.293992" lat="55.839711"/><rtept lon="37.294268" lat="55.839773"/><rtept lon="37.294478" lat="55.839787"/><rtept lon="37.294883" lat="55.839734"/><rtept lon="37.295042" lat="55.839662"/><rtept lon="37.295694" lat="55.83972"/><rtept lon="37.295725" lat="55.839616"/><rtept lon="37.295941" lat="55.839636"/><rtept lon="37.295725" lat="55.839616"/><rtept lon="37.295694" lat="55.83972"/><rtept lon="37.296225" lat="55.839769"/><rtept lon="37.296282" lat="55.839774"/><rtept lon="37.297584" lat="55.839894"/><rtept lon="37.297765" lat="55.839911"/><rtept lon="37.297847" lat="55.839918"/><rtept lon="37.297977" lat="55.83993"/><rtept lon="37.29822" lat="55.839953"/><rtept lon="37.298744" lat="55.840001"/><rtept lon="37.298881" lat="55.840014"/><rtept lon="37.299085" lat="55.840032"/><rtept lon="37.299244" lat="55.840047"/><rtept lon="37.299889" lat="55.840103"/><rtept lon="37.300107" lat="55.840121"/><rtept lon="37.300956" lat="55.840134"/><rtept lon="37.301835" lat="55.840054"/><rtept lon="37.301923" lat="55.840036"/><rtept lon="37.302084" lat="55.840001"/><rtept lon="37.302047" lat="55.839906"/><rtept lon="37.301778" lat="55.839966"/><rtept lon="37.301543" lat="55.839996"/><rtept lon="37.301778" lat="55.839966"/><rtept lon="37.302047" lat="55.839906"/><rtept lon="37.302084" lat="55.840001"/><rtept lon="37.302244" lat="55.839964"/><rtept lon="37.302568" lat="55.839883"/><rtept lon="37.302653" lat="55.839862"/><rtept lon="37.303251" lat="55.839713"/><rtept lon="37.303363" lat="55.839686"/><rtept lon="37.30356" lat="55.839637"/><rtept lon="37.303675" lat="55.839609"/><rtept lon="37.304438" lat="55.839421"/><rtept lon="37.304736" lat="55.839348"/><rtept lon="37.304927" lat="55.839376"/><rtept lon="37.305842" lat="55.839318"/><rtept lon="37.305937" lat="55.839351"/><rtept lon="37.306211" lat="55.83933"/><rtept lon="37.306325" lat="55.8393"/><rtept lon="37.306365" lat="55.839265"/><rtept lon="37.306523" lat="55.839391"/><rtept lon="37.306537" lat="55.839402"/><rtept lon="37.306561" lat="55.839419"/><rtept lon="37.306835" lat="55.839535"/><rtept lon="37.306902" lat="55.839555"/><rtept lon="37.306971" lat="55.839576"/><rtept lon="37.307226" lat="55.839635"/><rtept lon="37.307685" lat="55.83982"/><rtept lon="37.307835" lat="55.84004"/><rtept lon="37.308006" lat="55.840154"/><rtept lon="37.308626" lat="55.840473"/><rtept lon="37.30879" lat="55.840589"/><rtept lon="37.308932" lat="55.84097"/><rtept lon="37.309138" lat="55.84099"/><rtept lon="37.309426" lat="55.841161"/><rtept lon="37.309457" lat="55.841183"/><rtept lon="37.310032" lat="55.841101"/><rtept lon="37.310295" lat="55.841063"/><rtept lon="37.310415" lat="55.840988"/><rtept lon="37.310685" lat="55.840627"/><rtept lon="37.310906" lat="55.840456"/><rtept lon="37.310964" lat="55.840411"/><rtept lon="37.311372" lat="55.840176"/><rtept lon="37.31188" lat="55.840131"/><rtept lon="37.31217" lat="55.840031"/><rtept lon="37.312168" lat="55.839967"/><rtept lon="37.312055" lat="55.839888"/><rtept lon="37.312033" lat="55.839876"/><rtept lon="37.311904" lat="55.839832"/><rtept lon="37.311711" lat="55.839766"/><rtept lon="37.311625" lat="55.839576"/><rtept lon="37.311677" lat="55.839471"/><rtept lon="37.312048" lat="55.83922"/><rtept lon="37.312071" lat="55.839169"/><rtept lon="37.312119" lat="55.839065"/><rtept lon="37.312082" lat="55.83867"/><rtept lon="37.312183" lat="55.838527"/><rtept lon="37.312386" lat="55.838383"/><rtept lon="37.312587" lat="55.838307"/><rtept lon="37.312959" lat="55.8381"/><rtept lon="37.313069" lat="55.838039"/><rtept lon="37.313435" lat="55.837731"/><rtept lon="37.313749" lat="55.837399"/><rtept lon="37.313873" lat="55.837147"/><rtept lon="37.314084" lat="55.83698"/><rtept lon="37.314201" lat="55.83684"/><rtept lon="37.314224" lat="55.836818"/><rtept lon="37.314359" lat="55.836688"/><rtept lon="37.314747" lat="55.836314"/><rtept lon="37.315401" lat="55.835685"/><rtept lon="37.315435" lat="55.835653"/><rtept lon="37.315634" lat="55.83546"/><rtept lon="37.315674" lat="55.835421"/><rtept lon="37.315722" lat="55.835378"/><rtept lon="37.315767" lat="55.835392"/><rtept lon="37.315908" lat="55.835436"/><rtept lon="37.316365" lat="55.835578"/><rtept lon="37.316467" lat="55.83561"/><rtept lon="37.317006" lat="55.835788"/><rtept lon="37.317595" lat="55.835989"/><rtept lon="37.317879" lat="55.836118"/><rtept lon="37.317937" lat="55.836065"/><rtept lon="37.318044" lat="55.835962"/><rtept lon="37.318062" lat="55.835945"/><rtept lon="37.318269" lat="55.835749"/><rtept lon="37.31834" lat="55.835681"/><rtept lon="37.318643" lat="55.835391"/><rtept lon="37.318964" lat="55.835085"/><rtept lon="37.319061" lat="55.834992"/><rtept lon="37.319121" lat="55.834935"/><rtept lon="37.319319" lat="55.834747"/><rtept lon="37.318506" lat="55.834483"/><rtept lon="37.317911" lat="55.83429"/><rtept lon="37.317799" lat="55.834254"/><rtept lon="37.31719" lat="55.834056"/><rtept lon="37.317156" lat="55.834045"/><rtept lon="37.317127" lat="55.834036"/><rtept lon="37.316347" lat="55.833782"/><rtept lon="37.31615" lat="55.833718"/><rtept lon="37.315629" lat="55.833549"/><rtept lon="37.315705" lat="55.833474"/><rtept lon="37.315858" lat="55.833297"/><rtept lon="37.315919" lat="55.833271"/><rtept lon="37.316184" lat="55.833009"/><rtept lon="37.316305" lat="55.832968"/><rtept lon="37.316828" lat="55.832467"/><rtept lon="37.316854" lat="55.832393"/><rtept lon="37.31695" lat="55.832122"/><rtept lon="37.317314" lat="55.831644"/><rtept lon="37.317338" lat="55.831535"/><rtept lon="37.317413" lat="55.831433"/><rtept lon="37.317622" lat="55.831224"/><rtept lon="37.317729" lat="55.83103"/><rtept lon="37.317731" lat="55.831023"/><rtept lon="37.31778" lat="55.830817"/><rtept lon="37.317767" lat="55.830641"/><rtept lon="37.317636" lat="55.830334"/><rtept lon="37.317652" lat="55.830184"/><rtept lon="37.317778" lat="55.829916"/><rtept lon="37.317925" lat="55.829717"/><rtept lon="37.318049" lat="55.829643"/><rtept lon="37.31794" lat="55.829496"/><rtept lon="37.317985" lat="55.829233"/><rtept lon="37.318158" lat="55.829151"/><rtept lon="37.318355" lat="55.829058"/><rtept lon="37.318498" lat="55.828998"/><rtept lon="37.318498" lat="55.828998"/><rtept lon="37.318601" lat="55.828969"/><rtept lon="37.318712" lat="55.828902"/><rtept lon="37.319513" lat="55.828613"/><rtept lon="37.319792" lat="55.828513"/><rtept lon="37.320589" lat="55.828407"/><rtept lon="37.320942" lat="55.828391"/><rtept lon="37.321078" lat="55.828385"/><rtept lon="37.321207" lat="55.828379"/><rtept lon="37.321787" lat="55.828379"/><rtept lon="37.322504" lat="55.828359"/><rtept lon="37.322881" lat="55.828343"/><rtept lon="37.323363" lat="55.828256"/><rtept lon="37.323472" lat="55.828271"/><rtept lon="37.323624" lat="55.828316"/><rtept lon="37.323671" lat="55.828339"/><rtept lon="37.324004" lat="55.82848"/><rtept lon="37.325053" lat="55.828902"/><rtept lon="37.325398" lat="55.829141"/><rtept lon="37.325567" lat="55.829267"/><rtept lon="37.325905" lat="55.829561"/><rtept lon="37.326232" lat="55.829871"/><rtept lon="37.326344" lat="55.829977"/><rtept lon="37.326659" lat="55.830261"/><rtept lon="37.326682" lat="55.830312"/><rtept lon="37.326654" lat="55.830369"/><rtept lon="37.326837" lat="55.83044"/><rtept lon="37.327025" lat="55.830549"/><rtept lon="37.32707" lat="55.830574"/><rtept lon="37.327125" lat="55.830606"/><rtept lon="37.32729" lat="55.8307"/><rtept lon="37.327864" lat="55.831031"/><rtept lon="37.328002" lat="55.831113"/><rtept lon="37.328393" lat="55.831343"/><rtept lon="37.32849" lat="55.8314"/><rtept lon="37.328583" lat="55.831342"/><rtept lon="37.328995" lat="55.831116"/><rtept lon="37.329065" lat="55.831077"/><rtept lon="37.329421" lat="55.830882"/><rtept lon="37.32964" lat="55.830761"/><rtept lon="37.330028" lat="55.830979"/><rtept lon="37.329812" lat="55.831101"/><rtept lon="37.330016" lat="55.831215"/><rtept lon="37.330227" lat="55.831333"/><rtept lon="37.330435" lat="55.831215"/><rtept lon="37.330618" lat="55.831317"/><rtept lon="37.330911" lat="55.831157"/><rtept lon="37.330957" lat="55.831043"/><rtept lon="37.331111" lat="55.830958"/><rtept lon="37.331" lat="55.830894"/><rtept lon="37.330793" lat="55.830776"/><rtept lon="37.330842" lat="55.830722"/><rtept lon="37.331008" lat="55.83054"/><rtept lon="37.331101" lat="55.830533"/><rtept lon="37.331204" lat="55.830475"/><rtept lon="37.331203" lat="55.830396"/><rtept lon="37.331155" lat="55.830359"/><rtept lon="37.331288" lat="55.830192"/><rtept lon="37.331525" lat="55.829894"/><rtept lon="37.33142" lat="55.829867"/><rtept lon="37.331544" lat="55.829711"/><rtept lon="37.331428" lat="55.829408"/><rtept lon="37.331364" lat="55.82937"/><rtept lon="37.331437" lat="55.829281"/><rtept lon="37.33195" lat="55.828639"/><rtept lon="37.331854" lat="55.828615"/><rtept lon="37.331948" lat="55.828499"/><rtept lon="37.332071" lat="55.82835"/><rtept lon="37.332107" lat="55.828306"/><rtept lon="37.332143" lat="55.828262"/><rtept lon="37.332275" lat="55.828099"/><rtept lon="37.332314" lat="55.828051"/><rtept lon="37.332397" lat="55.828072"/><rtept lon="37.332451" lat="55.828086"/><rtept lon="37.3325" lat="55.828098"/><rtept lon="37.332786" lat="55.828169"/><rtept lon="37.332877" lat="55.828192"/><rtept lon="37.333128" lat="55.82788"/><rtept lon="37.333195" lat="55.827796"/><rtept lon="37.333404" lat="55.827537"/><rtept lon="37.333455" lat="55.827474"/><rtept lon="37.333609" lat="55.827282"/><rtept lon="37.33368" lat="55.827194"/><rtept lon="37.333877" lat="55.82695"/><rtept lon="37.334172" lat="55.826582"/><rtept lon="37.33427" lat="55.826461"/><rtept lon="37.334678" lat="55.825953"/><rtept lon="37.334719" lat="55.825902"/><rtept lon="37.334867" lat="55.825719"/><rtept lon="37.335073" lat="55.825466"/><rtept lon="37.335179" lat="55.825336"/><rtept lon="37.335438" lat="55.825019"/><rtept lon="37.335738" lat="55.824652"/><rtept lon="37.335827" lat="55.824541"/><rtept lon="37.335998" lat="55.824328"/><rtept lon="37.336366" lat="55.823879"/><rtept lon="37.336517" lat="55.823694"/><rtept lon="37.336732" lat="55.823431"/><rtept lon="37.336682" lat="55.823418"/><rtept lon="37.336714" lat="55.823377"/><rtept lon="37.336742" lat="55.823344"/><rtept lon="37.33669" lat="55.82333"/><rtept lon="37.336769" lat="55.823236"/><rtept lon="37.336869" lat="55.823116"/><rtept lon="37.336909" lat="55.823068"/><rtept lon="37.337126" lat="55.822806"/><rtept lon="37.337396" lat="55.822485"/><rtept lon="37.337452" lat="55.822417"/><rtept lon="37.337551" lat="55.822297"/><rtept lon="37.337602" lat="55.82231"/><rtept lon="37.337639" lat="55.822268"/><rtept lon="37.337672" lat="55.822228"/><rtept lon="37.337622" lat="55.822215"/><rtept lon="37.337727" lat="55.822092"/><rtept lon="37.338005" lat="55.82175"/><rtept lon="37.338182" lat="55.821532"/><rtept lon="37.338427" lat="55.821206"/><rtept lon="37.338449" lat="55.821178"/><rtept lon="37.338535" lat="55.821111"/><rtept lon="37.338722" lat="55.820871"/><rtept lon="37.338741" lat="55.820846"/><rtept lon="37.338778" lat="55.820798"/><rtept lon="37.338789" lat="55.820784"/><rtept lon="37.338801" lat="55.820769"/><rtept lon="37.338884" lat="55.820663"/><rtept lon="37.338918" lat="55.82062"/><rtept lon="37.338951" lat="55.820579"/><rtept lon="37.338963" lat="55.820563"/><rtept lon="37.339072" lat="55.820427"/><rtept lon="37.33906" lat="55.820402"/><rtept lon="37.339138" lat="55.820351"/><rtept lon="37.339261" lat="55.820172"/><rtept lon="37.339269" lat="55.82016"/><rtept lon="37.339304" lat="55.820109"/><rtept lon="37.339315" lat="55.820093"/><rtept lon="37.339335" lat="55.820062"/><rtept lon="37.339497" lat="55.819816"/><rtept lon="37.339521" lat="55.819779"/><rtept lon="37.339582" lat="55.819687"/><rtept lon="37.339275" lat="55.819464"/><rtept lon="37.338912" lat="55.81947"/><rtept lon="37.337842" lat="55.819488"/><rtept lon="37.337708" lat="55.819463"/><rtept lon="37.337683" lat="55.819447"/><rtept lon="37.337681" lat="55.819445"/><rtept lon="37.337683" lat="55.819447"/><rtept lon="37.337681" lat="55.819445"/><rtept lon="37.337588" lat="55.819383"/><rtept lon="37.33708" lat="55.819389"/><rtept lon="37.336914" lat="55.819392"/><rtept lon="37.336607" lat="55.819186"/><rtept lon="37.336473" lat="55.819188"/><rtept lon="37.336061" lat="55.819195"/><rtept lon="37.335896" lat="55.819198"/><rtept lon="37.335732" lat="55.819202"/><rtept lon="37.335527" lat="55.819206"/><rtept lon="37.33506" lat="55.81922"/><rtept lon="37.334645" lat="55.819232"/><rtept lon="37.334622" lat="55.819262"/><rtept lon="37.33454" lat="55.819275"/><rtept lon="37.334479" lat="55.819235"/><rtept lon="37.33344" lat="55.81926"/><rtept lon="37.331936" lat="55.819295"/><rtept lon="37.331991" lat="55.819094"/><rtept lon="37.331999" lat="55.819017"/><rtept lon="37.331992" lat="55.818971"/><rtept lon="37.331987" lat="55.818897"/><rtept lon="37.331985" lat="55.818861"/><rtept lon="37.331984" lat="55.818843"/><rtept lon="37.331884" lat="55.818845"/><rtept lon="37.331826" lat="55.818801"/><rtept lon="37.331813" lat="55.818654"/><rtept lon="37.331916" lat="55.818683"/><rtept lon="37.331813" lat="55.818654"/><rtept lon="37.331812" lat="55.818645"/><rtept lon="37.331565" lat="55.818655"/><rtept lon="37.330899" lat="55.818681"/><rtept lon="37.330428" lat="55.818699"/><rtept lon="37.330404" lat="55.818512"/><rtept lon="37.330445" lat="55.818477"/><rtept lon="37.330418" lat="55.818256"/><rtept lon="37.329649" lat="55.81828"/><rtept lon="37.329135" lat="55.818306"/><rtept lon="37.329148" lat="55.818334"/><rtept lon="37.329054" lat="55.818353"/><rtept lon="37.329257" lat="55.818781"/><rtept lon="37.329192" lat="55.818791"/><rtept lon="37.32826" lat="55.818768"/><rtept lon="37.327863" lat="55.818756"/><rtept lon="37.327241" lat="55.818316"/><rtept lon="37.326702" lat="55.818126"/><rtept lon="37.326376" lat="55.818055"/><rtept lon="37.325783" lat="55.817952"/><rtept lon="37.325691" lat="55.81788"/><rtept lon="37.325589" lat="55.818046"/><rtept lon="37.325381" lat="55.818156"/><rtept lon="37.325217" lat="55.818243"/><rtept lon="37.325285" lat="55.818303"/><rtept lon="37.325395" lat="55.818295"/><rtept lon="37.325285" lat="55.818303"/><rtept lon="37.325217" lat="55.818243"/><rtept lon="37.325381" lat="55.818156"/><rtept lon="37.325589" lat="55.818046"/><rtept lon="37.325691" lat="55.81788"/><rtept lon="37.32568" lat="55.817813"/><rtept lon="37.325509" lat="55.817669"/><rtept lon="37.324601" lat="55.816908"/><rtept lon="37.324144" lat="55.816536"/><rtept lon="37.324077" lat="55.816482"/><rtept lon="37.323729" lat="55.816204"/><rtept lon="37.323692" lat="55.816174"/><rtept lon="37.32355" lat="55.816058"/><rtept lon="37.322932" lat="55.81555"/><rtept lon="37.32305" lat="55.815506"/><rtept lon="37.323196" lat="55.815629"/></rte></gpx>