<?xml version="1.0" encoding="UTF-8"?>
<gpx version="1.1" creator="Yandex Map Constructor" xmlns="http://www.topografix.com/GPX/1/1"><metadata><name><![CDATA[17 мая 2026 (Дом - Греб Канал - Сетунь - Сколково - Дом)]]></name><desc/><time>2026-05-31T19:05:32.494Z</time></metadata><rte><rtept lon="37.32301227615792" lat="55.81558125150461"/><rtept lon="37.32134930656869" lat="55.81414348773783"/><rtept lon="37.32100061939674" lat="55.813916944458185"/><rtept lon="37.32069484756906" lat="55.81388975917639"/><rtept lon="37.32055537270028" lat="55.81360280226108"/><rtept lon="37.319911642536674" lat="55.813059088581795"/><rtept lon="37.31892458961918" lat="55.812334125160184"/><rtept lon="37.31711141632511" lat="55.812032053058985"/><rtept lon="37.315346522793305" lat="55.81179643519056"/><rtept lon="37.31298081444209" lat="55.811929347997676"/><rtept lon="37.3117201762051" lat="55.81199580423666"/><rtept lon="37.31063119934505" lat="55.81210152983658"/><rtept lon="37.3095046715588" lat="55.8123673529278"/><rtept lon="37.30816356705131" lat="55.81282951827343"/><rtept lon="37.306312842831026" lat="55.8137447706466"/><rtept lon="37.305154128536586" lat="55.81432774190598"/><rtept lon="37.30488054321709" lat="55.814161611091585"/><rtept lon="37.304719610676194" lat="55.81401662361705"/><rtept lon="37.30481617020072" lat="55.813971314920025"/><rtept lon="37.304687424168016" lat="55.81390184148167"/><rtept lon="37.30469278858604" lat="55.81385049146894"/><rtept lon="37.30441383884849" lat="55.81399245898523"/><rtept lon="37.30444334314766" lat="55.81402266476631"/><rtept lon="37.30452112720909" lat="55.81398490752833"/></rte><rte><rtept lon="37.46103131615196" lat="55.81089247174191"/><rtept lon="37.461535571446774" lat="55.81089247174191"/><rtept lon="37.46128344379935" lat="55.81079580533202"/><rtept lon="37.46116006218467" lat="55.810502783804"/><rtept lon="37.46127807938133" lat="55.810052674248816"/><rtept lon="37.461208341946936" lat="55.809478701469644"/><rtept lon="37.46088647686515" lat="55.80949682705579"/><rtept lon="37.460773824086544" lat="55.809372968714825"/><rtept lon="37.460333941808095" lat="55.80913431372225"/><rtept lon="37.46010327183281" lat="55.80914639755466"/><rtept lon="37.459754584660864" lat="55.809427345596184"/><rtept lon="37.45958292328392" lat="55.80935182212925"/><rtept lon="37.46011936508689" lat="55.8089349299436"/><rtept lon="37.46010327183281" lat="55.808792943900215"/><rtept lon="37.460612891545644" lat="55.80858751635729"/><rtept lon="37.458129165997846" lat="55.806533181103795"/><rtept lon="37.45790922485864" lat="55.80633076276807"/><rtept lon="37.45715284191643" lat="55.80607094066864"/><rtept lon="37.4560209497121" lat="55.805738607531694"/><rtept lon="37.4550124391225" lat="55.80557243989797"/><rtept lon="37.45208883129623" lat="55.804950060242646"/><rtept lon="37.45174550854232" lat="55.804859421596134"/><rtept lon="37.45182597481276" lat="55.8046660584356"/><rtept lon="37.45165431343581" lat="55.80460261094048"/><rtept lon="37.451686499943996" lat="55.804451545057965"/><rtept lon="37.45175623737839" lat="55.804221923776424"/><rtept lon="37.45119297348526" lat="55.80419473169399"/><rtept lon="37.45109641396071" lat="55.804076899116374"/><rtept lon="37.45110714279679" lat="55.80392583118528"/><rtept lon="37.45069408260848" lat="55.80392583118528"/><rtept lon="37.45064043842819" lat="55.8031825683912"/><rtept lon="37.45079064213303" lat="55.803070775599934"/><rtept lon="37.45074772678879" lat="55.802880424970354"/><rtept lon="37.45065653168227" lat="55.801088666094174"/><rtept lon="37.450663495913474" lat="55.79930319542667"/><rtept lon="37.450706411257705" lat="55.79874417230912"/><rtept lon="37.45073323334781" lat="55.798587040031265"/><rtept lon="37.45086734379855" lat="55.79835738402111"/><rtept lon="37.45347981537903" lat="55.796133276544225"/><rtept lon="37.45376412953461" lat="55.795930803899076"/><rtept lon="37.45418412393962" lat="55.79586017715159"/><rtept lon="37.45434505648051" lat="55.79565770308687"/><rtept lon="37.45465082830822" lat="55.79562446097522"/><rtept lon="37.45474738783272" lat="55.79557006472472"/><rtept lon="37.45476884550482" lat="55.79436123960457"/><rtept lon="37.454784938758905" lat="55.79388374330324"/><rtept lon="37.45418948835762" lat="55.79389280973714"/><rtept lon="37.45426995462807" lat="55.79323699842616"/><rtept lon="37.4539534539643" lat="55.79321886523697"/><rtept lon="37.45336873239904" lat="55.79311308812472"/><rtept lon="37.4528376550141" lat="55.792889444150944"/><rtept lon="37.45231730646521" lat="55.79259930950647"/><rtept lon="37.45220465368658" lat="55.792487486193124"/><rtept lon="37.45225829786684" lat="55.790689202239086"/><rtept lon="37.45224756903074" lat="55.789613214322806"/><rtept lon="37.45336873239897" lat="55.7896313491978"/><rtept lon="37.453384825653075" lat="55.78977945035951"/><rtept lon="37.45373887724302" lat="55.789752248147714"/><rtept lon="37.45393736071012" lat="55.78970086614005"/><rtept lon="37.45394272512815" lat="55.78953160728044"/><rtept lon="37.45402855581665" lat="55.78938350517242"/><rtept lon="37.454012462562545" lat="55.78906614160185"/><rtept lon="37.45396418280028" lat="55.78882131650036"/><rtept lon="37.45398027605436" lat="55.78815635165369"/><rtept lon="37.45396954721828" lat="55.78748835275605"/><rtept lon="37.45401246256252" lat="55.787047044011125"/><rtept lon="37.454001733726436" lat="55.7868989324167"/><rtept lon="37.454092928832964" lat="55.78680825156958"/><rtept lon="37.45418948835749" lat="55.78638204874243"/><rtept lon="37.45436114973444" lat="55.785937704645676"/><rtept lon="37.45454890436549" lat="55.78559915333997"/><rtept lon="37.45521409220117" lat="55.78463184762687"/><rtept lon="37.45593828863519" lat="55.783594990034665"/><rtept lon="37.45599729723353" lat="55.78337129117795"/><rtept lon="37.45598656839743" lat="55.783123407148246"/><rtept lon="37.455444762176434" lat="55.7819776787072"/><rtept lon="37.455299922889616" lat="55.78171164720445"/><rtept lon="37.45501560873404" lat="55.78109493081089"/><rtept lon="37.45495123571767" lat="55.78094075018086"/><rtept lon="37.45473129457846" lat="55.7808591248934"/><rtept lon="37.45426459020986" lat="55.78082587009742"/><rtept lon="37.45353502935779" lat="55.78078959209937"/><rtept lon="37.453422376579105" lat="55.780695873759136"/><rtept lon="37.45326144403821" lat="55.780466111802106"/><rtept lon="37.45305759615308" lat="55.78032099828616"/><rtept lon="37.45262307829266" lat="55.780079141220206"/><rtept lon="37.452274391120746" lat="55.779985421201886"/><rtept lon="37.451829144424224" lat="55.779918910077505"/><rtept lon="37.45136780447367" lat="55.779964258579476"/><rtept lon="37.450922557777204" lat="55.779994490884675"/><rtept lon="37.45093328661326" lat="55.77987658476121"/><rtept lon="37.450844773715716" lat="55.77986146855296"/><rtept lon="37.45052022642491" lat="55.77983577100694"/><rtept lon="37.45101643509266" lat="55.7797617015144"/><rtept lon="37.45091451115011" lat="55.7796120504756"/><rtept lon="37.450144717162836" lat="55.77969367838018"/><rtept lon="37.44998378462194" lat="55.77970879463481"/><rtept lon="37.449981102412934" lat="55.77957577133633"/><rtept lon="37.44974506801962" lat="55.77947902683285"/><rtept lon="37.44968337721226" lat="55.77937925881098"/><rtept lon="37.45007497972844" lat="55.77925530423834"/><rtept lon="37.45032978958485" lat="55.77914041916478"/><rtept lon="37.45026005215048" lat="55.77909960464886"/><rtept lon="37.45014203495383" lat="55.77899227738364"/><rtept lon="37.44984430975315" lat="55.77894390443464"/><rtept lon="37.4493668765485" lat="55.77879727355826"/><rtept lon="37.44912547773716" lat="55.778751923692454"/><rtept lon="37.44919253296254" lat="55.778709597103216"/><rtept lon="37.449498304790254" lat="55.778878903183156"/><rtept lon="37.45004547542928" lat="55.77900588225833"/><rtept lon="37.45021445459721" lat="55.779016463829166"/><rtept lon="37.45038343376517" lat="55.77913739586244"/><rtept lon="37.44971019930242" lat="55.77938681699079"/><rtept lon="37.44982821649908" lat="55.77950623623619"/><rtept lon="37.450024017757165" lat="55.77960600392528"/><rtept lon="37.45002133554816" lat="55.77968612022223"/><rtept lon="37.45020104355214" lat="55.779707282990024"/><rtept lon="37.45036465830205" lat="55.77976774797101"/><rtept lon="37.45078040069937" lat="55.77987507309137"/><rtept lon="37.450989613002534" lat="55.77987960794275"/><rtept lon="37.45095742649435" lat="55.77997937467815"/><rtept lon="37.45114249891633" lat="55.77999146759204"/><rtept lon="37.45147241062516" lat="55.7799642585163"/><rtept lon="37.45188547081345" lat="55.779940072648884"/><rtept lon="37.45213491625185" lat="55.77995972366219"/><rtept lon="37.45264185375565" lat="55.78010483852295"/><rtept lon="37.45294762558336" lat="55.780249952847306"/><rtept lon="37.453231699800135" lat="55.78043674048585"/><rtept lon="37.45333630595172" lat="55.78055086591857"/><rtept lon="37.45347041640246" lat="55.78080027796133"/><rtept lon="37.45259601626362" lat="55.78094841283999"/><rtept lon="37.45244849476779" lat="55.780576562990994"/><rtept lon="37.45193082842792" lat="55.7806385382133"/><rtept lon="37.45194960389104" lat="55.780708071271725"/><rtept lon="37.45192546400989" lat="55.780611329591295"/><rtept lon="37.45247665796242" lat="55.78057731878066"/><rtept lon="37.452622838353676" lat="55.780938587572294"/><rtept lon="37.4534730986114" lat="55.7807813831531"/><rtept lon="37.453288026189384" lat="55.78047906516585"/><rtept lon="37.452994324302246" lat="55.780294650040815"/><rtept lon="37.45257724080043" lat="55.78007622278946"/><rtept lon="37.45213601741744" lat="55.77995302625139"/><rtept lon="37.451733686065204" lat="55.77993791008557"/><rtept lon="37.45106983933402" lat="55.77999837470717"/><rtept lon="37.450899519061565" lat="55.77996587498139"/><rtept lon="37.45094109330131" lat="55.779889538302804"/><rtept lon="37.450422085856935" lat="55.7798222712097"/><rtept lon="37.45029468092872" lat="55.77975953887171"/><rtept lon="37.45012704286528" lat="55.779686225047"/><rtept lon="37.44999963793709" lat="55.77969227155325"/><rtept lon="37.44995672259283" lat="55.77956907380246"/><rtept lon="37.4497582391257" lat="55.77947610835696"/><rtept lon="37.4497059360499" lat="55.779401660262124"/><rtept lon="37.45015472395583" lat="55.77922399319537"/><rtept lon="37.45034180803461" lat="55.779139718912575"/><rtept lon="37.450384723378846" lat="55.77911024175968"/><rtept lon="37.45034180803461" lat="55.77907585172067"/><rtept lon="37.45042160375281" lat="55.779036170875855"/><rtept lon="37.45042629761859" lat="55.77900518199741"/><rtept lon="37.44998440368335" lat="55.778951140351204"/><rtept lon="37.449179740978835" lat="55.778818114442714"/><rtept lon="37.448204758001836" lat="55.77861403972619"/><rtept lon="37.44728207810071" lat="55.77834042677242"/><rtept lon="37.446627619101086" lat="55.778101580732105"/><rtept lon="37.445742490126165" lat="55.77772365678256"/><rtept lon="37.444599869085835" lat="55.77716281086702"/><rtept lon="37.44276255591062" lat="55.7762466947082"/><rtept lon="37.439774575067986" lat="55.77476514095969"/><rtept lon="37.43825644476557" lat="55.77401527179738"/><rtept lon="37.43811160547871" lat="55.773960089308346"/><rtept lon="37.43806198461195" lat="55.773984278896705"/><rtept lon="37.43816256745001" lat="55.77400090922996"/><rtept lon="37.43794530851979" lat="55.77394875043362"/><rtept lon="37.437891664339496" lat="55.77389583564108"/><rtept lon="37.43803918583527" lat="55.77389281192386"/><rtept lon="37.438302042318746" lat="55.773701562128586"/><rtept lon="37.43839591963426" lat="55.7736138741603"/><rtept lon="37.43844419939652" lat="55.77356625043304"/><rtept lon="37.438701691461965" lat="55.77364184361367"/><rtept lon="37.43893504364624" lat="55.77368719945139"/><rtept lon="37.43916839583054" lat="55.77365242664721"/><rtept lon="37.43970886094704" lat="55.77356927415677"/><rtept lon="37.43995562417641" lat="55.77354961990722"/><rtept lon="37.44026944263116" lat="55.773552643638574"/><rtept lon="37.44071603043215" lat="55.7735934639887"/><rtept lon="37.44129136426582" lat="55.77373104336482"/><rtept lon="37.44157701952592" lat="55.77399334995063"/><rtept lon="37.44185060484545" lat="55.77430478948128"/><rtept lon="37.44203567726746" lat="55.77445143732687"/><rtept lon="37.44230658037797" lat="55.77445899647284"/><rtept lon="37.443199755979926" lat="55.77438794038328"/><rtept lon="37.44494855625765" lat="55.77415209369406"/><rtept lon="37.444916369749414" lat="55.77384972405711"/><rtept lon="37.4448573611511" lat="55.77363806391399"/><rtept lon="37.44481444580686" lat="55.77323288270594"/><rtept lon="37.44488954765929" lat="55.7729607436991"/><rtept lon="37.44493246300352" lat="55.77267650758804"/><rtept lon="37.444835903478946" lat="55.772507174441074"/><rtept lon="37.444342377020185" lat="55.77239831703195"/><rtept lon="37.44500220043786" lat="55.77261300774058"/><rtept lon="37.445651295019466" lat="55.77267045998231"/><rtept lon="37.44630038960106" lat="55.772697674172406"/><rtept lon="37.44687974674827" lat="55.77278536421065"/><rtept lon="37.44795799477227" lat="55.772936553466536"/><rtept lon="37.44608581287988" lat="55.77267348378215"/><rtept lon="37.44509875996239" lat="55.77261451963644"/><rtept lon="37.44487881882318" lat="55.772554043503"/><rtept lon="37.44448989851601" lat="55.77242855522547"/><rtept lon="37.44406879170069" lat="55.77236203115475"/><rtept lon="37.44395882113107" lat="55.7723136499408"/><rtept lon="37.44392127020486" lat="55.772203280070755"/><rtept lon="37.44321584923393" lat="55.770624805385076"/><rtept lon="37.44188547356254" lat="55.76775496188657"/><rtept lon="37.43661761505724" lat="55.755983057587706"/><rtept lon="37.436317207647555" lat="55.755069466673255"/><rtept lon="37.43566274864793" lat="55.75359920570424"/><rtept lon="37.43549108727093" lat="55.75315448617197"/><rtept lon="37.43529260380382" lat="55.75310608101835"/><rtept lon="37.43542671425456" lat="55.75302439718479"/><rtept lon="37.43523359520551" lat="55.75267345727882"/><rtept lon="37.4354857228529" lat="55.75257362034692"/><rtept lon="37.43654251320476" lat="55.75248588464949"/><rtept lon="37.43701458199139" lat="55.75242235177936"/><rtept lon="37.43743837101573" lat="55.75231041266009"/><rtept lon="37.437459828687864" lat="55.752207549401206"/><rtept lon="37.436800005270186" lat="55.75228923495259"/><rtept lon="37.43519067986127" lat="55.752561518883205"/><rtept lon="37.435158493353086" lat="55.752652279769265"/><rtept lon="37.43756711704847" lat="55.75225293028429"/><rtept lon="37.43752956612226" lat="55.75218334624188"/><rtept lon="37.43505120499248" lat="55.752600848626535"/><rtept lon="37.43509948475475" lat="55.75251613836067"/><rtept lon="37.437475921941946" lat="55.75215611766961"/><rtept lon="37.43753493054028" lat="55.75232251420205"/><rtept lon="37.43505120499248" lat="55.7526492544098"/><rtept lon="37.435217501951406" lat="55.75245260554001"/><rtept lon="37.43740082008952" lat="55.752131914478234"/><rtept lon="37.43508339150067" lat="55.75247983390443"/><rtept lon="37.435158493353086" lat="55.75237697109422"/><rtept lon="37.43710041267987" lat="55.75214099067677"/><rtept lon="37.43773877842541" lat="55.75211678746971"/><rtept lon="37.43850589020367" lat="55.75193223756771"/><rtept lon="37.439959647489694" lat="55.75228015877617"/><rtept lon="37.440683843923715" lat="55.752446554777244"/><rtept lon="37.438178660703805" lat="55.75187475462599"/><rtept lon="37.43718624336829" lat="55.75164784747118"/><rtept lon="37.43681609852424" lat="55.75153288067349"/><rtept lon="37.437121870351945" lat="55.75112746871765"/><rtept lon="37.4372398875486" lat="55.75097922000793"/><rtept lon="37.43661761505713" lat="55.750679695371964"/><rtept lon="37.43577003700843" lat="55.75014417588418"/><rtept lon="37.435925605131295" lat="55.75008063917756"/><rtept lon="37.435877325369034" lat="55.74995356546513"/><rtept lon="37.43552327377906" lat="55.74959352102248"/><rtept lon="37.43526578171364" lat="55.74928490884419"/><rtept lon="37.43488490803352" lat="55.749169935052876"/><rtept lon="37.43432700855844" lat="55.749266755110284"/><rtept lon="37.432524564100426" lat="55.74964798174063"/><rtept lon="37.43197739346137" lat="55.749741775014385"/><rtept lon="37.43111372215859" lat="55.749732698255244"/><rtept lon="37.42991745693794" lat="55.74937870299457"/><rtept lon="37.427524926496666" lat="55.7479657154114"/><rtept lon="37.4267417214643" lat="55.74729399879114"/><rtept lon="37.42616772873512" lat="55.74691274905985"/><rtept lon="37.42606044037452" lat="55.74672817443318"/><rtept lon="37.42559373600594" lat="55.74641651364687"/><rtept lon="37.42520749790776" lat="55.74623496251558"/><rtept lon="37.424923183752185" lat="55.746041307047136"/><rtept lon="37.42447257263766" lat="55.74552387910731"/><rtept lon="37.4235069773923" lat="55.74513353417154"/><rtept lon="37.42205322010623" lat="55.744192453893355"/><rtept lon="37.4201971314679" lat="55.74310307205343"/><rtept lon="37.41961777432067" lat="55.74269757211985"/><rtept lon="37.41874337418183" lat="55.74232535577505"/><rtept lon="37.41746127827271" lat="55.74146288956656"/><rtept lon="37.417337896658026" lat="55.74121776409179"/><rtept lon="37.417380812002264" lat="55.74096658453854"/><rtept lon="37.41712868435484" lat="55.74086066496314"/><rtept lon="37.41691410763366" lat="55.740676061584495"/><rtept lon="37.416946294141844" lat="55.74087882262514"/><rtept lon="37.41649568302734" lat="55.74084855985042"/><rtept lon="37.41537451965912" lat="55.74015553585985"/><rtept lon="37.41259575111964" lat="55.73830337615195"/><rtept lon="37.41056263668631" lat="55.736911171853095"/><rtept lon="37.40856170876121" lat="55.735543131223345"/><rtept lon="37.40683436615557" lat="55.73445350689023"/><rtept lon="37.406662704778626" lat="55.7342718998659"/><rtept lon="37.40688264591783" lat="55.73416293523777"/><rtept lon="37.40696847660633" lat="55.73405094350252"/><rtept lon="37.4070167563686" lat="55.73376944933771"/><rtept lon="37.40715623123736" lat="55.73367561749641"/><rtept lon="37.407183053327515" lat="55.732934035297625"/><rtept lon="37.407284977270066" lat="55.73268582910958"/><rtept lon="37.40730107052417" lat="55.73199265954995"/><rtept lon="37.40582585556597" lat="55.73201384832226"/><rtept lon="37.40574186567561" lat="55.731074605906386"/><rtept lon="37.40566139940516" lat="55.73019675445661"/><rtept lon="37.40561848406092" lat="55.729558029384876"/><rtept lon="37.40569358591334" lat="55.72907973549757"/><rtept lon="37.40574186567558" lat="55.72837741987886"/><rtept lon="37.40585451845421" lat="55.72782040192323"/><rtept lon="37.405999357741" lat="55.727535835322456"/><rtept lon="37.40621929888024" lat="55.72744804307841"/><rtept lon="37.40738337759265" lat="55.72752675336286"/><rtept lon="37.40762477640399" lat="55.727454097703514"/><rtept lon="37.40783398870715" lat="55.727254293957415"/><rtept lon="37.407732064764595" lat="55.72706357124191"/><rtept lon="37.407211716215706" lat="55.72691825806878"/><rtept lon="37.40511422876606" lat="55.72661552054078"/><rtept lon="37.40368192915209" lat="55.726373328819896"/><rtept lon="37.402550036947815" lat="55.72599490124547"/><rtept lon="37.400758321325874" lat="55.72577087038574"/><rtept lon="37.39992147211323" lat="55.725555920644716"/><rtept lon="37.398988063376045" lat="55.72521078758256"/><rtept lon="37.398215587179735" lat="55.72513510009932"/><rtept lon="37.395764048140094" lat="55.724296472918624"/><rtept lon="37.394514138739105" lat="55.723739396487964"/><rtept lon="37.39251857523204" lat="55.72295826501675"/><rtept lon="37.390962894003394" lat="55.72242539112748"/><rtept lon="37.39102726701976" lat="55.72229519923924"/><rtept lon="37.391590530912886" lat="55.72198637022618"/><rtept lon="37.39212160829783" lat="55.72214078503306"/><rtept lon="37.39212429050679" lat="55.72217863170118"/><rtept lon="37.39164551619764" lat="55.72201816154889"/><rtept lon="37.39169379595991" lat="55.72200075201141"/><rtept lon="37.39203711871382" lat="55.722139271159094"/><rtept lon="37.39250516418692" lat="55.7217350663575"/><rtept lon="37.392627204697085" lat="55.721625309648424"/><rtept lon="37.39306038145301" lat="55.721766100957"/><rtept lon="37.39307781581161" lat="55.721750205189615"/><rtept lon="37.392540032904115" lat="55.72155491380298"/><rtept lon="37.39289542559858" lat="55.721261974871645"/><rtept lon="37.39336749438516" lat="55.720721508116696"/><rtept lon="37.39391466502421" lat="55.7201674083643"/><rtept lon="37.39547571067088" lat="55.71880483440644"/><rtept lon="37.39684363726848" lat="55.71762389835881"/><rtept lon="37.39825447921026" lat="55.71640658828667"/><rtept lon="37.39869436148871" lat="55.71603109192095"/><rtept lon="37.39871581916081" lat="55.71588270929326"/><rtept lon="37.39856561545599" lat="55.715819116565264"/><rtept lon="37.39606043223609" lat="55.7157131284542"/><rtept lon="37.39606043223609" lat="55.71557080110789"/><rtept lon="37.39624818686712" lat="55.715567772860815"/><rtept lon="37.3962857377933" lat="55.71539364825158"/><rtept lon="37.39584317330579" lat="55.715302800316934"/><rtept lon="37.39577880028943" lat="55.71549963722697"/><rtept lon="37.39621063594083" lat="55.71558215701359"/><rtept lon="37.39628037337523" lat="55.71537245040812"/><rtept lon="37.39581366900662" lat="55.71528993016409"/><rtept lon="37.39574661378127" lat="55.7154920665825"/><rtept lon="37.395550812523176" lat="55.71549888015134"/><rtept lon="37.39559506897191" lat="55.71536185148205"/><rtept lon="37.39556690577726" lat="55.715324755239905"/><rtept lon="37.394913787882096" lat="55.715223308180526"/><rtept lon="37.39449536327576" lat="55.71513548812896"/><rtept lon="37.39406084541537" lat="55.71501889914179"/><rtept lon="37.39347075943208" lat="55.7149356210736"/><rtept lon="37.39338761095262" lat="55.714999215246074"/><rtept lon="37.39284580473162" lat="55.714914422993"/><rtept lon="37.39288067344879" lat="55.71489019660101"/><rtept lon="37.39325081829287" lat="55.71494016351793"/><rtept lon="37.39362632755495" lat="55.71411040154375"/><rtept lon="37.393223996202664" lat="55.713990781107874"/><rtept lon="37.392727787534916" lat="55.713662201579034"/><rtept lon="37.39244079117032" lat="55.713132228742204"/><rtept lon="37.39161467079365" lat="55.71184057898832"/><rtept lon="37.39122843269547" lat="55.71111978041181"/><rtept lon="37.391153330843046" lat="55.71078057646333"/><rtept lon="37.39123379711349" lat="55.71043228361104"/><rtept lon="37.39198481563767" lat="55.70989318070948"/><rtept lon="37.393111343423875" lat="55.70903908103811"/><rtept lon="37.39387577299313" lat="55.70845907003731"/><rtept lon="37.39409303192335" lat="55.70850298762146"/><rtept lon="37.39418959144787" lat="55.70856507791445"/><rtept lon="37.39423787121014" lat="55.70848481483402"/><rtept lon="37.3943478417797" lat="55.70825462545229"/><rtept lon="37.39421373132897" lat="55.708171332908506"/><rtept lon="37.39429687980842" lat="55.70800323286795"/><rtept lon="37.39446854118537" lat="55.70773972322841"/><rtept lon="37.39452754978371" lat="55.70765188628739"/><rtept lon="37.39455705408288" lat="55.70757616462734"/><rtept lon="37.39426737550925" lat="55.707100629233466"/><rtept lon="37.39414399389457" lat="55.70702187758817"/><rtept lon="37.393806035558704" lat="55.7070294498687"/><rtept lon="37.393317873517994" lat="55.70710971595151"/><rtept lon="37.392966504137036" lat="55.70721269860771"/><rtept lon="37.392743880788814" lat="55.70722329974803"/><rtept lon="37.39270901207162" lat="55.70718998186875"/><rtept lon="37.39288603786659" lat="55.707255103151624"/><rtept lon="37.3931757164402" lat="55.707102143686626"/><rtept lon="37.39332055572701" lat="55.70697038604161"/><rtept lon="37.39341711525154" lat="55.70689163413271"/><rtept lon="37.39341175083351" lat="55.70680682420639"/><rtept lon="37.393159623186115" lat="55.70680379527703"/><rtept lon="37.39253198627662" lat="55.707174837362494"/><rtept lon="37.392489070932385" lat="55.70716575065968"/><rtept lon="37.39277338508796" lat="55.706965842660345"/><rtept lon="37.391673679391815" lat="55.706505444567235"/><rtept lon="37.391528840105025" lat="55.70663266037277"/><rtept lon="37.39139472965429" lat="55.7066493195546"/><rtept lon="37.39098971609299" lat="55.706890119652655"/><rtept lon="37.390632982294" lat="55.707037022129036"/><rtept lon="37.39042645219986" lat="55.70714000497763"/><rtept lon="37.3900536251468" lat="55.70720058299654"/><rtept lon="37.38981490854447" lat="55.707186952950515"/><rtept lon="37.39002948526563" lat="55.706790165067055"/><rtept lon="37.3876262259882" lat="55.70650393006595"/><rtept lon="37.384568507711215" lat="55.706098048264806"/><rtept lon="37.38242005829027" lat="55.705813322675425"/><rtept lon="37.3821732950609" lat="55.70584967073743"/><rtept lon="37.381655628721056" lat="55.705769402055196"/><rtept lon="37.3818836164873" lat="55.705439238564296"/><rtept lon="37.381650264303" lat="55.70532867860403"/><rtept lon="37.380153591672666" lat="55.70471680683637"/><rtept lon="37.37959032777954" lat="55.70451840080837"/><rtept lon="37.37831359628844" lat="55.70422609084139"/><rtept lon="37.377793247739554" lat="55.704130673124915"/><rtept lon="37.377557213346236" lat="55.70400799285996"/><rtept lon="37.377195115129226" lat="55.70387773931579"/><rtept lon="37.37746601823969" lat="55.702905367674255"/><rtept lon="37.37749820474787" lat="55.70246915568413"/><rtept lon="37.37756257776424" lat="55.70163912769278"/><rtept lon="37.37765913728877" lat="55.70054552364767"/><rtept lon="37.37772351030508" lat="55.699733631510384"/><rtept lon="37.37775569681327" lat="55.69951550834996"/><rtept lon="37.3777878833213" lat="55.69770382701888"/><rtept lon="37.37776106123114" lat="55.6975008407536"/><rtept lon="37.377675230542664" lat="55.69729785342967"/><rtept lon="37.37752502683782" lat="55.69713425093548"/><rtept lon="37.37736945871496" lat="55.697137280617554"/><rtept lon="37.37746065382146" lat="55.69725846770688"/><rtept lon="37.37738555196906" lat="55.697331179779376"/><rtept lon="37.377546484509956" lat="55.69733420944611"/><rtept lon="37.37762158636235" lat="55.697519018671265"/><rtept lon="37.3776269507804" lat="55.69815827004342"/><rtept lon="37.377632315198376" lat="55.697441762456364"/><rtept lon="37.37754916671892" lat="55.69728724957894"/><rtept lon="37.37688666109225" lat="55.697303912761896"/><rtept lon="37.37147128109117" lat="55.697305427583935"/><rtept lon="37.369443531075866" lat="55.69731148689635"/><rtept lon="37.36911093715803" lat="55.697544770663264"/><rtept lon="37.368671054879584" lat="55.698156755198674"/><rtept lon="37.36812388424053" lat="55.699089861606076"/><rtept lon="37.3679897737898" lat="55.69934131178058"/><rtept lon="37.36782347683088" lat="55.69942007897098"/><rtept lon="37.36714756015912" lat="55.699238308291086"/><rtept lon="37.36311351780073" lat="55.69819311040039"/><rtept lon="37.361273522416504" lat="55.69771443068779"/><rtept lon="37.360270376244955" lat="55.697559918892814"/><rtept lon="37.35956763748304" lat="55.69749932586461"/><rtept lon="37.358623499909804" lat="55.697620511826706"/><rtept lon="37.358156795541205" lat="55.69781440858121"/><rtept lon="37.35802268509047" lat="55.6980204228245"/><rtept lon="37.358392829934516" lat="55.69808101504145"/><rtept lon="37.35872005943433" lat="55.69808707425796"/><rtept lon="37.358832712212966" lat="55.69815069597436"/><rtept lon="37.359315509835646" lat="55.69815069597436"/><rtept lon="37.359546179810934" lat="55.69822946557437"/><rtept lon="37.36009871486798" lat="55.698371856369846"/><rtept lon="37.360560054818556" lat="55.698526364941586"/><rtept lon="37.36088728431837" lat="55.698547571952574"/><rtept lon="37.36057078365461" lat="55.69862028161681"/><rtept lon="37.36005579952374" lat="55.6987323754164"/><rtept lon="37.35960518840925" lat="55.698735404967856"/><rtept lon="37.35946571354049" lat="55.699147422607915"/><rtept lon="37.35965883258954" lat="55.699265573922325"/><rtept lon="37.3593262386717" lat="55.69939281339825"/><rtept lon="37.358634228745856" lat="55.699441285470144"/><rtept lon="37.35771691326276" lat="55.69942007894612"/><rtept lon="37.35742187027113" lat="55.69942310845026"/><rtept lon="37.35727166656629" lat="55.69914136355647"/><rtept lon="37.35725557331221" lat="55.69880508472298"/><rtept lon="37.357395048180976" lat="55.698568778939574"/><rtept lon="37.35747551445142" lat="55.698393063452606"/><rtept lon="37.3576900911726" lat="55.69821734717232"/><rtept lon="37.357867116967604" lat="55.69808707424554"/><rtept lon="37.357947583237994" lat="55.69792044544163"/><rtept lon="37.35788321022166" lat="55.69781137893321"/><rtept lon="37.3576954555906" lat="55.69768716392637"/><rtept lon="37.35765790466439" lat="55.69737208017969"/><rtept lon="37.357711548844655" lat="55.69672978617523"/><rtept lon="37.357657904664364" lat="55.69629956445662"/><rtept lon="37.357577438393946" lat="55.69587842731741"/><rtept lon="37.35764181141031" lat="55.69539062969103"/><rtept lon="37.35762571815621" lat="55.69506946766809"/><rtept lon="37.357373590508814" lat="55.6946725562178"/><rtept lon="37.35707854751718" lat="55.69427564072658"/><rtept lon="37.35701953891884" lat="55.69407869642331"/><rtept lon="37.357100005189295" lat="55.693969619149684"/><rtept lon="37.35712146286142" lat="55.69365450530273"/><rtept lon="37.35725020889413" lat="55.693572696484686"/><rtept lon="37.35736286167276" lat="55.69351815717714"/><rtept lon="37.3573145819105" lat="55.69340604836055"/><rtept lon="37.35679423336161" lat="55.69337271864392"/><rtept lon="37.354782576600364" lat="55.69334544884719"/><rtept lon="37.354348058739944" lat="55.693245459474625"/><rtept lon="37.35409593109255" lat="55.69301517994276"/><rtept lon="37.3539081764615" lat="55.69284246939991"/><rtept lon="37.35446071151858" lat="55.69266975809082"/><rtept lon="37.35461627964142" lat="55.69280913920694"/><rtept lon="37.35499715332154" lat="55.69282731930953"/><rtept lon="37.35512321714524" lat="55.692651577889784"/><rtept lon="37.35522782329683" lat="55.69254552665672"/><rtept lon="37.35553895954254" lat="55.69266369801232"/><rtept lon="37.35622292284131" lat="55.692701573364694"/><rtept lon="37.3563811731732" lat="55.692639457751056"/><rtept lon="37.35644018177151" lat="55.69252886142427"/><rtept lon="37.356509919205855" lat="55.692394024375425"/><rtept lon="37.35677545789834" lat="55.69219404047965"/><rtept lon="37.35674863580818" lat="55.692080412812"/><rtept lon="37.35652064804193" lat="55.69178043417585"/><rtept lon="37.35622828725929" lat="55.6917410428701"/><rtept lon="37.35569184545627" lat="55.691710741832345"/><rtept lon="37.35577767614477" lat="55.69149257370909"/><rtept lon="37.35579376939877" lat="55.69120016589177"/><rtept lon="37.355799133816795" lat="55.69096987426114"/><rtept lon="37.35569184545619" lat="55.69072140018446"/><rtept lon="37.35554164175132" lat="55.69052443789313"/><rtept lon="37.355689163247156" lat="55.69044716780145"/><rtept lon="37.35593592647652" lat="55.69037141266074"/><rtept lon="37.35552554849725" lat="55.69050019630605"/><rtept lon="37.355302925149" lat="55.69023050769448"/><rtept lon="37.35505884412864" lat="55.690092632461095"/><rtept lon="37.354790623227146" lat="55.68991990895225"/><rtept lon="37.35413616422749" lat="55.6897199123469"/><rtept lon="37.353656048813825" lat="55.68961385312125"/><rtept lon="37.352618033925054" lat="55.68954264175652"/><rtept lon="37.352333719769476" lat="55.689554762846974"/><rtept lon="37.351035530606275" lat="55.68952446011379"/><rtept lon="37.35025232557391" lat="55.689566883933644"/><rtept lon="37.34955495123005" lat="55.68960021690251"/><rtept lon="37.34910970453358" lat="55.68957900501654"/><rtept lon="37.348927314320555" lat="55.68953658120989"/><rtept lon="37.34880929712387" lat="55.69014263119749"/><rtept lon="37.34870200876327" lat="55.69061231344764"/><rtept lon="37.348240668812714" lat="55.69056686057369"/><rtept lon="37.34745746378033" lat="55.69052746803383"/><rtept lon="37.34702831033794" lat="55.690524437837276"/><rtept lon="37.346904928723255" lat="55.69164862456331"/><rtept lon="37.34696930173962" lat="55.691836490878394"/><rtept lon="37.34688883546917" lat="55.691951634300835"/><rtept lon="37.34672253851021" lat="55.69359390603957"/><rtept lon="37.34561210397803" lat="55.693572696329475"/><rtept lon="37.34561210397803" lat="55.6937847929102"/><rtept lon="37.34686737779699" lat="55.69385751147187"/><rtept lon="37.34806900743567" lat="55.69393931969135"/><rtept lon="37.34832113508309" lat="55.69396961898828"/><rtept lon="37.348154838124145" lat="55.69536033132632"/><rtept lon="37.34823530439459" lat="55.69577844427721"/><rtept lon="37.348535711804274" lat="55.69618140395809"/><rtept lon="37.34940474752506" lat="55.696593448635056"/><rtept lon="37.349726612606844" lat="55.69685703375503"/><rtept lon="37.35015040163118" lat="55.697208477805006"/><rtept lon="37.350558097401446" lat="55.69772654901667"/><rtept lon="37.35096042875368" lat="55.69795680067784"/><rtept lon="37.351700718441805" lat="55.69810525168451"/><rtept lon="37.352322990933246" lat="55.69813554773255"/><rtept lon="37.352274711170985" lat="55.69831126438211"/><rtept lon="37.35210841421207" lat="55.700304683918425"/><rtept lon="37.35184555772852" lat="55.700235006792205"/><rtept lon="37.35057419065547" lat="55.69951096370071"/><rtept lon="37.34945302728724" lat="55.69890203000334"/><rtept lon="37.34920089963985" lat="55.69882629131509"/><rtept lon="37.34884148363185" lat="55.69900200484615"/><rtept lon="37.348723466435196" lat="55.69889597091371"/><rtept lon="37.348535711804146" lat="55.699047447871614"/><rtept lon="37.34810119394373" lat="55.69895353222096"/><rtept lon="37.347666676083335" lat="55.69897170946017"/><rtept lon="37.34752720121455" lat="55.69883537995927"/><rtept lon="37.34696930173944" lat="55.699114097540146"/><rtept lon="37.346743996182205" lat="55.69915954043475"/><rtept lon="37.34656697038721" lat="55.69903835926458"/><rtept lon="37.34693711523126" lat="55.69889294136234"/><rtept lon="37.346529419461" lat="55.698702079541086"/><rtept lon="37.346223647633316" lat="55.698496068905904"/><rtept lon="37.34604662183832" lat="55.69858089694657"/><rtept lon="37.34530096773219" lat="55.69885961634367"/><rtept lon="37.34270458940576" lat="55.700050210450925"/><rtept lon="37.34416907552786" lat="55.7011165640682"/></rte><rte><rtept lon="37.53188615564386" lat="55.75444237928928"/><rtept lon="37.53111367944758" lat="55.7526756106829"/><rtept lon="37.53106539968526" lat="55.75256064691459"/><rtept lon="37.530469949283955" lat="55.75262115419688"/><rtept lon="37.530217821636555" lat="55.7526453570834"/><rtept lon="37.529944236317036" lat="55.75236097221429"/><rtept lon="37.52941852335012" lat="55.752300464526684"/><rtept lon="37.529075200596196" lat="55.75220667742463"/><rtept lon="37.529354150333745" lat="55.75191321309406"/><rtept lon="37.529509718456616" lat="55.75174378937826"/><rtept lon="37.529976422825165" lat="55.75118408075312"/><rtept lon="37.530309016743004" lat="55.750669746820854"/><rtept lon="37.53085618738206" lat="55.74972577506154"/><rtept lon="37.531135137119605" lat="55.749205370564965"/><rtept lon="37.53144090894732" lat="55.74852459833143"/><rtept lon="37.53160184148821" lat="55.74815848922628"/><rtept lon="37.53166621450455" lat="55.74789525162176"/><rtept lon="37.5318378758815" lat="55.74794668899504"/><rtept lon="37.531950528660104" lat="55.74789525160294"/><rtept lon="37.53195589307808" lat="55.74745651829203"/></rte><rte><rtept lon="37.33949929171154" lat="55.81490963968672"/><rtept lon="37.34212785654613" lat="55.81527209900332"/><rtept lon="37.3420098393495" lat="55.81548957296597"/><rtept lon="37.341698703103766" lat="55.815471450182386"/><rtept lon="37.34177380495618" lat="55.81567684123361"/><rtept lon="37.340818938546875" lat="55.81542916365434"/><rtept lon="37.3400679200227" lat="55.81526001708073"/><rtept lon="37.33859806948254" lat="55.81507274679874"/><rtept lon="37.338619527154655" lat="55.81521773032197"/><rtept lon="37.33739643984382" lat="55.81509086976245"/><rtept lon="37.33690291338509" lat="55.815232832734736"/><rtept lon="37.3366722434098" lat="55.815323447126"/><rtept lon="37.33551889353341" lat="55.815444265984716"/><rtept lon="37.33464985781257" lat="55.81528720139492"/><rtept lon="37.33426361971444" lat="55.81531438569641"/><rtept lon="37.33416706018989" lat="55.81554696171846"/><rtept lon="37.33420997553413" lat="55.81565267763067"/><rtept lon="37.3312327235276" lat="55.81517846399192"/><rtept lon="37.33009546690526" lat="55.81501233681186"/><rtept lon="37.32956438952029" lat="55.81496400877491"/><rtept lon="37.3292210667664" lat="55.81491568067767"/><rtept lon="37.32801943712772" lat="55.81540802034758"/><rtept lon="37.327788767152434" lat="55.81549561386653"/><rtept lon="37.32739180021825" lat="55.81574933190754"/><rtept lon="37.32676952772676" lat="55.81600606870409"/><rtept lon="37.32642620497284" lat="55.8161661507908"/><rtept lon="37.325632271104425" lat="55.81553790031572"/><rtept lon="37.325557169252" lat="55.815658718505816"/><rtept lon="37.32536405020295" lat="55.81580067939785"/><rtept lon="37.32469349794922" lat="55.816048354602586"/><rtept lon="37.32451110773619" lat="55.81612386502084"/><rtept lon="37.32430189543304" lat="55.8159517010525"/><rtept lon="37.32343285971223" lat="55.81534761090245"/><rtept lon="37.322987613015755" lat="55.81553790031572"/><rtept lon="37.32317000322875" lat="55.81567080030411"/><rtept lon="37.32334702902376" lat="55.81561039127499"/></rte></gpx>