<?xml version="1.0" encoding="UTF-8"?>
<gpx xmlns="http://www.topografix.com/GPX/1/1" xmlns:xsi="http://www.w3.org/2001/XMLSchema-instance" xsi:schemaLocation="http://www.topografix.com/GPX/1/1 http://www.topografix.com/GPX/1/1/gpx.xsd" version="1.1" creator="gpx.py -- https://github.com/tkrajina/gpxpy">
  <rte>
    <name>masstransit 54.7 km</name>
    <rtept lat="55.700548" lon="36.880966">
    </rtept>
    <rtept lat="55.700599999999994" lon="36.880932">
    </rtept>
    <rtept lat="55.700526999999994" lon="36.880588">
    </rtept>
    <rtept lat="55.70058399999999" lon="36.88055">
    </rtept>
    <rtept lat="55.70058399999999" lon="36.88055">
    </rtept>
    <rtept lat="55.70046699999999" lon="36.880575">
    </rtept>
    <rtept lat="55.69999599999999" lon="36.878337">
    </rtept>
    <rtept lat="55.69977999999999" lon="36.877324">
    </rtept>
    <rtept lat="55.69958699999999" lon="36.876388">
    </rtept>
    <rtept lat="55.699533999999986" lon="36.876118999999996">
    </rtept>
    <rtept lat="55.69941399999998" lon="36.875505">
    </rtept>
    <rtept lat="55.699235999999985" lon="36.874846999999995">
    </rtept>
    <rtept lat="55.69915799999998" lon="36.874545999999995">
    </rtept>
    <rtept lat="55.69905799999998" lon="36.874244">
    </rtept>
    <rtept lat="55.69892899999998" lon="36.873912">
    </rtept>
    <rtept lat="55.69880199999998" lon="36.873641">
    </rtept>
    <rtept lat="55.69866699999998" lon="36.873384">
    </rtept>
    <rtept lat="55.69851999999998" lon="36.87315">
    </rtept>
    <rtept lat="55.69838499999998" lon="36.87297">
    </rtept>
    <rtept lat="55.69820499999998" lon="36.872751">
    </rtept>
    <rtept lat="55.69803899999998" lon="36.872574">
    </rtept>
    <rtept lat="55.69774099999998" lon="36.872257">
    </rtept>
    <rtept lat="55.69768999999998" lon="36.872212">
    </rtept>
    <rtept lat="55.69732899999998" lon="36.871893">
    </rtept>
    <rtept lat="55.696643999999985" lon="36.871408">
    </rtept>
    <rtept lat="55.69620399999999" lon="36.871188000000004">
    </rtept>
    <rtept lat="55.69576999999999" lon="36.871022">
    </rtept>
    <rtept lat="55.69444499999999" lon="36.870585000000005">
    </rtept>
    <rtept lat="55.69437399999999" lon="36.870561">
    </rtept>
    <rtept lat="55.69414399999999" lon="36.87052">
    </rtept>
    <rtept lat="55.693626999999985" lon="36.870514">
    </rtept>
    <rtept lat="55.693165999999984" lon="36.870572">
    </rtept>
    <rtept lat="55.69278999999998" lon="36.8707">
    </rtept>
    <rtept lat="55.69196599999998" lon="36.871114">
    </rtept>
    <rtept lat="55.69143599999998" lon="36.871553999999996">
    </rtept>
    <rtept lat="55.690739999999984" lon="36.872311999999994">
    </rtept>
    <rtept lat="55.69016099999998" lon="36.873093">
    </rtept>
    <rtept lat="55.689762999999985" lon="36.873763999999994">
    </rtept>
    <rtept lat="55.68890099999999" lon="36.875598999999994">
    </rtept>
    <rtept lat="55.68803699999999" lon="36.877433999999994">
    </rtept>
    <rtept lat="55.68717299999999" lon="36.87926999999999">
    </rtept>
    <rtept lat="55.68631099999999" lon="36.88110499999999">
    </rtept>
    <rtept lat="55.68544699999999" lon="36.88293999999999">
    </rtept>
    <rtept lat="55.68458399999999" lon="36.88477499999999">
    </rtept>
    <rtept lat="55.683720999999984" lon="36.88660999999999">
    </rtept>
    <rtept lat="55.682856999999984" lon="36.88844499999999">
    </rtept>
    <rtept lat="55.681992999999984" lon="36.89027999999999">
    </rtept>
    <rtept lat="55.68186399999998" lon="36.89055599999999">
    </rtept>
    <rtept lat="55.68125899999998" lon="36.89204799999999">
    </rtept>
    <rtept lat="55.68105999999998" lon="36.89269599999999">
    </rtept>
    <rtept lat="55.68073999999998" lon="36.894030999999984">
    </rtept>
    <rtept lat="55.68057699999998" lon="36.89508199999998">
    </rtept>
    <rtept lat="55.68046999999998" lon="36.89626099999998">
    </rtept>
    <rtept lat="55.68038899999998" lon="36.89864599999998">
    </rtept>
    <rtept lat="55.68030699999998" lon="36.90103199999998">
    </rtept>
    <rtept lat="55.68022699999998" lon="36.903416999999976">
    </rtept>
    <rtept lat="55.68019499999998" lon="36.904339999999976">
    </rtept>
    <rtept lat="55.680047999999985" lon="36.90609599999998">
    </rtept>
    <rtept lat="55.679723999999986" lon="36.908302999999975">
    </rtept>
    <rtept lat="55.679256999999986" lon="36.91054499999998">
    </rtept>
    <rtept lat="55.678789999999985" lon="36.912785999999976">
    </rtept>
    <rtept lat="55.678713999999985" lon="36.91314799999998">
    </rtept>
    <rtept lat="55.67870699999999" lon="36.91317599999998">
    </rtept>
    <rtept lat="55.67870699999999" lon="36.91317599999998">
    </rtept>
    <rtept lat="55.67824599999999" lon="36.915419999999976">
    </rtept>
    <rtept lat="55.677781999999986" lon="36.917663999999974">
    </rtept>
    <rtept lat="55.67731899999998" lon="36.91990799999997">
    </rtept>
    <rtept lat="55.67685599999998" lon="36.92215299999997">
    </rtept>
    <rtept lat="55.67639199999998" lon="36.92439599999997">
    </rtept>
    <rtept lat="55.675928999999975" lon="36.92663999999997">
    </rtept>
    <rtept lat="55.675464999999974" lon="36.92888499999997">
    </rtept>
    <rtept lat="55.67500199999997" lon="36.93112799999997">
    </rtept>
    <rtept lat="55.67453799999997" lon="36.933372999999975">
    </rtept>
    <rtept lat="55.67407499999997" lon="36.935615999999975">
    </rtept>
    <rtept lat="55.673610999999966" lon="36.93785999999997">
    </rtept>
    <rtept lat="55.67314799999996" lon="36.94010299999997">
    </rtept>
    <rtept lat="55.67268399999996" lon="36.94234699999997">
    </rtept>
    <rtept lat="55.67222099999996" lon="36.94458999999997">
    </rtept>
    <rtept lat="55.67208499999996" lon="36.94524899999997">
    </rtept>
    <rtept lat="55.671728999999964" lon="36.94750499999997">
    </rtept>
    <rtept lat="55.67157799999996" lon="36.94869199999997">
    </rtept>
    <rtept lat="55.67138099999996" lon="36.951054999999975">
    </rtept>
    <rtept lat="55.67118399999996" lon="36.95341999999997">
    </rtept>
    <rtept lat="55.67098799999996" lon="36.955782999999975">
    </rtept>
    <rtept lat="55.67081499999996" lon="36.957854999999974">
    </rtept>
    <rtept lat="55.67064399999996" lon="36.960223999999975">
    </rtept>
    <rtept lat="55.67047599999996" lon="36.962522999999976">
    </rtept>
    <rtept lat="55.67047599999996" lon="36.962522999999976">
    </rtept>
    <rtept lat="55.67030399999996" lon="36.964892999999975">
    </rtept>
    <rtept lat="55.67019399999996" lon="36.966400999999976">
    </rtept>
    <rtept lat="55.66998999999996" lon="36.968438999999975">
    </rtept>
    <rtept lat="55.669777999999965" lon="36.969536999999974">
    </rtept>
    <rtept lat="55.66959599999996" lon="36.970256999999975">
    </rtept>
    <rtept lat="55.668950999999964" lon="36.97215799999997">
    </rtept>
    <rtept lat="55.668536999999965" lon="36.97303999999997">
    </rtept>
    <rtept lat="55.66828499999996" lon="36.97345599999997">
    </rtept>
    <rtept lat="55.66773299999996" lon="36.97406099999997">
    </rtept>
    <rtept lat="55.66654099999996" lon="36.97517199999997">
    </rtept>
    <rtept lat="55.66534799999996" lon="36.976282999999974">
    </rtept>
    <rtept lat="55.66499199999996" lon="36.97661399999998">
    </rtept>
    <rtept lat="55.66443199999996" lon="36.97702899999997">
    </rtept>
    <rtept lat="55.66406099999996" lon="36.977224999999976">
    </rtept>
    <rtept lat="55.66365699999996" lon="36.97737799999997">
    </rtept>
    <rtept lat="55.66322799999996" lon="36.977455999999975">
    </rtept>
    <rtept lat="55.66255499999996" lon="36.977489999999975">
    </rtept>
    <rtept lat="55.66202399999996" lon="36.97742899999997">
    </rtept>
    <rtept lat="55.66069599999996" lon="36.97701899999997">
    </rtept>
    <rtept lat="55.659368999999955" lon="36.97660999999997">
    </rtept>
    <rtept lat="55.658040999999955" lon="36.97619999999997">
    </rtept>
    <rtept lat="55.65671399999995" lon="36.97579099999997">
    </rtept>
    <rtept lat="55.65538699999995" lon="36.975381999999975">
    </rtept>
    <rtept lat="55.654059999999944" lon="36.97497199999997">
    </rtept>
    <rtept lat="55.65273199999994" lon="36.974562999999975">
    </rtept>
    <rtept lat="55.65206899999994" lon="36.974357999999974">
    </rtept>
    <rtept lat="55.65119699999994" lon="36.974159999999976">
    </rtept>
    <rtept lat="55.65084099999994" lon="36.97413399999998">
    </rtept>
    <rtept lat="55.650516999999944" lon="36.97412899999998">
    </rtept>
    <rtept lat="55.650093999999946" lon="36.97418399999998">
    </rtept>
    <rtept lat="55.649646999999945" lon="36.97430699999998">
    </rtept>
    <rtept lat="55.64927999999995" lon="36.97446999999998">
    </rtept>
    <rtept lat="55.64862699999995" lon="36.97485599999998">
    </rtept>
    <rtept lat="55.64741299999995" lon="36.97589299999998">
    </rtept>
    <rtept lat="55.64697299999995" lon="36.97626999999998">
    </rtept>
    <rtept lat="55.64696499999995" lon="36.97627599999998">
    </rtept>
    <rtept lat="55.64696499999995" lon="36.97627599999998">
    </rtept>
    <rtept lat="55.645750999999954" lon="36.977309999999974">
    </rtept>
    <rtept lat="55.64453699999996" lon="36.97834399999997">
    </rtept>
    <rtept lat="55.64440099999996" lon="36.97845999999997">
    </rtept>
    <rtept lat="55.64333899999996" lon="36.97915399999997">
    </rtept>
    <rtept lat="55.64268899999996" lon="36.97942999999997">
    </rtept>
    <rtept lat="55.64206699999996" lon="36.97963599999997">
    </rtept>
    <rtept lat="55.641091999999965" lon="36.97978799999997">
    </rtept>
    <rtept lat="55.64015299999996" lon="36.97976299999997">
    </rtept>
    <rtept lat="55.63932099999996" lon="36.97959099999997">
    </rtept>
    <rtept lat="55.63815199999996" lon="36.97927799999997">
    </rtept>
    <rtept lat="55.63699099999996" lon="36.97873599999997">
    </rtept>
    <rtept lat="55.63655299999996" lon="36.97841299999997">
    </rtept>
    <rtept lat="55.636083999999954" lon="36.97797299999997">
    </rtept>
    <rtept lat="55.634946999999954" lon="36.97669399999997">
    </rtept>
    <rtept lat="55.634442999999955" lon="36.97612899999997">
    </rtept>
    <rtept lat="55.63370099999995" lon="36.97551799999997">
    </rtept>
    <rtept lat="55.63337499999995" lon="36.97530199999997">
    </rtept>
    <rtept lat="55.63267799999995" lon="36.97499499999997">
    </rtept>
    <rtept lat="55.63202699999995" lon="36.97487499999997">
    </rtept>
    <rtept lat="55.63163599999995" lon="36.97485599999997">
    </rtept>
    <rtept lat="55.63124499999995" lon="36.974892999999966">
    </rtept>
    <rtept lat="55.63061699999995" lon="36.97504099999997">
    </rtept>
    <rtept lat="55.62930599999995" lon="36.97558899999997">
    </rtept>
    <rtept lat="55.62855199999995" lon="36.97590399999997">
    </rtept>
    <rtept lat="55.62786599999995" lon="36.976124999999975">
    </rtept>
    <rtept lat="55.62746599999995" lon="36.976200999999975">
    </rtept>
    <rtept lat="55.62706699999995" lon="36.97614299999997">
    </rtept>
    <rtept lat="55.626645999999944" lon="36.976009999999974">
    </rtept>
    <rtept lat="55.62533199999994" lon="36.975479999999976">
    </rtept>
    <rtept lat="55.62401799999994" lon="36.974950999999976">
    </rtept>
    <rtept lat="55.62270399999994" lon="36.974421999999976">
    </rtept>
    <rtept lat="55.62139099999994" lon="36.97389199999998">
    </rtept>
    <rtept lat="55.62007699999994" lon="36.97336299999998">
    </rtept>
    <rtept lat="55.61876299999994" lon="36.97283299999998">
    </rtept>
    <rtept lat="55.617730999999935" lon="36.97241799999998">
    </rtept>
    <rtept lat="55.61751299999994" lon="36.97235899999998">
    </rtept>
    <rtept lat="55.61703999999994" lon="36.972315999999985">
    </rtept>
    <rtept lat="55.61648499999994" lon="36.972439999999985">
    </rtept>
    <rtept lat="55.61607199999994" lon="36.97266699999999">
    </rtept>
    <rtept lat="55.61570199999994" lon="36.97298099999999">
    </rtept>
    <rtept lat="55.615371999999944" lon="36.97339599999999">
    </rtept>
    <rtept lat="55.61505999999994" lon="36.97392799999999">
    </rtept>
    <rtept lat="55.614689999999946" lon="36.97482499999999">
    </rtept>
    <rtept lat="55.614369999999944" lon="36.97580599999999">
    </rtept>
    <rtept lat="55.61419699999995" lon="36.97650099999999">
    </rtept>
    <rtept lat="55.61407299999995" lon="36.977326999999995">
    </rtept>
    <rtept lat="55.61402999999995" lon="36.978424999999994">
    </rtept>
    <rtept lat="55.61406899999995" lon="36.97994599999999">
    </rtept>
    <rtept lat="55.61418199999995" lon="36.98222899999999">
    </rtept>
    <rtept lat="55.61433199999995" lon="36.98351099999999">
    </rtept>
    <rtept lat="55.614504999999944" lon="36.984525999999995">
    </rtept>
    <rtept lat="55.61504599999994" lon="36.986709">
    </rtept>
    <rtept lat="55.61509099999994" lon="36.986891">
    </rtept>
    <rtept lat="55.615103999999945" lon="36.986944">
    </rtept>
    <rtept lat="55.615103999999945" lon="36.986944">
    </rtept>
    <rtept lat="55.615455999999945" lon="36.988276">
    </rtept>
    <rtept lat="55.616074999999945" lon="36.990394">
    </rtept>
    <rtept lat="55.616693999999946" lon="36.992513">
    </rtept>
    <rtept lat="55.61686199999995" lon="36.993084">
    </rtept>
    <rtept lat="55.617453999999945" lon="36.995226">
    </rtept>
    <rtept lat="55.61804899999994" lon="36.997366">
    </rtept>
    <rtept lat="55.618641999999944" lon="36.999508">
    </rtept>
    <rtept lat="55.61866599999995" lon="36.999590999999995">
    </rtept>
    <rtept lat="55.61921799999995" lon="37.001765999999996">
    </rtept>
    <rtept lat="55.61977199999995" lon="37.003941">
    </rtept>
    <rtept lat="55.620324999999944" lon="37.006116">
    </rtept>
    <rtept lat="55.620878999999945" lon="37.008292">
    </rtept>
    <rtept lat="55.62143199999994" lon="37.010467999999996">
    </rtept>
    <rtept lat="55.62156399999994" lon="37.01098699999999">
    </rtept>
    <rtept lat="55.62213499999994" lon="37.01314899999999">
    </rtept>
    <rtept lat="55.622705999999944" lon="37.01531099999999">
    </rtept>
    <rtept lat="55.623276999999945" lon="37.01747199999999">
    </rtept>
    <rtept lat="55.623847999999946" lon="37.01963399999999">
    </rtept>
    <rtept lat="55.623965999999946" lon="37.02008099999999">
    </rtept>
    <rtept lat="55.62452299999995" lon="37.02225399999999">
    </rtept>
    <rtept lat="55.62507999999995" lon="37.02442699999999">
    </rtept>
    <rtept lat="55.62563699999995" lon="37.02659999999999">
    </rtept>
    <rtept lat="55.62619399999995" lon="37.028773999999984">
    </rtept>
    <rtept lat="55.62633699999995" lon="37.02933199999998">
    </rtept>
    <rtept lat="55.62634099999995" lon="37.029347999999985">
    </rtept>
    <rtept lat="55.62634099999995" lon="37.029347999999985">
    </rtept>
    <rtept lat="55.62690099999995" lon="37.03151899999998">
    </rtept>
    <rtept lat="55.62746099999995" lon="37.03368999999998">
    </rtept>
    <rtept lat="55.628018999999945" lon="37.03586199999998">
    </rtept>
    <rtept lat="55.628578999999945" lon="37.03803199999998">
    </rtept>
    <rtept lat="55.629138999999945" lon="37.04020399999998">
    </rtept>
    <rtept lat="55.629698999999945" lon="37.04237499999998">
    </rtept>
    <rtept lat="55.63025799999995" lon="37.04454699999998">
    </rtept>
    <rtept lat="55.63081799999995" lon="37.04671799999998">
    </rtept>
    <rtept lat="55.631375999999946" lon="37.04888999999998">
    </rtept>
    <rtept lat="55.631935999999946" lon="37.05106199999998">
    </rtept>
    <rtept lat="55.63249499999995" lon="37.05323199999998">
    </rtept>
    <rtept lat="55.63305499999995" lon="37.05540399999998">
    </rtept>
    <rtept lat="55.63361399999995" lon="37.05757599999998">
    </rtept>
    <rtept lat="55.634172999999954" lon="37.059747999999985">
    </rtept>
    <rtept lat="55.63473199999996" lon="37.061919999999986">
    </rtept>
    <rtept lat="55.63529099999996" lon="37.06409199999999">
    </rtept>
    <rtept lat="55.63585099999996" lon="37.06626499999999">
    </rtept>
    <rtept lat="55.63590999999996" lon="37.06649599999999">
    </rtept>
    <rtept lat="55.63591399999996" lon="37.06650899999999">
    </rtept>
    <rtept lat="55.63591399999996" lon="37.06650899999999">
    </rtept>
    <rtept lat="55.636474999999955" lon="37.06867899999999">
    </rtept>
    <rtept lat="55.63703599999995" lon="37.070849999999986">
    </rtept>
    <rtept lat="55.63759699999995" lon="37.07302099999998">
    </rtept>
    <rtept lat="55.63815799999995" lon="37.07519099999998">
    </rtept>
    <rtept lat="55.63871999999995" lon="37.07736199999998">
    </rtept>
    <rtept lat="55.63927999999995" lon="37.07953199999998">
    </rtept>
    <rtept lat="55.63984099999995" lon="37.081702999999976">
    </rtept>
    <rtept lat="55.640401999999945" lon="37.08387399999997">
    </rtept>
    <rtept lat="55.640773999999944" lon="37.08531299999997">
    </rtept>
    <rtept lat="55.64128499999995" lon="37.08752299999997">
    </rtept>
    <rtept lat="55.64131199999995" lon="37.08764399999997">
    </rtept>
    <rtept lat="55.64162199999995" lon="37.08978799999997">
    </rtept>
    <rtept lat="55.64176999999995" lon="37.09158599999997">
    </rtept>
    <rtept lat="55.641838999999955" lon="37.09331799999997">
    </rtept>
    <rtept lat="55.641841999999954" lon="37.09570499999997">
    </rtept>
    <rtept lat="55.64184299999995" lon="37.09697099999997">
    </rtept>
    <rtept lat="55.64184299999995" lon="37.09697099999997">
    </rtept>
    <rtept lat="55.641824999999955" lon="37.09935899999997">
    </rtept>
    <rtept lat="55.641807999999955" lon="37.10174599999997">
    </rtept>
    <rtept lat="55.64178899999995" lon="37.10413299999997">
    </rtept>
    <rtept lat="55.64178399999995" lon="37.10471499999997">
    </rtept>
    <rtept lat="55.641782999999954" lon="37.107102999999974">
    </rtept>
    <rtept lat="55.641779999999954" lon="37.10948999999997">
    </rtept>
    <rtept lat="55.64177799999995" lon="37.11187699999997">
    </rtept>
    <rtept lat="55.64177599999995" lon="37.114264999999975">
    </rtept>
    <rtept lat="55.64177399999995" lon="37.116524999999974">
    </rtept>
    <rtept lat="55.64184399999995" lon="37.118227999999974">
    </rtept>
    <rtept lat="55.64192199999995" lon="37.11918599999997">
    </rtept>
    <rtept lat="55.64212299999995" lon="37.12089799999997">
    </rtept>
    <rtept lat="55.642399999999945" lon="37.12253499999997">
    </rtept>
    <rtept lat="55.64282999999995" lon="37.12479899999997">
    </rtept>
    <rtept lat="55.643258999999944" lon="37.12706199999997">
    </rtept>
    <rtept lat="55.64368799999994" lon="37.129324999999966">
    </rtept>
    <rtept lat="55.64411899999994" lon="37.131587999999965">
    </rtept>
    <rtept lat="55.64441699999994" lon="37.133163999999965">
    </rtept>
    <rtept lat="55.64479799999994" lon="37.134984999999965">
    </rtept>
    <rtept lat="55.64522799999994" lon="37.13672499999996">
    </rtept>
    <rtept lat="55.64580799999994" lon="37.13869299999996">
    </rtept>
    <rtept lat="55.64626299999994" lon="37.14007599999996">
    </rtept>
    <rtept lat="55.64696499999994" lon="37.14211399999996">
    </rtept>
    <rtept lat="55.64766799999994" lon="37.144151999999956">
    </rtept>
    <rtept lat="55.64837099999994" lon="37.146189999999955">
    </rtept>
    <rtept lat="55.64907299999994" lon="37.148226999999956">
    </rtept>
    <rtept lat="55.649774999999934" lon="37.150264999999955">
    </rtept>
    <rtept lat="55.65016399999993" lon="37.151393999999954">
    </rtept>
    <rtept lat="55.65017499999993" lon="37.151426999999956">
    </rtept>
    <rtept lat="55.65017499999993" lon="37.151426999999956">
    </rtept>
    <rtept lat="55.650877999999935" lon="37.15346399999996">
    </rtept>
    <rtept lat="55.651580999999936" lon="37.15550099999996">
    </rtept>
    <rtept lat="55.652284999999935" lon="37.15753799999996">
    </rtept>
    <rtept lat="55.65298799999994" lon="37.15957499999996">
    </rtept>
    <rtept lat="55.65369099999994" lon="37.16161299999996">
    </rtept>
    <rtept lat="55.65439399999994" lon="37.16365099999996">
    </rtept>
    <rtept lat="55.65509699999994" lon="37.16568799999996">
    </rtept>
    <rtept lat="55.65579999999994" lon="37.16772499999996">
    </rtept>
    <rtept lat="55.656502999999944" lon="37.16976299999996">
    </rtept>
    <rtept lat="55.657205999999945" lon="37.17180099999996">
    </rtept>
    <rtept lat="55.65790899999995" lon="37.17383899999996">
    </rtept>
    <rtept lat="55.65861199999995" lon="37.17587699999996">
    </rtept>
    <rtept lat="55.65931499999995" lon="37.177914999999956">
    </rtept>
    <rtept lat="55.66001699999995" lon="37.179952999999955">
    </rtept>
    <rtept lat="55.66071999999995" lon="37.181989999999956">
    </rtept>
    <rtept lat="55.66123099999995" lon="37.18347199999996">
    </rtept>
    <rtept lat="55.66123099999995" lon="37.18347199999996">
    </rtept>
    <rtept lat="55.66192899999995" lon="37.18551499999996">
    </rtept>
    <rtept lat="55.66243099999995" lon="37.18698599999996">
    </rtept>
    <rtept lat="55.662957999999946" lon="37.18867499999996">
    </rtept>
    <rtept lat="55.66333999999995" lon="37.19022699999996">
    </rtept>
    <rtept lat="55.66362599999995" lon="37.19184699999996">
    </rtept>
    <rtept lat="55.66388599999995" lon="37.19411199999996">
    </rtept>
    <rtept lat="55.66406499999995" lon="37.19647999999996">
    </rtept>
    <rtept lat="55.664243999999954" lon="37.198847999999956">
    </rtept>
    <rtept lat="55.664423999999954" lon="37.20121599999995">
    </rtept>
    <rtept lat="55.66460299999996" lon="37.20358399999995">
    </rtept>
    <rtept lat="55.66478199999996" lon="37.20594999999995">
    </rtept>
    <rtept lat="55.66496099999996" lon="37.20831799999995">
    </rtept>
    <rtept lat="55.665139999999965" lon="37.21068499999995">
    </rtept>
    <rtept lat="55.66523499999997" lon="37.21193699999995">
    </rtept>
    <rtept lat="55.66523499999997" lon="37.21193699999995">
    </rtept>
    <rtept lat="55.66523699999997" lon="37.21194199999995">
    </rtept>
    <rtept lat="55.66541499999997" lon="37.21431099999995">
    </rtept>
    <rtept lat="55.66559399999997" lon="37.21667899999995">
    </rtept>
    <rtept lat="55.66577099999997" lon="37.21904699999995">
    </rtept>
    <rtept lat="55.665949999999974" lon="37.22141499999994">
    </rtept>
    <rtept lat="55.66612799999997" lon="37.22378199999994">
    </rtept>
    <rtept lat="55.666306999999975" lon="37.226150999999945">
    </rtept>
    <rtept lat="55.66648499999997" lon="37.228517999999944">
    </rtept>
    <rtept lat="55.66666299999997" lon="37.23088599999994">
    </rtept>
    <rtept lat="55.66684099999997" lon="37.23325399999994">
    </rtept>
    <rtept lat="55.66701999999997" lon="37.235621999999935">
    </rtept>
    <rtept lat="55.66719699999997" lon="37.23798999999993">
    </rtept>
    <rtept lat="55.667375999999976" lon="37.240358999999934">
    </rtept>
    <rtept lat="55.66755299999998" lon="37.24272699999993">
    </rtept>
    <rtept lat="55.66758099999998" lon="37.243085999999934">
    </rtept>
    <rtept lat="55.667676999999976" lon="37.245210999999934">
    </rtept>
    <rtept lat="55.66771799999998" lon="37.247599999999935">
    </rtept>
    <rtept lat="55.66775799999998" lon="37.24998799999994">
    </rtept>
    <rtept lat="55.66777199999998" lon="37.250787999999936">
    </rtept>
    <rtept lat="55.66777199999998" lon="37.250787999999936">
    </rtept>
    <rtept lat="55.667772999999976" lon="37.25078899999993">
    </rtept>
    <rtept lat="55.667809999999974" lon="37.25317699999994">
    </rtept>
    <rtept lat="55.66784699999997" lon="37.25556499999994">
    </rtept>
    <rtept lat="55.66788399999997" lon="37.257952999999944">
    </rtept>
    <rtept lat="55.66792099999997" lon="37.26034099999995">
    </rtept>
    <rtept lat="55.66795699999997" lon="37.26272899999995">
    </rtept>
    <rtept lat="55.66799399999997" lon="37.26511799999995">
    </rtept>
    <rtept lat="55.66803099999997" lon="37.26750499999995">
    </rtept>
    <rtept lat="55.66805599999997" lon="37.26912599999995">
    </rtept>
    <rtept lat="55.66812099999997" lon="37.27074899999995">
    </rtept>
    <rtept lat="55.66828599999997" lon="37.27230099999995">
    </rtept>
    <rtept lat="55.668608999999975" lon="37.27404499999995">
    </rtept>
    <rtept lat="55.66883199999997" lon="37.27491599999995">
    </rtept>
    <rtept lat="55.66931999999997" lon="37.27639099999995">
    </rtept>
    <rtept lat="55.67016199999997" lon="37.27825699999995">
    </rtept>
    <rtept lat="55.67026699999997" lon="37.278487999999946">
    </rtept>
    <rtept lat="55.67116099999997" lon="37.280275999999944">
    </rtept>
    <rtept lat="55.67205399999997" lon="37.282062999999944">
    </rtept>
    <rtept lat="55.67235799999997" lon="37.282669999999946">
    </rtept>
    <rtept lat="55.672372999999965" lon="37.28269999999995">
    </rtept>
    <rtept lat="55.672372999999965" lon="37.28269999999995">
    </rtept>
    <rtept lat="55.673273999999964" lon="37.28447599999995">
    </rtept>
    <rtept lat="55.673334999999966" lon="37.28459399999995">
    </rtept>
    <rtept lat="55.67425199999997" lon="37.28634399999995">
    </rtept>
    <rtept lat="55.67516899999997" lon="37.28809399999995">
    </rtept>
    <rtept lat="55.67608599999997" lon="37.28984399999995">
    </rtept>
    <rtept lat="55.67629999999997" lon="37.29025299999995">
    </rtept>
    <rtept lat="55.67714999999997" lon="37.29210699999995">
    </rtept>
    <rtept lat="55.67760599999997" lon="37.29310099999995">
    </rtept>
    <rtept lat="55.678124999999966" lon="37.29449099999995">
    </rtept>
    <rtept lat="55.678439999999966" lon="37.29551799999995">
    </rtept>
    <rtept lat="55.678786999999964" lon="37.29691699999995">
    </rtept>
    <rtept lat="55.679258999999966" lon="37.29915499999995">
    </rtept>
    <rtept lat="55.679731999999966" lon="37.30139399999995">
    </rtept>
    <rtept lat="55.68020399999997" lon="37.30363199999995">
    </rtept>
    <rtept lat="55.68067699999997" lon="37.30586899999995">
    </rtept>
    <rtept lat="55.68114899999997" lon="37.30810699999995">
    </rtept>
    <rtept lat="55.68115699999997" lon="37.30814399999995">
    </rtept>
    <rtept lat="55.68165799999997" lon="37.31036099999995">
    </rtept>
    <rtept lat="55.68181599999997" lon="37.31105999999995">
    </rtept>
    <rtept lat="55.68228899999997" lon="37.313297999999946">
    </rtept>
    <rtept lat="55.682596999999966" lon="37.31475199999995">
    </rtept>
    <rtept lat="55.682596999999966" lon="37.31475199999995">
    </rtept>
    <rtept lat="55.68299299999997" lon="37.31661799999995">
    </rtept>
    <rtept lat="55.68332399999997" lon="37.317986999999945">
    </rtept>
    <rtept lat="55.68372499999997" lon="37.319309999999945">
    </rtept>
    <rtept lat="55.68420299999997" lon="37.32059999999994">
    </rtept>
    <rtept lat="55.68466399999997" lon="37.32163699999994">
    </rtept>
    <rtept lat="55.685244999999966" lon="37.32279099999994">
    </rtept>
    <rtept lat="55.686156999999966" lon="37.324550999999936">
    </rtept>
    <rtept lat="55.687068999999966" lon="37.326309999999935">
    </rtept>
    <rtept lat="55.68761099999997" lon="37.32735299999994">
    </rtept>
    <rtept lat="55.68829199999997" lon="37.328535999999936">
    </rtept>
    <rtept lat="55.68896699999997" lon="37.32951199999994">
    </rtept>
    <rtept lat="55.68975299999997" lon="37.33044599999994">
    </rtept>
    <rtept lat="55.690924999999964" lon="37.331625999999936">
    </rtept>
    <rtept lat="55.692095999999964" lon="37.332805999999934">
    </rtept>
    <rtept lat="55.69326799999996" lon="37.33398699999994">
    </rtept>
    <rtept lat="55.69386599999996" lon="37.334589999999935">
    </rtept>
    <rtept lat="55.69499999999996" lon="37.33588099999994">
    </rtept>
    <rtept lat="55.69515999999996" lon="37.33606299999994">
    </rtept>
    <rtept lat="55.69626199999996" lon="37.33743699999994">
    </rtept>
    <rtept lat="55.69658699999996" lon="37.33784099999994">
    </rtept>
    <rtept lat="55.69764399999996" lon="37.33932499999994">
    </rtept>
    <rtept lat="55.698700999999964" lon="37.34080699999994">
    </rtept>
    <rtept lat="55.699755999999965" lon="37.342291999999944">
    </rtept>
    <rtept lat="55.70021399999997" lon="37.34293399999994">
    </rtept>
    <rtept lat="55.70021399999997" lon="37.34293399999994">
    </rtept>
    <rtept lat="55.700219999999966" lon="37.34294299999994">
    </rtept>
    <rtept lat="55.70127699999997" lon="37.34442599999994">
    </rtept>
    <rtept lat="55.70233299999997" lon="37.34590899999994">
    </rtept>
    <rtept lat="55.70338999999997" lon="37.34739299999994">
    </rtept>
    <rtept lat="55.70444699999997" lon="37.34887599999994">
    </rtept>
    <rtept lat="55.705503999999976" lon="37.35035999999994">
    </rtept>
    <rtept lat="55.706559999999975" lon="37.35184299999994">
    </rtept>
    <rtept lat="55.70733799999997" lon="37.35293499999994">
    </rtept>
    <rtept lat="55.70794599999997" lon="37.35388899999994">
    </rtept>
    <rtept lat="55.70856899999997" lon="37.35506299999994">
    </rtept>
    <rtept lat="55.70898599999997" lon="37.35599099999994">
    </rtept>
    <rtept lat="55.709450999999966" lon="37.35719599999994">
    </rtept>
    <rtept lat="55.71016999999996" lon="37.35921899999994">
    </rtept>
    <rtept lat="55.71088799999996" lon="37.36124399999994">
    </rtept>
    <rtept lat="55.71160599999996" lon="37.363266999999944">
    </rtept>
    <rtept lat="55.71232399999996" lon="37.36529099999994">
    </rtept>
    <rtept lat="55.713042999999956" lon="37.36731299999994">
    </rtept>
    <rtept lat="55.713760999999955" lon="37.36933799999994">
    </rtept>
    <rtept lat="55.714478999999955" lon="37.37136199999994">
    </rtept>
    <rtept lat="55.715195999999956" lon="37.37338599999994">
    </rtept>
    <rtept lat="55.71591499999995" lon="37.37540999999994">
    </rtept>
    <rtept lat="55.715969999999956" lon="37.375565999999935">
    </rtept>
    <rtept lat="55.71597399999995" lon="37.375576999999936">
    </rtept>
    <rtept lat="55.71597399999995" lon="37.375576999999936">
    </rtept>
    <rtept lat="55.71669299999995" lon="37.37759999999994">
    </rtept>
    <rtept lat="55.717411999999946" lon="37.379621999999934">
    </rtept>
    <rtept lat="55.71813099999994" lon="37.38164599999993">
    </rtept>
    <rtept lat="55.718850999999944" lon="37.383668999999934">
    </rtept>
    <rtept lat="55.71956999999994" lon="37.385691999999935">
    </rtept>
    <rtept lat="55.72028899999994" lon="37.387715999999934">
    </rtept>
    <rtept lat="55.721007999999934" lon="37.389738999999935">
    </rtept>
    <rtept lat="55.72172599999993" lon="37.391761999999936">
    </rtept>
    <rtept lat="55.72244499999993" lon="37.393785999999935">
    </rtept>
    <rtept lat="55.723163999999926" lon="37.39580999999993">
    </rtept>
    <rtept lat="55.723878999999926" lon="37.397823999999936">
    </rtept>
    <rtept lat="55.72388399999993" lon="37.39783399999994">
    </rtept>
    <rtept lat="55.72388399999993" lon="37.39783399999994">
    </rtept>
    <rtept lat="55.724602999999924" lon="37.39985699999994">
    </rtept>
    <rtept lat="55.72525999999992" lon="37.40170299999994">
    </rtept>
    <rtept lat="55.72581699999992" lon="37.40337199999994">
    </rtept>
    <rtept lat="55.72619599999992" lon="37.40481699999994">
    </rtept>
    <rtept lat="55.726540999999926" lon="37.406624999999934">
    </rtept>
    <rtept lat="55.726743999999925" lon="37.40828599999993">
    </rtept>
    <rtept lat="55.72684399999993" lon="37.40997999999993">
    </rtept>
    <rtept lat="55.72684999999993" lon="37.41207399999993">
    </rtept>
    <rtept lat="55.72688799999993" lon="37.412995999999936">
    </rtept>
    <rtept lat="55.72687599999993" lon="37.415388999999934">
    </rtept>
    <rtept lat="55.72686299999993" lon="37.417780999999934">
    </rtept>
    <rtept lat="55.72686199999993" lon="37.417903999999936">
    </rtept>
    <rtept lat="55.72686199999993" lon="37.417903999999936">
    </rtept>
    <rtept lat="55.72686199999993" lon="37.417904999999934">
    </rtept>
    <rtept lat="55.726852999999934" lon="37.42029799999993">
    </rtept>
    <rtept lat="55.726841999999934" lon="37.42268999999993">
    </rtept>
    <rtept lat="55.72683199999993" lon="37.42508299999993">
    </rtept>
    <rtept lat="55.72682699999993" lon="37.42642199999993">
    </rtept>
    <rtept lat="55.72680699999993" lon="37.42881499999993">
    </rtept>
    <rtept lat="55.72678699999993" lon="37.43120699999993">
    </rtept>
    <rtept lat="55.72676699999993" lon="37.43359899999993">
    </rtept>
    <rtept lat="55.72674799999993" lon="37.43599099999993">
    </rtept>
    <rtept lat="55.72672799999993" lon="37.43838399999993">
    </rtept>
    <rtept lat="55.72670899999993" lon="37.440776999999926">
    </rtept>
    <rtept lat="55.72670199999993" lon="37.44147699999993">
    </rtept>
    <rtept lat="55.72673699999993" lon="37.44386899999993">
    </rtept>
    <rtept lat="55.726771999999926" lon="37.44626099999993">
    </rtept>
    <rtept lat="55.726791999999925" lon="37.44765399999993">
    </rtept>
    <rtept lat="55.726858999999926" lon="37.44924699999993">
    </rtept>
    <rtept lat="55.726858999999926" lon="37.44924699999993">
    </rtept>
    <rtept lat="55.72698199999993" lon="37.45070199999993">
    </rtept>
    <rtept lat="55.72719299999993" lon="37.452281999999926">
    </rtept>
    <rtept lat="55.72755799999993" lon="37.45458599999993">
    </rtept>
    <rtept lat="55.72792299999993" lon="37.456888999999926">
    </rtept>
    <rtept lat="55.72828699999993" lon="37.45919199999992">
    </rtept>
    <rtept lat="55.72865199999993" lon="37.461495999999926">
    </rtept>
    <rtept lat="55.72901599999993" lon="37.46379899999992">
    </rtept>
    <rtept lat="55.72938099999993" lon="37.46610199999992">
    </rtept>
    <rtept lat="55.72974399999993" lon="37.46840599999992">
    </rtept>
    <rtept lat="55.730108999999935" lon="37.470709999999926">
    </rtept>
    <rtept lat="55.730378999999935" lon="37.47241999999993">
    </rtept>
    <rtept lat="55.730378999999935" lon="37.47241999999993">
    </rtept>
    <rtept lat="55.73038099999994" lon="37.47242799999993">
    </rtept>
    <rtept lat="55.730744999999935" lon="37.47473199999993">
    </rtept>
    <rtept lat="55.731107999999935" lon="37.47703499999993">
    </rtept>
    <rtept lat="55.73134599999994" lon="37.47854499999993">
    </rtept>
    <rtept lat="55.73168799999994" lon="37.480859999999936">
    </rtept>
    <rtept lat="55.73203099999994" lon="37.48317499999994">
    </rtept>
    <rtept lat="55.73237199999994" lon="37.48548999999994">
    </rtept>
    <rtept lat="55.73257099999994" lon="37.48683499999994">
    </rtept>
    <rtept lat="55.73293999999994" lon="37.48913699999994">
    </rtept>
    <rtept lat="55.733307999999944" lon="37.491437999999945">
    </rtept>
    <rtept lat="55.733675999999946" lon="37.49374099999994">
    </rtept>
    <rtept lat="55.734021999999946" lon="37.495898999999945">
    </rtept>
    <rtept lat="55.734340999999944" lon="37.49743199999995">
    </rtept>
    <rtept lat="55.734764999999946" lon="37.49913399999995">
    </rtept>
    <rtept lat="55.735398999999944" lon="37.50124699999995">
    </rtept>
    <rtept lat="55.736031999999945" lon="37.503358999999946">
    </rtept>
    <rtept lat="55.736644999999946" lon="37.50540099999995">
    </rtept>
    <rtept lat="55.73694799999995" lon="37.50619799999995">
    </rtept>
    <rtept lat="55.73738099999995" lon="37.507096999999945">
    </rtept>
    <rtept lat="55.73765599999995" lon="37.50755399999994">
    </rtept>
    <rtept lat="55.73856899999995" lon="37.50888499999994">
    </rtept>
    <rtept lat="55.73903199999995" lon="37.50939199999994">
    </rtept>
    <rtept lat="55.740223999999955" lon="37.51050599999994">
    </rtept>
    <rtept lat="55.74082699999995" lon="37.51106999999994">
    </rtept>
    <rtept lat="55.741827999999956" lon="37.51205799999994">
    </rtept>
    <rtept lat="55.74297799999996" lon="37.51330399999994">
    </rtept>
    <rtept lat="55.74333499999996" lon="37.51368999999994">
    </rtept>
    <rtept lat="55.74381499999996" lon="37.51429199999994">
    </rtept>
    <rtept lat="55.74422899999996" lon="37.51488399999994">
    </rtept>
    <rtept lat="55.74423599999996" lon="37.51489499999994">
    </rtept>
    <rtept lat="55.74423599999996" lon="37.51489499999994">
    </rtept>
    <rtept lat="55.74483999999996" lon="37.51594699999994">
    </rtept>
    <rtept lat="55.74553699999996" lon="37.51730999999994">
    </rtept>
    <rtept lat="55.745732999999966" lon="37.51778999999994">
    </rtept>
    <rtept lat="55.745958999999964" lon="37.51850399999994">
    </rtept>
    <rtept lat="55.74652199999996" lon="37.52067799999994">
    </rtept>
    <rtept lat="55.746655999999966" lon="37.52119099999994">
    </rtept>
    <rtept lat="55.747291999999966" lon="37.52330099999994">
    </rtept>
    <rtept lat="55.74780899999997" lon="37.52501199999994">
    </rtept>
    <rtept lat="55.748116999999965" lon="37.52574799999994">
    </rtept>
    <rtept lat="55.748848999999964" lon="37.52723399999994">
    </rtept>
    <rtept lat="55.749385999999966" lon="37.52817399999994">
    </rtept>
    <rtept lat="55.75000999999997" lon="37.529047999999946">
    </rtept>
    <rtept lat="55.750722999999965" lon="37.529813999999945">
    </rtept>
    <rtept lat="55.751034999999966" lon="37.53007999999995">
    </rtept>
    <rtept lat="55.751552999999966" lon="37.53041499999995">
    </rtept>
    <rtept lat="55.75213799999997" lon="37.53072499999995">
    </rtept>
    <rtept lat="55.753444999999964" lon="37.53130899999995">
    </rtept>
    <rtept lat="55.754012999999965" lon="37.53156299999995">
    </rtept>
    <rtept lat="55.75399399999996" lon="37.53169999999995">
    </rtept>
    <rtept lat="55.75399399999996" lon="37.53169999999995">
    </rtept>
    <rtept lat="55.754020999999966" lon="37.53157999999995">
    </rtept>
  </rte>
</gpx>