<?xml version="1.0" encoding="UTF-8"?>
<gpx version="1.1" creator="Yandex Map Constructor" xmlns="http://www.topografix.com/GPX/1/1"><metadata><name><![CDATA[(Копия) 1-2 мая 2026]]></name><desc/><time>2026-05-31T12:41:57.672Z</time></metadata><rte><rtept lon="37.32310313258514" lat="55.815501787326085"/><rtept lon="37.32294935260158" lat="55.81558233290307"/><rtept lon="37.32361096415873" lat="55.816246827518825"/><rtept lon="37.323178234437684" lat="55.81636361630534"/><rtept lon="37.32361096415873" lat="55.81713884328659"/><rtept lon="37.324072304109286" lat="55.81742678078899"/><rtept lon="37.323825540879916" lat="55.81771672967822"/><rtept lon="37.323317709306444" lat="55.817805324739375"/><rtept lon="37.32256669078224" lat="55.818451659845124"/><rtept lon="37.322194757798826" lat="55.81875166842339"/><rtept lon="37.32178706202856" lat="55.81904764777075"/><rtept lon="37.32172268901217" lat="55.819518793898126"/><rtept lon="37.32152599368443" lat="55.81969396215351"/><rtept lon="37.322015943864486" lat="55.81923691228435"/><rtept lon="37.32223409686435" lat="55.818910732428954"/><rtept lon="37.322391453126585" lat="55.818842274573456"/><rtept lon="37.323135319093396" lat="55.819152347393974"/><rtept lon="37.32565726108201" lat="55.8188657807056"/><rtept lon="37.326734778724116" lat="55.81873301014229"/><rtept lon="37.32915234311608" lat="55.818837710622105"/><rtept lon="37.329366919837256" lat="55.81875515833931"/><rtept lon="37.331759450278504" lat="55.81860213411765"/><rtept lon="37.334935185752144" lat="55.81858199930197"/><rtept lon="37.33866882070093" lat="55.81842494741741"/><rtept lon="37.34035682424093" lat="55.8184269609006"/><rtept lon="37.3407037232735" lat="55.81853971614923"/><rtept lon="37.340721604666946" lat="55.818805495079836"/><rtept lon="37.340551296448034" lat="55.818899203752494"/><rtept lon="37.341155687546035" lat="55.81899182303049"/><rtept lon="37.34182802793908" lat="55.81888007582416"/><rtept lon="37.34243599531581" lat="55.818767321566014"/><rtept lon="37.34356609938073" lat="55.818785442801826"/><rtept lon="37.344798127388344" lat="55.81876631481737"/><rtept lon="37.34576551077305" lat="55.81869282301779"/><rtept lon="37.34744636175578" lat="55.81847234678902"/><rtept lon="37.34940437433666" lat="55.818236768063144"/><rtept lon="37.35100833532739" lat="55.81798709332099"/><rtept lon="37.35190419313833" lat="55.81790051218599"/><rtept lon="37.35268918630999" lat="55.81792064734311"/><rtept lon="37.35441652891548" lat="55.81830321344811"/><rtept lon="37.35457746145637" lat="55.81813911317492"/><rtept lon="37.35522655603792" lat="55.81827603123062"/><rtept lon="37.35594359991455" lat="55.81848442764013"/><rtept lon="37.35674289820099" lat="55.81871497115511"/><rtept lon="37.3574241792907" lat="55.81900793058761"/><rtept lon="37.35820023176567" lat="55.81936632468294"/><rtept lon="37.35859004614248" lat="55.81959182937843"/><rtept lon="37.358822504257034" lat="55.819834446804386"/><rtept lon="37.35897986051925" lat="55.820117330765434"/><rtept lon="37.359015623306114" lat="55.820299543188156"/><rtept lon="37.35874203798654" lat="55.820522022381326"/><rtept lon="37.358359376167066" lat="55.82084617530833"/><rtept lon="37.35772637483952" lat="55.82142299973518"/><rtept lon="37.35695389864323" lat="55.82204008162993"/><rtept lon="37.356481829856534" lat="55.82253333741246"/><rtept lon="37.356134930823906" lat="55.82298330200524"/><rtept lon="37.35570220110278" lat="55.82350372433497"/><rtept lon="37.35541431066854" lat="55.823955690859115"/><rtept lon="37.3552480137096" lat="55.82421237328927"/><rtept lon="37.355053106521126" lat="55.82453951509143"/><rtept lon="37.35463647005413" lat="55.825196810120744"/><rtept lon="37.35433606264447" lat="55.82566586835872"/><rtept lon="37.35399810430845" lat="55.82624161448417"/><rtept lon="37.353704849456136" lat="55.826691536005214"/><rtept lon="37.353540340636584" lat="55.82695524597011"/><rtept lon="37.353502789710326" lat="55.82709515242995"/><rtept lon="37.35359040853832" lat="55.827330677275626"/><rtept lon="37.35382107851368" lat="55.828109710807816"/><rtept lon="37.35419658777573" lat="55.82929936743759"/><rtept lon="37.35449699518539" lat="55.83009144511778"/><rtept lon="37.35495531742232" lat="55.83115935364021"/><rtept lon="37.355473877831926" lat="55.83191214392209"/><rtept lon="37.35598260950357" lat="55.83257975882354"/><rtept lon="37.35763926730605" lat="55.8323425762551"/><rtept lon="37.3577358268306" lat="55.83219262487367"/><rtept lon="37.35785563216665" lat="55.832028583429306"/><rtept lon="37.35843320117444" lat="55.8320205322915"/><rtept lon="37.358785464625065" lat="55.83205776876024"/><rtept lon="37.35943992362467" lat="55.83224898248883"/><rtept lon="37.359885170321014" lat="55.83247541857912"/><rtept lon="37.36013372168975" lat="55.83265254100299"/><rtept lon="37.360482408861614" lat="55.833050057123636"/><rtept lon="37.36075420604185" lat="55.833422410294446"/><rtept lon="37.360956265787586" lat="55.83378570277516"/><rtept lon="37.361027791361195" lat="55.834165093223824"/><rtept lon="37.36154277549206" lat="55.834198302290986"/><rtept lon="37.36259241328658" lat="55.83390344502556"/><rtept lon="37.3629357360405" lat="55.834044332733185"/><rtept lon="37.363296940187816" lat="55.83412584609502"/><rtept lon="37.364118257778195" lat="55.834390819155445"/><rtept lon="37.36501411558916" lat="55.834580008714454"/><rtept lon="37.365498701351186" lat="55.83457698973929"/><rtept lon="37.36632839800637" lat="55.8346393818386"/><rtept lon="37.367290713837725" lat="55.834726941477285"/><rtept lon="37.36802782037485" lat="55.83471873886655"/><rtept lon="37.36869300821053" lat="55.83475396009358"/><rtept lon="37.36939038255444" lat="55.83495019208682"/><rtept lon="37.36997152784094" lat="55.83506189292837"/><rtept lon="37.37056609070984" lat="55.8350981039829"/><rtept lon="37.37131710923402" lat="55.83504275680155"/><rtept lon="37.371796330578015" lat="55.83503068103742"/><rtept lon="37.37229700959414" lat="55.83509810397017"/><rtept lon="37.372680609456694" lat="55.83558108002247"/><rtept lon="37.37298577920838" lat="55.836173913089794"/><rtept lon="37.37332552568361" lat="55.836377181842494"/><rtept lon="37.37366169588011" lat="55.836687114322416"/><rtept lon="37.374702392977866" lat="55.83701716955397"/><rtept lon="37.37541764871518" lat="55.837166095996274"/><rtept lon="37.376014887255806" lat="55.83729690929063"/><rtept lon="37.37642258302607" lat="55.83742772213666"/><rtept lon="37.37673532944726" lat="55.83764200739043"/><rtept lon="37.37709653359457" lat="55.8379126864682"/><rtept lon="37.377616882143435" lat="55.83800425404861"/><rtept lon="37.378103256044774" lat="55.83785633706998"/><rtept lon="37.378416180429774" lat="55.837695338349384"/><rtept lon="37.37846610151054" lat="55.83738392447315"/><rtept lon="37.37872001729725" lat="55.83712833558367"/><rtept lon="37.37911877237085" lat="55.836967333835894"/><rtept lon="37.379864426477" lat="55.83686972620421"/><rtept lon="37.38051643085038" lat="55.83670682438893"/><rtept lon="37.380748888965" lat="55.83654380834694"/><rtept lon="37.381405136104" lat="55.835929976339514"/><rtept lon="37.38171269607105" lat="55.83560594961842"/><rtept lon="37.38229924368949" lat="55.83551161609043"/><rtept lon="37.38246554064841" lat="55.83543111194219"/><rtept lon="37.38265687155812" lat="55.83537777785181"/><rtept lon="37.38302344012341" lat="55.8353173995221"/><rtept lon="37.383518754721514" lat="55.83526809050385"/><rtept lon="37.38402122187696" lat="55.83502154446435"/><rtept lon="37.384280502081744" lat="55.83494506455317"/><rtept lon="37.38467031645856" lat="55.83493802034382"/><rtept lon="37.38505297827808" lat="55.83501852551081"/><rtept lon="37.38513344454853" lat="55.83506783484687"/><rtept lon="37.38554650473679" lat="55.834893742414344"/><rtept lon="37.385782539130076" lat="55.83485550235464"/><rtept lon="37.38627070117081" lat="55.83464417502143"/><rtept lon="37.38657826113786" lat="55.83444592880768"/><rtept lon="37.38668733763775" lat="55.83425573224737"/><rtept lon="37.386655151129595" lat="55.83404138262411"/><rtept lon="37.38659614253125" lat="55.83384413967488"/><rtept lon="37.38664084601481" lat="55.83369922584108"/><rtept lon="37.38688224482615" lat="55.833522108204484"/><rtept lon="37.387220203162066" lat="55.833419460106136"/><rtept lon="37.3876118056782" lat="55.83339732027957"/><rtept lon="37.38807493376812" lat="55.833431536360024"/><rtept lon="37.388547002554745" lat="55.83355330510064"/><rtept lon="37.389641343832814" lat="55.83381596199684"/><rtept lon="37.39053720164378" lat="55.83407157273178"/><rtept lon="37.39158862757767" lat="55.8342486878489"/><rtept lon="37.392166196585535" lat="55.834301017162154"/><rtept lon="37.392833172560636" lat="55.83422151682503"/><rtept lon="37.39398115801892" lat="55.83414201632471"/><rtept lon="37.3953472964772" lat="55.83396087533638"/><rtept lon="37.39632362055859" lat="55.8337857715815"/><rtept lon="37.39755922484479" lat="55.83359456541542"/><rtept lon="37.39915245699967" lat="55.83338323119446"/><rtept lon="37.4000107638844" lat="55.83327051913881"/><rtept lon="37.400273620367905" lat="55.83320409937833"/><rtept lon="37.40064018893327" lat="55.83307830407733"/><rtept lon="37.400833307982346" lat="55.833026979477154"/><rtept lon="37.40084940123643" lat="55.832966597501134"/><rtept lon="37.40108543562974" lat="55.832911247279576"/><rtept lon="37.40131252932634" lat="55.83284281416901"/><rtept lon="37.401296436072265" lat="55.832725068681036"/><rtept lon="37.401180207014924" lat="55.832671730863524"/><rtept lon="37.40109080004774" lat="55.83240000875332"/><rtept lon="37.40085297751506" lat="55.83242114276261"/><rtept lon="37.400842248679005" lat="55.8322399937373"/><rtept lon="37.40132862258037" lat="55.83207695889005"/><rtept lon="37.40154498744087" lat="55.832020600999044"/><rtept lon="37.40140372443274" lat="55.83174988073153"/><rtept lon="37.401657640219454" lat="55.83164420873176"/><rtept lon="37.4031793468006" lat="55.83134631279188"/></rte><rte><rtept lon="37.40319009186608" lat="55.8313605974944"/><rtept lon="37.40165050389141" lat="55.83164339729465"/><rtept lon="37.40142698647352" lat="55.83170277492766"/><rtept lon="37.40158791901441" lat="55.83203790460073"/><rtept lon="37.40088518025252" lat="55.832233143977966"/><rtept lon="37.400842264908256" lat="55.832420331322616"/><rtept lon="37.40105684162947" lat="55.83239215264042"/><rtept lon="37.401217774170284" lat="55.83267897040587"/><rtept lon="37.40131075741613" lat="55.83283495812683"/><rtept lon="37.40087266327692" lat="55.832960754211925"/><rtept lon="37.40075106980161" lat="55.8330714544344"/><rtept lon="37.40023072125271" lat="55.833230459648426"/><rtept lon="37.398991540687824" lat="55.8334035531904"/><rtept lon="37.39769513966389" lat="55.83361790633146"/><rtept lon="37.39627893330408" lat="55.83385339151375"/><rtept lon="37.39492173554251" lat="55.834040571014"/><rtept lon="37.39394719960044" lat="55.8341593188318"/><rtept lon="37.392178729789926" lat="55.834286116947524"/><rtept lon="37.39090557457747" lat="55.83413717941545"/><rtept lon="37.38894275728061" lat="55.833675182903775"/><rtept lon="37.388123789461304" lat="55.8334376839157"/><rtept lon="37.38751476042025" lat="55.833373279392326"/><rtept lon="37.38711958162536" lat="55.83341957175162"/><rtept lon="37.38676910631408" lat="55.83356046121967"/><rtept lon="37.386602809355104" lat="55.83379795944201"/><rtept lon="37.38664572469934" lat="55.833979101179665"/><rtept lon="37.3866957926009" lat="55.83423471085055"/><rtept lon="37.386645724699314" lat="55.83442289484957"/><rtept lon="37.386148621961816" lat="55.83473787457053"/><rtept lon="37.3856872820113" lat="55.834913980323755"/><rtept lon="37.385043551847666" lat="55.83512530617174"/><rtept lon="37.3846501611922" lat="55.83532556150596"/><rtept lon="37.384464194700435" lat="55.835612357545514"/><rtept lon="37.38420133821697" lat="55.83580154114287"/><rtept lon="37.38392596475812" lat="55.83591122695422"/><rtept lon="37.38313918344695" lat="55.83628657145603"/><rtept lon="37.382220079824535" lat="55.83667298129787"/><rtept lon="37.381799867078826" lat="55.83691448548848"/><rtept lon="37.38132422201352" lat="55.83719321970354"/><rtept lon="37.38101487390707" lat="55.83737535180486"/><rtept lon="37.38042836420247" lat="55.837521258123886"/><rtept lon="37.38029425375161" lat="55.837423651875845"/><rtept lon="37.37930183641609" lat="55.837603770406815"/><rtept lon="37.37923746339975" lat="55.837769800712735"/><rtept lon="37.378386309072276" lat="55.838182357777974"/><rtept lon="37.37766568891697" lat="55.83858887312275"/><rtept lon="37.377070238515735" lat="55.83890985623198"/><rtept lon="37.376800229474966" lat="55.83912820372078"/><rtept lon="37.376635720655415" lat="55.83936768020279"/><rtept lon="37.37633888952444" lat="55.83973192309808"/><rtept lon="37.376070668622994" lat="55.840036797802995"/><rtept lon="37.37559681169708" lat="55.840275262475295"/><rtept lon="37.37522487871371" lat="55.840436250461664"/><rtept lon="37.374879767820424" lat="55.84058013290796"/><rtept lon="37.37409119837006" lat="55.84091820423114"/><rtept lon="37.372630288526544" lat="55.8414283241346"/><rtept lon="37.372345974370944" lat="55.841483662175825"/><rtept lon="37.37198834650231" lat="55.84169998287573"/><rtept lon="37.37169151537132" lat="55.84169293989522"/><rtept lon="37.37110679380606" lat="55.84168086620502"/><rtept lon="37.37089221708487" lat="55.841597356455445"/><rtept lon="37.3704934620113" lat="55.841400151988076"/><rtept lon="37.37002675764272" lat="55.841195903445225"/><rtept lon="37.36976747743793" lat="55.841080195668134"/><rtept lon="37.36958329908559" lat="55.84110031878465"/><rtept lon="37.36961369745443" lat="55.84119087267952"/><rtept lon="37.36978535883138" lat="55.841315635476604"/><rtept lon="37.37009154213569" lat="55.841525330363936"/></rte><rte><rtept lon="37.369891632691754" lat="55.84134510127656"/><rtept lon="37.369559038773914" lat="55.84115795707258"/><rtept lon="37.3695912252821" lat="55.84103319376733"/><rtept lon="37.37086438049451" lat="55.84152620770935"/><rtept lon="37.37111114372388" lat="55.84171737469151"/><rtept lon="37.37134360183853" lat="55.841576514901455"/><rtept lon="37.37166189064159" lat="55.84169121505496"/><rtept lon="37.37195872177251" lat="55.84173146063594"/><rtept lon="37.372266281739556" lat="55.84194274928317"/><rtept lon="37.372666824952454" lat="55.841840123512824"/><rtept lon="37.37396143783694" lat="55.84226873521327"/><rtept lon="37.37470530380365" lat="55.84254038805703"/><rtept lon="37.37537764419665" lat="55.84310783452109"/><rtept lon="37.37629674781909" lat="55.84382216133033"/><rtept lon="37.37730168212998" lat="55.844691408851865"/><rtept lon="37.37761281837572" lat="55.8445465356194"/><rtept lon="37.37804912437547" lat="55.844389589005694"/><rtept lon="37.380641926423166" lat="55.84312795655809"/><rtept lon="37.38222621788129" lat="55.842319041389345"/><rtept lon="37.382991541520134" lat="55.84192866334537"/><rtept lon="37.384121645585125" lat="55.84122235080264"/><rtept lon="37.384926308289614" lat="55.840576395571276"/><rtept lon="37.385573614731825" lat="55.839674857482365"/><rtept lon="37.38606714119061" lat="55.838958441702324"/><rtept lon="37.386356819764266" lat="55.83830037395924"/><rtept lon="37.386528481141234" lat="55.83755575782707"/><rtept lon="37.386582125321574" lat="55.83733035768349"/><rtept lon="37.38763355125541" lat="55.83736054527796"/><rtept lon="37.38764070381273" lat="55.83796227974434"/><rtept lon="37.38793038238633" lat="55.83795221737183"/><rtept lon="37.38776229728797" lat="55.83838087211016"/><rtept lon="37.38815211166483" lat="55.838409046434656"/><rtept lon="37.38800616540876" lat="55.838316979488184"/><rtept lon="37.38789708890884" lat="55.83787121796224"/><rtept lon="37.3879560975071" lat="55.83754318249406"/><rtept lon="37.388050868892236" lat="55.837146718741806"/><rtept lon="37.38812088698463" lat="55.83687199099976"/><rtept lon="37.387795445624185" lat="55.83683576542651"/><rtept lon="37.38806724280429" lat="55.83538067687296"/><rtept lon="37.3884105655582" lat="55.835135137867276"/><rtept lon="37.38894343108247" lat="55.834913748904434"/><rtept lon="37.38958716124612" lat="55.83474468738316"/><rtept lon="37.389909026327906" lat="55.83465009311828"/><rtept lon="37.390338179770296" lat="55.83452933414648"/><rtept lon="37.39066932852014" lat="55.8344280627324"/><rtept lon="37.39105199033966" lat="55.83441799943503"/><rtept lon="37.39162061865082" lat="55.83446328422378"/><rtept lon="37.39195500070795" lat="55.834491461392616"/><rtept lon="37.391985399076816" lat="55.834304284059016"/><rtept lon="37.392854434797606" lat="55.83420968871193"/><rtept lon="37.39393983537894" lat="55.83416641629181"/><rtept lon="37.39490185434562" lat="55.83403257339733"/><rtept lon="37.395854932615606" lat="55.83388262855333"/><rtept lon="37.397369486639285" lat="55.83364412448182"/><rtept lon="37.39898954088412" lat="55.83340159351901"/><rtept lon="37.400003415891746" lat="55.833269760699245"/><rtept lon="37.40024123842441" lat="55.83321239818352"/><rtept lon="37.400336009809585" lat="55.83337643460702"/><rtept lon="37.40185414011205" lat="55.83318422007126"/><rtept lon="37.4031702106686" lat="55.83305540559912"/><rtept lon="37.40483318025775" lat="55.83281991554518"/><rtept lon="37.4048778837413" lat="55.832941686215364"/><rtept lon="37.404774171659405" lat="55.833002068223855"/><rtept lon="37.40521047765914" lat="55.83316208009105"/><rtept lon="37.40545366460985" lat="55.83317113734676"/><rtept lon="37.40558598692114" lat="55.833020182801704"/><rtept lon="37.4057773178309" lat="55.83297187722503"/><rtept lon="37.40606520826516" lat="55.83296080718856"/><rtept lon="37.40633879358469" lat="55.83294369893777"/><rtept lon="37.406540853330455" lat="55.83285513849293"/><rtept lon="37.40670357401071" lat="55.832770603333934"/><rtept lon="37.406882387945004" lat="55.832731354798184"/><rtept lon="37.40710232908421" lat="55.83279978810571"/><rtept lon="37.40760837251839" lat="55.833118806481174"/><rtept lon="37.40819130594431" lat="55.83346398744195"/><rtept lon="37.408640128919416" lat="55.833727651291134"/><rtept lon="37.40910862142736" lat="55.83403056059758"/><rtept lon="37.409473401853354" lat="55.83422981525916"/><rtept lon="37.40995083505801" lat="55.834533726963805"/><rtept lon="37.41017614061525" lat="55.834702789393354"/><rtept lon="37.41048370058227" lat="55.83484166155638"/><rtept lon="37.41084490472961" lat="55.835076132978415"/><rtept lon="37.411452872106295" lat="55.8354263280077"/><rtept lon="37.411581618139" lat="55.835513876271776"/><rtept lon="37.41176043207334" lat="55.83567085887029"/><rtept lon="37.41194639856495" lat="55.83572217995999"/><rtept lon="37.41244886572039" lat="55.83595463348461"/><rtept lon="37.412720662900604" lat="55.836163941085665"/><rtept lon="37.4130228584496" lat="55.83636318476986"/><rtept lon="37.4128744428841" lat="55.8364648187828"/><rtept lon="37.41311226541673" lat="55.83649903215289"/><rtept lon="37.41329286749044" lat="55.83649601332733"/><rtept lon="37.41410110647342" lat="55.8370092102845"/><rtept lon="37.415272337743275" lat="55.83771660591662"/><rtept lon="37.41561744863641" lat="55.83792892270735"/><rtept lon="37.4147430484976" lat="55.83833845939516"/><rtept lon="37.41420124227655" lat="55.83859303406946"/><rtept lon="37.41400633508813" lat="55.838677556518206"/><rtept lon="37.41419408971915" lat="55.8387942776917"/><rtept lon="37.41382930929313" lat="55.838963321519635"/><rtept lon="37.413761359998055" lat="55.839109221854656"/><rtept lon="37.41380606348166" lat="55.839271220892826"/><rtept lon="37.413925868817685" lat="55.839359766664465"/><rtept lon="37.41430495435839" lat="55.839715960102666"/><rtept lon="37.41470907384987" lat="55.840042970966564"/><rtept lon="37.414980871030025" lat="55.840261312065"/><rtept lon="37.41520796472658" lat="55.84044544208575"/><rtept lon="37.41557453329197" lat="55.840473614901455"/><rtept lon="37.41600011045565" lat="55.840422300103"/><rtept lon="37.416654569455304" lat="55.840448460590615"/><rtept lon="37.41736267263519" lat="55.840470596372995"/><rtept lon="37.417818648167696" lat="55.84051184939377"/><rtept lon="37.41805289442164" lat="55.84054807152771"/><rtept lon="37.418498141118214" lat="55.84069497205045"/><rtept lon="37.41897378618345" lat="55.84092739571524"/><rtept lon="37.41939042265047" lat="55.84115579336837"/><rtept lon="37.41963003332244" lat="55.84130369774183"/><rtept lon="37.41993401701078" lat="55.841502914978015"/><rtept lon="37.42006991560089" lat="55.84166591014122"/><rtept lon="37.42013607675652" lat="55.841891285032474"/><rtept lon="37.42019508535486" lat="55.84210659732527"/><rtept lon="37.42020760233023" lat="55.842322914537945"/><rtept lon="37.42024694139584" lat="55.84275655145602"/><rtept lon="37.42029522115807" lat="55.84329683010214"/><rtept lon="37.420316678830225" lat="55.84380490649247"/><rtept lon="37.420370323010644" lat="55.84408560325934"/><rtept lon="37.42044184858433" lat="55.84422947214267"/><rtept lon="37.42066000158425" lat="55.844399498315425"/><rtept lon="37.42083523923988" lat="55.844420625775825"/><rtept lon="37.4221978014194" lat="55.844360261559814"/><rtept lon="37.42309187109105" lat="55.844284806166996"/><rtept lon="37.42387328798402" lat="55.84427675757737"/><rtept lon="37.42513213808172" lat="55.84418922911387"/><rtept lon="37.426156741925375" lat="55.84411176123314"/><rtept lon="37.42687557394142" lat="55.84407956673987"/><rtept lon="37.428386551686486" lat="55.84401215943348"/><rtept lon="37.429693681546375" lat="55.84393871552573"/><rtept lon="37.43125472719308" lat="55.843863259298395"/><rtept lon="37.43352870443647" lat="55.84376328146385"/><rtept lon="37.43615369299225" lat="55.84361438039067"/><rtept lon="37.440095291255204" lat="55.84338031939607"/><rtept lon="37.443231687663186" lat="55.84319117281541"/><rtept lon="37.44393263828576" lat="55.843267636432856"/><rtept lon="37.4469438649398" lat="55.84357952593319"/><rtept lon="37.4491933442336" lat="55.843867266920554"/><rtept lon="37.45165382396982" lat="55.844124823472114"/><rtept lon="37.45453272831244" lat="55.84442865750808"/><rtept lon="37.45442901623051" lat="55.844883398052424"/><rtept lon="37.453470573542575" lat="55.847575513590556"/><rtept lon="37.45261941921516" lat="55.85008838820261"/><rtept lon="37.45230651551733" lat="55.8509151378087"/><rtept lon="37.45292878800877" lat="55.85096945639583"/><rtept lon="37.45282149964819" lat="55.851575002889774"/><rtept lon="37.453129059615314" lat="55.85180233184513"/><rtept lon="37.454355723204785" lat="55.8518204376342"/><rtept lon="37.45543933564683" lat="55.8519069429477"/><rtept lon="37.45558953935167" lat="55.85211415257869"/><rtept lon="37.45538211518785" lat="55.852411888746765"/><rtept lon="37.455185419860065" lat="55.85305362309657"/><rtept lon="37.45556808167954" lat="55.853510273978806"/><rtept lon="37.45571470910572" lat="55.8536893118409"/><rtept lon="37.45576120072862" lat="55.853958872895795"/><rtept lon="37.455887003614265" lat="55.85423655275097"/><rtept lon="37.45591382570437" lat="55.854486999653524"/><rtept lon="37.455851240827315" lat="55.855040189886225"/><rtept lon="37.4557421643274" lat="55.855641649565705"/><rtept lon="37.455649181081554" lat="55.85612039674024"/><rtept lon="37.455611630155246" lat="55.85680632249084"/><rtept lon="37.455595536901114" lat="55.85738361714867"/><rtept lon="37.455538316442166" lat="55.85751939077498"/><rtept lon="37.455280824376594" lat="55.858145954737935"/><rtept lon="37.455132408811096" lat="55.858409450512724"/><rtept lon="37.454985781384885" lat="55.85859852270912"/><rtept lon="37.454812331868496" lat="55.8596223125127"/><rtept lon="37.454724713040704" lat="55.85984657719494"/><rtept lon="37.45427231378682" lat="55.86010201609496"/><rtept lon="37.45361785478721" lat="55.86048315998235"/><rtept lon="37.45344082899224" lat="55.86061992837966"/><rtept lon="37.453324599935" lat="55.86081602927571"/><rtept lon="37.45317439623019" lat="55.861387230335836"/><rtept lon="37.45312969274658" lat="55.861527012410896"/><rtept lon="37.45311181135319" lat="55.86172109746978"/><rtept lon="37.45320121832032" lat="55.86206602344056"/><rtept lon="37.453263803197395" lat="55.86246826558705"/><rtept lon="37.453283472730156" lat="55.86268748579303"/><rtept lon="37.45324234552532" lat="55.86309173264528"/><rtept lon="37.453149362279476" lat="55.863197318815544"/><rtept lon="37.45271126814029" lat="55.86354927062854"/><rtept lon="37.45241086073064" lat="55.86380770177621"/><rtept lon="37.45238225050117" lat="55.86391127486694"/><rtept lon="37.4522874791159" lat="55.86414858691591"/><rtept lon="37.452249928189694" lat="55.864342658828164"/><rtept lon="37.452335758878064" lat="55.864654378508"/><rtept lon="37.45239119119762" lat="55.864921852100785"/><rtept lon="37.45241086073043" lat="55.86511189800781"/><rtept lon="37.45235485092423" lat="55.866512622233444"/><rtept lon="37.452376308596385" lat="55.86747989633587"/><rtept lon="37.45287698761252" lat="55.86811333715921"/><rtept lon="37.45314163223533" lat="55.86864019115249"/><rtept lon="37.452955346275324" lat="55.86880497053815"/><rtept lon="37.45256910817717" lat="55.86895880185143"/><rtept lon="37.45229552285755" lat="55.868942714938946"/><rtept lon="37.451839547324994" lat="55.86884920966491"/><rtept lon="37.45161960618574" lat="55.868819046618626"/><rtept lon="37.4513495971449" lat="55.86868431808676"/><rtept lon="37.45107064740734" lat="55.868685323525284"/><rtept lon="37.45081851975995" lat="55.868774807450954"/><rtept lon="37.45044658677653" lat="55.8689728778695"/><rtept lon="37.45014439122751" lat="55.869298636152735"/><rtept lon="37.45006571309638" lat="55.86955803430984"/><rtept lon="37.4499691535718" lat="55.86973197084002"/><rtept lon="37.44959364430972" lat="55.869984328257885"/><rtept lon="37.44918189613637" lat="55.87018034151253"/><rtept lon="37.44880996315298" lat="55.870425658252195"/><rtept lon="37.44817707998151" lat="55.870437679610426"/><rtept lon="37.44781408769486" lat="55.870397463870624"/><rtept lon="37.447502951449124" lat="55.87048895461803"/><rtept lon="37.447406391924595" lat="55.87059653136738"/><rtept lon="37.44748507005573" lat="55.8710368891668"/><rtept lon="37.44754050237533" lat="55.87115250739428"/><rtept lon="37.44739566308852" lat="55.871279184359715"/><rtept lon="37.44712028962973" lat="55.87143200045775"/><rtept lon="37.44669113618736" lat="55.87171651830652"/><rtept lon="37.44625483018758" lat="55.87200505546459"/><rtept lon="37.44590435487629" lat="55.87204024276999"/><rtept lon="37.44516048890951" lat="55.87198092699732"/><rtept lon="37.44474564058183" lat="55.87196182528203"/><rtept lon="37.4443933771312" lat="55.871945739625126"/><rtept lon="37.44393024904125" lat="55.87193267001752"/><rtept lon="37.443502883738226" lat="55.871867321945466"/><rtept lon="37.443290095156314" lat="55.871827107686"/><rtept lon="37.443221205656805" lat="55.871803152246194"/><rtept lon="37.44291990417745" lat="55.87198059742649"/><rtept lon="37.44264453071848" lat="55.87210325027436"/><rtept lon="37.44236628965317" lat="55.87217610012"/><rtept lon="37.44206409410415" lat="55.87225451716703"/><rtept lon="37.44179408506326" lat="55.87236510503361"/><rtept lon="37.44153480485847" lat="55.87246061248757"/><rtept lon="37.44125585512089" lat="55.87266469603956"/><rtept lon="37.44108955816197" lat="55.87275014942637"/><rtept lon="37.440724777735895" lat="55.8727330587577"/><rtept lon="37.440184759654215" lat="55.87270289874706"/><rtept lon="37.44004349664611" lat="55.872748138754204"/><rtept lon="37.43981640294951" lat="55.87285872521547"/><rtept lon="37.439364003695694" lat="55.87323471680542"/><rtept lon="37.43900279954833" lat="55.87335032846172"/><rtept lon="37.43861298517144" lat="55.87355641794181"/><rtept lon="37.43798534826192" lat="55.873932402753994"/><rtept lon="37.43742208436879" lat="55.87429632040028"/><rtept lon="37.4369643206969" lat="55.87453155815887"/><rtept lon="37.4363501806791" lat="55.8747541449429"/><rtept lon="37.43603189187602" lat="55.87461642123498"/><rtept lon="37.43566353517124" lat="55.87472901290958"/><rtept lon="37.43538994985174" lat="55.874834567312774"/><rtept lon="37.435102059417424" lat="55.87508789669833"/><rtept lon="37.434933974319165" lat="55.87552820335221"/><rtept lon="37.43478734689303" lat="55.87590316374031"/><rtept lon="37.434615685516086" lat="55.876137386484714"/><rtept lon="37.43424911695062" lat="55.876409806855314"/><rtept lon="37.43390400605736" lat="55.87664000560383"/><rtept lon="37.43352849679538" lat="55.876889302259485"/><rtept lon="37.43344266610691" lat="55.87706119539261"/><rtept lon="37.4332566996152" lat="55.87714161297027"/><rtept lon="37.43316550450865" lat="55.87730948411814"/><rtept lon="37.43327100472989" lat="55.87748338580276"/><rtept lon="37.433476640754385" lat="55.877521583755865"/><rtept lon="37.43363757329528" lat="55.87761406285448"/><rtept lon="37.433789565139485" lat="55.87773167181695"/><rtept lon="37.433939768844326" lat="55.877843249225954"/><rtept lon="37.43424554067206" lat="55.87786435842285"/><rtept lon="37.43444044786051" lat="55.877948795120865"/><rtept lon="37.43483383851596" lat="55.878099574473644"/><rtept lon="37.43493576245851" lat="55.87820310929308"/><rtept lon="37.43532736497469" lat="55.878359918782884"/><rtept lon="37.43518073754853" lat="55.878465463273685"/><rtept lon="37.43450303273745" lat="55.878209140439054"/><rtept lon="37.43417759137696" lat="55.878110631603505"/><rtept lon="37.43398983674591" lat="55.87820411448414"/><rtept lon="37.433718039565754" lat="55.878551909016544"/><rtept lon="37.433524920516675" lat="55.87850064470022"/><rtept lon="37.43335683541841" lat="55.87863131831353"/><rtept lon="37.43316014009065" lat="55.87870670673569"/><rtept lon="37.432940198951464" lat="55.87879717264179"/><rtept lon="37.432670189910674" lat="55.878811245098056"/><rtept lon="37.43261654573036" lat="55.878920809046555"/><rtept lon="37.43244309621397" lat="55.879318855267286"/><rtept lon="37.43230183320584" lat="55.87957416558245"/><rtept lon="37.432244612746864" lat="55.87980233518466"/><rtept lon="37.432155205779736" lat="55.88010588914024"/><rtept lon="37.43209798532071" lat="55.880173233562466"/><rtept lon="37.43172247605863" lat="55.88020137746803"/><rtept lon="37.431575848632505" lat="55.880266711455576"/><rtept lon="37.43150789933745" lat="55.88034611723024"/><rtept lon="37.43156154351767" lat="55.88067177970729"/><rtept lon="37.431590153747166" lat="55.88091602476306"/><rtept lon="37.43139917799315" lat="55.881301314905635"/><rtept lon="37.43105585523928" lat="55.881673204002425"/><rtept lon="37.430722910703736" lat="55.88185279235627"/><rtept lon="37.43032952004821" lat="55.88201662268642"/><rtept lon="37.43014534169585" lat="55.88220356933151"/><rtept lon="37.43006845170403" lat="55.88224879821627"/><rtept lon="37.43020256215477" lat="55.882377448995214"/><rtept lon="37.42930670434385" lat="55.88273525671624"/><rtept lon="37.42894907647519" lat="55.883164420598376"/><rtept lon="37.4268407113072" lat="55.886037227011265"/><rtept lon="37.426171947192785" lat="55.88698994329366"/><rtept lon="37.42570629511632" lat="55.88690868314361"/><rtept lon="37.42546489630498" lat="55.88711369540161"/><rtept lon="37.42533972655095" lat="55.8872001218055"/><rtept lon="37.42451360617436" lat="55.88710163588066"/><rtept lon="37.423347739322494" lat="55.8869257675271"/><rtept lon="37.422981170757105" lat="55.88689461361571"/><rtept lon="37.42204418574127" lat="55.88689963844079"/><rtept lon="37.42198875342161" lat="55.886869489461176"/><rtept lon="37.42147198115138" lat="55.88675894307237"/></rte><rte><rtept lon="37.40378011662801" lat="55.89758672748936"/><rtept lon="37.403701662014335" lat="55.8982593596031"/><rtept lon="37.40140032667951" lat="55.89822017746464"/><rtept lon="37.400025918076814" lat="55.89814507826079"/><rtept lon="37.3991018970712" lat="55.89814834344632"/><rtept lon="37.397556050608905" lat="55.89814181306851"/><rtept lon="37.39592303235372" lat="55.898096100431786"/><rtept lon="37.389040370013426" lat="55.897935780292975"/><rtept lon="37.388718008643025" lat="55.89788604161447"/><rtept lon="37.388343169933194" lat="55.897838696075794"/><rtept lon="37.388200789338" lat="55.897935019696874"/><rtept lon="37.388036916322214" lat="55.89812058911658"/><rtept lon="37.38741106755209" lat="55.898211009594306"/><rtept lon="37.38684243924094" lat="55.89834965390929"/><rtept lon="37.38638467556907" lat="55.89849231638733"/><rtept lon="37.38606102234794" lat="55.89859077327672"/><rtept lon="37.38619155651997" lat="55.8987324302071"/><rtept lon="37.38628275162647" lat="55.898767593188026"/><rtept lon="37.38645262486407" lat="55.898801751487945"/><rtept lon="37.38652057415915" lat="55.89890422620648"/><rtept lon="37.386445472306725" lat="55.8989966541508"/><rtept lon="37.38626308209368" lat="55.89908606792353"/><rtept lon="37.38616652256913" lat="55.8992146626588"/><rtept lon="37.386155793733074" lat="55.89934727552474"/><rtept lon="37.38608426815934" lat="55.89949596214337"/><rtept lon="37.38598055607741" lat="55.89966574548127"/><rtept lon="37.385787437028334" lat="55.899748125296625"/><rtept lon="37.3858142591185" lat="55.899812421615835"/><rtept lon="37.38568372494637" lat="55.89985361138259"/><rtept lon="37.38568730122505" lat="55.89993297689998"/><rtept lon="37.385710547036524" lat="55.90002741163007"/><rtept lon="37.38569981820047" lat="55.90011280453828"/><rtept lon="37.38559610611855" lat="55.90017006791217"/><rtept lon="37.385769555634816" lat="55.90031071442868"/><rtept lon="37.38605744606905" lat="55.90034286213344"/><rtept lon="37.38634533650331" lat="55.90035290828569"/><rtept lon="37.38652951485568" lat="55.90044332353842"/><rtept lon="37.38627917534768" lat="55.900906447230376"/><rtept lon="37.38570518261837" lat="55.90166491329852"/><rtept lon="37.38529412406141" lat="55.90170357285258"/><rtept lon="37.38433925765215" lat="55.9023384621678"/><rtept lon="37.38403527396381" lat="55.90240476329895"/><rtept lon="37.38352386611163" lat="55.902215905231785"/><rtept lon="37.382579728538275" lat="55.902085311340976"/><rtept lon="37.3819359983747" lat="55.902031064520756"/><rtept lon="37.38134233611275" lat="55.90216366772457"/><rtept lon="37.38112418311289" lat="55.902356544299316"/><rtept lon="37.38075940268681" lat="55.902812613195564"/><rtept lon="37.38029806273621" lat="55.902959277374755"/><rtept lon="37.37965790885132" lat="55.90310594100348"/><rtept lon="37.37897126334351" lat="55.903322921788934"/><rtept lon="37.378602906638854" lat="55.903604191356784"/><rtept lon="37.378338262016015" lat="55.904028100916854"/><rtept lon="37.3782273973768" lat="55.904405798399864"/><rtept lon="37.378313228065274" lat="55.90488796004044"/><rtept lon="37.37851349967169" lat="55.90516921821121"/><rtept lon="37.37901775496648" lat="55.90560315538107"/><rtept lon="37.37958995955632" lat="55.90586030102644"/><rtept lon="37.3803338255231" lat="55.90605315914171"/><rtept lon="37.380594893867205" lat="55.905791996879664"/><rtept lon="37.380841657096575" lat="55.90534801697463"/><rtept lon="37.38142459052251" lat="55.90531185549114"/><rtept lon="37.381710692817414" lat="55.90531587343542"/><rtept lon="37.382404490882514" lat="55.90504064327926"/><rtept lon="37.382958814078954" lat="55.90499041858777"/><rtept lon="37.38346306937375" lat="55.90511296672026"/><rtept lon="37.38372771399648" lat="55.90537815150541"/><rtept lon="37.38444319881474" lat="55.906054714454925"/><rtept lon="37.38505831874887" lat="55.906362080073194"/><rtept lon="37.38597026981392" lat="55.90659712271893"/><rtept lon="37.387093221321514" lat="55.90688841289529"/><rtept lon="37.38774410404246" lat="55.907049123779814"/><rtept lon="37.38819829143564" lat="55.90725804692985"/><rtept lon="37.38712540782972" lat="55.90759955348487"/><rtept lon="37.386717712059465" lat="55.90761160660245"/><rtept lon="37.38634935535473" lat="55.907886818430306"/><rtept lon="37.38575926937144" lat="55.90813189592534"/><rtept lon="37.385694896355105" lat="55.90827653109424"/><rtept lon="37.38618842281386" lat="55.908593923031894"/><rtept lon="37.38618484653515" lat="55.90883096088351"/><rtept lon="37.38621345676462" lat="55.90938337395228"/><rtept lon="37.38612762607615" lat="55.90974494914062"/><rtept lon="37.385862981453286" lat="55.91007839880701"/><rtept lon="37.38530150569953" lat="55.910229052835284"/><rtept lon="37.38506189502743" lat="55.91037970626283"/><rtept lon="37.384883081093115" lat="55.910578567904295"/><rtept lon="37.38445035137201" lat="55.91068502876621"/><rtept lon="37.38428226627375" lat="55.91078546326603"/><rtept lon="37.38417140163443" lat="55.911223354661125"/><rtept lon="37.383255874290654" lat="55.911203268002104"/><rtept lon="37.382111465111" lat="55.91117916400523"/><rtept lon="37.38033405460375" lat="55.911275579895985"/><rtept lon="37.38036266483325" lat="55.91145033309606"/><rtept lon="37.38022676624315" lat="55.91146238501174"/><rtept lon="37.380090867653095" lat="55.91211519148422"/><rtept lon="37.37991562999741" lat="55.912555076394945"/><rtept lon="37.37774840511342" lat="55.912201561969766"/><rtept lon="37.37750521816277" lat="55.912609308421224"/><rtept lon="37.37687221683509" lat="55.913310300880944"/><rtept lon="37.37614980854044" lat="55.91307730766242"/><rtept lon="37.37574926532752" lat="55.91346897647922"/><rtept lon="37.374848043098474" lat="55.91455960258568"/><rtept lon="37.37436882175453" lat="55.915041637452326"/><rtept lon="37.38006940998081" lat="55.916712645070376"/><rtept lon="37.38320223011011" lat="55.917610380100406"/><rtept lon="37.383770858421265" lat="55.9171424358003"/><rtept lon="37.38730064548479" lat="55.91817270908154"/><rtept lon="37.38747945941913" lat="55.91837153058714"/><rtept lon="37.388234054221975" lat="55.918688839555614"/><rtept lon="37.386771356239194" lat="55.91906237714414"/><rtept lon="37.38452902950276" lat="55.91960460269854"/><rtept lon="37.38236538089738" lat="55.920038377656866"/><rtept lon="37.38072744525892" lat="55.920391820313874"/><rtept lon="37.37941495098098" lat="55.92074525973456"/><rtept lon="37.37993708766921" lat="55.92113283447698"/><rtept lon="37.380831157340836" lat="55.92200837759354"/><rtept lon="37.38144627727481" lat="55.92255056176524"/><rtept lon="37.38222590602847" lat="55.923217237048554"/><rtept lon="37.3823474995037" lat="55.92348631356577"/><rtept lon="37.38185039676629" lat="55.923620851124156"/><rtept lon="37.38175026096305" lat="55.92381763655243"/><rtept lon="37.38130680240592" lat="55.92401241298448"/></rte><rte><rtept lon="37.60334687093045" lat="55.81772984339286"/><rtept lon="37.60333793023374" lat="55.81783253306942"/><rtept lon="37.603261040241975" lat="55.81797750626712"/><rtept lon="37.60324494698787" lat="55.81842953725658"/><rtept lon="37.603286074192766" lat="55.818693303467334"/><rtept lon="37.603101895840396" lat="55.81871142474414"/><rtept lon="37.60296599725037" lat="55.819277207005946"/><rtept lon="37.60290877679142" lat="55.8195379472923"/><rtept lon="37.60281579354558" lat="55.81976244428525"/><rtept lon="37.60282831052098" lat="55.81993962485003"/><rtept lon="37.602721149338414" lat="55.820135088719006"/><rtept lon="37.60269969166631" lat="55.82036461572437"/><rtept lon="37.602962548149755" lat="55.820406896866515"/><rtept lon="37.60280876816618" lat="55.821001848039124"/><rtept lon="37.602676445854705" lat="55.82142968375779"/><rtept lon="37.603107387436445" lat="55.821462903745825"/><rtept lon="37.6031288451086" lat="55.82174879579245"/><rtept lon="37.602991158379155" lat="55.8219340205034"/><rtept lon="37.602844530952865" lat="55.82242023114996"/><rtept lon="37.60271220864145" lat="55.823187283990116"/><rtept lon="37.60263889492827" lat="55.823751994286184"/><rtept lon="37.602458292854564" lat="55.824491842913716"/><rtept lon="37.602384979141455" lat="55.824906554600965"/><rtept lon="37.602211529625116" lat="55.825522574448605"/><rtept lon="37.602120334518695" lat="55.82611644051731"/><rtept lon="37.601971918953296" lat="55.82682604820356"/><rtept lon="37.60186105431401" lat="55.82751249319752"/><rtept lon="37.60167866410104" lat="55.82824925053568"/><rtept lon="37.60154097737166" lat="55.82887628843216"/><rtept lon="37.601422960174986" lat="55.82973379412559"/><rtept lon="37.6018342322239" lat="55.82989784528381"/><rtept lon="37.60228305519908" lat="55.83003270890571"/><rtept lon="37.60303765000197" lat="55.83027626738485"/><rtept lon="37.60372965992779" lat="55.83046346418171"/><rtept lon="37.605163563922154" lat="55.83083888253466"/><rtept lon="37.60593246383978" lat="55.831022050948796"/><rtept lon="37.60685428330565" lat="55.831336882555156"/><rtept lon="37.607165419551386" lat="55.83156030477451"/><rtept lon="37.6080845231738" lat="55.83230101065372"/><rtept lon="37.60905727097651" lat="55.83312019875604"/><rtept lon="37.60958298394342" lat="55.83344022085304"/><rtept lon="37.6099120015826" lat="55.833494563965324"/><rtept lon="37.609089457484764" lat="55.83430165083494"/><rtept lon="37.608713948222686" lat="55.83421711883357"/><rtept lon="37.60841711709169" lat="55.834050066954894"/><rtept lon="37.60840281197695" lat="55.834291587511125"/><rtept lon="37.60869249055048" lat="55.83525966728081"/><rtept lon="37.60847791382925" lat="55.83625791130274"/><rtept lon="37.60873540589466" lat="55.83681136212415"/><rtept lon="37.60823115059983" lat="55.83834287024712"/><rtept lon="37.608649575206165" lat="55.83928871228149"/><rtept lon="37.60848149010788" lat="55.83958252233942"/><rtept lon="37.60847433755053" lat="55.83977772367295"/><rtept lon="37.60876759240285" lat="55.839964874548976"/><rtept lon="37.60888203332072" lat="55.84043375394756"/><rtept lon="37.60927900025493" lat="55.84061888931624"/><rtept lon="37.60988339135292" lat="55.84077182656174"/><rtept lon="37.610126578303586" lat="55.840918726235465"/><rtept lon="37.60991200158235" lat="55.84275391908738"/><rtept lon="37.609854781123424" lat="55.8438244080727"/><rtept lon="37.60954006859898" lat="55.84408598922789"/><rtept lon="37.609371983500694" lat="55.84435964146119"/><rtept lon="37.60935410210725" lat="55.84470371616421"/><rtept lon="37.60943278023838" lat="55.844995473019104"/><rtept lon="37.609304034205664" lat="55.84515241717622"/><rtept lon="37.611785971614175" lat="55.84525302205768"/><rtept lon="37.61327012726896" lat="55.845166501858"/><rtept lon="37.614013993235744" lat="55.84520875591732"/><rtept lon="37.614686333628796" lat="55.845228876887795"/><rtept lon="37.61509760567776" lat="55.84519064703493"/><rtept lon="37.61544092843166" lat="55.84493913389739"/><rtept lon="37.61564120003813" lat="55.84468963125658"/><rtept lon="37.61578782746423" lat="55.84431336212953"/><rtept lon="37.61576279351342" lat="55.844174523936644"/><rtept lon="37.61608108231652" lat="55.84417049963378"/><rtept lon="37.61638506600486" lat="55.84407794055225"/><rtept lon="37.616635405512966" lat="55.84394111367849"/><rtept lon="37.61672838875881" lat="55.843772091572106"/><rtept lon="37.616399371119954" lat="55.84359501997715"/><rtept lon="37.61610253998901" lat="55.84340788664956"/><rtept lon="37.616145455333246" lat="55.843200630403025"/><rtept lon="37.61555894562859" lat="55.84265330759569"/><rtept lon="37.61552318284175" lat="55.84248226762063"/><rtept lon="37.615487420054805" lat="55.84212207510467"/><rtept lon="37.61599167534962" lat="55.84188664020064"/><rtept lon="37.61626704880849" lat="55.84170956001313"/><rtept lon="37.616453015300166" lat="55.841466073432706"/><rtept lon="37.61755093285698" lat="55.84167333896588"/><rtept lon="37.618498646708915" lat="55.84196109412213"/><rtept lon="37.619238936397046" lat="55.8420053639573"/><rtept lon="37.62019022652759" lat="55.84213616089546"/><rtept lon="37.62109860131398" lat="55.84251647565436"/><rtept lon="37.62214287469042" lat="55.842906847758016"/><rtept lon="37.62285455414907" lat="55.84307587363599"/><rtept lon="37.62355192849294" lat="55.84305172712718"/><rtept lon="37.62424572655822" lat="55.84296721422135"/><rtept lon="37.62470349023011" lat="55.842876664481494"/><rtept lon="37.62490018555785" lat="55.84281026120433"/><rtept lon="37.62457116791869" lat="55.84252251235365"/><rtept lon="37.62409552285338" lat="55.842268969635725"/><rtept lon="37.62390598008299" lat="55.842049633716265"/><rtept lon="37.62336238572262" lat="55.84162303186765"/><rtept lon="37.62298330018173" lat="55.84134533567907"/><rtept lon="37.62215002724776" lat="55.841025378899715"/><rtept lon="37.621474110576" lat="55.84088451659181"/><rtept lon="37.620086514445745" lat="55.84104952666608"/><rtept lon="37.619256817790436" lat="55.840912689088"/><rtept lon="37.618137442561604" lat="55.8406591358203"/><rtept lon="37.6182518834796" lat="55.840335148680936"/><rtept lon="37.61924608895446" lat="55.840476012987715"/><rtept lon="37.620869719478236" lat="55.8406329754623"/><rtept lon="37.622307383510226" lat="55.84058669171996"/><rtept lon="37.62379511544375" lat="55.84057059300761"/><rtept lon="37.62486084649232" lat="55.84049814874159"/><rtept lon="37.625068270656136" lat="55.84075371538644"/><rtept lon="37.62657388398315" lat="55.84119240064804"/><rtept lon="37.62771114060546" lat="55.84139765535082"/><rtept lon="37.62825831124446" lat="55.8414680856289"/><rtept lon="37.62894495675227" lat="55.8415143683175"/><rtept lon="37.63047918030878" lat="55.841397655337985"/><rtept lon="37.63085468957089" lat="55.841580773811145"/><rtept lon="37.63179525086541" lat="55.841790050999194"/><rtept lon="37.633265101405556" lat="55.842176405917975"/><rtept lon="37.63384088227411" lat="55.84223878577874"/><rtept lon="37.63412340829034" lat="55.84240580232403"/><rtept lon="37.63462766358513" lat="55.842615075058475"/><rtept lon="37.634949528666915" lat="55.84261105059346"/><rtept lon="37.635943734141776" lat="55.842641234070726"/><rtept lon="37.63589208573708" lat="55.843657755739194"/><rtept lon="37.635766915983034" lat="55.84442841230949"/><rtept lon="37.635573796934004" lat="55.84559945898319"/><rtept lon="37.6354843899668" lat="55.84619301722435"/><rtept lon="37.6354665085734" lat="55.8465008591005"/><rtept lon="37.635298423475085" lat="55.846595424407596"/><rtept lon="37.63507311791783" lat="55.846911311120415"/><rtept lon="37.63436859101657" lat="55.84811447383653"/><rtept lon="37.6340467259347" lat="55.84882468443725"/><rtept lon="37.63417547196742" lat="55.84924517126068"/><rtept lon="37.634400777524675" lat="55.849436300124744"/><rtept lon="37.63467257470483" lat="55.85073192774161"/><rtept lon="37.634901456540724" lat="55.8512771245294"/><rtept lon="37.63528411836012" lat="55.85253647963693"/><rtept lon="37.635842017835195" lat="55.852665229288306"/><rtept lon="37.63590639085157" lat="55.8529971600011"/><rtept lon="37.63641422242496" lat="55.85333914624259"/><rtept lon="37.63649290055609" lat="55.85351818489646"/><rtept lon="37.63752286881772" lat="55.85405127260579"/><rtept lon="37.637955598538795" lat="55.85437916819437"/><rtept lon="37.63815587014519" lat="55.85485994258542"/><rtept lon="37.63832395524332" lat="55.85547347445234"/><rtept lon="37.6379591748173" lat="55.855759115480986"/><rtept lon="37.63781969994844" lat="55.85600854676088"/><rtept lon="37.6377481743747" lat="55.85632837968646"/><rtept lon="37.637558631604335" lat="55.85653154261818"/><rtept lon="37.63719742745702" lat="55.856795049394385"/><rtept lon="37.63708298653899" lat="55.85695395718707"/><rtept lon="37.63723319024383" lat="55.857223495505835"/><rtept lon="37.63737266511262" lat="55.85738441300997"/><rtept lon="37.63776963204673" lat="55.857806818267626"/><rtept lon="37.638059310620356" lat="55.857991870549625"/><rtept lon="37.63857787102991" lat="55.85804215634288"/><rtept lon="37.639289550488485" lat="55.85802204202704"/><rtept lon="37.63999050111106" lat="55.857989859110134"/><rtept lon="37.63994400948811" lat="55.85809847634735"/><rtept lon="37.63913219422617" lat="55.858223184644636"/><rtept lon="37.63907855004588" lat="55.85857115891479"/><rtept lon="37.639153651898354" lat="55.85895935772449"/><rtept lon="37.6392180249147" lat="55.85929726854885"/><rtept lon="37.63864582032486" lat="55.85933146174165"/><rtept lon="37.63856356591507" lat="55.859067972239906"/><rtept lon="37.63850634545609" lat="55.85887890233132"/><rtept lon="37.63872092217728" lat="55.858868845395385"/></rte><rte><rtept lon="37.63845060398062" lat="55.85895908086015"/><rtept lon="37.63797495891528" lat="55.85895908086015"/><rtept lon="37.63758872081715" lat="55.85873682242755"/><rtept lon="37.63746355106315" lat="55.85863424118185"/><rtept lon="37.63750110198924" lat="55.858293307434074"/><rtept lon="37.63759766151376" lat="55.858060988030786"/><rtept lon="37.63768170406284" lat="55.857873924633836"/><rtept lon="37.63749216129245" lat="55.85772004920582"/><rtept lon="37.63729367782535" lat="55.85750582948925"/><rtept lon="37.6370129399484" lat="55.857008996091245"/><rtept lon="37.63704512645661" lat="55.85677968621382"/><rtept lon="37.637451034087555" lat="55.85648298940136"/><rtept lon="37.637638788718554" lat="55.85623758421588"/><rtept lon="37.637701373595604" lat="55.85600022362748"/><rtept lon="37.6378050856775" lat="55.85571659592375"/><rtept lon="37.63811801006253" lat="55.85548828416831"/><rtept lon="37.638126950759286" lat="55.855237843733654"/><rtept lon="37.638069730300316" lat="55.854991424862725"/><rtept lon="37.63798032333315" lat="55.85468264470892"/><rtept lon="37.63783548404644" lat="55.85440303058643"/><rtept lon="37.63746712734169" lat="55.85413749588628"/><rtept lon="37.63706658412877" lat="55.85389408747069"/><rtept lon="37.63652120162901" lat="55.85357624607948"/><rtept lon="37.63636384536682" lat="55.85336904427097"/><rtept lon="37.636195760268585" lat="55.85328656556862"/><rtept lon="37.63591323425233" lat="55.85304415765189"/><rtept lon="37.635775547522904" lat="55.85268607512297"/><rtept lon="37.63530169059694" lat="55.85259051882713"/><rtept lon="37.634701391554586" lat="55.85074970068785"/><rtept lon="37.63441528925959" lat="55.84950235866836"/><rtept lon="37.634175632060405" lat="55.84922466163338"/><rtept lon="37.63405761486377" lat="55.84882630559182"/><rtept lon="37.63437411552751" lat="55.848235805623375"/><rtept lon="37.63468167549428" lat="55.84766541634308"/><rtept lon="37.63493380314165" lat="55.84722378643102"/><rtept lon="37.63504824405949" lat="55.847110108663"/><rtept lon="37.63519487148565" lat="55.84710004866803"/><rtept lon="37.63518771892828" lat="55.84691092027572"/><rtept lon="37.63493737942023" lat="55.84697429851014"/><rtept lon="37.63401469951903" lat="55.84698033452065"/><rtept lon="37.63381263977322" lat="55.8469763105095"/><rtept lon="37.633617732584796" lat="55.847434039091"/><rtept lon="37.63332447773251" lat="55.84781530777606"/><rtept lon="37.63298830753598" lat="55.848062778320326"/><rtept lon="37.632643196642746" lat="55.84829515775036"/><rtept lon="37.63235709434783" lat="55.84849132112367"/><rtept lon="37.63171515232359" lat="55.84880618640182"/><rtept lon="37.63159355884828" lat="55.84890778775213"/><rtept lon="37.6315363383893" lat="55.84889571631854"/><rtept lon="37.63148269420902" lat="55.848985246028136"/><rtept lon="37.63152918583189" lat="55.84916631671146"/><rtept lon="37.631623957217094" lat="55.849221643697696"/><rtept lon="37.63157746559415" lat="55.84928099437682"/><rtept lon="37.631446931422126" lat="55.84923874475016"/><rtept lon="37.6311447358731" lat="55.84929004786224"/><rtept lon="37.63105175262731" lat="55.84950934274475"/><rtept lon="37.63053676849644" lat="55.84951537836633"/><rtept lon="37.62971780067724" lat="55.848956073423324"/><rtept lon="37.62991270786571" lat="55.848846424560286"/><rtept lon="37.63006469970987" lat="55.84873174560726"/><rtept lon="37.630418751299835" lat="55.84866535237388"/><rtept lon="37.6308371759062" lat="55.84856676826539"/><rtept lon="37.63113937145515" lat="55.84839676039097"/><rtept lon="37.63094267612723" lat="55.84840480808559"/><rtept lon="37.63077816730768" lat="55.848240835326486"/><rtept lon="37.63042769199637" lat="55.847857558860674"/><rtept lon="37.63060471779137" lat="55.84772275731394"/><rtept lon="37.63052067524216" lat="55.84752357206677"/><rtept lon="37.631493423044915" lat="55.847487356459474"/><rtept lon="37.63172230488084" lat="55.84746723666299"/><rtept lon="37.63178488975784" lat="55.84730426592609"/><rtept lon="37.631783101618524" lat="55.84723384625956"/><rtept lon="37.63183853393818" lat="55.84748534446118"/><rtept lon="37.63141474491381" lat="55.84757286544592"/><rtept lon="37.63146660095471" lat="55.848054730375644"/><rtept lon="37.6316275334956" lat="55.848061772198704"/><rtept lon="37.631561372339895" lat="55.84819959047796"/><rtept lon="37.63081929451248" lat="55.84851747601798"/><rtept lon="37.630581471979795" lat="55.84867440588833"/><rtept lon="37.63009152179985" lat="55.84869754292532"/><rtept lon="37.62967309719353" lat="55.848942995925235"/><rtept lon="37.630586836397946" lat="55.84956265721609"/><rtept lon="37.63056895500448" lat="55.85003443814067"/><rtept lon="37.63037762409484" lat="55.8503352080499"/><rtept lon="37.630225632250685" lat="55.85052331379901"/><rtept lon="37.630171988070394" lat="55.85073153673742"/><rtept lon="37.63023099666871" lat="55.85091259925704"/><rtept lon="37.63035616642271" lat="55.85112484368762"/><rtept lon="37.63051888710297" lat="55.85120933877035"/><rtept lon="37.630601141512734" lat="55.85134915761985"/><rtept lon="37.630649421274946" lat="55.85158956438226"/><rtept lon="37.63071021801263" lat="55.851784705180144"/><rtept lon="37.63088724380763" lat="55.85226651767183"/><rtept lon="37.629683826029506" lat="55.85233994576572"/><rtept lon="37.62878439193978" lat="55.85232888126"/><rtept lon="37.62862882381691" lat="55.852477748804326"/><rtept lon="37.628553721964515" lat="55.852655785581995"/><rtept lon="37.6285072303416" lat="55.85285092100339"/><rtept lon="37.62865922218578" lat="55.85304102620862"/><rtept lon="37.62871823078412" lat="55.853166756655625"/></rte><rte><rtept lon="37.628749115866654" lat="55.85316897804021"/><rtept lon="37.628715588253954" lat="55.85311239939286"/><rtept lon="37.62863199273964" lat="55.8529957213814"/><rtept lon="37.62849448155158" lat="55.85283108024827"/><rtept lon="37.62851504515404" lat="55.85275564137472"/><rtept lon="37.628565113055664" lat="55.852575593329085"/><rtept lon="37.6287481455122" lat="55.85234383104022"/><rtept lon="37.63003560583924" lat="55.85231264925793"/><rtept lon="37.63084384482242" lat="55.85224927975864"/><rtept lon="37.63063642065858" lat="55.851667884958346"/><rtept lon="37.63054701369135" lat="55.851250442119806"/><rtept lon="37.630380716732425" lat="55.85112369955149"/><rtept lon="37.6302376655849" lat="55.85088328988219"/><rtept lon="37.63018044512588" lat="55.85074548115935"/><rtept lon="37.63025375883906" lat="55.85048998047067"/><rtept lon="37.63042899649469" lat="55.85028175622617"/><rtept lon="37.63057204764206" lat="55.85005542424858"/><rtept lon="37.63059708159285" lat="55.84953837646216"/><rtept lon="37.631054845264664" lat="55.84950417460165"/><rtept lon="37.63117643873998" lat="55.84928890345463"/><rtept lon="37.63150188010045" lat="55.84925268949915"/><rtept lon="37.631562676838136" lat="55.84917321986697"/><rtept lon="37.63149293940374" lat="55.848984101598674"/><rtept lon="37.6315197614939" lat="55.84889457188644"/><rtept lon="37.631628837993794" lat="55.84888853616805"/><rtept lon="37.63238164465734" lat="55.84850928996216"/><rtept lon="37.63271781485384" lat="55.84822661332029"/><rtept lon="37.63323637526339" lat="55.847873516111136"/><rtept lon="37.63354393523044" lat="55.84751739771443"/><rtept lon="37.63383182566465" lat="55.84696611192976"/><rtept lon="37.634813514164144" lat="55.84697114193862"/><rtept lon="37.63504239600006" lat="55.84681319914219"/><rtept lon="37.63514968436056" lat="55.846725676420505"/><rtept lon="37.63545724432764" lat="55.846611997195964"/><rtept lon="37.6355055240899" lat="55.846442986758234"/><rtept lon="37.63557704966362" lat="55.846290071910374"/><rtept lon="37.63552876990133" lat="55.846154258880155"/><rtept lon="37.63564499895864" lat="55.845362509715734"/><rtept lon="37.63586851637653" lat="55.84445504666597"/><rtept lon="37.63589176218793" lat="55.844094872505764"/><rtept lon="37.63595077078622" lat="55.84361698262498"/><rtept lon="37.63596686404025" lat="55.843052561906894"/><rtept lon="37.63547154944217" lat="55.84297509175777"/><rtept lon="37.63477953951631" lat="55.8426742646376"/><rtept lon="37.63419839422986" lat="55.84248209625464"/><rtept lon="37.63381930868908" lat="55.84225873704749"/><rtept lon="37.633404460361426" lat="55.842204406228284"/><rtept lon="37.632874590217305" lat="55.8420618565278"/><rtept lon="37.631633621513075" lat="55.84174391796079"/><rtept lon="37.63098631507074" lat="55.8416070828307"/><rtept lon="37.63065014487422" lat="55.84149439471861"/><rtept lon="37.630281788169505" lat="55.84126298060282"/><rtept lon="37.62987766867788" lat="55.8410033926813"/><rtept lon="37.629312616645436" lat="55.84059287800688"/><rtept lon="37.62905870085878" lat="55.840450001774"/><rtept lon="37.62914453154725" lat="55.840260840888384"/><rtept lon="37.62853656417057" lat="55.84005960488905"/><rtept lon="37.62777481681029" lat="55.83982616981301"/><rtept lon="37.62760315543334" lat="55.839578646600515"/><rtept lon="37.627174001991" lat="55.83920031538381"/><rtept lon="37.626769882499374" lat="55.83889241544037"/><rtept lon="37.62616549140132" lat="55.838552313970965"/><rtept lon="37.62574349051696" lat="55.83835106907833"/><rtept lon="37.62511764174678" lat="55.83815988547352"/><rtept lon="37.62425575858334" lat="55.838194097345855"/><rtept lon="37.62415204650142" lat="55.83858652548379"/><rtept lon="37.6240590632556" lat="55.83880990587819"/><rtept lon="37.62380872374745" lat="55.83907755816056"/><rtept lon="37.62170944815836" lat="55.838667023058974"/><rtept lon="37.62017164832309" lat="55.838483890797285"/><rtept lon="37.619291883766195" lat="55.83834905660508"/><rtept lon="37.61856947547149" lat="55.83810957381616"/><rtept lon="37.61815105086518" lat="55.83788820185936"/><rtept lon="37.61710320121005" lat="55.83737904154903"/><rtept lon="37.616849285423164" lat="55.837129490173986"/><rtept lon="37.616570335685616" lat="55.83710533994982"/><rtept lon="37.61577997809588" lat="55.836972513482614"/><rtept lon="37.61518631583386" lat="55.83668270869347"/><rtept lon="37.61471782332595" lat="55.836338562696675"/><rtept lon="37.61430297499826" lat="55.83608296690036"/><rtept lon="37.613702160178924" lat="55.835849507854135"/><rtept lon="37.6133373797529" lat="55.8356885007825"/><rtept lon="37.61268292075327" lat="55.83543088809578"/><rtept lon="37.61203919058965" lat="55.834907607043185"/><rtept lon="37.61177812224552" lat="55.834521179577614"/><rtept lon="37.61149559622928" lat="55.834321926402474"/><rtept lon="37.61095915442631" lat="55.83409248208962"/><rtept lon="37.60994349127932" lat="55.833762401915166"/><rtept lon="37.610222300865146" lat="55.83332104207799"/><rtept lon="37.61058529315177" lat="55.8330020253558"/><rtept lon="37.61136604538436" lat="55.83238622299001"/><rtept lon="37.61138392677788" lat="55.83209034552449"/><rtept lon="37.6115448593187" lat="55.8310779042294"/><rtept lon="37.61172367325299" lat="55.829938624524274"/><rtept lon="37.61156989326944" lat="55.82984603139629"/><rtept lon="37.60983897438506" lat="55.829894340865636"/><rtept lon="37.60973526230314" lat="55.82936293331861"/><rtept lon="37.60962118567292" lat="55.827945791231215"/><rtept lon="37.609764236820396" lat="55.82722714540195"/><rtept lon="37.60957469405008" lat="55.82594482266881"/><rtept lon="37.6093028968699" lat="55.824128964954376"/><rtept lon="37.6091669982798" lat="55.82361962372112"/><rtept lon="37.60968555868937" lat="55.8235531874152"/><rtept lon="37.61002888144326" lat="55.82332166605844"/><rtept lon="37.61006464423016" lat="55.823019679608954"/><rtept lon="37.61000384749247" lat="55.82217813160977"/><rtept lon="37.60986794890242" lat="55.821831843394946"/><rtept lon="37.61025418700052" lat="55.82172312435708"/><rtept lon="37.610250610721714" lat="55.82138488541288"/><rtept lon="37.608784336460275" lat="55.821352672026684"/><rtept lon="37.60864128531288" lat="55.820990269580065"/><rtept lon="37.608508963001434" lat="55.82063994399881"/><rtept lon="37.608494657886666" lat="55.82015270429683"/><rtept lon="37.608165640247535" lat="55.81971982091464"/><rtept lon="37.60772575796909" lat="55.8191540451034"/><rtept lon="37.60756482542815" lat="55.81903927817855"/><rtept lon="37.60789741934602" lat="55.81876544696473"/><rtept lon="37.608026165378725" lat="55.81865873280587"/><rtept lon="37.60847320021454" lat="55.81837281795054"/><rtept lon="37.608870167148794" lat="55.818175495193834"/><rtept lon="37.60936369360753" lat="55.81803857677651"/><rtept lon="37.6113699859507" lat="55.81810300902681"/><rtept lon="37.615207332981484" lat="55.818100995507706"/><rtept lon="37.61703481139016" lat="55.818145292611575"/><rtept lon="37.61743177832432" lat="55.81688683207596"/><rtept lon="37.617875236881446" lat="55.815098741052836"/><rtept lon="37.618300814045185" lat="55.813356883865126"/><rtept lon="37.61844744147126" lat="55.812327842427784"/><rtept lon="37.618536848438346" lat="55.81165321139099"/><rtept lon="37.61850466193016" lat="55.81137731412364"/><rtept lon="37.618651289356315" lat="55.81123433009561"/><rtept lon="37.61843671263506" lat="55.81095037432877"/><rtept lon="37.618708509815264" lat="55.810849680297004"/><rtept lon="37.61776079596335" lat="55.809661470959185"/><rtept lon="37.6168881839638" lat="55.808507463293864"/><rtept lon="37.615983385456126" lat="55.8071922957355"/><rtept lon="37.615736622226756" lat="55.806670647237596"/><rtept lon="37.61569013060384" lat="55.80615503410172"/><rtept lon="37.61574019850546" lat="55.80541382820616"/><rtept lon="37.615919012439754" lat="55.80466253711597"/><rtept lon="37.615997690570865" lat="55.80380044790028"/><rtept lon="37.615958351505284" lat="55.80316595410289"/><rtept lon="37.615997690570865" lat="55.80300279687181"/><rtept lon="37.616287369144466" lat="55.80296049673849"/><rtept lon="37.616412538898516" lat="55.802646265731894"/><rtept lon="37.616290945423174" lat="55.80244483425987"/><rtept lon="37.61627306402978" lat="55.80176197377588"/><rtept lon="37.61637319983301" lat="55.801473919879136"/><rtept lon="37.61710991324243" lat="55.80115967681734"/><rtept lon="37.617310184848854" lat="55.80096629520959"/><rtept lon="37.61911620558553" lat="55.801016655089825"/></rte><rte><rtept lon="37.304853180554744" lat="55.81428329271043"/><rtept lon="37.30611665264311" lat="55.81385496328036"/><rtept lon="37.30692489162624" lat="55.814225487293875"/><rtept lon="37.30772597805205" lat="55.814326172554956"/><rtept lon="37.30848414913359" lat="55.81429193959554"/><rtept lon="37.30867726818267" lat="55.81416708972255"/><rtept lon="37.30943186298551" lat="55.813973772990295"/><rtept lon="37.31045110241116" lat="55.81430804922092"/><rtept lon="37.31150610462368" lat="55.8146745415273"/><rtept lon="37.312457394754254" lat="55.81464030886925"/><rtept lon="37.31311185375391" lat="55.814740993052595"/><rtept lon="37.313605380212564" lat="55.81478126664629"/><rtept lon="37.31419546619583" lat="55.81476515721126"/><rtept lon="37.31464965358898" lat="55.81465239097232"/><rtept lon="37.31568319812937" lat="55.81467252782363"/><rtept lon="37.31687409893197" lat="55.81468460992303"/><rtept lon="37.316945624505756" lat="55.815111508569174"/><rtept lon="37.317349743997305" lat="55.81530280596776"/><rtept lon="37.31691303513093" lat="55.815522894054666"/><rtept lon="37.31706145069643" lat="55.8155963918603"/><rtept lon="37.3172509934668" lat="55.81552994179548"/><rtept lon="37.317610409474796" lat="55.81551886677362"/><rtept lon="37.317664053655086" lat="55.81585010923516"/><rtept lon="37.31812002918761" lat="55.815879306763705"/><rtept lon="37.31821658871211" lat="55.815674923595516"/><rtept lon="37.31879058144132" lat="55.815702107625015"/><rtept lon="37.31901409885916" lat="55.815765536946635"/><rtept lon="37.31943609974416" lat="55.81580983673317"/><rtept lon="37.32127430698907" lat="55.81580379584342"/><rtept lon="37.321866181111645" lat="55.81577258461787"/><rtept lon="37.32210936806227" lat="55.81564069178935"/><rtept lon="37.32259037754559" lat="55.81555813269513"/><rtept lon="37.32281747124219" lat="55.815503764415084"/><rtept lon="37.32297303936506" lat="55.81552490764417"/></rte></gpx>